[
  {
    "postal": "L8P9J6",
    "result": []
  },
  {
    "postal": "L8P9Z5",
    "result": []
  },
  {
    "postal": "L8P7H8",
    "result": []
  },
  {
    "postal": "L8P0P6",
    "result": []
  },
  {
    "postal": "L8P0S7",
    "result": []
  },
  {
    "postal": "L8P8B9",
    "result": []
  },
  {
    "postal": "L8P2A6",
    "result": [
      {
        "electoralDistricts": [
          {
            "election": null,
            "id": 36,
            "name": "Hamilton Centre"
          }
        ],
        "pollDivisionIds": [
          10138592
        ],
        "postalCode": "L8P2A6",
        "streetName": "MELBOURNE",
        "streetDirectionId": null,
        "streetTypeId": "ST",
        "placeName": "HAMILTON",
        "streetNameDisplayText": "MELBOURNE ST, HAMILTON"
      }
    ]
  },
  {
    "postal": "L8P7V2",
    "result": []
  },
  {
    "postal": "L8P9P4",
    "result": []
  },
  {
    "postal": "L8P6G0",
    "result": []
  },
  {
    "postal": "L8P2K0",
    "result": []
  },
  {
    "postal": "L8P7N6",
    "result": []
  },
  {
    "postal": "L8P5R3",
    "result": []
  },
  {
    "postal": "L8P7K0",
    "result": []
  },
  {
    "postal": "L8P3R2",
    "result": [
      {
        "electoralDistricts": [
          {
            "election": null,
            "id": 36,
            "name": "Hamilton Centre"
          }
        ],
        "pollDivisionIds": [
          10138595
        ],
        "postalCode": "L8P3R2",
        "streetName": "HESS",
        "streetDirectionId": "S",
        "streetTypeId": "ST",
        "placeName": "HAMILTON",
        "streetNameDisplayText": "HESS ST S, HAMILTON"
      }
    ]
  },
  {
    "postal": "L8P0J1",
    "result": []
  },
  {
    "postal": "L8P0B0",
    "result": []
  },
  {
    "postal": "L8P5Z2",
    "result": []
  },
  {
    "postal": "L8P7P3",
    "result": []
  },
  {
    "postal": "L8P2K3",
    "result": [
      {
        "electoralDistricts": [
          {
            "election": null,
            "id": 36,
            "name": "Hamilton Centre"
          }
        ],
        "pollDivisionIds": [
          10138595
        ],
        "postalCode": "L8P2K3",
        "streetName": "MARKLAND",
        "streetDirectionId": null,
        "streetTypeId": "ST",
        "placeName": "HAMILTON",
        "streetNameDisplayText": "MARKLAND ST, HAMILTON"
      }
    ]
  },
  {
    "postal": "L8P7Y6",
    "result": []
  },
  {
    "postal": "L8P1L9",
    "result": [
      {
        "electoralDistricts": [
          {
            "election": null,
            "id": 36,
            "name": "Hamilton Centre"
          }
        ],
        "pollDivisionIds": [
          10138597
        ],
        "postalCode": "L8P1L9",
        "streetName": "JACKSON",
        "streetDirectionId": "W",
        "streetTypeId": "ST",
        "placeName": "HAMILTON",
        "streetNameDisplayText": "JACKSON ST W, HAMILTON"
      }
    ]
  },
  {
    "postal": "L8P8T0",
    "result": []
  },
  {
    "postal": "L8P3K8",
    "result": [
      {
        "electoralDistricts": [
          {
            "election": null,
            "id": 36,
            "name": "Hamilton Centre"
          }
        ],
        "pollDivisionIds": [
          10138596
        ],
        "postalCode": "L8P3K8",
        "streetName": "CAROLINE",
        "streetDirectionId": "S",
        "streetTypeId": "ST",
        "placeName": "HAMILTON",
        "streetNameDisplayText": "CAROLINE ST S, HAMILTON"
      }
    ]
  },
  {
    "postal": "L8P5W9",
    "result": []
  },
  {
    "postal": "L8P6T9",
    "result": []
  },
  {
    "postal": "L8P4H1",
    "result": [
      {
        "electoralDistricts": [
          {
            "election": null,
            "id": 36,
            "name": "Hamilton Centre"
          }
        ],
        "pollDivisionIds": [
          10138591
        ],
        "postalCode": "L8P4H1",
        "streetName": "BEULAH",
        "streetDirectionId": null,
        "streetTypeId": "AVE",
        "placeName": "HAMILTON",
        "streetNameDisplayText": "BEULAH AVE, HAMILTON"
      }
    ]
  },
  {
    "postal": "L8P7A2",
    "result": []
  },
  {
    "postal": "L8P5G0",
    "result": []
  },
  {
    "postal": "L8P8V5",
    "result": []
  },
  {
    "postal": "L8P2Y8",
    "result": [
      {
        "electoralDistricts": [
          {
            "election": null,
            "id": 36,
            "name": "Hamilton Centre"
          }
        ],
        "pollDivisionIds": [
          10138598
        ],
        "postalCode": "L8P2Y8",
        "streetName": "JAMES",
        "streetDirectionId": "S",
        "streetTypeId": "ST",
        "placeName": "HAMILTON",
        "streetNameDisplayText": "JAMES ST S, HAMILTON"
      }
    ]
  },
  {
    "postal": "L8P2B6",
    "result": [
      {
        "electoralDistricts": [
          {
            "election": null,
            "id": 36,
            "name": "Hamilton Centre"
          }
        ],
        "pollDivisionIds": [
          10138592
        ],
        "postalCode": "L8P2B6",
        "streetName": "CHATHAM",
        "streetDirectionId": null,
        "streetTypeId": "ST",
        "placeName": "HAMILTON",
        "streetNameDisplayText": "CHATHAM ST, HAMILTON"
      }
    ]
  },
  {
    "postal": "L8P4W8",
    "result": []
  },
  {
    "postal": "L8P8H7",
    "result": []
  },
  {
    "postal": "L8P5P1",
    "result": []
  },
  {
    "postal": "L8P2B8",
    "result": [
      {
        "electoralDistricts": [
          {
            "election": null,
            "id": 36,
            "name": "Hamilton Centre"
          }
        ],
        "pollDivisionIds": [
          10138595
        ],
        "postalCode": "L8P2B8",
        "streetName": "CHARLTON",
        "streetDirectionId": "W",
        "streetTypeId": "AVE",
        "placeName": "HAMILTON",
        "streetNameDisplayText": "CHARLTON AVE W, HAMILTON"
      }
    ]
  },
  {
    "postal": "L8P0P2",
    "result": []
  },
  {
    "postal": "L8P9M1",
    "result": []
  },
  {
    "postal": "L8P3G0",
    "result": []
  },
  {
    "postal": "L8P9Z2",
    "result": []
  },
  {
    "postal": "L8P2A0",
    "result": []
  },
  {
    "postal": "L8P6Y0",
    "result": []
  },
  {
    "postal": "L8P2Z8",
    "result": []
  },
  {
    "postal": "L8P7Y3",
    "result": []
  },
  {
    "postal": "L8P6Z5",
    "result": []
  },
  {
    "postal": "L8P6E0",
    "result": []
  },
  {
    "postal": "L8P9B7",
    "result": []
  },
  {
    "postal": "L8P9S5",
    "result": []
  },
  {
    "postal": "L8P3X3",
    "result": [
      {
        "electoralDistricts": [
          {
            "election": null,
            "id": 36,
            "name": "Hamilton Centre"
          }
        ],
        "pollDivisionIds": [
          10138592
        ],
        "postalCode": "L8P3X3",
        "streetName": "PEARL",
        "streetDirectionId": "S",
        "streetTypeId": "ST",
        "placeName": "HAMILTON",
        "streetNameDisplayText": "PEARL ST S, HAMILTON"
      }
    ]
  },
  {
    "postal": "L8P7R5",
    "result": []
  },
  {
    "postal": "L8P2X3",
    "result": [
      {
        "electoralDistricts": [
          {
            "election": null,
            "id": 36,
            "name": "Hamilton Centre"
          }
        ],
        "pollDivisionIds": [
          10138591
        ],
        "postalCode": "L8P2X3",
        "streetName": "HILLCREST",
        "streetDirectionId": null,
        "streetTypeId": "AVE",
        "placeName": "HAMILTON",
        "streetNameDisplayText": "HILLCREST AVE, HAMILTON"
      }
    ]
  },
  {
    "postal": "L8P8Z9",
    "result": []
  },
  {
    "postal": "L8P0N4",
    "result": []
  },
  {
    "postal": "L8P1K1",
    "result": [
      {
        "electoralDistricts": [
          {
            "election": null,
            "id": 36,
            "name": "Hamilton Centre"
          }
        ],
        "pollDivisionIds": [
          10138592
        ],
        "postalCode": "L8P1K1",
        "streetName": "MAIN",
        "streetDirectionId": "W",
        "streetTypeId": "ST",
        "placeName": "HAMILTON",
        "streetNameDisplayText": "MAIN ST W, HAMILTON"
      }
    ]
  },
  {
    "postal": "L8P1S3",
    "result": [
      {
        "electoralDistricts": [
          {
            "election": null,
            "id": 36,
            "name": "Hamilton Centre"
          }
        ],
        "pollDivisionIds": [
          10138592
        ],
        "postalCode": "L8P1S3",
        "streetName": "HUNTER",
        "streetDirectionId": "W",
        "streetTypeId": "ST",
        "placeName": "HAMILTON",
        "streetNameDisplayText": "HUNTER ST W, HAMILTON"
      }
    ]
  },
  {
    "postal": "L8P6M4",
    "result": []
  },
  {
    "postal": "L8P9A9",
    "result": []
  },
  {
    "postal": "L8P9Z9",
    "result": []
  },
  {
    "postal": "L8P6T4",
    "result": []
  },
  {
    "postal": "L8P0B2",
    "result": [
      {
        "electoralDistricts": [
          {
            "election": null,
            "id": 36,
            "name": "Hamilton Centre"
          }
        ],
        "pollDivisionIds": [
          10138606
        ],
        "postalCode": "L8P0B2",
        "streetName": "KING",
        "streetDirectionId": "E",
        "streetTypeId": "ST",
        "placeName": "HAMILTON",
        "streetNameDisplayText": "KING ST E, HAMILTON"
      }
    ]
  },
  {
    "postal": "L8P2L9",
    "result": [
      {
        "electoralDistricts": [
          {
            "election": null,
            "id": 36,
            "name": "Hamilton Centre"
          }
        ],
        "pollDivisionIds": [
          10138592
        ],
        "postalCode": "L8P2L9",
        "streetName": "STANLEY",
        "streetDirectionId": null,
        "streetTypeId": "AVE",
        "placeName": "HAMILTON",
        "streetNameDisplayText": "STANLEY AVE, HAMILTON"
      }
    ]
  },
  {
    "postal": "L8P8K9",
    "result": []
  },
  {
    "postal": "L8P2H9",
    "result": [
      {
        "electoralDistricts": [
          {
            "election": null,
            "id": 36,
            "name": "Hamilton Centre"
          }
        ],
        "pollDivisionIds": [
          10138594
        ],
        "postalCode": "L8P2H9",
        "streetName": "HERKIMER",
        "streetDirectionId": null,
        "streetTypeId": "ST",
        "placeName": "HAMILTON",
        "streetNameDisplayText": "HERKIMER ST, HAMILTON"
      }
    ]
  },
  {
    "postal": "L8P3Z6",
    "result": [
      {
        "electoralDistricts": [
          {
            "election": null,
            "id": 36,
            "name": "Hamilton Centre"
          }
        ],
        "pollDivisionIds": [
          10138591
        ],
        "postalCode": "L8P3Z6",
        "streetName": "UNDERMOUNT",
        "streetDirectionId": null,
        "streetTypeId": "AVE",
        "placeName": "HAMILTON",
        "streetNameDisplayText": "UNDERMOUNT AVE, HAMILTON"
      }
    ]
  },
  {
    "postal": "L8P3B0",
    "result": []
  },
  {
    "postal": "L8P2H8",
    "result": [
      {
        "electoralDistricts": [
          {
            "election": null,
            "id": 36,
            "name": "Hamilton Centre"
          }
        ],
        "pollDivisionIds": [
          10138594
        ],
        "postalCode": "L8P2H8",
        "streetName": "HERKIMER",
        "streetDirectionId": null,
        "streetTypeId": "ST",
        "placeName": "HAMILTON",
        "streetNameDisplayText": "HERKIMER ST, HAMILTON"
      }
    ]
  },
  {
    "postal": "L8P3X2",
    "result": [
      {
        "electoralDistricts": [
          {
            "election": null,
            "id": 36,
            "name": "Hamilton Centre"
          }
        ],
        "pollDivisionIds": [
          10138592
        ],
        "postalCode": "L8P3X2",
        "streetName": "PEARL",
        "streetDirectionId": "S",
        "streetTypeId": "ST",
        "placeName": "HAMILTON",
        "streetNameDisplayText": "PEARL ST S, HAMILTON"
      }
    ]
  },
  {
    "postal": "L8P2E9",
    "result": [
      {
        "electoralDistricts": [
          {
            "election": null,
            "id": 36,
            "name": "Hamilton Centre"
          }
        ],
        "pollDivisionIds": [
          10138592
        ],
        "postalCode": "L8P2E9",
        "streetName": "CHARLTON",
        "streetDirectionId": "W",
        "streetTypeId": "AVE",
        "placeName": "HAMILTON",
        "streetNameDisplayText": "CHARLTON AVE W, HAMILTON"
      }
    ]
  },
  {
    "postal": "L8P9P6",
    "result": []
  },
  {
    "postal": "L8P9E2",
    "result": []
  },
  {
    "postal": "L8P9H2",
    "result": []
  },
  {
    "postal": "L8P1S8",
    "result": [
      {
        "electoralDistricts": [
          {
            "election": null,
            "id": 36,
            "name": "Hamilton Centre"
          }
        ],
        "pollDivisionIds": [
          10138592
        ],
        "postalCode": "L8P1S8",
        "streetName": "HUNTER",
        "streetDirectionId": "W",
        "streetTypeId": "ST",
        "placeName": "HAMILTON",
        "streetNameDisplayText": "HUNTER ST W, HAMILTON"
      }
    ]
  },
  {
    "postal": "L8P3M6",
    "result": [
      {
        "electoralDistricts": [
          {
            "election": null,
            "id": 36,
            "name": "Hamilton Centre"
          }
        ],
        "pollDivisionIds": [
          10138595
        ],
        "postalCode": "L8P3M6",
        "streetName": "BRUCE",
        "streetDirectionId": null,
        "streetTypeId": "ST",
        "placeName": "HAMILTON",
        "streetNameDisplayText": "BRUCE ST, HAMILTON"
      }
    ]
  },
  {
    "postal": "L8P6Z8",
    "result": []
  },
  {
    "postal": "L8P4J2",
    "result": []
  },
  {
    "postal": "L8P9Y1",
    "result": []
  },
  {
    "postal": "L8P8V6",
    "result": []
  },
  {
    "postal": "L8P6B2",
    "result": []
  },
  {
    "postal": "L8P1P8",
    "result": []
  },
  {
    "postal": "L8P0V8",
    "result": []
  },
  {
    "postal": "L8P4Y0",
    "result": []
  },
  {
    "postal": "L8P2T4",
    "result": [
      {
        "electoralDistricts": [
          {
            "election": null,
            "id": 36,
            "name": "Hamilton Centre"
          }
        ],
        "pollDivisionIds": [
          10138595
        ],
        "postalCode": "L8P2T4",
        "streetName": "INGLEWOOD",
        "streetDirectionId": null,
        "streetTypeId": "DR",
        "placeName": "HAMILTON",
        "streetNameDisplayText": "INGLEWOOD DR, HAMILTON"
      }
    ]
  },
  {
    "postal": "L8P2S3",
    "result": [
      {
        "electoralDistricts": [
          {
            "election": null,
            "id": 36,
            "name": "Hamilton Centre"
          }
        ],
        "pollDivisionIds": [
          10138592
        ],
        "postalCode": "L8P2S3",
        "streetName": "ABERDEEN",
        "streetDirectionId": null,
        "streetTypeId": "AVE",
        "placeName": "HAMILTON",
        "streetNameDisplayText": "ABERDEEN AVE, HAMILTON"
      }
    ]
  },
  {
    "postal": "L8P0K0",
    "result": []
  },
  {
    "postal": "L8P5N1",
    "result": []
  },
  {
    "postal": "L8P7T0",
    "result": []
  },
  {
    "postal": "L8P9N2",
    "result": []
  },
  {
    "postal": "L8P5L1",
    "result": []
  },
  {
    "postal": "L8P7G5",
    "result": []
  },
  {
    "postal": "L8P6K2",
    "result": []
  },
  {
    "postal": "L8P6P9",
    "result": []
  },
  {
    "postal": "L8P0E6",
    "result": []
  },
  {
    "postal": "L8P8R9",
    "result": []
  },
  {
    "postal": "L8P3G9",
    "result": [
      {
        "electoralDistricts": [
          {
            "election": null,
            "id": 36,
            "name": "Hamilton Centre"
          }
        ],
        "pollDivisionIds": [
          10138595
        ],
        "postalCode": "L8P3G9",
        "streetName": "UNDERCLIFFE",
        "streetDirectionId": null,
        "streetTypeId": "AVE",
        "placeName": "HAMILTON",
        "streetNameDisplayText": "UNDERCLIFFE AVE, HAMILTON"
      }
    ]
  },
  {
    "postal": "L8P0V7",
    "result": []
  },
  {
    "postal": "L8P2Z1",
    "result": [
      {
        "electoralDistricts": [
          {
            "election": null,
            "id": 36,
            "name": "Hamilton Centre"
          }
        ],
        "pollDivisionIds": [
          10138601
        ],
        "postalCode": "L8P2Z1",
        "streetName": "JAMES",
        "streetDirectionId": "S",
        "streetTypeId": "ST",
        "placeName": "HAMILTON",
        "streetNameDisplayText": "JAMES ST S, HAMILTON"
      }
    ]
  },
  {
    "postal": "L8P7N1",
    "result": []
  },
  {
    "postal": "L8P3C6",
    "result": [
      {
        "electoralDistricts": [
          {
            "election": null,
            "id": 36,
            "name": "Hamilton Centre"
          }
        ],
        "pollDivisionIds": [
          10138595
        ],
        "postalCode": "L8P3C6",
        "streetName": "MACNAB",
        "streetDirectionId": "S",
        "streetTypeId": "ST",
        "placeName": "HAMILTON",
        "streetNameDisplayText": "MACNAB ST S, HAMILTON"
      }
    ]
  },
  {
    "postal": "L8P4M1",
    "result": [
      {
        "electoralDistricts": [
          {
            "election": null,
            "id": 36,
            "name": "Hamilton Centre"
          }
        ],
        "pollDivisionIds": [
          10138591
        ],
        "postalCode": "L8P4M1",
        "streetName": "DUNDURN",
        "streetDirectionId": "S",
        "streetTypeId": "ST",
        "placeName": "HAMILTON",
        "streetNameDisplayText": "DUNDURN ST S, HAMILTON"
      }
    ]
  },
  {
    "postal": "L8P9K2",
    "result": []
  },
  {
    "postal": "L8P9S6",
    "result": []
  },
  {
    "postal": "L8P4X1",
    "result": []
  },
  {
    "postal": "L8P8W2",
    "result": []
  },
  {
    "postal": "L8P7N2",
    "result": []
  },
  {
    "postal": "L8P8S3",
    "result": []
  },
  {
    "postal": "L8P4V0",
    "result": []
  },
  {
    "postal": "L8P6W4",
    "result": []
  },
  {
    "postal": "L8P5M1",
    "result": []
  },
  {
    "postal": "L8P0S4",
    "result": []
  },
  {
    "postal": "L8P5X6",
    "result": []
  },
  {
    "postal": "L8P8L5",
    "result": []
  },
  {
    "postal": "L8P5M8",
    "result": []
  },
  {
    "postal": "L8P2G3",
    "result": [
      {
        "electoralDistricts": [
          {
            "election": null,
            "id": 36,
            "name": "Hamilton Centre"
          }
        ],
        "pollDivisionIds": [
          10138595
        ],
        "postalCode": "L8P2G3",
        "streetName": "HERKIMER",
        "streetDirectionId": null,
        "streetTypeId": "ST",
        "placeName": "HAMILTON",
        "streetNameDisplayText": "HERKIMER ST, HAMILTON"
      }
    ]
  },
  {
    "postal": "L8P8E4",
    "result": []
  },
  {
    "postal": "L8P7S9",
    "result": []
  },
  {
    "postal": "L8P1K3",
    "result": [
      {
        "electoralDistricts": [
          {
            "election": null,
            "id": 36,
            "name": "Hamilton Centre"
          }
        ],
        "pollDivisionIds": [
          10138592
        ],
        "postalCode": "L8P1K3",
        "streetName": "MAIN",
        "streetDirectionId": "W",
        "streetTypeId": "ST",
        "placeName": "HAMILTON",
        "streetNameDisplayText": "MAIN ST W, HAMILTON"
      }
    ]
  },
  {
    "postal": "L8P4E1",
    "result": [
      {
        "electoralDistricts": [
          {
            "election": null,
            "id": 36,
            "name": "Hamilton Centre"
          }
        ],
        "pollDivisionIds": [
          10138592
        ],
        "postalCode": "L8P4E1",
        "streetName": "POULETTE",
        "streetDirectionId": null,
        "streetTypeId": "ST",
        "placeName": "HAMILTON",
        "streetNameDisplayText": "POULETTE ST, HAMILTON"
      }
    ]
  },
  {
    "postal": "L8P4R2",
    "result": [
      {
        "electoralDistricts": [
          {
            "election": null,
            "id": 36,
            "name": "Hamilton Centre"
          }
        ],
        "pollDivisionIds": [
          10138594
        ],
        "postalCode": "L8P4R2",
        "streetName": "QUEEN",
        "streetDirectionId": "S",
        "streetTypeId": "ST",
        "placeName": "HAMILTON",
        "streetNameDisplayText": "QUEEN ST S, HAMILTON"
      }
    ]
  },
  {
    "postal": "L8P6T0",
    "result": []
  },
  {
    "postal": "L8P3K5",
    "result": [
      {
        "electoralDistricts": [
          {
            "election": null,
            "id": 36,
            "name": "Hamilton Centre"
          }
        ],
        "pollDivisionIds": [
          10138595
        ],
        "postalCode": "L8P3K5",
        "streetName": "TURNER",
        "streetDirectionId": null,
        "streetTypeId": "AVE",
        "placeName": "HAMILTON",
        "streetNameDisplayText": "TURNER AVE, HAMILTON"
      }
    ]
  },
  {
    "postal": "L8P3S3",
    "result": [
      {
        "electoralDistricts": [
          {
            "election": null,
            "id": 36,
            "name": "Hamilton Centre"
          }
        ],
        "pollDivisionIds": [
          10138592
        ],
        "postalCode": "L8P3S3",
        "streetName": "QUEEN",
        "streetDirectionId": "S",
        "streetTypeId": "ST",
        "placeName": "HAMILTON",
        "streetNameDisplayText": "QUEEN ST S, HAMILTON"
      }
    ]
  },
  {
    "postal": "L8P3L4",
    "result": [
      {
        "electoralDistricts": [
          {
            "election": null,
            "id": 36,
            "name": "Hamilton Centre"
          }
        ],
        "pollDivisionIds": [
          10138595
        ],
        "postalCode": "L8P3L4",
        "streetName": "CAROLINE",
        "streetDirectionId": "S",
        "streetTypeId": "ST",
        "placeName": "HAMILTON",
        "streetNameDisplayText": "CAROLINE ST S, HAMILTON"
      }
    ]
  },
  {
    "postal": "L8P9Y2",
    "result": []
  },
  {
    "postal": "L8P1E0",
    "result": []
  },
  {
    "postal": "L8P9A4",
    "result": []
  },
  {
    "postal": "L8P1L3",
    "result": [
      {
        "electoralDistricts": [
          {
            "election": null,
            "id": 36,
            "name": "Hamilton Centre"
          }
        ],
        "pollDivisionIds": [
          10138598
        ],
        "postalCode": "L8P1L3",
        "streetName": "JACKSON",
        "streetDirectionId": "W",
        "streetTypeId": "ST",
        "placeName": "HAMILTON",
        "streetNameDisplayText": "JACKSON ST W, HAMILTON"
      }
    ]
  },
  {
    "postal": "L8P6N1",
    "result": []
  },
  {
    "postal": "L8P6G7",
    "result": []
  },
  {
    "postal": "L8P7W1",
    "result": []
  },
  {
    "postal": "L8P4M6",
    "result": [
      {
        "electoralDistricts": [
          {
            "election": null,
            "id": 36,
            "name": "Hamilton Centre"
          }
        ],
        "pollDivisionIds": [
          10138591,
          10138592
        ],
        "postalCode": "L8P4M6",
        "streetName": "HYDE PARK",
        "streetDirectionId": null,
        "streetTypeId": "AVE",
        "placeName": "HAMILTON",
        "streetNameDisplayText": "HYDE PARK AVE, HAMILTON"
      }
    ]
  },
  {
    "postal": "L8P1K0",
    "result": []
  },
  {
    "postal": "L8P3E2",
    "result": [
      {
        "electoralDistricts": [
          {
            "election": null,
            "id": 36,
            "name": "Hamilton Centre"
          }
        ],
        "pollDivisionIds": [
          10138595
        ],
        "postalCode": "L8P3E2",
        "streetName": "MACNAB",
        "streetDirectionId": "S",
        "streetTypeId": "ST",
        "placeName": "HAMILTON",
        "streetNameDisplayText": "MACNAB ST S, HAMILTON"
      }
    ]
  },
  {
    "postal": "L8P5H4",
    "result": []
  },
  {
    "postal": "L8P1K7",
    "result": [
      {
        "electoralDistricts": [
          {
            "election": null,
            "id": 36,
            "name": "Hamilton Centre"
          }
        ],
        "pollDivisionIds": [
          10138592
        ],
        "postalCode": "L8P1K7",
        "streetName": "MAIN",
        "streetDirectionId": "W",
        "streetTypeId": "ST",
        "placeName": "HAMILTON",
        "streetNameDisplayText": "MAIN ST W, HAMILTON"
      }
    ]
  },
  {
    "postal": "L8P0H0",
    "result": []
  },
  {
    "postal": "L8P0J3",
    "result": []
  },
  {
    "postal": "L8P1X6",
    "result": [
      {
        "electoralDistricts": [
          {
            "election": null,
            "id": 36,
            "name": "Hamilton Centre"
          }
        ],
        "pollDivisionIds": [
          10138598
        ],
        "postalCode": "L8P1X6",
        "streetName": "DUKE",
        "streetDirectionId": null,
        "streetTypeId": "ST",
        "placeName": "HAMILTON",
        "streetNameDisplayText": "DUKE ST, HAMILTON"
      }
    ]
  },
  {
    "postal": "L8P2Z6",
    "result": [
      {
        "electoralDistricts": [
          {
            "election": null,
            "id": 36,
            "name": "Hamilton Centre"
          }
        ],
        "pollDivisionIds": [
          10138601
        ],
        "postalCode": "L8P2Z6",
        "streetName": "JAMES",
        "streetDirectionId": "S",
        "streetTypeId": "ST",
        "placeName": "HAMILTON",
        "streetNameDisplayText": "JAMES ST S, HAMILTON"
      }
    ]
  },
  {
    "postal": "L8P4R9",
    "result": [
      {
        "electoralDistricts": [
          {
            "election": null,
            "id": 36,
            "name": "Hamilton Centre"
          }
        ],
        "pollDivisionIds": [
          10138597
        ],
        "postalCode": "L8P4R9",
        "streetName": "JACKSON",
        "streetDirectionId": "W",
        "streetTypeId": "ST",
        "placeName": "HAMILTON",
        "streetNameDisplayText": "JACKSON ST W, HAMILTON"
      }
    ]
  },
  {
    "postal": "L8P0W8",
    "result": []
  },
  {
    "postal": "L8P1L4",
    "result": [
      {
        "electoralDistricts": [
          {
            "election": null,
            "id": 36,
            "name": "Hamilton Centre"
          }
        ],
        "pollDivisionIds": [
          10138598
        ],
        "postalCode": "L8P1L4",
        "streetName": "JACKSON",
        "streetDirectionId": "W",
        "streetTypeId": "ST",
        "placeName": "HAMILTON",
        "streetNameDisplayText": "JACKSON ST W, HAMILTON"
      }
    ]
  },
  {
    "postal": "L8P0C8",
    "result": []
  },
  {
    "postal": "L8P9X7",
    "result": []
  },
  {
    "postal": "L8P4T1",
    "result": [
      {
        "electoralDistricts": [
          {
            "election": null,
            "id": 36,
            "name": "Hamilton Centre"
          }
        ],
        "pollDivisionIds": [
          10138598
        ],
        "postalCode": "L8P4T1",
        "streetName": "DUKE",
        "streetDirectionId": null,
        "streetTypeId": "ST",
        "placeName": "HAMILTON",
        "streetNameDisplayText": "DUKE ST, HAMILTON"
      }
    ]
  },
  {
    "postal": "L8P0M0",
    "result": []
  },
  {
    "postal": "L8P6A2",
    "result": []
  },
  {
    "postal": "L8P9S8",
    "result": []
  },
  {
    "postal": "L8P9T4",
    "result": []
  },
  {
    "postal": "L8P9Y4",
    "result": []
  },
  {
    "postal": "L8P6G5",
    "result": []
  },
  {
    "postal": "L8P6H9",
    "result": []
  },
  {
    "postal": "L8P2P3",
    "result": [
      {
        "electoralDistricts": [
          {
            "election": null,
            "id": 36,
            "name": "Hamilton Centre"
          }
        ],
        "pollDivisionIds": [
          10138595
        ],
        "postalCode": "L8P2P3",
        "streetName": "ABERDEEN",
        "streetDirectionId": null,
        "streetTypeId": "AVE",
        "placeName": "HAMILTON",
        "streetNameDisplayText": "ABERDEEN AVE, HAMILTON"
      }
    ]
  },
  {
    "postal": "L8P1T6",
    "result": [
      {
        "electoralDistricts": [
          {
            "election": null,
            "id": 36,
            "name": "Hamilton Centre"
          }
        ],
        "pollDivisionIds": [
          10138598
        ],
        "postalCode": "L8P1T6",
        "streetName": "BOLD",
        "streetDirectionId": null,
        "streetTypeId": "ST",
        "placeName": "HAMILTON",
        "streetNameDisplayText": "BOLD ST, HAMILTON"
      }
    ]
  },
  {
    "postal": "L8P4P6",
    "result": [
      {
        "electoralDistricts": [
          {
            "election": null,
            "id": 36,
            "name": "Hamilton Centre"
          }
        ],
        "pollDivisionIds": [
          10138592
        ],
        "postalCode": "L8P4P6",
        "streetName": "HAWTHORNE",
        "streetDirectionId": null,
        "streetTypeId": "AVE",
        "placeName": "HAMILTON",
        "streetNameDisplayText": "HAWTHORNE AVE, HAMILTON"
      }
    ]
  },
  {
    "postal": "L8P3K1",
    "result": [
      {
        "electoralDistricts": [
          {
            "election": null,
            "id": 36,
            "name": "Hamilton Centre"
          }
        ],
        "pollDivisionIds": [
          10138595
        ],
        "postalCode": "L8P3K1",
        "streetName": "BAY",
        "streetDirectionId": "S",
        "streetTypeId": "ST",
        "placeName": "HAMILTON",
        "streetNameDisplayText": "BAY ST S, HAMILTON"
      }
    ]
  },
  {
    "postal": "L8P6X4",
    "result": []
  },
  {
    "postal": "L8P4M8",
    "result": [
      {
        "electoralDistricts": [
          {
            "election": null,
            "id": 36,
            "name": "Hamilton Centre"
          }
        ],
        "pollDivisionIds": [
          10138591
        ],
        "postalCode": "L8P4M8",
        "streetName": "HYDE PARK",
        "streetDirectionId": null,
        "streetTypeId": "AVE",
        "placeName": "HAMILTON",
        "streetNameDisplayText": "HYDE PARK AVE, HAMILTON"
      }
    ]
  },
  {
    "postal": "L8P2Y1",
    "result": []
  },
  {
    "postal": "L8P6M1",
    "result": []
  },
  {
    "postal": "L8P5L8",
    "result": []
  },
  {
    "postal": "L8P3P6",
    "result": [
      {
        "electoralDistricts": [
          {
            "election": null,
            "id": 36,
            "name": "Hamilton Centre"
          }
        ],
        "pollDivisionIds": [
          10138595
        ],
        "postalCode": "L8P3P6",
        "streetName": "HESS",
        "streetDirectionId": "S",
        "streetTypeId": "ST",
        "placeName": "HAMILTON",
        "streetNameDisplayText": "HESS ST S, HAMILTON"
      }
    ]
  },
  {
    "postal": "L8P9A5",
    "result": []
  },
  {
    "postal": "L8P7K1",
    "result": []
  },
  {
    "postal": "L8P3J4",
    "result": [
      {
        "electoralDistricts": [
          {
            "election": null,
            "id": 36,
            "name": "Hamilton Centre"
          }
        ],
        "pollDivisionIds": [
          10138595
        ],
        "postalCode": "L8P3J4",
        "streetName": "BAY",
        "streetDirectionId": "S",
        "streetTypeId": "ST",
        "placeName": "HAMILTON",
        "streetNameDisplayText": "BAY ST S, HAMILTON"
      }
    ]
  },
  {
    "postal": "L8P5E7",
    "result": []
  },
  {
    "postal": "L8P3A7",
    "result": [
      {
        "electoralDistricts": [
          {
            "election": null,
            "id": 36,
            "name": "Hamilton Centre"
          }
        ],
        "pollDivisionIds": [
          10138595
        ],
        "postalCode": "L8P3A7",
        "streetName": "JAMES",
        "streetDirectionId": "S",
        "streetTypeId": "ST",
        "placeName": "HAMILTON",
        "streetNameDisplayText": "JAMES ST S, HAMILTON"
      }
    ]
  },
  {
    "postal": "L8P1B9",
    "result": [
      {
        "electoralDistricts": [
          {
            "election": null,
            "id": 36,
            "name": "Hamilton Centre"
          }
        ],
        "pollDivisionIds": [
          10138592
        ],
        "postalCode": "L8P1B9",
        "streetName": "KING",
        "streetDirectionId": "W",
        "streetTypeId": "ST",
        "placeName": "HAMILTON",
        "streetNameDisplayText": "KING ST W, HAMILTON"
      }
    ]
  },
  {
    "postal": "L8P9E8",
    "result": []
  },
  {
    "postal": "L8P1C9",
    "result": [
      {
        "electoralDistricts": [
          {
            "election": null,
            "id": 36,
            "name": "Hamilton Centre"
          }
        ],
        "pollDivisionIds": [
          10138593
        ],
        "postalCode": "L8P1C9",
        "streetName": "GEORGE",
        "streetDirectionId": null,
        "streetTypeId": "ST",
        "placeName": "HAMILTON",
        "streetNameDisplayText": "GEORGE ST, HAMILTON"
      }
    ]
  },
  {
    "postal": "L8P3B5",
    "result": [
      {
        "electoralDistricts": [
          {
            "election": null,
            "id": 36,
            "name": "Hamilton Centre"
          }
        ],
        "pollDivisionIds": [
          10138602
        ],
        "postalCode": "L8P3B5",
        "streetName": "JAMES",
        "streetDirectionId": "S",
        "streetTypeId": "ST",
        "placeName": "HAMILTON",
        "streetNameDisplayText": "JAMES ST S, HAMILTON"
      }
    ]
  },
  {
    "postal": "L8P8R0",
    "result": []
  },
  {
    "postal": "L8P3P2",
    "result": [
      {
        "electoralDistricts": [
          {
            "election": null,
            "id": 36,
            "name": "Hamilton Centre"
          }
        ],
        "pollDivisionIds": [
          10138599
        ],
        "postalCode": "L8P3P2",
        "streetName": "HESS",
        "streetDirectionId": "N",
        "streetTypeId": "ST",
        "placeName": "HAMILTON",
        "streetNameDisplayText": "HESS ST N, HAMILTON"
      },
      {
        "electoralDistricts": [
          {
            "election": null,
            "id": 36,
            "name": "Hamilton Centre"
          }
        ],
        "pollDivisionIds": [
          10138595
        ],
        "postalCode": "L8P3P2",
        "streetName": "HESS",
        "streetDirectionId": "S",
        "streetTypeId": "ST",
        "placeName": "HAMILTON",
        "streetNameDisplayText": "HESS ST S, HAMILTON"
      }
    ]
  },
  {
    "postal": "L8P5V4",
    "result": []
  },
  {
    "postal": "L8P4H0",
    "result": []
  },
  {
    "postal": "L8P4S7",
    "result": []
  },
  {
    "postal": "L8P6C2",
    "result": []
  },
  {
    "postal": "L8P8W3",
    "result": []
  },
  {
    "postal": "L8P4M5",
    "result": [
      {
        "electoralDistricts": [
          {
            "election": null,
            "id": 36,
            "name": "Hamilton Centre"
          }
        ],
        "pollDivisionIds": [
          10138592,
          10138591
        ],
        "postalCode": "L8P4M5",
        "streetName": "HYDE PARK",
        "streetDirectionId": null,
        "streetTypeId": "AVE",
        "placeName": "HAMILTON",
        "streetNameDisplayText": "HYDE PARK AVE, HAMILTON"
      }
    ]
  },
  {
    "postal": "L8P5T1",
    "result": []
  },
  {
    "postal": "L8P3B3",
    "result": [
      {
        "electoralDistricts": [
          {
            "election": null,
            "id": 36,
            "name": "Hamilton Centre"
          }
        ],
        "pollDivisionIds": [
          10138595
        ],
        "postalCode": "L8P3B3",
        "streetName": "JAMES",
        "streetDirectionId": "S",
        "streetTypeId": "ST",
        "placeName": "HAMILTON",
        "streetNameDisplayText": "JAMES ST S, HAMILTON"
      }
    ]
  },
  {
    "postal": "L8P6C6",
    "result": []
  },
  {
    "postal": "L8P7N8",
    "result": []
  },
  {
    "postal": "L8P2Y3",
    "result": []
  },
  {
    "postal": "L8P2R6",
    "result": [
      {
        "electoralDistricts": [
          {
            "election": null,
            "id": 36,
            "name": "Hamilton Centre"
          }
        ],
        "pollDivisionIds": [
          10138591
        ],
        "postalCode": "L8P2R6",
        "streetName": "ABERDEEN",
        "streetDirectionId": null,
        "streetTypeId": "AVE",
        "placeName": "HAMILTON",
        "streetNameDisplayText": "ABERDEEN AVE, HAMILTON"
      }
    ]
  },
  {
    "postal": "L8P7N3",
    "result": []
  },
  {
    "postal": "L8P8J2",
    "result": []
  },
  {
    "postal": "L8P6A9",
    "result": []
  },
  {
    "postal": "L8P3V2",
    "result": [
      {
        "electoralDistricts": [
          {
            "election": null,
            "id": 36,
            "name": "Hamilton Centre"
          }
        ],
        "pollDivisionIds": [
          10138593
        ],
        "postalCode": "L8P3V2",
        "streetName": "RAY",
        "streetDirectionId": "S",
        "streetTypeId": "ST",
        "placeName": "HAMILTON",
        "streetNameDisplayText": "RAY ST S, HAMILTON"
      }
    ]
  },
  {
    "postal": "L8P2N3",
    "result": [
      {
        "electoralDistricts": [
          {
            "election": null,
            "id": 36,
            "name": "Hamilton Centre"
          }
        ],
        "pollDivisionIds": [
          10138592
        ],
        "postalCode": "L8P2N3",
        "streetName": "ROSSMORE",
        "streetDirectionId": null,
        "streetTypeId": "AVE",
        "placeName": "HAMILTON",
        "streetNameDisplayText": "ROSSMORE AVE, HAMILTON"
      }
    ]
  },
  {
    "postal": "L8P1S5",
    "result": [
      {
        "electoralDistricts": [
          {
            "election": null,
            "id": 36,
            "name": "Hamilton Centre"
          }
        ],
        "pollDivisionIds": [
          10138592
        ],
        "postalCode": "L8P1S5",
        "streetName": "HUNTER",
        "streetDirectionId": "W",
        "streetTypeId": "ST",
        "placeName": "HAMILTON",
        "streetNameDisplayText": "HUNTER ST W, HAMILTON"
      }
    ]
  },
  {
    "postal": "L8P4T7",
    "result": []
  },
  {
    "postal": "L8P6Y7",
    "result": []
  },
  {
    "postal": "L8P0W7",
    "result": []
  },
  {
    "postal": "L8P2W9",
    "result": [
      {
        "electoralDistricts": [
          {
            "election": null,
            "id": 36,
            "name": "Hamilton Centre"
          }
        ],
        "pollDivisionIds": [
          10138591
        ],
        "postalCode": "L8P2W9",
        "streetName": "HILLCREST",
        "streetDirectionId": null,
        "streetTypeId": "AVE",
        "placeName": "HAMILTON",
        "streetNameDisplayText": "HILLCREST AVE, HAMILTON"
      }
    ]
  },
  {
    "postal": "L8P8V0",
    "result": []
  },
  {
    "postal": "L8P0H4",
    "result": []
  },
  {
    "postal": "L8P2T1",
    "result": [
      {
        "electoralDistricts": [
          {
            "election": null,
            "id": 36,
            "name": "Hamilton Centre"
          }
        ],
        "pollDivisionIds": [
          10138592
        ],
        "postalCode": "L8P2T1",
        "streetName": "ABERDEEN",
        "streetDirectionId": null,
        "streetTypeId": "AVE",
        "placeName": "HAMILTON",
        "streetNameDisplayText": "ABERDEEN AVE, HAMILTON"
      }
    ]
  },
  {
    "postal": "L8P1B1",
    "result": [
      {
        "electoralDistricts": [
          {
            "election": null,
            "id": 36,
            "name": "Hamilton Centre"
          }
        ],
        "pollDivisionIds": [
          10138604
        ],
        "postalCode": "L8P1B1",
        "streetName": "KING",
        "streetDirectionId": "E",
        "streetTypeId": "ST",
        "placeName": "HAMILTON",
        "streetNameDisplayText": "KING ST E, HAMILTON"
      },
      {
        "electoralDistricts": [
          {
            "election": null,
            "id": 36,
            "name": "Hamilton Centre"
          },
          {
            "election": null,
            "id": 39,
            "name": "Hamilton West—Ancaster—Dundas"
          }
        ],
        "pollDivisionIds": [
          10138593,
          10135261
        ],
        "postalCode": "L8P1B1",
        "streetName": "KING",
        "streetDirectionId": "W",
        "streetTypeId": "ST",
        "placeName": "HAMILTON",
        "streetNameDisplayText": "KING ST W, HAMILTON"
      }
    ]
  },
  {
    "postal": "L8P8B6",
    "result": []
  },
  {
    "postal": "L8P6H1",
    "result": []
  },
  {
    "postal": "L8P8T8",
    "result": []
  },
  {
    "postal": "L8P0T4",
    "result": []
  },
  {
    "postal": "L8P2C4",
    "result": [
      {
        "electoralDistricts": [
          {
            "election": null,
            "id": 36,
            "name": "Hamilton Centre"
          }
        ],
        "pollDivisionIds": [
          10138595
        ],
        "postalCode": "L8P2C4",
        "streetName": "CHARLTON",
        "streetDirectionId": "W",
        "streetTypeId": "AVE",
        "placeName": "HAMILTON",
        "streetNameDisplayText": "CHARLTON AVE W, HAMILTON"
      }
    ]
  },
  {
    "postal": "L8P8N3",
    "result": []
  },
  {
    "postal": "L8P4L8",
    "result": [
      {
        "electoralDistricts": [
          {
            "election": null,
            "id": 36,
            "name": "Hamilton Centre"
          }
        ],
        "pollDivisionIds": [
          10138591
        ],
        "postalCode": "L8P4L8",
        "streetName": "DUNDURN",
        "streetDirectionId": "S",
        "streetTypeId": "ST",
        "placeName": "HAMILTON",
        "streetNameDisplayText": "DUNDURN ST S, HAMILTON"
      }
    ]
  },
  {
    "postal": "L8P2B5",
    "result": [
      {
        "electoralDistricts": [
          {
            "election": null,
            "id": 36,
            "name": "Hamilton Centre"
          }
        ],
        "pollDivisionIds": [
          10138592
        ],
        "postalCode": "L8P2B5",
        "streetName": "CHATHAM",
        "streetDirectionId": null,
        "streetTypeId": "ST",
        "placeName": "HAMILTON",
        "streetNameDisplayText": "CHATHAM ST, HAMILTON"
      }
    ]
  },
  {
    "postal": "L8P3H1",
    "result": [
      {
        "electoralDistricts": [
          {
            "election": null,
            "id": 36,
            "name": "Hamilton Centre"
          }
        ],
        "pollDivisionIds": [
          10138595
        ],
        "postalCode": "L8P3H1",
        "streetName": "UNDERCLIFFE",
        "streetDirectionId": null,
        "streetTypeId": "AVE",
        "placeName": "HAMILTON",
        "streetNameDisplayText": "UNDERCLIFFE AVE, HAMILTON"
      }
    ]
  },
  {
    "postal": "L8P4Y1",
    "result": []
  },
  {
    "postal": "L8P7E2",
    "result": []
  },
  {
    "postal": "L8P2P5",
    "result": [
      {
        "electoralDistricts": [
          {
            "election": null,
            "id": 36,
            "name": "Hamilton Centre"
          }
        ],
        "pollDivisionIds": [
          10138595
        ],
        "postalCode": "L8P2P5",
        "streetName": "ABERDEEN",
        "streetDirectionId": null,
        "streetTypeId": "AVE",
        "placeName": "HAMILTON",
        "streetNameDisplayText": "ABERDEEN AVE, HAMILTON"
      }
    ]
  },
  {
    "postal": "L8P8R7",
    "result": []
  },
  {
    "postal": "L8P9P1",
    "result": []
  },
  {
    "postal": "L8P3B8",
    "result": [
      {
        "electoralDistricts": [
          {
            "election": null,
            "id": 36,
            "name": "Hamilton Centre"
          }
        ],
        "pollDivisionIds": [
          10138595
        ],
        "postalCode": "L8P3B8",
        "streetName": "JAMES",
        "streetDirectionId": "S",
        "streetTypeId": "ST",
        "placeName": "HAMILTON",
        "streetNameDisplayText": "JAMES ST S, HAMILTON"
      }
    ]
  },
  {
    "postal": "L8P3P7",
    "result": [
      {
        "electoralDistricts": [
          {
            "election": null,
            "id": 36,
            "name": "Hamilton Centre"
          }
        ],
        "pollDivisionIds": [
          10138595
        ],
        "postalCode": "L8P3P7",
        "streetName": "HESS",
        "streetDirectionId": "S",
        "streetTypeId": "ST",
        "placeName": "HAMILTON",
        "streetNameDisplayText": "HESS ST S, HAMILTON"
      }
    ]
  },
  {
    "postal": "L8P9B2",
    "result": []
  },
  {
    "postal": "L8P6Z3",
    "result": []
  },
  {
    "postal": "L8P4N5",
    "result": [
      {
        "electoralDistricts": [
          {
            "election": null,
            "id": 36,
            "name": "Hamilton Centre"
          }
        ],
        "pollDivisionIds": [
          10138592
        ],
        "postalCode": "L8P4N5",
        "streetName": "MACDONALD",
        "streetDirectionId": null,
        "streetTypeId": "AVE",
        "placeName": "HAMILTON",
        "streetNameDisplayText": "MACDONALD AVE, HAMILTON"
      }
    ]
  },
  {
    "postal": "L8P8T3",
    "result": []
  },
  {
    "postal": "L8P1V2",
    "result": [
      {
        "electoralDistricts": [
          {
            "election": null,
            "id": 36,
            "name": "Hamilton Centre"
          }
        ],
        "pollDivisionIds": [
          10138598
        ],
        "postalCode": "L8P1V2",
        "streetName": "BOLD",
        "streetDirectionId": null,
        "streetTypeId": "ST",
        "placeName": "HAMILTON",
        "streetNameDisplayText": "BOLD ST, HAMILTON"
      }
    ]
  },
  {
    "postal": "L8P1Y0",
    "result": []
  },
  {
    "postal": "L8P3G6",
    "result": [
      {
        "electoralDistricts": [
          {
            "election": null,
            "id": 36,
            "name": "Hamilton Centre"
          }
        ],
        "pollDivisionIds": [
          10138595
        ],
        "postalCode": "L8P3G6",
        "streetName": "CHILTON",
        "streetDirectionId": null,
        "streetTypeId": "PL",
        "placeName": "HAMILTON",
        "streetNameDisplayText": "CHILTON PL, HAMILTON"
      }
    ]
  },
  {
    "postal": "L8P3H7",
    "result": [
      {
        "electoralDistricts": [
          {
            "election": null,
            "id": 36,
            "name": "Hamilton Centre"
          }
        ],
        "pollDivisionIds": [
          10138598
        ],
        "postalCode": "L8P3H7",
        "streetName": "BAY",
        "streetDirectionId": "S",
        "streetTypeId": "ST",
        "placeName": "HAMILTON",
        "streetNameDisplayText": "BAY ST S, HAMILTON"
      }
    ]
  },
  {
    "postal": "L8P7X8",
    "result": []
  },
  {
    "postal": "L8P0C7",
    "result": []
  },
  {
    "postal": "L8P0W9",
    "result": []
  },
  {
    "postal": "L8P8E6",
    "result": []
  },
  {
    "postal": "L8P9Z8",
    "result": []
  },
  {
    "postal": "L8P3P4",
    "result": [
      {
        "electoralDistricts": [
          {
            "election": null,
            "id": 36,
            "name": "Hamilton Centre"
          }
        ],
        "pollDivisionIds": [
          10138595
        ],
        "postalCode": "L8P3P4",
        "streetName": "HESS",
        "streetDirectionId": "S",
        "streetTypeId": "ST",
        "placeName": "HAMILTON",
        "streetNameDisplayText": "HESS ST S, HAMILTON"
      }
    ]
  },
  {
    "postal": "L8P6L8",
    "result": []
  },
  {
    "postal": "L8P2R4",
    "result": [
      {
        "electoralDistricts": [
          {
            "election": null,
            "id": 36,
            "name": "Hamilton Centre"
          }
        ],
        "pollDivisionIds": [
          10138591
        ],
        "postalCode": "L8P2R4",
        "streetName": "ABERDEEN",
        "streetDirectionId": null,
        "streetTypeId": "AVE",
        "placeName": "HAMILTON",
        "streetNameDisplayText": "ABERDEEN AVE, HAMILTON"
      }
    ]
  },
  {
    "postal": "L8P2W1",
    "result": [
      {
        "electoralDistricts": [
          {
            "election": null,
            "id": 36,
            "name": "Hamilton Centre"
          }
        ],
        "pollDivisionIds": [
          10138591
        ],
        "postalCode": "L8P2W1",
        "streetName": "SOUTH",
        "streetDirectionId": null,
        "streetTypeId": "ST",
        "placeName": "HAMILTON",
        "streetNameDisplayText": "SOUTH ST, HAMILTON"
      }
    ]
  },
  {
    "postal": "L8P9H8",
    "result": []
  },
  {
    "postal": "L8P8X9",
    "result": []
  },
  {
    "postal": "L8P7H4",
    "result": []
  },
  {
    "postal": "L8P3J1",
    "result": [
      {
        "electoralDistricts": [
          {
            "election": null,
            "id": 36,
            "name": "Hamilton Centre"
          }
        ],
        "pollDivisionIds": [
          10138595
        ],
        "postalCode": "L8P3J1",
        "streetName": "BAY",
        "streetDirectionId": "S",
        "streetTypeId": "ST",
        "placeName": "HAMILTON",
        "streetNameDisplayText": "BAY ST S, HAMILTON"
      }
    ]
  },
  {
    "postal": "L8P1P4",
    "result": [
      {
        "electoralDistricts": [
          {
            "election": null,
            "id": 36,
            "name": "Hamilton Centre"
          }
        ],
        "pollDivisionIds": [
          10138592
        ],
        "postalCode": "L8P1P4",
        "streetName": "CANADA",
        "streetDirectionId": null,
        "streetTypeId": "ST",
        "placeName": "HAMILTON",
        "streetNameDisplayText": "CANADA ST, HAMILTON"
      }
    ]
  },
  {
    "postal": "L8P2A3",
    "result": [
      {
        "electoralDistricts": [
          {
            "election": null,
            "id": 36,
            "name": "Hamilton Centre"
          }
        ],
        "pollDivisionIds": [
          10138592
        ],
        "postalCode": "L8P2A3",
        "streetName": "MELBOURNE",
        "streetDirectionId": null,
        "streetTypeId": "ST",
        "placeName": "HAMILTON",
        "streetNameDisplayText": "MELBOURNE ST, HAMILTON"
      }
    ]
  },
  {
    "postal": "L8P0Z1",
    "result": []
  },
  {
    "postal": "L8P1C1",
    "result": [
      {
        "electoralDistricts": [
          {
            "election": null,
            "id": 36,
            "name": "Hamilton Centre"
          }
        ],
        "pollDivisionIds": [
          10138592,
          10138624
        ],
        "postalCode": "L8P1C1",
        "streetName": "KING",
        "streetDirectionId": "W",
        "streetTypeId": "ST",
        "placeName": "HAMILTON",
        "streetNameDisplayText": "KING ST W, HAMILTON"
      }
    ]
  },
  {
    "postal": "L8P0H3",
    "result": []
  },
  {
    "postal": "L8P7B0",
    "result": []
  },
  {
    "postal": "L8P5K2",
    "result": []
  },
  {
    "postal": "L8P1E9",
    "result": [
      {
        "electoralDistricts": [
          {
            "election": null,
            "id": 36,
            "name": "Hamilton Centre"
          }
        ],
        "pollDivisionIds": [
          10138593
        ],
        "postalCode": "L8P1E9",
        "streetName": "GEORGE",
        "streetDirectionId": null,
        "streetTypeId": "ST",
        "placeName": "HAMILTON",
        "streetNameDisplayText": "GEORGE ST, HAMILTON"
      }
    ]
  },
  {
    "postal": "L8P9W7",
    "result": []
  },
  {
    "postal": "L8P5W6",
    "result": []
  },
  {
    "postal": "L8P6S6",
    "result": []
  },
  {
    "postal": "L8P2P8",
    "result": [
      {
        "electoralDistricts": [
          {
            "election": null,
            "id": 36,
            "name": "Hamilton Centre"
          }
        ],
        "pollDivisionIds": [
          10138595
        ],
        "postalCode": "L8P2P8",
        "streetName": "ABERDEEN",
        "streetDirectionId": null,
        "streetTypeId": "AVE",
        "placeName": "HAMILTON",
        "streetNameDisplayText": "ABERDEEN AVE, HAMILTON"
      }
    ]
  },
  {
    "postal": "L8P4P8",
    "result": []
  },
  {
    "postal": "L8P0V9",
    "result": []
  },
  {
    "postal": "L8P5Y2",
    "result": []
  },
  {
    "postal": "L8P7Z7",
    "result": []
  },
  {
    "postal": "L8P6Y8",
    "result": []
  },
  {
    "postal": "L8P2G7",
    "result": [
      {
        "electoralDistricts": [
          {
            "election": null,
            "id": 36,
            "name": "Hamilton Centre"
          }
        ],
        "pollDivisionIds": [
          10138595
        ],
        "postalCode": "L8P2G7",
        "streetName": "HERKIMER",
        "streetDirectionId": null,
        "streetTypeId": "ST",
        "placeName": "HAMILTON",
        "streetNameDisplayText": "HERKIMER ST, HAMILTON"
      }
    ]
  },
  {
    "postal": "L8P8C1",
    "result": []
  },
  {
    "postal": "L8P5C5",
    "result": []
  },
  {
    "postal": "L8P2X8",
    "result": [
      {
        "electoralDistricts": [
          {
            "election": null,
            "id": 36,
            "name": "Hamilton Centre"
          }
        ],
        "pollDivisionIds": [
          10138603,
          10138600
        ],
        "postalCode": "L8P2X8",
        "streetName": "JAMES",
        "streetDirectionId": "S",
        "streetTypeId": "ST",
        "placeName": "HAMILTON",
        "streetNameDisplayText": "JAMES ST S, HAMILTON"
      },
      {
        "electoralDistricts": [
          {
            "election": null,
            "id": 31,
            "name": "Flamborough—Glanbrook"
          }
        ],
        "pollDivisionIds": [
          10138248,
          10138250
        ],
        "postalCode": "L8P2X8",
        "streetName": "JAMES",
        "streetDirectionId": "S",
        "streetTypeId": "ST",
        "placeName": "WATERDOWN",
        "streetNameDisplayText": "JAMES ST S, WATERDOWN"
      }
    ]
  },
  {
    "postal": "L8P1W5",
    "result": [
      {
        "electoralDistricts": [
          {
            "election": null,
            "id": 36,
            "name": "Hamilton Centre"
          }
        ],
        "pollDivisionIds": [
          10138592
        ],
        "postalCode": "L8P1W5",
        "streetName": "BLANSHARD",
        "streetDirectionId": null,
        "streetTypeId": "ST",
        "placeName": "HAMILTON",
        "streetNameDisplayText": "BLANSHARD ST, HAMILTON"
      }
    ]
  },
  {
    "postal": "L8P7G0",
    "result": []
  },
  {
    "postal": "L8P8J8",
    "result": []
  },
  {
    "postal": "L8P3Y0",
    "result": []
  },
  {
    "postal": "L8P9T7",
    "result": []
  },
  {
    "postal": "L8P5P4",
    "result": []
  },
  {
    "postal": "L8P4B0",
    "result": []
  },
  {
    "postal": "L8P9N8",
    "result": []
  },
  {
    "postal": "L8P4A7",
    "result": [
      {
        "electoralDistricts": [
          {
            "election": null,
            "id": 36,
            "name": "Hamilton Centre"
          }
        ],
        "pollDivisionIds": [
          10138592
        ],
        "postalCode": "L8P4A7",
        "streetName": "LOCKE",
        "streetDirectionId": "S",
        "streetTypeId": "ST",
        "placeName": "HAMILTON",
        "streetNameDisplayText": "LOCKE ST S, HAMILTON"
      }
    ]
  },
  {
    "postal": "L8P4H9",
    "result": [
      {
        "electoralDistricts": [
          {
            "election": null,
            "id": 36,
            "name": "Hamilton Centre"
          }
        ],
        "pollDivisionIds": [
          10138592
        ],
        "postalCode": "L8P4H9",
        "streetName": "STRATHCONA",
        "streetDirectionId": "S",
        "streetTypeId": "AVE",
        "placeName": "HAMILTON",
        "streetNameDisplayText": "STRATHCONA AVE S, HAMILTON"
      }
    ]
  },
  {
    "postal": "L8P6X1",
    "result": []
  },
  {
    "postal": "L8P9Y7",
    "result": []
  },
  {
    "postal": "L8P2Y5",
    "result": []
  },
  {
    "postal": "L8P8L7",
    "result": []
  },
  {
    "postal": "L8P2A8",
    "result": [
      {
        "electoralDistricts": [
          {
            "election": null,
            "id": 36,
            "name": "Hamilton Centre"
          }
        ],
        "pollDivisionIds": [
          10138594
        ],
        "postalCode": "L8P2A8",
        "streetName": "TUCKETT",
        "streetDirectionId": null,
        "streetTypeId": "ST",
        "placeName": "HAMILTON",
        "streetNameDisplayText": "TUCKETT ST, HAMILTON"
      }
    ]
  },
  {
    "postal": "L8P2K9",
    "result": [
      {
        "electoralDistricts": [
          {
            "election": null,
            "id": 36,
            "name": "Hamilton Centre"
          }
        ],
        "pollDivisionIds": [
          10138594
        ],
        "postalCode": "L8P2K9",
        "streetName": "STANLEY",
        "streetDirectionId": null,
        "streetTypeId": "AVE",
        "placeName": "HAMILTON",
        "streetNameDisplayText": "STANLEY AVE, HAMILTON"
      }
    ]
  },
  {
    "postal": "L8P3E5",
    "result": [
      {
        "electoralDistricts": [
          {
            "election": null,
            "id": 36,
            "name": "Hamilton Centre"
          }
        ],
        "pollDivisionIds": [
          10138598
        ],
        "postalCode": "L8P3E5",
        "streetName": "CHARLES",
        "streetDirectionId": null,
        "streetTypeId": "ST",
        "placeName": "HAMILTON",
        "streetNameDisplayText": "CHARLES ST, HAMILTON"
      }
    ]
  },
  {
    "postal": "L8P8N6",
    "result": []
  },
  {
    "postal": "L8P8J4",
    "result": []
  },
  {
    "postal": "L8P4R7",
    "result": []
  },
  {
    "postal": "L8P9K1",
    "result": []
  },
  {
    "postal": "L8P8E1",
    "result": []
  },
  {
    "postal": "L8P0R1",
    "result": []
  },
  {
    "postal": "L8P4J3",
    "result": [
      {
        "electoralDistricts": [
          {
            "election": null,
            "id": 36,
            "name": "Hamilton Centre"
          }
        ],
        "pollDivisionIds": [
          10138592
        ],
        "postalCode": "L8P4J3",
        "streetName": "RICHMOND",
        "streetDirectionId": null,
        "streetTypeId": "ST",
        "placeName": "HAMILTON",
        "streetNameDisplayText": "RICHMOND ST, HAMILTON"
      }
    ]
  },
  {
    "postal": "L8P7E7",
    "result": []
  },
  {
    "postal": "L8P0J0",
    "result": []
  },
  {
    "postal": "L8P7R8",
    "result": []
  },
  {
    "postal": "L8P9X0",
    "result": []
  },
  {
    "postal": "L8P7P6",
    "result": []
  },
  {
    "postal": "L8P0R7",
    "result": []
  },
  {
    "postal": "L8P5W1",
    "result": []
  },
  {
    "postal": "L8P0K4",
    "result": []
  },
  {
    "postal": "L8P7N9",
    "result": []
  },
  {
    "postal": "L8P1N0",
    "result": []
  },
  {
    "postal": "L8P6P3",
    "result": []
  },
  {
    "postal": "L8P5A1",
    "result": []
  },
  {
    "postal": "L8P9M9",
    "result": []
  },
  {
    "postal": "L8P7T6",
    "result": []
  },
  {
    "postal": "L8P3X0",
    "result": []
  },
  {
    "postal": "L8P2T0",
    "result": []
  },
  {
    "postal": "L8P5X9",
    "result": []
  },
  {
    "postal": "L8P2R3",
    "result": [
      {
        "electoralDistricts": [
          {
            "election": null,
            "id": 36,
            "name": "Hamilton Centre"
          }
        ],
        "pollDivisionIds": [
          10138594
        ],
        "postalCode": "L8P2R3",
        "streetName": "ABERDEEN",
        "streetDirectionId": null,
        "streetTypeId": "AVE",
        "placeName": "HAMILTON",
        "streetNameDisplayText": "ABERDEEN AVE, HAMILTON"
      }
    ]
  },
  {
    "postal": "L8P5N2",
    "result": []
  },
  {
    "postal": "L8P4Y7",
    "result": [
      {
        "electoralDistricts": [
          {
            "election": null,
            "id": 39,
            "name": "Hamilton West—Ancaster—Dundas"
          }
        ],
        "pollDivisionIds": [
          10135261
        ],
        "postalCode": "L8P4Y7",
        "streetName": "KING",
        "streetDirectionId": "W",
        "streetTypeId": "ST",
        "placeName": "DUNDAS",
        "streetNameDisplayText": "KING ST W, DUNDAS"
      }
    ]
  },
  {
    "postal": "L8P7M0",
    "result": []
  },
  {
    "postal": "L8P8P3",
    "result": []
  },
  {
    "postal": "L8P3N3",
    "result": [
      {
        "electoralDistricts": [
          {
            "election": null,
            "id": 36,
            "name": "Hamilton Centre"
          }
        ],
        "pollDivisionIds": [
          10138593
        ],
        "postalCode": "L8P3N3",
        "streetName": "HESS",
        "streetDirectionId": "S",
        "streetTypeId": "ST",
        "placeName": "HAMILTON",
        "streetNameDisplayText": "HESS ST S, HAMILTON"
      }
    ]
  },
  {
    "postal": "L8P7S3",
    "result": []
  },
  {
    "postal": "L8P3V9",
    "result": [
      {
        "electoralDistricts": [
          {
            "election": null,
            "id": 36,
            "name": "Hamilton Centre"
          }
        ],
        "pollDivisionIds": [
          10138592
        ],
        "postalCode": "L8P3V9",
        "streetName": "RAY",
        "streetDirectionId": "S",
        "streetTypeId": "ST",
        "placeName": "HAMILTON",
        "streetNameDisplayText": "RAY ST S, HAMILTON"
      }
    ]
  },
  {
    "postal": "L8P9N7",
    "result": []
  },
  {
    "postal": "L8P0G4",
    "result": []
  },
  {
    "postal": "L8P2E2",
    "result": [
      {
        "electoralDistricts": [
          {
            "election": null,
            "id": 36,
            "name": "Hamilton Centre"
          }
        ],
        "pollDivisionIds": [
          10138594
        ],
        "postalCode": "L8P2E2",
        "streetName": "CHARLTON",
        "streetDirectionId": "W",
        "streetTypeId": "AVE",
        "placeName": "HAMILTON",
        "streetNameDisplayText": "CHARLTON AVE W, HAMILTON"
      }
    ]
  },
  {
    "postal": "L8P7W8",
    "result": []
  },
  {
    "postal": "L8P7M5",
    "result": []
  },
  {
    "postal": "L8P5W8",
    "result": []
  },
  {
    "postal": "L8P5E5",
    "result": []
  },
  {
    "postal": "L8P1P9",
    "result": [
      {
        "electoralDistricts": [
          {
            "election": null,
            "id": 36,
            "name": "Hamilton Centre"
          }
        ],
        "pollDivisionIds": [
          10138598
        ],
        "postalCode": "L8P1P9",
        "streetName": "HUNTER",
        "streetDirectionId": "W",
        "streetTypeId": "ST",
        "placeName": "HAMILTON",
        "streetNameDisplayText": "HUNTER ST W, HAMILTON"
      }
    ]
  },
  {
    "postal": "L8P8V8",
    "result": []
  },
  {
    "postal": "L8P9G8",
    "result": []
  },
  {
    "postal": "L8P8H9",
    "result": []
  },
  {
    "postal": "L8P1Z1",
    "result": [
      {
        "electoralDistricts": [
          {
            "election": null,
            "id": 36,
            "name": "Hamilton Centre"
          }
        ],
        "pollDivisionIds": [
          10138598
        ],
        "postalCode": "L8P1Z1",
        "streetName": "ROBINSON",
        "streetDirectionId": null,
        "streetTypeId": "ST",
        "placeName": "HAMILTON",
        "streetNameDisplayText": "ROBINSON ST, HAMILTON"
      }
    ]
  },
  {
    "postal": "L8P8M3",
    "result": []
  },
  {
    "postal": "L8P5H6",
    "result": []
  },
  {
    "postal": "L8P7W7",
    "result": []
  },
  {
    "postal": "L8P4L0",
    "result": []
  },
  {
    "postal": "L8P2N1",
    "result": [
      {
        "electoralDistricts": [
          {
            "election": null,
            "id": 36,
            "name": "Hamilton Centre"
          }
        ],
        "pollDivisionIds": [
          10138592
        ],
        "postalCode": "L8P2N1",
        "streetName": "HOMEWOOD",
        "streetDirectionId": null,
        "streetTypeId": "AVE",
        "placeName": "HAMILTON",
        "streetNameDisplayText": "HOMEWOOD AVE, HAMILTON"
      }
    ]
  },
  {
    "postal": "L8P2H4",
    "result": [
      {
        "electoralDistricts": [
          {
            "election": null,
            "id": 36,
            "name": "Hamilton Centre"
          }
        ],
        "pollDivisionIds": [
          10138595
        ],
        "postalCode": "L8P2H4",
        "streetName": "HERKIMER",
        "streetDirectionId": null,
        "streetTypeId": "ST",
        "placeName": "HAMILTON",
        "streetNameDisplayText": "HERKIMER ST, HAMILTON"
      }
    ]
  },
  {
    "postal": "L8P5C8",
    "result": []
  },
  {
    "postal": "L8P8B0",
    "result": []
  },
  {
    "postal": "L8P1T4",
    "result": [
      {
        "electoralDistricts": [
          {
            "election": null,
            "id": 36,
            "name": "Hamilton Centre"
          }
        ],
        "pollDivisionIds": [
          10138598
        ],
        "postalCode": "L8P1T4",
        "streetName": "BOLD",
        "streetDirectionId": null,
        "streetTypeId": "ST",
        "placeName": "HAMILTON",
        "streetNameDisplayText": "BOLD ST, HAMILTON"
      }
    ]
  },
  {
    "postal": "L8P7N7",
    "result": []
  },
  {
    "postal": "L8P4L3",
    "result": [
      {
        "electoralDistricts": [
          {
            "election": null,
            "id": 36,
            "name": "Hamilton Centre"
          }
        ],
        "pollDivisionIds": [
          10138592
        ],
        "postalCode": "L8P4L3",
        "streetName": "DUNDURN",
        "streetDirectionId": "S",
        "streetTypeId": "ST",
        "placeName": "HAMILTON",
        "streetNameDisplayText": "DUNDURN ST S, HAMILTON"
      }
    ]
  },
  {
    "postal": "L8P2N2",
    "result": [
      {
        "electoralDistricts": [
          {
            "election": null,
            "id": 36,
            "name": "Hamilton Centre"
          }
        ],
        "pollDivisionIds": [
          10138592
        ],
        "postalCode": "L8P2N2",
        "streetName": "ROSSMORE",
        "streetDirectionId": null,
        "streetTypeId": "AVE",
        "placeName": "HAMILTON",
        "streetNameDisplayText": "ROSSMORE AVE, HAMILTON"
      }
    ]
  },
  {
    "postal": "L8P4N8",
    "result": [
      {
        "electoralDistricts": [
          {
            "election": null,
            "id": 36,
            "name": "Hamilton Centre"
          }
        ],
        "pollDivisionIds": [
          10138592
        ],
        "postalCode": "L8P4N8",
        "streetName": "MACDONALD",
        "streetDirectionId": null,
        "streetTypeId": "AVE",
        "placeName": "HAMILTON",
        "streetNameDisplayText": "MACDONALD AVE, HAMILTON"
      }
    ]
  },
  {
    "postal": "L8P3M5",
    "result": [
      {
        "electoralDistricts": [
          {
            "election": null,
            "id": 36,
            "name": "Hamilton Centre"
          }
        ],
        "pollDivisionIds": [
          10138595
        ],
        "postalCode": "L8P3M5",
        "streetName": "BRUCE",
        "streetDirectionId": null,
        "streetTypeId": "ST",
        "placeName": "HAMILTON",
        "streetNameDisplayText": "BRUCE ST, HAMILTON"
      }
    ]
  },
  {
    "postal": "L8P6H7",
    "result": []
  },
  {
    "postal": "L8P8Y8",
    "result": []
  },
  {
    "postal": "L8P5R9",
    "result": []
  },
  {
    "postal": "L8P8G3",
    "result": []
  },
  {
    "postal": "L8P4N7",
    "result": [
      {
        "electoralDistricts": [
          {
            "election": null,
            "id": 36,
            "name": "Hamilton Centre"
          }
        ],
        "pollDivisionIds": [
          10138592
        ],
        "postalCode": "L8P4N7",
        "streetName": "MACDONALD",
        "streetDirectionId": null,
        "streetTypeId": "AVE",
        "placeName": "HAMILTON",
        "streetNameDisplayText": "MACDONALD AVE, HAMILTON"
      }
    ]
  },
  {
    "postal": "L8P0B9",
    "result": [
      {
        "electoralDistricts": [
          {
            "election": null,
            "id": 36,
            "name": "Hamilton Centre"
          }
        ],
        "pollDivisionIds": [
          10138595
        ],
        "postalCode": "L8P0B9",
        "streetName": "ROBINSON",
        "streetDirectionId": null,
        "streetTypeId": "ST",
        "placeName": "HAMILTON",
        "streetNameDisplayText": "ROBINSON ST, HAMILTON"
      }
    ]
  },
  {
    "postal": "L8P9K7",
    "result": []
  },
  {
    "postal": "L8P9K9",
    "result": []
  },
  {
    "postal": "L8P3Z2",
    "result": [
      {
        "electoralDistricts": [
          {
            "election": null,
            "id": 36,
            "name": "Hamilton Centre"
          }
        ],
        "pollDivisionIds": [
          10138591
        ],
        "postalCode": "L8P3Z2",
        "streetName": "KENT",
        "streetDirectionId": null,
        "streetTypeId": "ST",
        "placeName": "HAMILTON",
        "streetNameDisplayText": "KENT ST, HAMILTON"
      }
    ]
  },
  {
    "postal": "L8P6W7",
    "result": []
  },
  {
    "postal": "L8P0P1",
    "result": []
  },
  {
    "postal": "L8P3A0",
    "result": []
  },
  {
    "postal": "L8P8L9",
    "result": []
  },
  {
    "postal": "L8P6X0",
    "result": []
  },
  {
    "postal": "L8P3E9",
    "result": [
      {
        "electoralDistricts": [
          {
            "election": null,
            "id": 36,
            "name": "Hamilton Centre"
          }
        ],
        "pollDivisionIds": [
          57652
        ],
        "postalCode": "L8P3E9",
        "streetName": "PARK",
        "streetDirectionId": "S",
        "streetTypeId": "ST",
        "placeName": "HAMILTON",
        "streetNameDisplayText": "PARK ST S, HAMILTON"
      }
    ]
  },
  {
    "postal": "L8P0S5",
    "result": []
  },
  {
    "postal": "L8P1A2",
    "result": [
      {
        "electoralDistricts": [
          {
            "election": null,
            "id": 36,
            "name": "Hamilton Centre"
          }
        ],
        "pollDivisionIds": [
          10138603
        ],
        "postalCode": "L8P1A2",
        "streetName": "KING WILLIAM",
        "streetDirectionId": "W",
        "streetTypeId": "ST",
        "placeName": "HAMILTON",
        "streetNameDisplayText": "KING WILLIAM ST W, HAMILTON"
      }
    ]
  },
  {
    "postal": "L8P5V8",
    "result": []
  },
  {
    "postal": "L8P8C5",
    "result": []
  },
  {
    "postal": "L8P6N0",
    "result": []
  },
  {
    "postal": "L8P9E6",
    "result": []
  },
  {
    "postal": "L8P5J7",
    "result": []
  },
  {
    "postal": "L8P2R2",
    "result": [
      {
        "electoralDistricts": [
          {
            "election": null,
            "id": 36,
            "name": "Hamilton Centre"
          }
        ],
        "pollDivisionIds": [
          10138591
        ],
        "postalCode": "L8P2R2",
        "streetName": "ABERDEEN",
        "streetDirectionId": null,
        "streetTypeId": "AVE",
        "placeName": "HAMILTON",
        "streetNameDisplayText": "ABERDEEN AVE, HAMILTON"
      }
    ]
  },
  {
    "postal": "L8P0P5",
    "result": []
  },
  {
    "postal": "L8P5A7",
    "result": []
  },
  {
    "postal": "L8P1G1",
    "result": [
      {
        "electoralDistricts": [
          {
            "election": null,
            "id": 36,
            "name": "Hamilton Centre"
          }
        ],
        "pollDivisionIds": [
          10138593
        ],
        "postalCode": "L8P1G1",
        "streetName": "GEORGE",
        "streetDirectionId": null,
        "streetTypeId": "ST",
        "placeName": "HAMILTON",
        "streetNameDisplayText": "GEORGE ST, HAMILTON"
      }
    ]
  },
  {
    "postal": "L8P9R6",
    "result": []
  },
  {
    "postal": "L8P4Z9",
    "result": []
  },
  {
    "postal": "L8P1V5",
    "result": [
      {
        "electoralDistricts": [
          {
            "election": null,
            "id": 36,
            "name": "Hamilton Centre"
          }
        ],
        "pollDivisionIds": [
          10138596,
          10138598
        ],
        "postalCode": "L8P1V5",
        "streetName": "BOLD",
        "streetDirectionId": null,
        "streetTypeId": "ST",
        "placeName": "HAMILTON",
        "streetNameDisplayText": "BOLD ST, HAMILTON"
      }
    ]
  },
  {
    "postal": "L8P9Y5",
    "result": []
  },
  {
    "postal": "L8P1P2",
    "result": [
      {
        "electoralDistricts": [
          {
            "election": null,
            "id": 36,
            "name": "Hamilton Centre"
          }
        ],
        "pollDivisionIds": [
          10138592
        ],
        "postalCode": "L8P1P2",
        "streetName": "CANADA",
        "streetDirectionId": null,
        "streetTypeId": "ST",
        "placeName": "HAMILTON",
        "streetNameDisplayText": "CANADA ST, HAMILTON"
      }
    ]
  },
  {
    "postal": "L8P5X0",
    "result": []
  },
  {
    "postal": "L8P7B8",
    "result": []
  },
  {
    "postal": "L8P0C6",
    "result": []
  },
  {
    "postal": "L8P6G1",
    "result": []
  },
  {
    "postal": "L8P3K3",
    "result": [
      {
        "electoralDistricts": [
          {
            "election": null,
            "id": 36,
            "name": "Hamilton Centre"
          }
        ],
        "pollDivisionIds": [
          10138595
        ],
        "postalCode": "L8P3K3",
        "streetName": "HILTON",
        "streetDirectionId": null,
        "streetTypeId": "ST",
        "placeName": "HAMILTON",
        "streetNameDisplayText": "HILTON ST, HAMILTON"
      }
    ]
  },
  {
    "postal": "L8P9R0",
    "result": []
  },
  {
    "postal": "L8P4R8",
    "result": []
  },
  {
    "postal": "L8P5P9",
    "result": []
  },
  {
    "postal": "L8P8N4",
    "result": []
  },
  {
    "postal": "L8P8H4",
    "result": []
  },
  {
    "postal": "L8P4V1",
    "result": [
      {
        "electoralDistricts": [
          {
            "election": null,
            "id": 36,
            "name": "Hamilton Centre"
          }
        ],
        "pollDivisionIds": [
          10138595
        ],
        "postalCode": "L8P4V1",
        "streetName": "JAMES",
        "streetDirectionId": "S",
        "streetTypeId": "ST",
        "placeName": "HAMILTON",
        "streetNameDisplayText": "JAMES ST S, HAMILTON"
      }
    ]
  },
  {
    "postal": "L8P1K5",
    "result": [
      {
        "electoralDistricts": [
          {
            "election": null,
            "id": 36,
            "name": "Hamilton Centre"
          }
        ],
        "pollDivisionIds": [
          10138592
        ],
        "postalCode": "L8P1K5",
        "streetName": "MAIN",
        "streetDirectionId": "W",
        "streetTypeId": "ST",
        "placeName": "HAMILTON",
        "streetNameDisplayText": "MAIN ST W, HAMILTON"
      }
    ]
  },
  {
    "postal": "L8P1Z5",
    "result": [
      {
        "electoralDistricts": [
          {
            "election": null,
            "id": 36,
            "name": "Hamilton Centre"
          }
        ],
        "pollDivisionIds": [
          10138595
        ],
        "postalCode": "L8P1Z5",
        "streetName": "ROBINSON",
        "streetDirectionId": null,
        "streetTypeId": "ST",
        "placeName": "HAMILTON",
        "streetNameDisplayText": "ROBINSON ST, HAMILTON"
      }
    ]
  },
  {
    "postal": "L8P9L9",
    "result": []
  },
  {
    "postal": "L8P5L2",
    "result": []
  },
  {
    "postal": "L8P0M2",
    "result": []
  },
  {
    "postal": "L8P1K8",
    "result": [
      {
        "electoralDistricts": [
          {
            "election": null,
            "id": 36,
            "name": "Hamilton Centre"
          }
        ],
        "pollDivisionIds": [
          10138592
        ],
        "postalCode": "L8P1K8",
        "streetName": "MAIN",
        "streetDirectionId": "W",
        "streetTypeId": "ST",
        "placeName": "HAMILTON",
        "streetNameDisplayText": "MAIN ST W, HAMILTON"
      }
    ]
  },
  {
    "postal": "L8P3M7",
    "result": [
      {
        "electoralDistricts": [
          {
            "election": null,
            "id": 36,
            "name": "Hamilton Centre"
          }
        ],
        "pollDivisionIds": [
          10138593
        ],
        "postalCode": "L8P3M7",
        "streetName": "HESS",
        "streetDirectionId": "S",
        "streetTypeId": "ST",
        "placeName": "HAMILTON",
        "streetNameDisplayText": "HESS ST S, HAMILTON"
      }
    ]
  },
  {
    "postal": "L8P1B2",
    "result": [
      {
        "electoralDistricts": [
          {
            "election": null,
            "id": 39,
            "name": "Hamilton West—Ancaster—Dundas"
          }
        ],
        "pollDivisionIds": [
          10135261
        ],
        "postalCode": "L8P1B2",
        "streetName": "KING",
        "streetDirectionId": "W",
        "streetTypeId": "ST",
        "placeName": "DUNDAS",
        "streetNameDisplayText": "KING ST W, DUNDAS"
      },
      {
        "electoralDistricts": [
          {
            "election": null,
            "id": 36,
            "name": "Hamilton Centre"
          }
        ],
        "pollDivisionIds": [
          10138593
        ],
        "postalCode": "L8P1B2",
        "streetName": "KING",
        "streetDirectionId": "W",
        "streetTypeId": "ST",
        "placeName": "HAMILTON",
        "streetNameDisplayText": "KING ST W, HAMILTON"
      }
    ]
  },
  {
    "postal": "L8P0H9",
    "result": []
  },
  {
    "postal": "L8P8M4",
    "result": []
  },
  {
    "postal": "L8P2M5",
    "result": [
      {
        "electoralDistricts": [
          {
            "election": null,
            "id": 36,
            "name": "Hamilton Centre"
          }
        ],
        "pollDivisionIds": [
          10138594
        ],
        "postalCode": "L8P2M5",
        "streetName": "HOMEWOOD",
        "streetDirectionId": null,
        "streetTypeId": "AVE",
        "placeName": "HAMILTON",
        "streetNameDisplayText": "HOMEWOOD AVE, HAMILTON"
      }
    ]
  },
  {
    "postal": "L8P0T9",
    "result": []
  },
  {
    "postal": "L8P3P1",
    "result": [
      {
        "electoralDistricts": [
          {
            "election": null,
            "id": 36,
            "name": "Hamilton Centre"
          }
        ],
        "pollDivisionIds": [
          10138595
        ],
        "postalCode": "L8P3P1",
        "streetName": "HESS",
        "streetDirectionId": "S",
        "streetTypeId": "ST",
        "placeName": "HAMILTON",
        "streetNameDisplayText": "HESS ST S, HAMILTON"
      }
    ]
  },
  {
    "postal": "L8P1R6",
    "result": [
      {
        "electoralDistricts": [
          {
            "election": null,
            "id": 36,
            "name": "Hamilton Centre"
          }
        ],
        "pollDivisionIds": [
          10138592
        ],
        "postalCode": "L8P1R6",
        "streetName": "HUNTER",
        "streetDirectionId": "W",
        "streetTypeId": "ST",
        "placeName": "HAMILTON",
        "streetNameDisplayText": "HUNTER ST W, HAMILTON"
      }
    ]
  },
  {
    "postal": "L8P9V5",
    "result": []
  },
  {
    "postal": "L8P9T0",
    "result": []
  },
  {
    "postal": "L8P0A9",
    "result": [
      {
        "electoralDistricts": [
          {
            "election": null,
            "id": 36,
            "name": "Hamilton Centre"
          }
        ],
        "pollDivisionIds": [
          10138592
        ],
        "postalCode": "L8P0A9",
        "streetName": "FRID",
        "streetDirectionId": null,
        "streetTypeId": "ST",
        "placeName": "HAMILTON",
        "streetNameDisplayText": "FRID ST, HAMILTON"
      }
    ]
  },
  {
    "postal": "L8P1M3",
    "result": []
  },
  {
    "postal": "L8P1W8",
    "result": [
      {
        "electoralDistricts": [
          {
            "election": null,
            "id": 36,
            "name": "Hamilton Centre"
          }
        ],
        "pollDivisionIds": [
          10138595
        ],
        "postalCode": "L8P1W8",
        "streetName": "DUKE",
        "streetDirectionId": null,
        "streetTypeId": "ST",
        "placeName": "HAMILTON",
        "streetNameDisplayText": "DUKE ST, HAMILTON"
      }
    ]
  },
  {
    "postal": "L8P9J1",
    "result": []
  },
  {
    "postal": "L8P8N5",
    "result": []
  },
  {
    "postal": "L8P5X1",
    "result": []
  },
  {
    "postal": "L8P6S2",
    "result": []
  },
  {
    "postal": "L8P2A2",
    "result": [
      {
        "electoralDistricts": [
          {
            "election": null,
            "id": 36,
            "name": "Hamilton Centre"
          }
        ],
        "pollDivisionIds": [
          10138594
        ],
        "postalCode": "L8P2A2",
        "streetName": "PINE",
        "streetDirectionId": null,
        "streetTypeId": "ST",
        "placeName": "HAMILTON",
        "streetNameDisplayText": "PINE ST, HAMILTON"
      }
    ]
  },
  {
    "postal": "L8P6A6",
    "result": []
  },
  {
    "postal": "L8P0S3",
    "result": []
  },
  {
    "postal": "L8P3E7",
    "result": [
      {
        "electoralDistricts": [
          {
            "election": null,
            "id": 36,
            "name": "Hamilton Centre"
          }
        ],
        "pollDivisionIds": [
          10138591,
          10138598
        ],
        "postalCode": "L8P3E7",
        "streetName": "PARK",
        "streetDirectionId": "S",
        "streetTypeId": "ST",
        "placeName": "HAMILTON",
        "streetNameDisplayText": "PARK ST S, HAMILTON"
      }
    ]
  },
  {
    "postal": "L8P5R7",
    "result": []
  },
  {
    "postal": "L8P3R6",
    "result": [
      {
        "electoralDistricts": [
          {
            "election": null,
            "id": 36,
            "name": "Hamilton Centre"
          }
        ],
        "pollDivisionIds": [
          10138592,
          10138593
        ],
        "postalCode": "L8P3R6",
        "streetName": "QUEEN",
        "streetDirectionId": "S",
        "streetTypeId": "ST",
        "placeName": "HAMILTON",
        "streetNameDisplayText": "QUEEN ST S, HAMILTON"
      }
    ]
  },
  {
    "postal": "L8P6K4",
    "result": []
  },
  {
    "postal": "L8P2W5",
    "result": [
      {
        "electoralDistricts": [
          {
            "election": null,
            "id": 36,
            "name": "Hamilton Centre"
          }
        ],
        "pollDivisionIds": [
          10138591
        ],
        "postalCode": "L8P2W5",
        "streetName": "SOUTH",
        "streetDirectionId": null,
        "streetTypeId": "ST",
        "placeName": "HAMILTON",
        "streetNameDisplayText": "SOUTH ST, HAMILTON"
      }
    ]
  },
  {
    "postal": "L8P8W4",
    "result": []
  },
  {
    "postal": "L8P9C2",
    "result": []
  },
  {
    "postal": "L8P2C0",
    "result": []
  },
  {
    "postal": "L8P0E1",
    "result": []
  },
  {
    "postal": "L8P1K9",
    "result": [
      {
        "electoralDistricts": [
          {
            "election": null,
            "id": 36,
            "name": "Hamilton Centre"
          }
        ],
        "pollDivisionIds": [
          10138592
        ],
        "postalCode": "L8P1K9",
        "streetName": "MAIN",
        "streetDirectionId": "W",
        "streetTypeId": "ST",
        "placeName": "HAMILTON",
        "streetNameDisplayText": "MAIN ST W, HAMILTON"
      }
    ]
  },
  {
    "postal": "L8P1G7",
    "result": [
      {
        "electoralDistricts": [
          {
            "election": null,
            "id": 36,
            "name": "Hamilton Centre"
          }
        ],
        "pollDivisionIds": [
          10138592
        ],
        "postalCode": "L8P1G7",
        "streetName": "HENRY",
        "streetDirectionId": null,
        "streetTypeId": "ST",
        "placeName": "HAMILTON",
        "streetNameDisplayText": "HENRY ST, HAMILTON"
      }
    ]
  },
  {
    "postal": "L8P4E9",
    "result": [
      {
        "electoralDistricts": [
          {
            "election": null,
            "id": 36,
            "name": "Hamilton Centre"
          }
        ],
        "pollDivisionIds": [
          10138591
        ],
        "postalCode": "L8P4E9",
        "streetName": "MOUNTAIN",
        "streetDirectionId": null,
        "streetTypeId": "AVE",
        "placeName": "HAMILTON",
        "streetNameDisplayText": "MOUNTAIN AVE, HAMILTON"
      }
    ]
  },
  {
    "postal": "L8P9P0",
    "result": []
  },
  {
    "postal": "L8P5H3",
    "result": []
  },
  {
    "postal": "L8P9X6",
    "result": []
  },
  {
    "postal": "L8P5N7",
    "result": []
  },
  {
    "postal": "L8P5A6",
    "result": []
  },
  {
    "postal": "L8P4M0",
    "result": []
  },
  {
    "postal": "L8P3V6",
    "result": [
      {
        "electoralDistricts": [
          {
            "election": null,
            "id": 36,
            "name": "Hamilton Centre"
          }
        ],
        "pollDivisionIds": [
          10138592
        ],
        "postalCode": "L8P3V6",
        "streetName": "RAY",
        "streetDirectionId": "S",
        "streetTypeId": "ST",
        "placeName": "HAMILTON",
        "streetNameDisplayText": "RAY ST S, HAMILTON"
      }
    ]
  },
  {
    "postal": "L8P1L7",
    "result": []
  },
  {
    "postal": "L8P2P9",
    "result": [
      {
        "electoralDistricts": [
          {
            "election": null,
            "id": 36,
            "name": "Hamilton Centre"
          }
        ],
        "pollDivisionIds": [
          10138594
        ],
        "postalCode": "L8P2P9",
        "streetName": "ABERDEEN",
        "streetDirectionId": null,
        "streetTypeId": "AVE",
        "placeName": "HAMILTON",
        "streetNameDisplayText": "ABERDEEN AVE, HAMILTON"
      }
    ]
  },
  {
    "postal": "L8P5T4",
    "result": []
  },
  {
    "postal": "L8P5Z1",
    "result": []
  },
  {
    "postal": "L8P2X0",
    "result": []
  },
  {
    "postal": "L8P6Z2",
    "result": []
  },
  {
    "postal": "L8P0E0",
    "result": []
  },
  {
    "postal": "L8P3Z5",
    "result": [
      {
        "electoralDistricts": [
          {
            "election": null,
            "id": 36,
            "name": "Hamilton Centre"
          }
        ],
        "pollDivisionIds": [
          10138591
        ],
        "postalCode": "L8P3Z5",
        "streetName": "FAIRMOUNT",
        "streetDirectionId": null,
        "streetTypeId": "AVE",
        "placeName": "HAMILTON",
        "streetNameDisplayText": "FAIRMOUNT AVE, HAMILTON"
      }
    ]
  },
  {
    "postal": "L8P8H3",
    "result": []
  },
  {
    "postal": "L8P7S6",
    "result": []
  },
  {
    "postal": "L8P4C1",
    "result": [
      {
        "electoralDistricts": [
          {
            "election": null,
            "id": 36,
            "name": "Hamilton Centre"
          }
        ],
        "pollDivisionIds": [
          10138594
        ],
        "postalCode": "L8P4C1",
        "streetName": "LOCKE",
        "streetDirectionId": "S",
        "streetTypeId": "ST",
        "placeName": "HAMILTON",
        "streetNameDisplayText": "LOCKE ST S, HAMILTON"
      }
    ]
  },
  {
    "postal": "L8P3K2",
    "result": [
      {
        "electoralDistricts": [
          {
            "election": null,
            "id": 36,
            "name": "Hamilton Centre"
          }
        ],
        "pollDivisionIds": [
          10138595
        ],
        "postalCode": "L8P3K2",
        "streetName": "HILTON",
        "streetDirectionId": null,
        "streetTypeId": "ST",
        "placeName": "HAMILTON",
        "streetNameDisplayText": "HILTON ST, HAMILTON"
      }
    ]
  },
  {
    "postal": "L8P1Y5",
    "result": [
      {
        "electoralDistricts": [
          {
            "election": null,
            "id": 36,
            "name": "Hamilton Centre"
          }
        ],
        "pollDivisionIds": [
          10138595
        ],
        "postalCode": "L8P1Y5",
        "streetName": "ROBINSON",
        "streetDirectionId": null,
        "streetTypeId": "ST",
        "placeName": "HAMILTON",
        "streetNameDisplayText": "ROBINSON ST, HAMILTON"
      }
    ]
  },
  {
    "postal": "L8P6P6",
    "result": []
  },
  {
    "postal": "L8P3N9",
    "result": [
      {
        "electoralDistricts": [
          {
            "election": null,
            "id": 36,
            "name": "Hamilton Centre"
          }
        ],
        "pollDivisionIds": [
          10138594
        ],
        "postalCode": "L8P3N9",
        "streetName": "HESS",
        "streetDirectionId": "S",
        "streetTypeId": "ST",
        "placeName": "HAMILTON",
        "streetNameDisplayText": "HESS ST S, HAMILTON"
      }
    ]
  },
  {
    "postal": "L8P3W2",
    "result": [
      {
        "electoralDistricts": [
          {
            "election": null,
            "id": 36,
            "name": "Hamilton Centre"
          }
        ],
        "pollDivisionIds": [
          10138592
        ],
        "postalCode": "L8P3W2",
        "streetName": "RAY",
        "streetDirectionId": "S",
        "streetTypeId": "ST",
        "placeName": "HAMILTON",
        "streetNameDisplayText": "RAY ST S, HAMILTON"
      }
    ]
  },
  {
    "postal": "L8P6H8",
    "result": []
  },
  {
    "postal": "L8P9T3",
    "result": []
  },
  {
    "postal": "L8P5L9",
    "result": []
  },
  {
    "postal": "L8P7X7",
    "result": []
  },
  {
    "postal": "L8P3J5",
    "result": [
      {
        "electoralDistricts": [
          {
            "election": null,
            "id": 36,
            "name": "Hamilton Centre"
          }
        ],
        "pollDivisionIds": [
          10138595
        ],
        "postalCode": "L8P3J5",
        "streetName": "BAY",
        "streetDirectionId": "S",
        "streetTypeId": "ST",
        "placeName": "HAMILTON",
        "streetNameDisplayText": "BAY ST S, HAMILTON"
      }
    ]
  },
  {
    "postal": "L8P4J5",
    "result": [
      {
        "electoralDistricts": [
          {
            "election": null,
            "id": 36,
            "name": "Hamilton Centre"
          }
        ],
        "pollDivisionIds": [
          10138592
        ],
        "postalCode": "L8P4J5",
        "streetName": "NEW",
        "streetDirectionId": null,
        "streetTypeId": "ST",
        "placeName": "HAMILTON",
        "streetNameDisplayText": "NEW ST, HAMILTON"
      }
    ]
  },
  {
    "postal": "L8P6J2",
    "result": []
  },
  {
    "postal": "L8P5V6",
    "result": []
  },
  {
    "postal": "L8P3N2",
    "result": [
      {
        "electoralDistricts": [
          {
            "election": null,
            "id": 36,
            "name": "Hamilton Centre"
          }
        ],
        "pollDivisionIds": [
          10138593
        ],
        "postalCode": "L8P3N2",
        "streetName": "HESS",
        "streetDirectionId": "S",
        "streetTypeId": "ST",
        "placeName": "HAMILTON",
        "streetNameDisplayText": "HESS ST S, HAMILTON"
      }
    ]
  },
  {
    "postal": "L8P3B1",
    "result": []
  },
  {
    "postal": "L8P8B5",
    "result": []
  },
  {
    "postal": "L8P0K1",
    "result": []
  },
  {
    "postal": "L8P7M7",
    "result": []
  },
  {
    "postal": "L8P2M2",
    "result": [
      {
        "electoralDistricts": [
          {
            "election": null,
            "id": 36,
            "name": "Hamilton Centre"
          }
        ],
        "pollDivisionIds": [
          10138594
        ],
        "postalCode": "L8P2M2",
        "streetName": "HOMEWOOD",
        "streetDirectionId": null,
        "streetTypeId": "AVE",
        "placeName": "HAMILTON",
        "streetNameDisplayText": "HOMEWOOD AVE, HAMILTON"
      }
    ]
  },
  {
    "postal": "L8P9N3",
    "result": []
  },
  {
    "postal": "L8P4Y8",
    "result": []
  },
  {
    "postal": "L8P3V7",
    "result": [
      {
        "electoralDistricts": [
          {
            "election": null,
            "id": 36,
            "name": "Hamilton Centre"
          }
        ],
        "pollDivisionIds": [
          10138592
        ],
        "postalCode": "L8P3V7",
        "streetName": "RAY",
        "streetDirectionId": "S",
        "streetTypeId": "ST",
        "placeName": "HAMILTON",
        "streetNameDisplayText": "RAY ST S, HAMILTON"
      }
    ]
  },
  {
    "postal": "L8P8Z1",
    "result": []
  },
  {
    "postal": "L8P7B3",
    "result": []
  },
  {
    "postal": "L8P3A8",
    "result": [
      {
        "electoralDistricts": [
          {
            "election": null,
            "id": 36,
            "name": "Hamilton Centre"
          }
        ],
        "pollDivisionIds": [
          10138601
        ],
        "postalCode": "L8P3A8",
        "streetName": "JAMES",
        "streetDirectionId": "S",
        "streetTypeId": "ST",
        "placeName": "HAMILTON",
        "streetNameDisplayText": "JAMES ST S, HAMILTON"
      }
    ]
  },
  {
    "postal": "L8P7V5",
    "result": []
  },
  {
    "postal": "L8P2T2",
    "result": [
      {
        "electoralDistricts": [
          {
            "election": null,
            "id": 36,
            "name": "Hamilton Centre"
          }
        ],
        "pollDivisionIds": [
          10138595
        ],
        "postalCode": "L8P2T2",
        "streetName": "INGLEWOOD",
        "streetDirectionId": null,
        "streetTypeId": "DR",
        "placeName": "HAMILTON",
        "streetNameDisplayText": "INGLEWOOD DR, HAMILTON"
      }
    ]
  },
  {
    "postal": "L8P6L3",
    "result": []
  },
  {
    "postal": "L8P0L2",
    "result": []
  },
  {
    "postal": "L8P5Y8",
    "result": []
  },
  {
    "postal": "L8P0B8",
    "result": [
      {
        "electoralDistricts": [
          {
            "election": null,
            "id": 36,
            "name": "Hamilton Centre"
          }
        ],
        "pollDivisionIds": [
          10138600
        ],
        "postalCode": "L8P0B8",
        "streetName": "MAIN",
        "streetDirectionId": "W",
        "streetTypeId": "ST",
        "placeName": "HAMILTON",
        "streetNameDisplayText": "MAIN ST W, HAMILTON"
      }
    ]
  },
  {
    "postal": "L8P6R5",
    "result": []
  },
  {
    "postal": "L8P8W6",
    "result": []
  },
  {
    "postal": "L8P8G6",
    "result": []
  },
  {
    "postal": "L8P6X3",
    "result": []
  },
  {
    "postal": "L8P7R7",
    "result": []
  },
  {
    "postal": "L8P4B6",
    "result": [
      {
        "electoralDistricts": [
          {
            "election": null,
            "id": 36,
            "name": "Hamilton Centre"
          }
        ],
        "pollDivisionIds": [
          10138594
        ],
        "postalCode": "L8P4B6",
        "streetName": "LOCKE",
        "streetDirectionId": "S",
        "streetTypeId": "ST",
        "placeName": "HAMILTON",
        "streetNameDisplayText": "LOCKE ST S, HAMILTON"
      }
    ]
  },
  {
    "postal": "L8P3P9",
    "result": [
      {
        "electoralDistricts": [
          {
            "election": null,
            "id": 36,
            "name": "Hamilton Centre"
          }
        ],
        "pollDivisionIds": [
          10138595
        ],
        "postalCode": "L8P3P9",
        "streetName": "HESS",
        "streetDirectionId": "S",
        "streetTypeId": "ST",
        "placeName": "HAMILTON",
        "streetNameDisplayText": "HESS ST S, HAMILTON"
      }
    ]
  },
  {
    "postal": "L8P2T3",
    "result": [
      {
        "electoralDistricts": [
          {
            "election": null,
            "id": 36,
            "name": "Hamilton Centre"
          }
        ],
        "pollDivisionIds": [
          10138595
        ],
        "postalCode": "L8P2T3",
        "streetName": "INGLEWOOD",
        "streetDirectionId": null,
        "streetTypeId": "DR",
        "placeName": "HAMILTON",
        "streetNameDisplayText": "INGLEWOOD DR, HAMILTON"
      }
    ]
  },
  {
    "postal": "L8P1M4",
    "result": [
      {
        "electoralDistricts": [
          {
            "election": null,
            "id": 36,
            "name": "Hamilton Centre"
          }
        ],
        "pollDivisionIds": [
          10138592
        ],
        "postalCode": "L8P1M4",
        "streetName": "JACKSON",
        "streetDirectionId": "W",
        "streetTypeId": "ST",
        "placeName": "HAMILTON",
        "streetNameDisplayText": "JACKSON ST W, HAMILTON"
      }
    ]
  },
  {
    "postal": "L8P0H1",
    "result": []
  },
  {
    "postal": "L8P9W3",
    "result": []
  },
  {
    "postal": "L8P6P1",
    "result": []
  },
  {
    "postal": "L8P7G2",
    "result": []
  },
  {
    "postal": "L8P4J9",
    "result": [
      {
        "electoralDistricts": [
          {
            "election": null,
            "id": 36,
            "name": "Hamilton Centre"
          }
        ],
        "pollDivisionIds": [
          10138592,
          10138598
        ],
        "postalCode": "L8P4J9",
        "streetName": "DUNDURN",
        "streetDirectionId": "S",
        "streetTypeId": "ST",
        "placeName": "HAMILTON",
        "streetNameDisplayText": "DUNDURN ST S, HAMILTON"
      }
    ]
  },
  {
    "postal": "L8P9E4",
    "result": []
  },
  {
    "postal": "L8P8H0",
    "result": []
  },
  {
    "postal": "L8P4M7",
    "result": [
      {
        "electoralDistricts": [
          {
            "election": null,
            "id": 36,
            "name": "Hamilton Centre"
          }
        ],
        "pollDivisionIds": [
          10138591
        ],
        "postalCode": "L8P4M7",
        "streetName": "HYDE PARK",
        "streetDirectionId": null,
        "streetTypeId": "AVE",
        "placeName": "HAMILTON",
        "streetNameDisplayText": "HYDE PARK AVE, HAMILTON"
      }
    ]
  },
  {
    "postal": "L8P2G9",
    "result": [
      {
        "electoralDistricts": [
          {
            "election": null,
            "id": 36,
            "name": "Hamilton Centre"
          }
        ],
        "pollDivisionIds": [
          10138595
        ],
        "postalCode": "L8P2G9",
        "streetName": "HERKIMER",
        "streetDirectionId": null,
        "streetTypeId": "ST",
        "placeName": "HAMILTON",
        "streetNameDisplayText": "HERKIMER ST, HAMILTON"
      }
    ]
  },
  {
    "postal": "L8P8T2",
    "result": []
  },
  {
    "postal": "L8P7G7",
    "result": []
  },
  {
    "postal": "L8P4Z3",
    "result": []
  },
  {
    "postal": "L8P5B3",
    "result": []
  },
  {
    "postal": "L8P1S7",
    "result": [
      {
        "electoralDistricts": [
          {
            "election": null,
            "id": 36,
            "name": "Hamilton Centre"
          }
        ],
        "pollDivisionIds": [
          10138592
        ],
        "postalCode": "L8P1S7",
        "streetName": "HUNTER",
        "streetDirectionId": "W",
        "streetTypeId": "ST",
        "placeName": "HAMILTON",
        "streetNameDisplayText": "HUNTER ST W, HAMILTON"
      }
    ]
  },
  {
    "postal": "L8P2N7",
    "result": [
      {
        "electoralDistricts": [
          {
            "election": null,
            "id": 36,
            "name": "Hamilton Centre"
          }
        ],
        "pollDivisionIds": [
          10138595
        ],
        "postalCode": "L8P2N7",
        "streetName": "ABERDEEN",
        "streetDirectionId": null,
        "streetTypeId": "AVE",
        "placeName": "HAMILTON",
        "streetNameDisplayText": "ABERDEEN AVE, HAMILTON"
      }
    ]
  },
  {
    "postal": "L8P0H8",
    "result": []
  },
  {
    "postal": "L8P7Z4",
    "result": []
  },
  {
    "postal": "L8P7B1",
    "result": []
  },
  {
    "postal": "L8P7P8",
    "result": []
  },
  {
    "postal": "L8P7N0",
    "result": []
  },
  {
    "postal": "L8P3Y5",
    "result": [
      {
        "electoralDistricts": [
          {
            "election": null,
            "id": 36,
            "name": "Hamilton Centre"
          }
        ],
        "pollDivisionIds": [
          10138591
        ],
        "postalCode": "L8P3Y5",
        "streetName": "MAPLESIDE",
        "streetDirectionId": null,
        "streetTypeId": "AVE",
        "placeName": "HAMILTON",
        "streetNameDisplayText": "MAPLESIDE AVE, HAMILTON"
      }
    ]
  },
  {
    "postal": "L8P6K1",
    "result": []
  },
  {
    "postal": "L8P9X5",
    "result": []
  },
  {
    "postal": "L8P7S5",
    "result": []
  },
  {
    "postal": "L8P0A4",
    "result": [
      {
        "electoralDistricts": [
          {
            "election": null,
            "id": 36,
            "name": "Hamilton Centre"
          }
        ],
        "pollDivisionIds": [
          10138598
        ],
        "postalCode": "L8P0A4",
        "streetName": "JACKSON",
        "streetDirectionId": "W",
        "streetTypeId": "ST",
        "placeName": "HAMILTON",
        "streetNameDisplayText": "JACKSON ST W, HAMILTON"
      }
    ]
  },
  {
    "postal": "L8P4T5",
    "result": [
      {
        "electoralDistricts": [
          {
            "election": null,
            "id": 36,
            "name": "Hamilton Centre"
          }
        ],
        "pollDivisionIds": [
          10138595
        ],
        "postalCode": "L8P4T5",
        "streetName": "WHEELER",
        "streetDirectionId": null,
        "streetTypeId": "PL",
        "placeName": "HAMILTON",
        "streetNameDisplayText": "WHEELER PL, HAMILTON"
      }
    ]
  },
  {
    "postal": "L8P5K1",
    "result": []
  },
  {
    "postal": "L8P0Z9",
    "result": []
  },
  {
    "postal": "L8P7T2",
    "result": []
  },
  {
    "postal": "L8P1L5",
    "result": []
  },
  {
    "postal": "L8P3N5",
    "result": [
      {
        "electoralDistricts": [
          {
            "election": null,
            "id": 36,
            "name": "Hamilton Centre"
          }
        ],
        "pollDivisionIds": [
          10138592
        ],
        "postalCode": "L8P3N5",
        "streetName": "HESS",
        "streetDirectionId": "S",
        "streetTypeId": "ST",
        "placeName": "HAMILTON",
        "streetNameDisplayText": "HESS ST S, HAMILTON"
      }
    ]
  },
  {
    "postal": "L8P6H4",
    "result": []
  },
  {
    "postal": "L8P5A5",
    "result": []
  },
  {
    "postal": "L8P3R9",
    "result": [
      {
        "electoralDistricts": [
          {
            "election": null,
            "id": 36,
            "name": "Hamilton Centre"
          }
        ],
        "pollDivisionIds": [
          10138592
        ],
        "postalCode": "L8P3R9",
        "streetName": "QUEEN",
        "streetDirectionId": "S",
        "streetTypeId": "ST",
        "placeName": "HAMILTON",
        "streetNameDisplayText": "QUEEN ST S, HAMILTON"
      }
    ]
  },
  {
    "postal": "L8P7L8",
    "result": []
  },
  {
    "postal": "L8P6T6",
    "result": []
  },
  {
    "postal": "L8P7Y7",
    "result": []
  },
  {
    "postal": "L8P3M8",
    "result": [
      {
        "electoralDistricts": [
          {
            "election": null,
            "id": 36,
            "name": "Hamilton Centre"
          }
        ],
        "pollDivisionIds": [
          10138593
        ],
        "postalCode": "L8P3M8",
        "streetName": "HESS",
        "streetDirectionId": "S",
        "streetTypeId": "ST",
        "placeName": "HAMILTON",
        "streetNameDisplayText": "HESS ST S, HAMILTON"
      }
    ]
  },
  {
    "postal": "L8P2E0",
    "result": []
  },
  {
    "postal": "L8P4B5",
    "result": [
      {
        "electoralDistricts": [
          {
            "election": null,
            "id": 36,
            "name": "Hamilton Centre"
          }
        ],
        "pollDivisionIds": [
          10138594
        ],
        "postalCode": "L8P4B5",
        "streetName": "LOCKE",
        "streetDirectionId": "S",
        "streetTypeId": "ST",
        "placeName": "HAMILTON",
        "streetNameDisplayText": "LOCKE ST S, HAMILTON"
      }
    ]
  },
  {
    "postal": "L8P1J3",
    "result": [
      {
        "electoralDistricts": [
          {
            "election": null,
            "id": 36,
            "name": "Hamilton Centre"
          }
        ],
        "pollDivisionIds": [
          10138593
        ],
        "postalCode": "L8P1J3",
        "streetName": "MAIN",
        "streetDirectionId": "W",
        "streetTypeId": "ST",
        "placeName": "HAMILTON",
        "streetNameDisplayText": "MAIN ST W, HAMILTON"
      }
    ]
  },
  {
    "postal": "L8P5S6",
    "result": []
  },
  {
    "postal": "L8P8P7",
    "result": []
  },
  {
    "postal": "L8P7S7",
    "result": []
  },
  {
    "postal": "L8P4C2",
    "result": [
      {
        "electoralDistricts": [
          {
            "election": null,
            "id": 36,
            "name": "Hamilton Centre"
          }
        ],
        "pollDivisionIds": [
          10138594
        ],
        "postalCode": "L8P4C2",
        "streetName": "LOCKE",
        "streetDirectionId": "S",
        "streetTypeId": "ST",
        "placeName": "HAMILTON",
        "streetNameDisplayText": "LOCKE ST S, HAMILTON"
      }
    ]
  },
  {
    "postal": "L8P5Y0",
    "result": []
  },
  {
    "postal": "L8P2V7",
    "result": [
      {
        "electoralDistricts": [
          {
            "election": null,
            "id": 36,
            "name": "Hamilton Centre"
          }
        ],
        "pollDivisionIds": [
          10138591
        ],
        "postalCode": "L8P2V7",
        "streetName": "ORCHARD",
        "streetDirectionId": null,
        "streetTypeId": "HILL",
        "placeName": "HAMILTON",
        "streetNameDisplayText": "ORCHARD HILL, HAMILTON"
      }
    ]
  },
  {
    "postal": "L8P8P5",
    "result": []
  },
  {
    "postal": "L8P5P5",
    "result": []
  },
  {
    "postal": "L8P5Z0",
    "result": []
  },
  {
    "postal": "L8P9B0",
    "result": []
  },
  {
    "postal": "L8P1L0",
    "result": []
  },
  {
    "postal": "L8P0B5",
    "result": []
  },
  {
    "postal": "L8P3L2",
    "result": [
      {
        "electoralDistricts": [
          {
            "election": null,
            "id": 36,
            "name": "Hamilton Centre"
          }
        ],
        "pollDivisionIds": [
          10138595
        ],
        "postalCode": "L8P3L2",
        "streetName": "CAROLINE",
        "streetDirectionId": "S",
        "streetTypeId": "ST",
        "placeName": "HAMILTON",
        "streetNameDisplayText": "CAROLINE ST S, HAMILTON"
      }
    ]
  },
  {
    "postal": "L8P3B7",
    "result": [
      {
        "electoralDistricts": [
          {
            "election": null,
            "id": 36,
            "name": "Hamilton Centre"
          }
        ],
        "pollDivisionIds": [
          10138601,
          10138602
        ],
        "postalCode": "L8P3B7",
        "streetName": "JAMES",
        "streetDirectionId": "S",
        "streetTypeId": "ST",
        "placeName": "HAMILTON",
        "streetNameDisplayText": "JAMES ST S, HAMILTON"
      }
    ]
  },
  {
    "postal": "L8P8L1",
    "result": []
  },
  {
    "postal": "L8P5M4",
    "result": []
  },
  {
    "postal": "L8P4G9",
    "result": [
      {
        "electoralDistricts": [
          {
            "election": null,
            "id": 36,
            "name": "Hamilton Centre"
          }
        ],
        "pollDivisionIds": [
          10138591
        ],
        "postalCode": "L8P4G9",
        "streetName": "BEULAH",
        "streetDirectionId": null,
        "streetTypeId": "AVE",
        "placeName": "HAMILTON",
        "streetNameDisplayText": "BEULAH AVE, HAMILTON"
      }
    ]
  },
  {
    "postal": "L8P0P0",
    "result": []
  },
  {
    "postal": "L8P8G2",
    "result": []
  },
  {
    "postal": "L8P1V9",
    "result": [
      {
        "electoralDistricts": [
          {
            "election": null,
            "id": 36,
            "name": "Hamilton Centre"
          }
        ],
        "pollDivisionIds": [
          10138594
        ],
        "postalCode": "L8P1V9",
        "streetName": "BOLD",
        "streetDirectionId": null,
        "streetTypeId": "ST",
        "placeName": "HAMILTON",
        "streetNameDisplayText": "BOLD ST, HAMILTON"
      }
    ]
  },
  {
    "postal": "L8P8N8",
    "result": []
  },
  {
    "postal": "L8P6S8",
    "result": []
  },
  {
    "postal": "L8P8H2",
    "result": []
  },
  {
    "postal": "L8P5R8",
    "result": []
  },
  {
    "postal": "L8P5L4",
    "result": []
  },
  {
    "postal": "L8P9E1",
    "result": []
  },
  {
    "postal": "L8P1C4",
    "result": [
      {
        "electoralDistricts": [
          {
            "election": null,
            "id": 36,
            "name": "Hamilton Centre"
          }
        ],
        "pollDivisionIds": [
          10138592
        ],
        "postalCode": "L8P1C4",
        "streetName": "KING",
        "streetDirectionId": "W",
        "streetTypeId": "ST",
        "placeName": "HAMILTON",
        "streetNameDisplayText": "KING ST W, HAMILTON"
      }
    ]
  },
  {
    "postal": "L8P8W5",
    "result": []
  },
  {
    "postal": "L8P1Y4",
    "result": [
      {
        "electoralDistricts": [
          {
            "election": null,
            "id": 36,
            "name": "Hamilton Centre"
          }
        ],
        "pollDivisionIds": [
          10138594
        ],
        "postalCode": "L8P1Y4",
        "streetName": "DUKE",
        "streetDirectionId": null,
        "streetTypeId": "ST",
        "placeName": "HAMILTON",
        "streetNameDisplayText": "DUKE ST, HAMILTON"
      }
    ]
  },
  {
    "postal": "L8P1C0",
    "result": []
  },
  {
    "postal": "L8P2J2",
    "result": [
      {
        "electoralDistricts": [
          {
            "election": null,
            "id": 36,
            "name": "Hamilton Centre"
          }
        ],
        "pollDivisionIds": [
          10138594
        ],
        "postalCode": "L8P2J2",
        "streetName": "HERKIMER",
        "streetDirectionId": null,
        "streetTypeId": "ST",
        "placeName": "HAMILTON",
        "streetNameDisplayText": "HERKIMER ST, HAMILTON"
      }
    ]
  },
  {
    "postal": "L8P2J0",
    "result": []
  },
  {
    "postal": "L8P7A3",
    "result": []
  },
  {
    "postal": "L8P8M1",
    "result": []
  },
  {
    "postal": "L8P7T9",
    "result": []
  },
  {
    "postal": "L8P6C0",
    "result": []
  },
  {
    "postal": "L8P7X1",
    "result": []
  },
  {
    "postal": "L8P0G1",
    "result": []
  },
  {
    "postal": "L8P4X2",
    "result": []
  },
  {
    "postal": "L8P0N6",
    "result": []
  },
  {
    "postal": "L8P8E3",
    "result": []
  },
  {
    "postal": "L8P5S8",
    "result": []
  },
  {
    "postal": "L8P0R0",
    "result": []
  },
  {
    "postal": "L8P6J6",
    "result": []
  },
  {
    "postal": "L8P4B4",
    "result": [
      {
        "electoralDistricts": [
          {
            "election": null,
            "id": 36,
            "name": "Hamilton Centre"
          }
        ],
        "pollDivisionIds": [
          10138594
        ],
        "postalCode": "L8P4B4",
        "streetName": "LOCKE",
        "streetDirectionId": "S",
        "streetTypeId": "ST",
        "placeName": "HAMILTON",
        "streetNameDisplayText": "LOCKE ST S, HAMILTON"
      }
    ]
  },
  {
    "postal": "L8P7E3",
    "result": []
  },
  {
    "postal": "L8P3N6",
    "result": [
      {
        "electoralDistricts": [
          {
            "election": null,
            "id": 36,
            "name": "Hamilton Centre"
          }
        ],
        "pollDivisionIds": [
          10138592
        ],
        "postalCode": "L8P3N6",
        "streetName": "HESS",
        "streetDirectionId": "S",
        "streetTypeId": "ST",
        "placeName": "HAMILTON",
        "streetNameDisplayText": "HESS ST S, HAMILTON"
      }
    ]
  },
  {
    "postal": "L8P3X6",
    "result": [
      {
        "electoralDistricts": [
          {
            "election": null,
            "id": 36,
            "name": "Hamilton Centre"
          }
        ],
        "pollDivisionIds": [
          10138592
        ],
        "postalCode": "L8P3X6",
        "streetName": "PEARL",
        "streetDirectionId": "S",
        "streetTypeId": "ST",
        "placeName": "HAMILTON",
        "streetNameDisplayText": "PEARL ST S, HAMILTON"
      }
    ]
  },
  {
    "postal": "L8P8L0",
    "result": []
  },
  {
    "postal": "L8P8N1",
    "result": []
  },
  {
    "postal": "L8P4J0",
    "result": []
  },
  {
    "postal": "L8P0X7",
    "result": []
  },
  {
    "postal": "L8P6S4",
    "result": []
  },
  {
    "postal": "L8P0Z0",
    "result": []
  },
  {
    "postal": "L8P9X8",
    "result": []
  },
  {
    "postal": "L8P3H3",
    "result": [
      {
        "electoralDistricts": [
          {
            "election": null,
            "id": 36,
            "name": "Hamilton Centre"
          }
        ],
        "pollDivisionIds": [
          10138598
        ],
        "postalCode": "L8P3H3",
        "streetName": "BAY",
        "streetDirectionId": "S",
        "streetTypeId": "ST",
        "placeName": "HAMILTON",
        "streetNameDisplayText": "BAY ST S, HAMILTON"
      }
    ]
  },
  {
    "postal": "L8P7S2",
    "result": []
  },
  {
    "postal": "L8P3T3",
    "result": [
      {
        "electoralDistricts": [
          {
            "election": null,
            "id": 36,
            "name": "Hamilton Centre"
          }
        ],
        "pollDivisionIds": [
          10138594
        ],
        "postalCode": "L8P3T3",
        "streetName": "QUEEN",
        "streetDirectionId": "S",
        "streetTypeId": "ST",
        "placeName": "HAMILTON",
        "streetNameDisplayText": "QUEEN ST S, HAMILTON"
      }
    ]
  },
  {
    "postal": "L8P9P3",
    "result": []
  },
  {
    "postal": "L8P4H8",
    "result": [
      {
        "electoralDistricts": [
          {
            "election": null,
            "id": 36,
            "name": "Hamilton Centre"
          }
        ],
        "pollDivisionIds": [
          10138591
        ],
        "postalCode": "L8P4H8",
        "streetName": "MOUNT ROYAL",
        "streetDirectionId": null,
        "streetTypeId": "AVE",
        "placeName": "HAMILTON",
        "streetNameDisplayText": "MOUNT ROYAL AVE, HAMILTON"
      }
    ]
  },
  {
    "postal": "L8P6R1",
    "result": []
  },
  {
    "postal": "L8P1S0",
    "result": []
  },
  {
    "postal": "L8P3W8",
    "result": [
      {
        "electoralDistricts": [
          {
            "election": null,
            "id": 36,
            "name": "Hamilton Centre"
          }
        ],
        "pollDivisionIds": [
          10138592
        ],
        "postalCode": "L8P3W8",
        "streetName": "PEARL",
        "streetDirectionId": "S",
        "streetTypeId": "ST",
        "placeName": "HAMILTON",
        "streetNameDisplayText": "PEARL ST S, HAMILTON"
      }
    ]
  },
  {
    "postal": "L8P4S3",
    "result": [
      {
        "electoralDistricts": [
          {
            "election": null,
            "id": 36,
            "name": "Hamilton Centre"
          }
        ],
        "pollDivisionIds": [
          10138596
        ],
        "postalCode": "L8P4S3",
        "streetName": "BOLD",
        "streetDirectionId": null,
        "streetTypeId": "ST",
        "placeName": "HAMILTON",
        "streetNameDisplayText": "BOLD ST, HAMILTON"
      }
    ]
  },
  {
    "postal": "L8P1B6",
    "result": []
  },
  {
    "postal": "L8P8R3",
    "result": []
  },
  {
    "postal": "L8P4V9",
    "result": [
      {
        "electoralDistricts": [
          {
            "election": null,
            "id": 36,
            "name": "Hamilton Centre"
          }
        ],
        "pollDivisionIds": [
          10138598
        ],
        "postalCode": "L8P4V9",
        "streetName": "BAY",
        "streetDirectionId": "S",
        "streetTypeId": "ST",
        "placeName": "HAMILTON",
        "streetNameDisplayText": "BAY ST S, HAMILTON"
      }
    ]
  },
  {
    "postal": "L8P9W4",
    "result": []
  },
  {
    "postal": "L8P3T4",
    "result": [
      {
        "electoralDistricts": [
          {
            "election": null,
            "id": 36,
            "name": "Hamilton Centre"
          }
        ],
        "pollDivisionIds": [
          10138595
        ],
        "postalCode": "L8P3T4",
        "streetName": "QUEEN",
        "streetDirectionId": "S",
        "streetTypeId": "ST",
        "placeName": "HAMILTON",
        "streetNameDisplayText": "QUEEN ST S, HAMILTON"
      }
    ]
  },
  {
    "postal": "L8P5C7",
    "result": []
  },
  {
    "postal": "L8P3Y1",
    "result": [
      {
        "electoralDistricts": [
          {
            "election": null,
            "id": 36,
            "name": "Hamilton Centre"
          }
        ],
        "pollDivisionIds": [
          10138594
        ],
        "postalCode": "L8P3Y1",
        "streetName": "REGINALD",
        "streetDirectionId": null,
        "streetTypeId": "ST",
        "placeName": "HAMILTON",
        "streetNameDisplayText": "REGINALD ST, HAMILTON"
      }
    ]
  },
  {
    "postal": "L8P5V0",
    "result": []
  },
  {
    "postal": "L8P8G8",
    "result": []
  },
  {
    "postal": "L8P8B1",
    "result": []
  },
  {
    "postal": "L8P4P5",
    "result": [
      {
        "electoralDistricts": [
          {
            "election": null,
            "id": 36,
            "name": "Hamilton Centre"
          }
        ],
        "pollDivisionIds": [
          10138592
        ],
        "postalCode": "L8P4P5",
        "streetName": "LINWOOD",
        "streetDirectionId": null,
        "streetTypeId": "AVE",
        "placeName": "HAMILTON",
        "streetNameDisplayText": "LINWOOD AVE, HAMILTON"
      }
    ]
  },
  {
    "postal": "L8P7B2",
    "result": []
  },
  {
    "postal": "L8P0R2",
    "result": []
  },
  {
    "postal": "L8P4M4",
    "result": [
      {
        "electoralDistricts": [
          {
            "election": null,
            "id": 36,
            "name": "Hamilton Centre"
          }
        ],
        "pollDivisionIds": [
          10138592
        ],
        "postalCode": "L8P4M4",
        "streetName": "FRID",
        "streetDirectionId": null,
        "streetTypeId": "ST",
        "placeName": "HAMILTON",
        "streetNameDisplayText": "FRID ST, HAMILTON"
      }
    ]
  },
  {
    "postal": "L8P7M4",
    "result": []
  },
  {
    "postal": "L8P9S7",
    "result": []
  },
  {
    "postal": "L8P5Z7",
    "result": []
  },
  {
    "postal": "L8P7J7",
    "result": []
  },
  {
    "postal": "L8P8R8",
    "result": []
  },
  {
    "postal": "L8P9X1",
    "result": []
  },
  {
    "postal": "L8P5M9",
    "result": []
  },
  {
    "postal": "L8P9B4",
    "result": []
  },
  {
    "postal": "L8P0L9",
    "result": []
  },
  {
    "postal": "L8P9G4",
    "result": []
  },
  {
    "postal": "L8P1J4",
    "result": [
      {
        "electoralDistricts": [
          {
            "election": null,
            "id": 31,
            "name": "Flamborough—Glanbrook"
          }
        ],
        "pollDivisionIds": [
          10138248
        ],
        "postalCode": "L8P1J4",
        "streetName": "MAIN",
        "streetDirectionId": "N",
        "streetTypeId": "ST",
        "placeName": "HAMILTON",
        "streetNameDisplayText": "MAIN ST N, HAMILTON"
      },
      {
        "electoralDistricts": [
          {
            "election": null,
            "id": 31,
            "name": "Flamborough—Glanbrook"
          }
        ],
        "pollDivisionIds": [
          10138250
        ],
        "postalCode": "L8P1J4",
        "streetName": "MAIN",
        "streetDirectionId": "S",
        "streetTypeId": "ST",
        "placeName": "HAMILTON",
        "streetNameDisplayText": "MAIN ST S, HAMILTON"
      },
      {
        "electoralDistricts": [
          {
            "election": null,
            "id": 36,
            "name": "Hamilton Centre"
          },
          {
            "election": null,
            "id": 31,
            "name": "Flamborough—Glanbrook"
          }
        ],
        "pollDivisionIds": [
          10138593,
          10138248
        ],
        "postalCode": "L8P1J4",
        "streetName": "MAIN",
        "streetDirectionId": "W",
        "streetTypeId": "ST",
        "placeName": "HAMILTON",
        "streetNameDisplayText": "MAIN ST W, HAMILTON"
      }
    ]
  },
  {
    "postal": "L8P0W6",
    "result": []
  }
]
