[
  {
    "postal": "L5H9J6",
    "result": []
  },
  {
    "postal": "L5H9Z5",
    "result": []
  },
  {
    "postal": "L5H7H8",
    "result": []
  },
  {
    "postal": "L5H0P6",
    "result": []
  },
  {
    "postal": "L5H0S7",
    "result": []
  },
  {
    "postal": "L5H8B9",
    "result": []
  },
  {
    "postal": "L5H2A6",
    "result": [
      {
        "electoralDistricts": [
          {
            "election": null,
            "id": 63,
            "name": "Mississauga—Lakeshore"
          }
        ],
        "pollDivisionIds": [
          10139759
        ],
        "postalCode": "L5H2A6",
        "streetName": "BEEMER",
        "streetDirectionId": null,
        "streetTypeId": "AVE",
        "placeName": "MISSISSAUGA",
        "streetNameDisplayText": "BEEMER AVE, MISSISSAUGA"
      }
    ]
  },
  {
    "postal": "L5H7V2",
    "result": []
  },
  {
    "postal": "L5H9P4",
    "result": []
  },
  {
    "postal": "L5H6G0",
    "result": []
  },
  {
    "postal": "L5H2K0",
    "result": []
  },
  {
    "postal": "L5H7N6",
    "result": []
  },
  {
    "postal": "L5H5R3",
    "result": []
  },
  {
    "postal": "L5H7K0",
    "result": []
  },
  {
    "postal": "L5H3R2",
    "result": [
      {
        "electoralDistricts": [
          {
            "election": null,
            "id": 63,
            "name": "Mississauga—Lakeshore"
          }
        ],
        "pollDivisionIds": [
          10139758
        ],
        "postalCode": "L5H3R2",
        "streetName": "LAKESHORE",
        "streetDirectionId": "W",
        "streetTypeId": "RD",
        "placeName": "MISSISSAUGA",
        "streetNameDisplayText": "LAKESHORE RD W, MISSISSAUGA"
      },
      {
        "electoralDistricts": [
          {
            "election": null,
            "id": 63,
            "name": "Mississauga—Lakeshore"
          }
        ],
        "pollDivisionIds": [
          10139758
        ],
        "postalCode": "L5H3R2",
        "streetName": "LAKESHORE RD WEST",
        "streetDirectionId": "W",
        "streetTypeId": "RD",
        "placeName": "MISSISSAUGA",
        "streetNameDisplayText": "LAKESHORE RD WEST RD W, MISSISSAUGA"
      }
    ]
  },
  {
    "postal": "L5H0J1",
    "result": []
  },
  {
    "postal": "L5H0B0",
    "result": []
  },
  {
    "postal": "L5H5Z2",
    "result": []
  },
  {
    "postal": "L5H7P3",
    "result": []
  },
  {
    "postal": "L5H2K3",
    "result": [
      {
        "electoralDistricts": [
          {
            "election": null,
            "id": 63,
            "name": "Mississauga—Lakeshore"
          }
        ],
        "pollDivisionIds": [
          10139757
        ],
        "postalCode": "L5H2K3",
        "streetName": "MISSISSAUGA",
        "streetDirectionId": null,
        "streetTypeId": "RD",
        "placeName": "MISSISSAUGA",
        "streetNameDisplayText": "MISSISSAUGA RD, MISSISSAUGA"
      }
    ]
  },
  {
    "postal": "L5H7Y6",
    "result": []
  },
  {
    "postal": "L5H1L9",
    "result": [
      {
        "electoralDistricts": [
          {
            "election": null,
            "id": 63,
            "name": "Mississauga—Lakeshore"
          }
        ],
        "pollDivisionIds": [
          10139763
        ],
        "postalCode": "L5H1L9",
        "streetName": "BRAMBLEWOOD",
        "streetDirectionId": null,
        "streetTypeId": "LANE",
        "placeName": "MISSISSAUGA",
        "streetNameDisplayText": "BRAMBLEWOOD LANE, MISSISSAUGA"
      }
    ]
  },
  {
    "postal": "L5H8T0",
    "result": []
  },
  {
    "postal": "L5H3K8",
    "result": [
      {
        "electoralDistricts": [
          {
            "election": null,
            "id": 63,
            "name": "Mississauga—Lakeshore"
          }
        ],
        "pollDivisionIds": [
          10139761
        ],
        "postalCode": "L5H3K8",
        "streetName": "GLEN",
        "streetDirectionId": null,
        "streetTypeId": "RD",
        "placeName": "MISSISSAUGA",
        "streetNameDisplayText": "GLEN RD, MISSISSAUGA"
      }
    ]
  },
  {
    "postal": "L5H5W9",
    "result": []
  },
  {
    "postal": "L5H6T9",
    "result": []
  },
  {
    "postal": "L5H4H1",
    "result": []
  },
  {
    "postal": "L5H7A2",
    "result": []
  },
  {
    "postal": "L5H5G0",
    "result": []
  },
  {
    "postal": "L5H8V5",
    "result": []
  },
  {
    "postal": "L5H2Y8",
    "result": [
      {
        "electoralDistricts": [
          {
            "election": null,
            "id": 63,
            "name": "Mississauga—Lakeshore"
          }
        ],
        "pollDivisionIds": [
          10139763
        ],
        "postalCode": "L5H2Y8",
        "streetName": "TENNYSON",
        "streetDirectionId": null,
        "streetTypeId": "AVE",
        "placeName": "MISSISSAUGA",
        "streetNameDisplayText": "TENNYSON AVE, MISSISSAUGA"
      }
    ]
  },
  {
    "postal": "L5H2B6",
    "result": [
      {
        "electoralDistricts": [
          {
            "election": null,
            "id": 63,
            "name": "Mississauga—Lakeshore"
          }
        ],
        "pollDivisionIds": [
          10139759
        ],
        "postalCode": "L5H2B6",
        "streetName": "BUNSDEN",
        "streetDirectionId": null,
        "streetTypeId": "AVE",
        "placeName": "MISSISSAUGA",
        "streetNameDisplayText": "BUNSDEN AVE, MISSISSAUGA"
      }
    ]
  },
  {
    "postal": "L5H4W8",
    "result": []
  },
  {
    "postal": "L5H8H7",
    "result": []
  },
  {
    "postal": "L5H5P1",
    "result": []
  },
  {
    "postal": "L5H2B8",
    "result": [
      {
        "electoralDistricts": [
          {
            "election": null,
            "id": 63,
            "name": "Mississauga—Lakeshore"
          }
        ],
        "pollDivisionIds": [
          10139759
        ],
        "postalCode": "L5H2B8",
        "streetName": "ATRIUM",
        "streetDirectionId": null,
        "streetTypeId": "CRT",
        "placeName": "MISSISSAUGA",
        "streetNameDisplayText": "ATRIUM CRT, MISSISSAUGA"
      }
    ]
  },
  {
    "postal": "L5H0P2",
    "result": []
  },
  {
    "postal": "L5H9M1",
    "result": []
  },
  {
    "postal": "L5H3G0",
    "result": []
  },
  {
    "postal": "L5H9Z2",
    "result": []
  },
  {
    "postal": "L5H2A0",
    "result": []
  },
  {
    "postal": "L5H6Y0",
    "result": []
  },
  {
    "postal": "L5H2Z8",
    "result": [
      {
        "electoralDistricts": [
          {
            "election": null,
            "id": 63,
            "name": "Mississauga—Lakeshore"
          }
        ],
        "pollDivisionIds": [
          10139760
        ],
        "postalCode": "L5H2Z8",
        "streetName": "CLOVERBRAE",
        "streetDirectionId": null,
        "streetTypeId": "CRES",
        "placeName": "MISSISSAUGA",
        "streetNameDisplayText": "CLOVERBRAE CRES, MISSISSAUGA"
      }
    ]
  },
  {
    "postal": "L5H7Y3",
    "result": []
  },
  {
    "postal": "L5H6Z5",
    "result": []
  },
  {
    "postal": "L5H6E0",
    "result": []
  },
  {
    "postal": "L5H9B7",
    "result": []
  },
  {
    "postal": "L5H9S5",
    "result": []
  },
  {
    "postal": "L5H3X3",
    "result": [
      {
        "electoralDistricts": [
          {
            "election": null,
            "id": 63,
            "name": "Mississauga—Lakeshore"
          }
        ],
        "pollDivisionIds": [
          10139760
        ],
        "postalCode": "L5H3X3",
        "streetName": "CRESTDALE",
        "streetDirectionId": null,
        "streetTypeId": "RD",
        "placeName": "MISSISSAUGA",
        "streetNameDisplayText": "CRESTDALE RD, MISSISSAUGA"
      }
    ]
  },
  {
    "postal": "L5H7R5",
    "result": []
  },
  {
    "postal": "L5H2X3",
    "result": [
      {
        "electoralDistricts": [
          {
            "election": null,
            "id": 63,
            "name": "Mississauga—Lakeshore"
          }
        ],
        "pollDivisionIds": [
          10139763
        ],
        "postalCode": "L5H2X3",
        "streetName": "WHITTIER",
        "streetDirectionId": null,
        "streetTypeId": "CRES",
        "placeName": "MISSISSAUGA",
        "streetNameDisplayText": "WHITTIER CRES, MISSISSAUGA"
      }
    ]
  },
  {
    "postal": "L5H8Z9",
    "result": []
  },
  {
    "postal": "L5H0N4",
    "result": []
  },
  {
    "postal": "L5H1K1",
    "result": [
      {
        "electoralDistricts": [
          {
            "election": null,
            "id": 63,
            "name": "Mississauga—Lakeshore"
          }
        ],
        "pollDivisionIds": [
          10139758
        ],
        "postalCode": "L5H1K1",
        "streetName": "HIGH",
        "streetDirectionId": "W",
        "streetTypeId": "ST",
        "placeName": "MISSISSAUGA",
        "streetNameDisplayText": "HIGH ST W, MISSISSAUGA"
      }
    ]
  },
  {
    "postal": "L5H1S3",
    "result": [
      {
        "electoralDistricts": [
          {
            "election": null,
            "id": 63,
            "name": "Mississauga—Lakeshore"
          }
        ],
        "pollDivisionIds": [
          10139760
        ],
        "postalCode": "L5H1S3",
        "streetName": "INDIAN",
        "streetDirectionId": null,
        "streetTypeId": "RD",
        "placeName": "MISSISSAUGA",
        "streetNameDisplayText": "INDIAN RD, MISSISSAUGA"
      }
    ]
  },
  {
    "postal": "L5H6M4",
    "result": []
  },
  {
    "postal": "L5H9A9",
    "result": []
  },
  {
    "postal": "L5H9Z9",
    "result": []
  },
  {
    "postal": "L5H6T4",
    "result": []
  },
  {
    "postal": "L5H0B2",
    "result": []
  },
  {
    "postal": "L5H2L9",
    "result": [
      {
        "electoralDistricts": [
          {
            "election": null,
            "id": 63,
            "name": "Mississauga—Lakeshore"
          }
        ],
        "pollDivisionIds": [
          10139757
        ],
        "postalCode": "L5H2L9",
        "streetName": "KNARESWOOD",
        "streetDirectionId": null,
        "streetTypeId": "DR",
        "placeName": "MISSISSAUGA",
        "streetNameDisplayText": "KNARESWOOD DR, MISSISSAUGA"
      }
    ]
  },
  {
    "postal": "L5H8K9",
    "result": []
  },
  {
    "postal": "L5H2H9",
    "result": [
      {
        "electoralDistricts": [
          {
            "election": null,
            "id": 63,
            "name": "Mississauga—Lakeshore"
          }
        ],
        "pollDivisionIds": [
          10139758
        ],
        "postalCode": "L5H2H9",
        "streetName": "MISSISSAUGA",
        "streetDirectionId": "N",
        "streetTypeId": "RD",
        "placeName": "MISSISSAUGA",
        "streetNameDisplayText": "MISSISSAUGA RD N, MISSISSAUGA"
      }
    ]
  },
  {
    "postal": "L5H3Z6",
    "result": [
      {
        "electoralDistricts": [
          {
            "election": null,
            "id": 63,
            "name": "Mississauga—Lakeshore"
          }
        ],
        "pollDivisionIds": [
          10139759
        ],
        "postalCode": "L5H3Z6",
        "streetName": "SHANNON",
        "streetDirectionId": null,
        "streetTypeId": "DR",
        "placeName": "MISSISSAUGA",
        "streetNameDisplayText": "SHANNON DR, MISSISSAUGA"
      }
    ]
  },
  {
    "postal": "L5H3B0",
    "result": []
  },
  {
    "postal": "L5H2H8",
    "result": [
      {
        "electoralDistricts": [
          {
            "election": null,
            "id": 63,
            "name": "Mississauga—Lakeshore"
          }
        ],
        "pollDivisionIds": [
          10139758
        ],
        "postalCode": "L5H2H8",
        "streetName": "MISSISSAUGA",
        "streetDirectionId": "N",
        "streetTypeId": "RD",
        "placeName": "MISSISSAUGA",
        "streetNameDisplayText": "MISSISSAUGA RD N, MISSISSAUGA"
      }
    ]
  },
  {
    "postal": "L5H3X2",
    "result": [
      {
        "electoralDistricts": [
          {
            "election": null,
            "id": 63,
            "name": "Mississauga—Lakeshore"
          }
        ],
        "pollDivisionIds": [
          10139760
        ],
        "postalCode": "L5H3X2",
        "streetName": "ROYAL OAKS",
        "streetDirectionId": null,
        "streetTypeId": "RD",
        "placeName": "MISSISSAUGA",
        "streetNameDisplayText": "ROYAL OAKS RD, MISSISSAUGA"
      }
    ]
  },
  {
    "postal": "L5H2E9",
    "result": [
      {
        "electoralDistricts": [
          {
            "election": null,
            "id": 63,
            "name": "Mississauga—Lakeshore"
          }
        ],
        "pollDivisionIds": [
          10139758
        ],
        "postalCode": "L5H2E9",
        "streetName": "JOHN",
        "streetDirectionId": "N",
        "streetTypeId": "ST",
        "placeName": "MISSISSAUGA",
        "streetNameDisplayText": "JOHN ST N, MISSISSAUGA"
      }
    ]
  },
  {
    "postal": "L5H9P6",
    "result": []
  },
  {
    "postal": "L5H9E2",
    "result": []
  },
  {
    "postal": "L5H9H2",
    "result": []
  },
  {
    "postal": "L5H1S8",
    "result": [
      {
        "electoralDistricts": [
          {
            "election": null,
            "id": 63,
            "name": "Mississauga—Lakeshore"
          }
        ],
        "pollDivisionIds": [
          10139757
        ],
        "postalCode": "L5H1S8",
        "streetName": "TEMAGAMI",
        "streetDirectionId": null,
        "streetTypeId": "CRES",
        "placeName": "MISSISSAUGA",
        "streetNameDisplayText": "TEMAGAMI CRES, MISSISSAUGA"
      }
    ]
  },
  {
    "postal": "L5H3M6",
    "result": [
      {
        "electoralDistricts": [
          {
            "election": null,
            "id": 63,
            "name": "Mississauga—Lakeshore"
          }
        ],
        "pollDivisionIds": [
          10139759
        ],
        "postalCode": "L5H3M6",
        "streetName": "PORTWAY",
        "streetDirectionId": null,
        "streetTypeId": "AVE",
        "placeName": "MISSISSAUGA",
        "streetNameDisplayText": "PORTWAY AVE, MISSISSAUGA"
      }
    ]
  },
  {
    "postal": "L5H6Z8",
    "result": []
  },
  {
    "postal": "L5H4J2",
    "result": [
      {
        "electoralDistricts": [
          {
            "election": null,
            "id": 63,
            "name": "Mississauga—Lakeshore"
          }
        ],
        "pollDivisionIds": [
          10139761
        ],
        "postalCode": "L5H4J2",
        "streetName": "LINDBURGH",
        "streetDirectionId": null,
        "streetTypeId": "CRT",
        "placeName": "MISSISSAUGA",
        "streetNameDisplayText": "LINDBURGH CRT, MISSISSAUGA"
      }
    ]
  },
  {
    "postal": "L5H9Y1",
    "result": []
  },
  {
    "postal": "L5H8V6",
    "result": []
  },
  {
    "postal": "L5H6B2",
    "result": []
  },
  {
    "postal": "L5H1P8",
    "result": [
      {
        "electoralDistricts": [
          {
            "election": null,
            "id": 63,
            "name": "Mississauga—Lakeshore"
          }
        ],
        "pollDivisionIds": [
          10139757
        ],
        "postalCode": "L5H1P8",
        "streetName": "INDIAN",
        "streetDirectionId": null,
        "streetTypeId": "RD",
        "placeName": "MISSISSAUGA",
        "streetNameDisplayText": "INDIAN RD, MISSISSAUGA"
      }
    ]
  },
  {
    "postal": "L5H0V8",
    "result": []
  },
  {
    "postal": "L5H4Y0",
    "result": []
  },
  {
    "postal": "L5H2T4",
    "result": [
      {
        "electoralDistricts": [
          {
            "election": null,
            "id": 63,
            "name": "Mississauga—Lakeshore"
          }
        ],
        "pollDivisionIds": [
          10139760
        ],
        "postalCode": "L5H2T4",
        "streetName": "GREGWOOD",
        "streetDirectionId": null,
        "streetTypeId": "RD",
        "placeName": "MISSISSAUGA",
        "streetNameDisplayText": "GREGWOOD RD, MISSISSAUGA"
      }
    ]
  },
  {
    "postal": "L5H2S3",
    "result": [
      {
        "electoralDistricts": [
          {
            "election": null,
            "id": 63,
            "name": "Mississauga—Lakeshore"
          }
        ],
        "pollDivisionIds": [
          10139758
        ],
        "postalCode": "L5H2S3",
        "streetName": "BEN MACHREE",
        "streetDirectionId": null,
        "streetTypeId": "DR",
        "placeName": "MISSISSAUGA",
        "streetNameDisplayText": "BEN MACHREE DR, MISSISSAUGA"
      }
    ]
  },
  {
    "postal": "L5H0K0",
    "result": []
  },
  {
    "postal": "L5H5N1",
    "result": []
  },
  {
    "postal": "L5H7T0",
    "result": []
  },
  {
    "postal": "L5H9N2",
    "result": []
  },
  {
    "postal": "L5H5L1",
    "result": []
  },
  {
    "postal": "L5H7G5",
    "result": []
  },
  {
    "postal": "L5H6K2",
    "result": []
  },
  {
    "postal": "L5H6P9",
    "result": []
  },
  {
    "postal": "L5H0E6",
    "result": []
  },
  {
    "postal": "L5H8R9",
    "result": []
  },
  {
    "postal": "L5H3G9",
    "result": [
      {
        "electoralDistricts": [
          {
            "election": null,
            "id": 63,
            "name": "Mississauga—Lakeshore"
          }
        ],
        "pollDivisionIds": [
          10139763
        ],
        "postalCode": "L5H3G9",
        "streetName": "PARKLAND",
        "streetDirectionId": null,
        "streetTypeId": "AVE",
        "placeName": "MISSISSAUGA",
        "streetNameDisplayText": "PARKLAND AVE, MISSISSAUGA"
      }
    ]
  },
  {
    "postal": "L5H0V7",
    "result": []
  },
  {
    "postal": "L5H2Z1",
    "result": [
      {
        "electoralDistricts": [
          {
            "election": null,
            "id": 63,
            "name": "Mississauga—Lakeshore"
          }
        ],
        "pollDivisionIds": [
          10139763
        ],
        "postalCode": "L5H2Z1",
        "streetName": "TENNYSON",
        "streetDirectionId": null,
        "streetTypeId": "AVE",
        "placeName": "MISSISSAUGA",
        "streetNameDisplayText": "TENNYSON AVE, MISSISSAUGA"
      }
    ]
  },
  {
    "postal": "L5H7N1",
    "result": []
  },
  {
    "postal": "L5H3C6",
    "result": [
      {
        "electoralDistricts": [
          {
            "election": null,
            "id": 63,
            "name": "Mississauga—Lakeshore"
          }
        ],
        "pollDivisionIds": [
          10139763
        ],
        "postalCode": "L5H3C6",
        "streetName": "ALBERTSON",
        "streetDirectionId": null,
        "streetTypeId": "CRES",
        "placeName": "MISSISSAUGA",
        "streetNameDisplayText": "ALBERTSON CRES, MISSISSAUGA"
      }
    ]
  },
  {
    "postal": "L5H4M1",
    "result": [
      {
        "electoralDistricts": [
          {
            "election": null,
            "id": 63,
            "name": "Mississauga—Lakeshore"
          }
        ],
        "pollDivisionIds": [
          10139761
        ],
        "postalCode": "L5H4M1",
        "streetName": "CRESCENT",
        "streetDirectionId": null,
        "streetTypeId": "RD",
        "placeName": "MISSISSAUGA",
        "streetNameDisplayText": "CRESCENT RD, MISSISSAUGA"
      }
    ]
  },
  {
    "postal": "L5H9K2",
    "result": []
  },
  {
    "postal": "L5H9S6",
    "result": []
  },
  {
    "postal": "L5H4X1",
    "result": []
  },
  {
    "postal": "L5H8W2",
    "result": []
  },
  {
    "postal": "L5H7N2",
    "result": []
  },
  {
    "postal": "L5H8S3",
    "result": []
  },
  {
    "postal": "L5H4V0",
    "result": []
  },
  {
    "postal": "L5H6W4",
    "result": []
  },
  {
    "postal": "L5H5M1",
    "result": []
  },
  {
    "postal": "L5H0S4",
    "result": []
  },
  {
    "postal": "L5H5X6",
    "result": []
  },
  {
    "postal": "L5H8L5",
    "result": []
  },
  {
    "postal": "L5H5M8",
    "result": []
  },
  {
    "postal": "L5H2G3",
    "result": [
      {
        "electoralDistricts": [
          {
            "election": null,
            "id": 63,
            "name": "Mississauga—Lakeshore"
          }
        ],
        "pollDivisionIds": [
          10139758
        ],
        "postalCode": "L5H2G3",
        "streetName": "PETER",
        "streetDirectionId": "S",
        "streetTypeId": "ST",
        "placeName": "MISSISSAUGA",
        "streetNameDisplayText": "PETER ST S, MISSISSAUGA"
      }
    ]
  },
  {
    "postal": "L5H8E4",
    "result": []
  },
  {
    "postal": "L5H7S9",
    "result": []
  },
  {
    "postal": "L5H1K3",
    "result": [
      {
        "electoralDistricts": [
          {
            "election": null,
            "id": 63,
            "name": "Mississauga—Lakeshore"
          }
        ],
        "pollDivisionIds": [
          10139758
        ],
        "postalCode": "L5H1K3",
        "streetName": "HIGH",
        "streetDirectionId": "W",
        "streetTypeId": "ST",
        "placeName": "MISSISSAUGA",
        "streetNameDisplayText": "HIGH ST W, MISSISSAUGA"
      }
    ]
  },
  {
    "postal": "L5H4E1",
    "result": [
      {
        "electoralDistricts": [
          {
            "election": null,
            "id": 63,
            "name": "Mississauga—Lakeshore"
          }
        ],
        "pollDivisionIds": [
          10139760
        ],
        "postalCode": "L5H4E1",
        "streetName": "QUEEN",
        "streetDirectionId": "W",
        "streetTypeId": "ST",
        "placeName": "MISSISSAUGA",
        "streetNameDisplayText": "QUEEN ST W, MISSISSAUGA"
      }
    ]
  },
  {
    "postal": "L5H4R2",
    "result": []
  },
  {
    "postal": "L5H6T0",
    "result": []
  },
  {
    "postal": "L5H3K5",
    "result": [
      {
        "electoralDistricts": [
          {
            "election": null,
            "id": 63,
            "name": "Mississauga—Lakeshore"
          }
        ],
        "pollDivisionIds": [
          10139763
        ],
        "postalCode": "L5H3K5",
        "streetName": "PORCUPINE",
        "streetDirectionId": null,
        "streetTypeId": "AVE",
        "placeName": "MISSISSAUGA",
        "streetNameDisplayText": "PORCUPINE AVE, MISSISSAUGA"
      }
    ]
  },
  {
    "postal": "L5H3S3",
    "result": [
      {
        "electoralDistricts": [
          {
            "election": null,
            "id": 63,
            "name": "Mississauga—Lakeshore"
          }
        ],
        "pollDivisionIds": [
          10139760
        ],
        "postalCode": "L5H3S3",
        "streetName": "ROSE",
        "streetDirectionId": null,
        "streetTypeId": "CRT",
        "placeName": "MISSISSAUGA",
        "streetNameDisplayText": "ROSE CRT, MISSISSAUGA"
      }
    ]
  },
  {
    "postal": "L5H3L4",
    "result": [
      {
        "electoralDistricts": [
          {
            "election": null,
            "id": 63,
            "name": "Mississauga—Lakeshore"
          }
        ],
        "pollDivisionIds": [
          10139761
        ],
        "postalCode": "L5H3L4",
        "streetName": "TYANDAGA",
        "streetDirectionId": null,
        "streetTypeId": "CRT",
        "placeName": "MISSISSAUGA",
        "streetNameDisplayText": "TYANDAGA CRT, MISSISSAUGA"
      }
    ]
  },
  {
    "postal": "L5H9Y2",
    "result": []
  },
  {
    "postal": "L5H1E0",
    "result": []
  },
  {
    "postal": "L5H9A4",
    "result": []
  },
  {
    "postal": "L5H1L3",
    "result": [
      {
        "electoralDistricts": [
          {
            "election": null,
            "id": 63,
            "name": "Mississauga—Lakeshore"
          }
        ],
        "pollDivisionIds": [
          10139758
        ],
        "postalCode": "L5H1L3",
        "streetName": "PARK",
        "streetDirectionId": "W",
        "streetTypeId": "ST",
        "placeName": "MISSISSAUGA",
        "streetNameDisplayText": "PARK ST W, MISSISSAUGA"
      }
    ]
  },
  {
    "postal": "L5H6N1",
    "result": []
  },
  {
    "postal": "L5H6G7",
    "result": []
  },
  {
    "postal": "L5H7W1",
    "result": []
  },
  {
    "postal": "L5H4M6",
    "result": []
  },
  {
    "postal": "L5H1K0",
    "result": []
  },
  {
    "postal": "L5H3E2",
    "result": [
      {
        "electoralDistricts": [
          {
            "election": null,
            "id": 63,
            "name": "Mississauga—Lakeshore"
          }
        ],
        "pollDivisionIds": [
          10139760
        ],
        "postalCode": "L5H3E2",
        "streetName": "BIRCHVIEW",
        "streetDirectionId": null,
        "streetTypeId": "DR",
        "placeName": "MISSISSAUGA",
        "streetNameDisplayText": "BIRCHVIEW DR, MISSISSAUGA"
      }
    ]
  },
  {
    "postal": "L5H5H4",
    "result": []
  },
  {
    "postal": "L5H1K7",
    "result": [
      {
        "electoralDistricts": [
          {
            "election": null,
            "id": 63,
            "name": "Mississauga—Lakeshore"
          }
        ],
        "pollDivisionIds": [
          10139758
        ],
        "postalCode": "L5H1K7",
        "streetName": "HIGH",
        "streetDirectionId": "W",
        "streetTypeId": "ST",
        "placeName": "MISSISSAUGA",
        "streetNameDisplayText": "HIGH ST W, MISSISSAUGA"
      }
    ]
  },
  {
    "postal": "L5H0H0",
    "result": []
  },
  {
    "postal": "L5H0J3",
    "result": []
  },
  {
    "postal": "L5H1X6",
    "result": [
      {
        "electoralDistricts": [
          {
            "election": null,
            "id": 63,
            "name": "Mississauga—Lakeshore"
          }
        ],
        "pollDivisionIds": [
          10139761,
          10139760
        ],
        "postalCode": "L5H1X6",
        "streetName": "CRESTDALE",
        "streetDirectionId": null,
        "streetTypeId": "RD",
        "placeName": "MISSISSAUGA",
        "streetNameDisplayText": "CRESTDALE RD, MISSISSAUGA"
      }
    ]
  },
  {
    "postal": "L5H2Z6",
    "result": [
      {
        "electoralDistricts": [
          {
            "election": null,
            "id": 63,
            "name": "Mississauga—Lakeshore"
          }
        ],
        "pollDivisionIds": [
          10139760
        ],
        "postalCode": "L5H2Z6",
        "streetName": "CLOVERBRAE",
        "streetDirectionId": null,
        "streetTypeId": "CRES",
        "placeName": "MISSISSAUGA",
        "streetNameDisplayText": "CLOVERBRAE CRES, MISSISSAUGA"
      }
    ]
  },
  {
    "postal": "L5H4R9",
    "result": []
  },
  {
    "postal": "L5H0W8",
    "result": []
  },
  {
    "postal": "L5H1L4",
    "result": [
      {
        "electoralDistricts": [
          {
            "election": null,
            "id": 63,
            "name": "Mississauga—Lakeshore"
          }
        ],
        "pollDivisionIds": [
          10139758
        ],
        "postalCode": "L5H1L4",
        "streetName": "QUEEN",
        "streetDirectionId": "W",
        "streetTypeId": "ST",
        "placeName": "MISSISSAUGA",
        "streetNameDisplayText": "QUEEN ST W, MISSISSAUGA"
      }
    ]
  },
  {
    "postal": "L5H0C8",
    "result": []
  },
  {
    "postal": "L5H9X7",
    "result": []
  },
  {
    "postal": "L5H4T1",
    "result": []
  },
  {
    "postal": "L5H0M0",
    "result": []
  },
  {
    "postal": "L5H6A2",
    "result": []
  },
  {
    "postal": "L5H9S8",
    "result": []
  },
  {
    "postal": "L5H9T4",
    "result": []
  },
  {
    "postal": "L5H9Y4",
    "result": []
  },
  {
    "postal": "L5H6G5",
    "result": []
  },
  {
    "postal": "L5H6H9",
    "result": []
  },
  {
    "postal": "L5H2P3",
    "result": [
      {
        "electoralDistricts": [
          {
            "election": null,
            "id": 63,
            "name": "Mississauga—Lakeshore"
          }
        ],
        "pollDivisionIds": [
          10139758
        ],
        "postalCode": "L5H2P3",
        "streetName": "BENSON",
        "streetDirectionId": null,
        "streetTypeId": "AVE",
        "placeName": "MISSISSAUGA",
        "streetNameDisplayText": "BENSON AVE, MISSISSAUGA"
      }
    ]
  },
  {
    "postal": "L5H1T6",
    "result": [
      {
        "electoralDistricts": [
          {
            "election": null,
            "id": 63,
            "name": "Mississauga—Lakeshore"
          }
        ],
        "pollDivisionIds": [
          10139757
        ],
        "postalCode": "L5H1T6",
        "streetName": "EDISTEL",
        "streetDirectionId": null,
        "streetTypeId": "CRES",
        "placeName": "MISSISSAUGA",
        "streetNameDisplayText": "EDISTEL CRES, MISSISSAUGA"
      }
    ]
  },
  {
    "postal": "L5H4P6",
    "result": []
  },
  {
    "postal": "L5H3K1",
    "result": [
      {
        "electoralDistricts": [
          {
            "election": null,
            "id": 63,
            "name": "Mississauga—Lakeshore"
          }
        ],
        "pollDivisionIds": [
          10139759
        ],
        "postalCode": "L5H3K1",
        "streetName": "TENOGA",
        "streetDirectionId": null,
        "streetTypeId": "DR",
        "placeName": "MISSISSAUGA",
        "streetNameDisplayText": "TENOGA DR, MISSISSAUGA"
      }
    ]
  },
  {
    "postal": "L5H6X4",
    "result": []
  },
  {
    "postal": "L5H4M8",
    "result": []
  },
  {
    "postal": "L5H2Y1",
    "result": [
      {
        "electoralDistricts": [
          {
            "election": null,
            "id": 63,
            "name": "Mississauga—Lakeshore"
          }
        ],
        "pollDivisionIds": [
          10139763
        ],
        "postalCode": "L5H2Y1",
        "streetName": "LONGFELLOW",
        "streetDirectionId": null,
        "streetTypeId": "AVE",
        "placeName": "MISSISSAUGA",
        "streetNameDisplayText": "LONGFELLOW AVE, MISSISSAUGA"
      }
    ]
  },
  {
    "postal": "L5H6M1",
    "result": []
  },
  {
    "postal": "L5H5L8",
    "result": []
  },
  {
    "postal": "L5H3P6",
    "result": [
      {
        "electoralDistricts": [
          {
            "election": null,
            "id": 63,
            "name": "Mississauga—Lakeshore"
          }
        ],
        "pollDivisionIds": [
          10139759
        ],
        "postalCode": "L5H3P6",
        "streetName": "FLEET",
        "streetDirectionId": null,
        "streetTypeId": "ST",
        "placeName": "MISSISSAUGA",
        "streetNameDisplayText": "FLEET ST, MISSISSAUGA"
      }
    ]
  },
  {
    "postal": "L5H9A5",
    "result": []
  },
  {
    "postal": "L5H7K1",
    "result": []
  },
  {
    "postal": "L5H3J4",
    "result": [
      {
        "electoralDistricts": [
          {
            "election": null,
            "id": 63,
            "name": "Mississauga—Lakeshore"
          }
        ],
        "pollDivisionIds": [
          10139763
        ],
        "postalCode": "L5H3J4",
        "streetName": "VAN WINKLE",
        "streetDirectionId": null,
        "streetTypeId": "CRT",
        "placeName": "MISSISSAUGA",
        "streetNameDisplayText": "VAN WINKLE CRT, MISSISSAUGA"
      }
    ]
  },
  {
    "postal": "L5H5E7",
    "result": []
  },
  {
    "postal": "L5H3A7",
    "result": [
      {
        "electoralDistricts": [
          {
            "election": null,
            "id": 63,
            "name": "Mississauga—Lakeshore"
          }
        ],
        "pollDivisionIds": [
          10139761
        ],
        "postalCode": "L5H3A7",
        "streetName": "LORNE PARK",
        "streetDirectionId": null,
        "streetTypeId": "RD",
        "placeName": "MISSISSAUGA",
        "streetNameDisplayText": "LORNE PARK RD, MISSISSAUGA"
      }
    ]
  },
  {
    "postal": "L5H1B9",
    "result": [
      {
        "electoralDistricts": [
          {
            "election": null,
            "id": 63,
            "name": "Mississauga—Lakeshore"
          }
        ],
        "pollDivisionIds": [
          10139763
        ],
        "postalCode": "L5H1B9",
        "streetName": "ROPER",
        "streetDirectionId": null,
        "streetTypeId": "AVE",
        "placeName": "MISSISSAUGA",
        "streetNameDisplayText": "ROPER AVE, MISSISSAUGA"
      }
    ]
  },
  {
    "postal": "L5H9E8",
    "result": []
  },
  {
    "postal": "L5H1C9",
    "result": [
      {
        "electoralDistricts": [
          {
            "election": null,
            "id": 63,
            "name": "Mississauga—Lakeshore"
          }
        ],
        "pollDivisionIds": [
          10139758
        ],
        "postalCode": "L5H1C9",
        "streetName": "PORT",
        "streetDirectionId": "W",
        "streetTypeId": "ST",
        "placeName": "MISSISSAUGA",
        "streetNameDisplayText": "PORT ST W, MISSISSAUGA"
      }
    ]
  },
  {
    "postal": "L5H3B5",
    "result": [
      {
        "electoralDistricts": [
          {
            "election": null,
            "id": 63,
            "name": "Mississauga—Lakeshore"
          }
        ],
        "pollDivisionIds": [
          10139760
        ],
        "postalCode": "L5H3B5",
        "streetName": "MIRADA",
        "streetDirectionId": null,
        "streetTypeId": "PL",
        "placeName": "MISSISSAUGA",
        "streetNameDisplayText": "MIRADA PL, MISSISSAUGA"
      }
    ]
  },
  {
    "postal": "L5H8R0",
    "result": []
  },
  {
    "postal": "L5H3P2",
    "result": [
      {
        "electoralDistricts": [
          {
            "election": null,
            "id": 63,
            "name": "Mississauga—Lakeshore"
          }
        ],
        "pollDivisionIds": [
          10139759
        ],
        "postalCode": "L5H3P2",
        "streetName": "FLEET",
        "streetDirectionId": null,
        "streetTypeId": "ST",
        "placeName": "MISSISSAUGA",
        "streetNameDisplayText": "FLEET ST, MISSISSAUGA"
      }
    ]
  },
  {
    "postal": "L5H5V4",
    "result": []
  },
  {
    "postal": "L5H4H0",
    "result": []
  },
  {
    "postal": "L5H4S7",
    "result": []
  },
  {
    "postal": "L5H6C2",
    "result": []
  },
  {
    "postal": "L5H8W3",
    "result": []
  },
  {
    "postal": "L5H4M5",
    "result": [
      {
        "electoralDistricts": [
          {
            "election": null,
            "id": 63,
            "name": "Mississauga—Lakeshore"
          }
        ],
        "pollDivisionIds": [
          10139757
        ],
        "postalCode": "L5H4M5",
        "streetName": "CRANLEIGH",
        "streetDirectionId": null,
        "streetTypeId": "CRT",
        "placeName": "MISSISSAUGA",
        "streetNameDisplayText": "CRANLEIGH CRT, MISSISSAUGA"
      },
      {
        "electoralDistricts": [
          {
            "election": null,
            "id": 63,
            "name": "Mississauga—Lakeshore"
          }
        ],
        "pollDivisionIds": [
          10139757
        ],
        "postalCode": "L5H4M5",
        "streetName": "RANDOLF",
        "streetDirectionId": null,
        "streetTypeId": "GATE",
        "placeName": "MISSISSAUGA",
        "streetNameDisplayText": "RANDOLF GATE, MISSISSAUGA"
      },
      {
        "electoralDistricts": [
          {
            "election": null,
            "id": 63,
            "name": "Mississauga—Lakeshore"
          }
        ],
        "pollDivisionIds": [
          10139757
        ],
        "postalCode": "L5H4M5",
        "streetName": "ST NICHOLAS",
        "streetDirectionId": null,
        "streetTypeId": "CRT",
        "placeName": "MISSISSAUGA",
        "streetNameDisplayText": "ST NICHOLAS CRT, MISSISSAUGA"
      },
      {
        "electoralDistricts": [
          {
            "election": null,
            "id": 63,
            "name": "Mississauga—Lakeshore"
          }
        ],
        "pollDivisionIds": [
          10139757
        ],
        "postalCode": "L5H4M5",
        "streetName": "ST. NICHOLAS",
        "streetDirectionId": null,
        "streetTypeId": "CRT",
        "placeName": "MISSISSAUGA",
        "streetNameDisplayText": "ST. NICHOLAS CRT, MISSISSAUGA"
      }
    ]
  },
  {
    "postal": "L5H5T1",
    "result": []
  },
  {
    "postal": "L5H3B3",
    "result": [
      {
        "electoralDistricts": [
          {
            "election": null,
            "id": 63,
            "name": "Mississauga—Lakeshore"
          }
        ],
        "pollDivisionIds": [
          10139761
        ],
        "postalCode": "L5H3B3",
        "streetName": "LORNE PARK",
        "streetDirectionId": null,
        "streetTypeId": "RD",
        "placeName": "MISSISSAUGA",
        "streetNameDisplayText": "LORNE PARK RD, MISSISSAUGA"
      }
    ]
  },
  {
    "postal": "L5H6C6",
    "result": []
  },
  {
    "postal": "L5H7N8",
    "result": []
  },
  {
    "postal": "L5H2Y3",
    "result": [
      {
        "electoralDistricts": [
          {
            "election": null,
            "id": 63,
            "name": "Mississauga—Lakeshore"
          }
        ],
        "pollDivisionIds": [
          10139763
        ],
        "postalCode": "L5H2Y3",
        "streetName": "SANGSTER",
        "streetDirectionId": null,
        "streetTypeId": "AVE",
        "placeName": "MISSISSAUGA",
        "streetNameDisplayText": "SANGSTER AVE, MISSISSAUGA"
      }
    ]
  },
  {
    "postal": "L5H2R6",
    "result": [
      {
        "electoralDistricts": [
          {
            "election": null,
            "id": 63,
            "name": "Mississauga—Lakeshore"
          }
        ],
        "pollDivisionIds": [
          10139758
        ],
        "postalCode": "L5H2R6",
        "streetName": "MAPLE",
        "streetDirectionId": "S",
        "streetTypeId": "AVE",
        "placeName": "MISSISSAUGA",
        "streetNameDisplayText": "MAPLE AVE S, MISSISSAUGA"
      }
    ]
  },
  {
    "postal": "L5H7N3",
    "result": []
  },
  {
    "postal": "L5H8J2",
    "result": []
  },
  {
    "postal": "L5H6A9",
    "result": []
  },
  {
    "postal": "L5H3V2",
    "result": [
      {
        "electoralDistricts": [
          {
            "election": null,
            "id": 63,
            "name": "Mississauga—Lakeshore"
          }
        ],
        "pollDivisionIds": [
          10139758
        ],
        "postalCode": "L5H3V2",
        "streetName": "SHAWNMARR",
        "streetDirectionId": null,
        "streetTypeId": "RD",
        "placeName": "MISSISSAUGA",
        "streetNameDisplayText": "SHAWNMARR RD, MISSISSAUGA"
      }
    ]
  },
  {
    "postal": "L5H2N3",
    "result": [
      {
        "electoralDistricts": [
          {
            "election": null,
            "id": 63,
            "name": "Mississauga—Lakeshore"
          }
        ],
        "pollDivisionIds": [
          10139757
        ],
        "postalCode": "L5H2N3",
        "streetName": "VANESSA",
        "streetDirectionId": null,
        "streetTypeId": "CRES",
        "placeName": "MISSISSAUGA",
        "streetNameDisplayText": "VANESSA CRES, MISSISSAUGA"
      }
    ]
  },
  {
    "postal": "L5H1S5",
    "result": [
      {
        "electoralDistricts": [
          {
            "election": null,
            "id": 63,
            "name": "Mississauga—Lakeshore"
          }
        ],
        "pollDivisionIds": [
          10139761
        ],
        "postalCode": "L5H1S5",
        "streetName": "INDIAN",
        "streetDirectionId": null,
        "streetTypeId": "RD",
        "placeName": "MISSISSAUGA",
        "streetNameDisplayText": "INDIAN RD, MISSISSAUGA"
      }
    ]
  },
  {
    "postal": "L5H4T7",
    "result": []
  },
  {
    "postal": "L5H6Y7",
    "result": []
  },
  {
    "postal": "L5H0W7",
    "result": []
  },
  {
    "postal": "L5H2W9",
    "result": [
      {
        "electoralDistricts": [
          {
            "election": null,
            "id": 63,
            "name": "Mississauga—Lakeshore"
          }
        ],
        "pollDivisionIds": [
          10139760
        ],
        "postalCode": "L5H2W9",
        "streetName": "TECUMSEH PARK",
        "streetDirectionId": null,
        "streetTypeId": "CRES",
        "placeName": "MISSISSAUGA",
        "streetNameDisplayText": "TECUMSEH PARK CRES, MISSISSAUGA"
      }
    ]
  },
  {
    "postal": "L5H8V0",
    "result": []
  },
  {
    "postal": "L5H0H4",
    "result": []
  },
  {
    "postal": "L5H2T1",
    "result": [
      {
        "electoralDistricts": [
          {
            "election": null,
            "id": 63,
            "name": "Mississauga—Lakeshore"
          }
        ],
        "pollDivisionIds": [
          10139758,
          10139763
        ],
        "postalCode": "L5H2T1",
        "streetName": "GODFREY'S",
        "streetDirectionId": null,
        "streetTypeId": "LANE",
        "placeName": "MISSISSAUGA",
        "streetNameDisplayText": "GODFREY'S LANE, MISSISSAUGA"
      }
    ]
  },
  {
    "postal": "L5H1B1",
    "result": [
      {
        "electoralDistricts": [
          {
            "election": null,
            "id": 63,
            "name": "Mississauga—Lakeshore"
          }
        ],
        "pollDivisionIds": [
          10139763
        ],
        "postalCode": "L5H1B1",
        "streetName": "GLENLEVEN",
        "streetDirectionId": null,
        "streetTypeId": "CRES",
        "placeName": "MISSISSAUGA",
        "streetNameDisplayText": "GLENLEVEN CRES, MISSISSAUGA"
      }
    ]
  },
  {
    "postal": "L5H8B6",
    "result": []
  },
  {
    "postal": "L5H6H1",
    "result": []
  },
  {
    "postal": "L5H8T8",
    "result": []
  },
  {
    "postal": "L5H0T4",
    "result": []
  },
  {
    "postal": "L5H2C4",
    "result": [
      {
        "electoralDistricts": [
          {
            "election": null,
            "id": 63,
            "name": "Mississauga—Lakeshore"
          }
        ],
        "pollDivisionIds": [
          10139758
        ],
        "postalCode": "L5H2C4",
        "streetName": "FRONT",
        "streetDirectionId": "S",
        "streetTypeId": "ST",
        "placeName": "MISSISSAUGA",
        "streetNameDisplayText": "FRONT ST S, MISSISSAUGA"
      }
    ]
  },
  {
    "postal": "L5H8N3",
    "result": []
  },
  {
    "postal": "L5H4L8",
    "result": [
      {
        "electoralDistricts": [
          {
            "election": null,
            "id": 63,
            "name": "Mississauga—Lakeshore"
          }
        ],
        "pollDivisionIds": [
          10139757
        ],
        "postalCode": "L5H4L8",
        "streetName": "CANYON",
        "streetDirectionId": null,
        "streetTypeId": "ST",
        "placeName": "MISSISSAUGA",
        "streetNameDisplayText": "CANYON ST, MISSISSAUGA"
      },
      {
        "electoralDistricts": [
          {
            "election": null,
            "id": 63,
            "name": "Mississauga—Lakeshore"
          }
        ],
        "pollDivisionIds": [
          10139757
        ],
        "postalCode": "L5H4L8",
        "streetName": "COBALT",
        "streetDirectionId": null,
        "streetTypeId": "ST",
        "placeName": "MISSISSAUGA",
        "streetNameDisplayText": "COBALT ST, MISSISSAUGA"
      }
    ]
  },
  {
    "postal": "L5H2B5",
    "result": [
      {
        "electoralDistricts": [
          {
            "election": null,
            "id": 63,
            "name": "Mississauga—Lakeshore"
          }
        ],
        "pollDivisionIds": [
          10139759
        ],
        "postalCode": "L5H2B5",
        "streetName": "BUNSDEN",
        "streetDirectionId": null,
        "streetTypeId": "AVE",
        "placeName": "MISSISSAUGA",
        "streetNameDisplayText": "BUNSDEN AVE, MISSISSAUGA"
      }
    ]
  },
  {
    "postal": "L5H3H1",
    "result": [
      {
        "electoralDistricts": [
          {
            "election": null,
            "id": 63,
            "name": "Mississauga—Lakeshore"
          }
        ],
        "pollDivisionIds": [
          10139763
        ],
        "postalCode": "L5H3H1",
        "streetName": "PARKLAND",
        "streetDirectionId": null,
        "streetTypeId": "AVE",
        "placeName": "MISSISSAUGA",
        "streetNameDisplayText": "PARKLAND AVE, MISSISSAUGA"
      }
    ]
  },
  {
    "postal": "L5H4Y1",
    "result": []
  },
  {
    "postal": "L5H7E2",
    "result": []
  },
  {
    "postal": "L5H2P5",
    "result": [
      {
        "electoralDistricts": [
          {
            "election": null,
            "id": 63,
            "name": "Mississauga—Lakeshore"
          }
        ],
        "pollDivisionIds": [
          10139758
        ],
        "postalCode": "L5H2P5",
        "streetName": "PINE",
        "streetDirectionId": "S",
        "streetTypeId": "AVE",
        "placeName": "MISSISSAUGA",
        "streetNameDisplayText": "PINE AVE S, MISSISSAUGA"
      }
    ]
  },
  {
    "postal": "L5H8R7",
    "result": []
  },
  {
    "postal": "L5H9P1",
    "result": []
  },
  {
    "postal": "L5H3B8",
    "result": [
      {
        "electoralDistricts": [
          {
            "election": null,
            "id": 63,
            "name": "Mississauga—Lakeshore"
          }
        ],
        "pollDivisionIds": [
          10139760
        ],
        "postalCode": "L5H3B8",
        "streetName": "MOBRIDGE",
        "streetDirectionId": null,
        "streetTypeId": "CRT",
        "placeName": "MISSISSAUGA",
        "streetNameDisplayText": "MOBRIDGE CRT, MISSISSAUGA"
      }
    ]
  },
  {
    "postal": "L5H3P7",
    "result": [
      {
        "electoralDistricts": [
          {
            "election": null,
            "id": 63,
            "name": "Mississauga—Lakeshore"
          }
        ],
        "pollDivisionIds": [
          10139759
        ],
        "postalCode": "L5H3P7",
        "streetName": "FLEET",
        "streetDirectionId": null,
        "streetTypeId": "ST",
        "placeName": "MISSISSAUGA",
        "streetNameDisplayText": "FLEET ST, MISSISSAUGA"
      }
    ]
  },
  {
    "postal": "L5H9B2",
    "result": []
  },
  {
    "postal": "L5H6Z3",
    "result": []
  },
  {
    "postal": "L5H4N5",
    "result": []
  },
  {
    "postal": "L5H8T3",
    "result": []
  },
  {
    "postal": "L5H1V2",
    "result": [
      {
        "electoralDistricts": [
          {
            "election": null,
            "id": 63,
            "name": "Mississauga—Lakeshore"
          }
        ],
        "pollDivisionIds": [
          10139760
        ],
        "postalCode": "L5H1V2",
        "streetName": "CHRISEDEN",
        "streetDirectionId": null,
        "streetTypeId": "DR",
        "placeName": "MISSISSAUGA",
        "streetNameDisplayText": "CHRISEDEN DR, MISSISSAUGA"
      }
    ]
  },
  {
    "postal": "L5H1Y0",
    "result": []
  },
  {
    "postal": "L5H3G6",
    "result": [
      {
        "electoralDistricts": [
          {
            "election": null,
            "id": 63,
            "name": "Mississauga—Lakeshore"
          }
        ],
        "pollDivisionIds": [
          10139763
        ],
        "postalCode": "L5H3G6",
        "streetName": "PARKLAND",
        "streetDirectionId": null,
        "streetTypeId": "AVE",
        "placeName": "MISSISSAUGA",
        "streetNameDisplayText": "PARKLAND AVE, MISSISSAUGA"
      }
    ]
  },
  {
    "postal": "L5H3H7",
    "result": [
      {
        "electoralDistricts": [
          {
            "election": null,
            "id": 63,
            "name": "Mississauga—Lakeshore"
          }
        ],
        "pollDivisionIds": [
          10139760,
          10139761
        ],
        "postalCode": "L5H3H7",
        "streetName": "BRASSWOOD",
        "streetDirectionId": null,
        "streetTypeId": "RD",
        "placeName": "MISSISSAUGA",
        "streetNameDisplayText": "BRASSWOOD RD, MISSISSAUGA"
      }
    ]
  },
  {
    "postal": "L5H7X8",
    "result": []
  },
  {
    "postal": "L5H0C7",
    "result": []
  },
  {
    "postal": "L5H0W9",
    "result": []
  },
  {
    "postal": "L5H8E6",
    "result": []
  },
  {
    "postal": "L5H9Z8",
    "result": []
  },
  {
    "postal": "L5H3P4",
    "result": [
      {
        "electoralDistricts": [
          {
            "election": null,
            "id": 63,
            "name": "Mississauga—Lakeshore"
          }
        ],
        "pollDivisionIds": [
          10139759
        ],
        "postalCode": "L5H3P4",
        "streetName": "FLEET",
        "streetDirectionId": null,
        "streetTypeId": "ST",
        "placeName": "MISSISSAUGA",
        "streetNameDisplayText": "FLEET ST, MISSISSAUGA"
      }
    ]
  },
  {
    "postal": "L5H6L8",
    "result": []
  },
  {
    "postal": "L5H2R4",
    "result": [
      {
        "electoralDistricts": [
          {
            "election": null,
            "id": 63,
            "name": "Mississauga—Lakeshore"
          }
        ],
        "pollDivisionIds": [
          10139757
        ],
        "postalCode": "L5H2R4",
        "streetName": "WATESKA",
        "streetDirectionId": null,
        "streetTypeId": "BLVD",
        "placeName": "MISSISSAUGA",
        "streetNameDisplayText": "WATESKA BLVD, MISSISSAUGA"
      }
    ]
  },
  {
    "postal": "L5H2W1",
    "result": [
      {
        "electoralDistricts": [
          {
            "election": null,
            "id": 63,
            "name": "Mississauga—Lakeshore"
          }
        ],
        "pollDivisionIds": [
          10139760
        ],
        "postalCode": "L5H2W1",
        "streetName": "TECUMSEH PARK",
        "streetDirectionId": null,
        "streetTypeId": "DR",
        "placeName": "MISSISSAUGA",
        "streetNameDisplayText": "TECUMSEH PARK DR, MISSISSAUGA"
      }
    ]
  },
  {
    "postal": "L5H9H8",
    "result": []
  },
  {
    "postal": "L5H8X9",
    "result": []
  },
  {
    "postal": "L5H7H4",
    "result": []
  },
  {
    "postal": "L5H3J1",
    "result": [
      {
        "electoralDistricts": [
          {
            "election": null,
            "id": 63,
            "name": "Mississauga—Lakeshore"
          }
        ],
        "pollDivisionIds": [
          10139759
        ],
        "postalCode": "L5H3J1",
        "streetName": "STONEHOUSE",
        "streetDirectionId": null,
        "streetTypeId": "CRES",
        "placeName": "MISSISSAUGA",
        "streetNameDisplayText": "STONEHOUSE CRES, MISSISSAUGA"
      }
    ]
  },
  {
    "postal": "L5H1P4",
    "result": [
      {
        "electoralDistricts": [
          {
            "election": null,
            "id": 63,
            "name": "Mississauga—Lakeshore"
          }
        ],
        "pollDivisionIds": [
          10139760
        ],
        "postalCode": "L5H1P4",
        "streetName": "ALGONQUIN",
        "streetDirectionId": null,
        "streetTypeId": "DR",
        "placeName": "MISSISSAUGA",
        "streetNameDisplayText": "ALGONQUIN DR, MISSISSAUGA"
      }
    ]
  },
  {
    "postal": "L5H2A3",
    "result": []
  },
  {
    "postal": "L5H0Z1",
    "result": []
  },
  {
    "postal": "L5H1C1",
    "result": [
      {
        "electoralDistricts": [
          {
            "election": null,
            "id": 63,
            "name": "Mississauga—Lakeshore"
          }
        ],
        "pollDivisionIds": [
          10139758
        ],
        "postalCode": "L5H1C1",
        "streetName": "BAY",
        "streetDirectionId": null,
        "streetTypeId": "ST",
        "placeName": "MISSISSAUGA",
        "streetNameDisplayText": "BAY ST, MISSISSAUGA"
      }
    ]
  },
  {
    "postal": "L5H0H3",
    "result": []
  },
  {
    "postal": "L5H7B0",
    "result": []
  },
  {
    "postal": "L5H5K2",
    "result": []
  },
  {
    "postal": "L5H1E9",
    "result": [
      {
        "electoralDistricts": [
          {
            "election": null,
            "id": 63,
            "name": "Mississauga—Lakeshore"
          }
        ],
        "pollDivisionIds": [
          10139755,
          10139758
        ],
        "postalCode": "L5H1E9",
        "streetName": "LAKESHORE",
        "streetDirectionId": "W",
        "streetTypeId": "RD",
        "placeName": "MISSISSAUGA",
        "streetNameDisplayText": "LAKESHORE RD W, MISSISSAUGA"
      }
    ]
  },
  {
    "postal": "L5H9W7",
    "result": []
  },
  {
    "postal": "L5H5W6",
    "result": []
  },
  {
    "postal": "L5H6S6",
    "result": []
  },
  {
    "postal": "L5H2P8",
    "result": [
      {
        "electoralDistricts": [
          {
            "election": null,
            "id": 63,
            "name": "Mississauga—Lakeshore"
          }
        ],
        "pollDivisionIds": [
          10139758
        ],
        "postalCode": "L5H2P8",
        "streetName": "PINE",
        "streetDirectionId": "N",
        "streetTypeId": "AVE",
        "placeName": "MISSISSAUGA",
        "streetNameDisplayText": "PINE AVE N, MISSISSAUGA"
      }
    ]
  },
  {
    "postal": "L5H4P8",
    "result": []
  },
  {
    "postal": "L5H0V9",
    "result": []
  },
  {
    "postal": "L5H5Y2",
    "result": []
  },
  {
    "postal": "L5H7Z7",
    "result": []
  },
  {
    "postal": "L5H6Y8",
    "result": []
  },
  {
    "postal": "L5H2G7",
    "result": [
      {
        "electoralDistricts": [
          {
            "election": null,
            "id": 63,
            "name": "Mississauga—Lakeshore"
          }
        ],
        "pollDivisionIds": [
          10139792,
          10139758
        ],
        "postalCode": "L5H2G7",
        "streetName": "PETER",
        "streetDirectionId": "N",
        "streetTypeId": "ST",
        "placeName": "MISSISSAUGA",
        "streetNameDisplayText": "PETER ST N, MISSISSAUGA"
      }
    ]
  },
  {
    "postal": "L5H8C1",
    "result": []
  },
  {
    "postal": "L5H5C5",
    "result": []
  },
  {
    "postal": "L5H2X8",
    "result": [
      {
        "electoralDistricts": [
          {
            "election": null,
            "id": 63,
            "name": "Mississauga—Lakeshore"
          }
        ],
        "pollDivisionIds": [
          10139763
        ],
        "postalCode": "L5H2X8",
        "streetName": "LONGFELLOW",
        "streetDirectionId": null,
        "streetTypeId": "AVE",
        "placeName": "MISSISSAUGA",
        "streetNameDisplayText": "LONGFELLOW AVE, MISSISSAUGA"
      }
    ]
  },
  {
    "postal": "L5H1W5",
    "result": [
      {
        "electoralDistricts": [
          {
            "election": null,
            "id": 63,
            "name": "Mississauga—Lakeshore"
          }
        ],
        "pollDivisionIds": [
          10139757
        ],
        "postalCode": "L5H1W5",
        "streetName": "SEQUIN",
        "streetDirectionId": null,
        "streetTypeId": "CRES",
        "placeName": "MISSISSAUGA",
        "streetNameDisplayText": "SEQUIN CRES, MISSISSAUGA"
      }
    ]
  },
  {
    "postal": "L5H7G0",
    "result": []
  },
  {
    "postal": "L5H8J8",
    "result": []
  },
  {
    "postal": "L5H3Y0",
    "result": []
  },
  {
    "postal": "L5H9T7",
    "result": []
  },
  {
    "postal": "L5H5P4",
    "result": []
  },
  {
    "postal": "L5H4B0",
    "result": []
  },
  {
    "postal": "L5H9N8",
    "result": []
  },
  {
    "postal": "L5H4A7",
    "result": [
      {
        "electoralDistricts": [
          {
            "election": null,
            "id": 63,
            "name": "Mississauga—Lakeshore"
          }
        ],
        "pollDivisionIds": [
          10139757
        ],
        "postalCode": "L5H4A7",
        "streetName": "SWEETWATER",
        "streetDirectionId": null,
        "streetTypeId": "CRES",
        "placeName": "MISSISSAUGA",
        "streetNameDisplayText": "SWEETWATER CRES, MISSISSAUGA"
      }
    ]
  },
  {
    "postal": "L5H4H9",
    "result": [
      {
        "electoralDistricts": [
          {
            "election": null,
            "id": 63,
            "name": "Mississauga—Lakeshore"
          }
        ],
        "pollDivisionIds": [
          10139760
        ],
        "postalCode": "L5H4H9",
        "streetName": "SERDICA",
        "streetDirectionId": null,
        "streetTypeId": "CRT",
        "placeName": "MISSISSAUGA",
        "streetNameDisplayText": "SERDICA CRT, MISSISSAUGA"
      }
    ]
  },
  {
    "postal": "L5H6X1",
    "result": []
  },
  {
    "postal": "L5H9Y7",
    "result": []
  },
  {
    "postal": "L5H2Y5",
    "result": []
  },
  {
    "postal": "L5H8L7",
    "result": []
  },
  {
    "postal": "L5H2A8",
    "result": [
      {
        "electoralDistricts": [
          {
            "election": null,
            "id": 63,
            "name": "Mississauga—Lakeshore"
          }
        ],
        "pollDivisionIds": [
          10139759
        ],
        "postalCode": "L5H2A8",
        "streetName": "BEEMER",
        "streetDirectionId": null,
        "streetTypeId": "AVE",
        "placeName": "MISSISSAUGA",
        "streetNameDisplayText": "BEEMER AVE, MISSISSAUGA"
      }
    ]
  },
  {
    "postal": "L5H2K9",
    "result": [
      {
        "electoralDistricts": [
          {
            "election": null,
            "id": 63,
            "name": "Mississauga—Lakeshore"
          },
          {
            "election": null,
            "id": 60,
            "name": "Mississauga Centre"
          }
        ],
        "pollDivisionIds": [
          10139759,
          10143796
        ],
        "postalCode": "L5H2K9",
        "streetName": "MISSISSAUGA",
        "streetDirectionId": null,
        "streetTypeId": "RD",
        "placeName": "MISSISSAUGA",
        "streetNameDisplayText": "MISSISSAUGA RD, MISSISSAUGA"
      }
    ]
  },
  {
    "postal": "L5H3E5",
    "result": [
      {
        "electoralDistricts": [
          {
            "election": null,
            "id": 63,
            "name": "Mississauga—Lakeshore"
          }
        ],
        "pollDivisionIds": [
          10139760
        ],
        "postalCode": "L5H3E5",
        "streetName": "BIRCHVIEW",
        "streetDirectionId": null,
        "streetTypeId": "DR",
        "placeName": "MISSISSAUGA",
        "streetNameDisplayText": "BIRCHVIEW DR, MISSISSAUGA"
      }
    ]
  },
  {
    "postal": "L5H8N6",
    "result": []
  },
  {
    "postal": "L5H8J4",
    "result": []
  },
  {
    "postal": "L5H4R7",
    "result": []
  },
  {
    "postal": "L5H9K1",
    "result": []
  },
  {
    "postal": "L5H8E1",
    "result": []
  },
  {
    "postal": "L5H0R1",
    "result": []
  },
  {
    "postal": "L5H4J3",
    "result": [
      {
        "electoralDistricts": [
          {
            "election": null,
            "id": 63,
            "name": "Mississauga—Lakeshore"
          }
        ],
        "pollDivisionIds": [
          10139761
        ],
        "postalCode": "L5H4J3",
        "streetName": "MEADOW GREEN",
        "streetDirectionId": null,
        "streetTypeId": "CRT",
        "placeName": "MISSISSAUGA",
        "streetNameDisplayText": "MEADOW GREEN CRT, MISSISSAUGA"
      }
    ]
  },
  {
    "postal": "L5H7E7",
    "result": []
  },
  {
    "postal": "L5H0J0",
    "result": []
  },
  {
    "postal": "L5H7R8",
    "result": []
  },
  {
    "postal": "L5H9X0",
    "result": []
  },
  {
    "postal": "L5H7P6",
    "result": []
  },
  {
    "postal": "L5H0R7",
    "result": []
  },
  {
    "postal": "L5H5W1",
    "result": []
  },
  {
    "postal": "L5H0K4",
    "result": []
  },
  {
    "postal": "L5H7N9",
    "result": []
  },
  {
    "postal": "L5H1N0",
    "result": []
  },
  {
    "postal": "L5H6P3",
    "result": []
  },
  {
    "postal": "L5H5A1",
    "result": []
  },
  {
    "postal": "L5H9M9",
    "result": []
  },
  {
    "postal": "L5H7T6",
    "result": []
  },
  {
    "postal": "L5H3X0",
    "result": []
  },
  {
    "postal": "L5H2T0",
    "result": []
  },
  {
    "postal": "L5H5X9",
    "result": []
  },
  {
    "postal": "L5H2R3",
    "result": [
      {
        "electoralDistricts": [
          {
            "election": null,
            "id": 63,
            "name": "Mississauga—Lakeshore"
          }
        ],
        "pollDivisionIds": [
          10139757
        ],
        "postalCode": "L5H2R3",
        "streetName": "WATESKA",
        "streetDirectionId": null,
        "streetTypeId": "BLVD",
        "placeName": "MISSISSAUGA",
        "streetNameDisplayText": "WATESKA BLVD, MISSISSAUGA"
      }
    ]
  },
  {
    "postal": "L5H5N2",
    "result": []
  },
  {
    "postal": "L5H4Y7",
    "result": []
  },
  {
    "postal": "L5H7M0",
    "result": []
  },
  {
    "postal": "L5H8P3",
    "result": []
  },
  {
    "postal": "L5H3N3",
    "result": [
      {
        "electoralDistricts": [
          {
            "election": null,
            "id": 63,
            "name": "Mississauga—Lakeshore"
          }
        ],
        "pollDivisionIds": [
          10139759
        ],
        "postalCode": "L5H3N3",
        "streetName": "OTAMI",
        "streetDirectionId": null,
        "streetTypeId": "TRAIL",
        "placeName": "MISSISSAUGA",
        "streetNameDisplayText": "OTAMI TRAIL, MISSISSAUGA"
      }
    ]
  },
  {
    "postal": "L5H7S3",
    "result": []
  },
  {
    "postal": "L5H3V9",
    "result": [
      {
        "electoralDistricts": [
          {
            "election": null,
            "id": 63,
            "name": "Mississauga—Lakeshore"
          }
        ],
        "pollDivisionIds": [
          10139759
        ],
        "postalCode": "L5H3V9",
        "streetName": "IFIELD",
        "streetDirectionId": null,
        "streetTypeId": "RD",
        "placeName": "MISSISSAUGA",
        "streetNameDisplayText": "IFIELD RD, MISSISSAUGA"
      }
    ]
  },
  {
    "postal": "L5H9N7",
    "result": []
  },
  {
    "postal": "L5H0G4",
    "result": []
  },
  {
    "postal": "L5H2E2",
    "result": [
      {
        "electoralDistricts": [
          {
            "election": null,
            "id": 63,
            "name": "Mississauga—Lakeshore"
          }
        ],
        "pollDivisionIds": [
          10139758
        ],
        "postalCode": "L5H2E2",
        "streetName": "FRONT",
        "streetDirectionId": "N",
        "streetTypeId": "ST",
        "placeName": "MISSISSAUGA",
        "streetNameDisplayText": "FRONT ST N, MISSISSAUGA"
      }
    ]
  },
  {
    "postal": "L5H7W8",
    "result": []
  },
  {
    "postal": "L5H7M5",
    "result": []
  },
  {
    "postal": "L5H5W8",
    "result": []
  },
  {
    "postal": "L5H5E5",
    "result": []
  },
  {
    "postal": "L5H1P9",
    "result": [
      {
        "electoralDistricts": [
          {
            "election": null,
            "id": 63,
            "name": "Mississauga—Lakeshore"
          }
        ],
        "pollDivisionIds": [
          10139757
        ],
        "postalCode": "L5H1P9",
        "streetName": "INDIAN",
        "streetDirectionId": null,
        "streetTypeId": "RD",
        "placeName": "MISSISSAUGA",
        "streetNameDisplayText": "INDIAN RD, MISSISSAUGA"
      }
    ]
  },
  {
    "postal": "L5H8V8",
    "result": []
  },
  {
    "postal": "L5H9G8",
    "result": []
  },
  {
    "postal": "L5H8H9",
    "result": []
  },
  {
    "postal": "L5H1Z1",
    "result": [
      {
        "electoralDistricts": [
          {
            "election": null,
            "id": 63,
            "name": "Mississauga—Lakeshore"
          }
        ],
        "pollDivisionIds": [
          10139760
        ],
        "postalCode": "L5H1Z1",
        "streetName": "CALDWELL",
        "streetDirectionId": null,
        "streetTypeId": "AVE",
        "placeName": "MISSISSAUGA",
        "streetNameDisplayText": "CALDWELL AVE, MISSISSAUGA"
      }
    ]
  },
  {
    "postal": "L5H8M3",
    "result": []
  },
  {
    "postal": "L5H5H6",
    "result": []
  },
  {
    "postal": "L5H7W7",
    "result": []
  },
  {
    "postal": "L5H4L0",
    "result": []
  },
  {
    "postal": "L5H2N1",
    "result": [
      {
        "electoralDistricts": [
          {
            "election": null,
            "id": 63,
            "name": "Mississauga—Lakeshore"
          }
        ],
        "pollDivisionIds": [
          10139758
        ],
        "postalCode": "L5H2N1",
        "streetName": "WESLEY",
        "streetDirectionId": null,
        "streetTypeId": "CRES",
        "placeName": "MISSISSAUGA",
        "streetNameDisplayText": "WESLEY CRES, MISSISSAUGA"
      }
    ]
  },
  {
    "postal": "L5H2H4",
    "result": [
      {
        "electoralDistricts": [
          {
            "election": null,
            "id": 63,
            "name": "Mississauga—Lakeshore"
          }
        ],
        "pollDivisionIds": [
          10139758
        ],
        "postalCode": "L5H2H4",
        "streetName": "MISSISSAUGA",
        "streetDirectionId": "N",
        "streetTypeId": "RD",
        "placeName": "MISSISSAUGA",
        "streetNameDisplayText": "MISSISSAUGA RD N, MISSISSAUGA"
      }
    ]
  },
  {
    "postal": "L5H5C8",
    "result": []
  },
  {
    "postal": "L5H8B0",
    "result": []
  },
  {
    "postal": "L5H1T4",
    "result": [
      {
        "electoralDistricts": [
          {
            "election": null,
            "id": 63,
            "name": "Mississauga—Lakeshore"
          }
        ],
        "pollDivisionIds": [
          10139757
        ],
        "postalCode": "L5H1T4",
        "streetName": "EDISTEL",
        "streetDirectionId": null,
        "streetTypeId": "CRES",
        "placeName": "MISSISSAUGA",
        "streetNameDisplayText": "EDISTEL CRES, MISSISSAUGA"
      }
    ]
  },
  {
    "postal": "L5H7N7",
    "result": []
  },
  {
    "postal": "L5H4L3",
    "result": [
      {
        "electoralDistricts": [
          {
            "election": null,
            "id": 63,
            "name": "Mississauga—Lakeshore"
          }
        ],
        "pollDivisionIds": [
          10139757
        ],
        "postalCode": "L5H4L3",
        "streetName": "HIDDEN GROVE",
        "streetDirectionId": null,
        "streetTypeId": "LANE",
        "placeName": "MISSISSAUGA",
        "streetNameDisplayText": "HIDDEN GROVE LANE, MISSISSAUGA"
      }
    ]
  },
  {
    "postal": "L5H2N2",
    "result": [
      {
        "electoralDistricts": [
          {
            "election": null,
            "id": 63,
            "name": "Mississauga—Lakeshore"
          }
        ],
        "pollDivisionIds": [
          10139758
        ],
        "postalCode": "L5H2N2",
        "streetName": "WESLEY",
        "streetDirectionId": null,
        "streetTypeId": "CRES",
        "placeName": "MISSISSAUGA",
        "streetNameDisplayText": "WESLEY CRES, MISSISSAUGA"
      }
    ]
  },
  {
    "postal": "L5H4N8",
    "result": []
  },
  {
    "postal": "L5H3M5",
    "result": [
      {
        "electoralDistricts": [
          {
            "election": null,
            "id": 63,
            "name": "Mississauga—Lakeshore"
          }
        ],
        "pollDivisionIds": [
          10139759
        ],
        "postalCode": "L5H3M5",
        "streetName": "PORTWAY",
        "streetDirectionId": null,
        "streetTypeId": "AVE",
        "placeName": "MISSISSAUGA",
        "streetNameDisplayText": "PORTWAY AVE, MISSISSAUGA"
      }
    ]
  },
  {
    "postal": "L5H6H7",
    "result": []
  },
  {
    "postal": "L5H8Y8",
    "result": []
  },
  {
    "postal": "L5H5R9",
    "result": []
  },
  {
    "postal": "L5H8G3",
    "result": []
  },
  {
    "postal": "L5H4N7",
    "result": []
  },
  {
    "postal": "L5H0B9",
    "result": []
  },
  {
    "postal": "L5H9K7",
    "result": []
  },
  {
    "postal": "L5H9K9",
    "result": []
  },
  {
    "postal": "L5H3Z2",
    "result": [
      {
        "electoralDistricts": [
          {
            "election": null,
            "id": 63,
            "name": "Mississauga—Lakeshore"
          }
        ],
        "pollDivisionIds": [
          10139759
        ],
        "postalCode": "L5H3Z2",
        "streetName": "SHAWANAGA",
        "streetDirectionId": null,
        "streetTypeId": "TRAIL",
        "placeName": "MISSISSAUGA",
        "streetNameDisplayText": "SHAWANAGA TRAIL, MISSISSAUGA"
      }
    ]
  },
  {
    "postal": "L5H6W7",
    "result": []
  },
  {
    "postal": "L5H0P1",
    "result": []
  },
  {
    "postal": "L5H3A0",
    "result": []
  },
  {
    "postal": "L5H8L9",
    "result": []
  },
  {
    "postal": "L5H6X0",
    "result": []
  },
  {
    "postal": "L5H3E9",
    "result": [
      {
        "electoralDistricts": [
          {
            "election": null,
            "id": 63,
            "name": "Mississauga—Lakeshore"
          }
        ],
        "pollDivisionIds": [
          10139760
        ],
        "postalCode": "L5H3E9",
        "streetName": "ALDO",
        "streetDirectionId": null,
        "streetTypeId": "DR",
        "placeName": "MISSISSAUGA",
        "streetNameDisplayText": "ALDO DR, MISSISSAUGA"
      }
    ]
  },
  {
    "postal": "L5H0S5",
    "result": []
  },
  {
    "postal": "L5H1A2",
    "result": []
  },
  {
    "postal": "L5H5V8",
    "result": []
  },
  {
    "postal": "L5H8C5",
    "result": []
  },
  {
    "postal": "L5H6N0",
    "result": []
  },
  {
    "postal": "L5H9E6",
    "result": []
  },
  {
    "postal": "L5H5J7",
    "result": []
  },
  {
    "postal": "L5H2R2",
    "result": [
      {
        "electoralDistricts": [
          {
            "election": null,
            "id": 63,
            "name": "Mississauga—Lakeshore"
          }
        ],
        "pollDivisionIds": [
          10139757
        ],
        "postalCode": "L5H2R2",
        "streetName": "WATESKA",
        "streetDirectionId": null,
        "streetTypeId": "BLVD",
        "placeName": "MISSISSAUGA",
        "streetNameDisplayText": "WATESKA BLVD, MISSISSAUGA"
      }
    ]
  },
  {
    "postal": "L5H0P5",
    "result": []
  },
  {
    "postal": "L5H5A7",
    "result": []
  },
  {
    "postal": "L5H1G1",
    "result": [
      {
        "electoralDistricts": [
          {
            "election": null,
            "id": 63,
            "name": "Mississauga—Lakeshore"
          }
        ],
        "pollDivisionIds": [
          10139758
        ],
        "postalCode": "L5H1G1",
        "streetName": "LAKESHORE",
        "streetDirectionId": "W",
        "streetTypeId": "RD",
        "placeName": "MISSISSAUGA",
        "streetNameDisplayText": "LAKESHORE RD W, MISSISSAUGA"
      }
    ]
  },
  {
    "postal": "L5H9R6",
    "result": []
  },
  {
    "postal": "L5H4Z9",
    "result": []
  },
  {
    "postal": "L5H1V5",
    "result": [
      {
        "electoralDistricts": [
          {
            "election": null,
            "id": 63,
            "name": "Mississauga—Lakeshore"
          }
        ],
        "pollDivisionIds": [
          10139757
        ],
        "postalCode": "L5H1V5",
        "streetName": "ARROWHEAD",
        "streetDirectionId": null,
        "streetTypeId": "RD",
        "placeName": "MISSISSAUGA",
        "streetNameDisplayText": "ARROWHEAD RD, MISSISSAUGA"
      }
    ]
  },
  {
    "postal": "L5H9Y5",
    "result": []
  },
  {
    "postal": "L5H1P2",
    "result": [
      {
        "electoralDistricts": [
          {
            "election": null,
            "id": 63,
            "name": "Mississauga—Lakeshore"
          }
        ],
        "pollDivisionIds": [
          10139761
        ],
        "postalCode": "L5H1P2",
        "streetName": "MARTLEY",
        "streetDirectionId": null,
        "streetTypeId": "DR",
        "placeName": "MISSISSAUGA",
        "streetNameDisplayText": "MARTLEY DR, MISSISSAUGA"
      }
    ]
  },
  {
    "postal": "L5H5X0",
    "result": []
  },
  {
    "postal": "L5H7B8",
    "result": []
  },
  {
    "postal": "L5H0C6",
    "result": []
  },
  {
    "postal": "L5H6G1",
    "result": []
  },
  {
    "postal": "L5H3K3",
    "result": [
      {
        "electoralDistricts": [
          {
            "election": null,
            "id": 63,
            "name": "Mississauga—Lakeshore"
          }
        ],
        "pollDivisionIds": [
          10139759
        ],
        "postalCode": "L5H3K3",
        "streetName": "HIGHRIVER",
        "streetDirectionId": null,
        "streetTypeId": "CRT",
        "placeName": "MISSISSAUGA",
        "streetNameDisplayText": "HIGHRIVER CRT, MISSISSAUGA"
      }
    ]
  },
  {
    "postal": "L5H9R0",
    "result": []
  },
  {
    "postal": "L5H4R8",
    "result": []
  },
  {
    "postal": "L5H5P9",
    "result": []
  },
  {
    "postal": "L5H8N4",
    "result": []
  },
  {
    "postal": "L5H8H4",
    "result": []
  },
  {
    "postal": "L5H4V1",
    "result": []
  },
  {
    "postal": "L5H1K5",
    "result": [
      {
        "electoralDistricts": [
          {
            "election": null,
            "id": 63,
            "name": "Mississauga—Lakeshore"
          }
        ],
        "pollDivisionIds": [
          10139758
        ],
        "postalCode": "L5H1K5",
        "streetName": "HIGH",
        "streetDirectionId": "W",
        "streetTypeId": "ST",
        "placeName": "MISSISSAUGA",
        "streetNameDisplayText": "HIGH ST W, MISSISSAUGA"
      }
    ]
  },
  {
    "postal": "L5H1Z5",
    "result": [
      {
        "electoralDistricts": [
          {
            "election": null,
            "id": 63,
            "name": "Mississauga—Lakeshore"
          }
        ],
        "pollDivisionIds": [
          10139760
        ],
        "postalCode": "L5H1Z5",
        "streetName": "CALDWELL",
        "streetDirectionId": null,
        "streetTypeId": "AVE",
        "placeName": "MISSISSAUGA",
        "streetNameDisplayText": "CALDWELL AVE, MISSISSAUGA"
      }
    ]
  },
  {
    "postal": "L5H9L9",
    "result": []
  },
  {
    "postal": "L5H5L2",
    "result": []
  },
  {
    "postal": "L5H0M2",
    "result": []
  },
  {
    "postal": "L5H1K8",
    "result": [
      {
        "electoralDistricts": [
          {
            "election": null,
            "id": 63,
            "name": "Mississauga—Lakeshore"
          }
        ],
        "pollDivisionIds": [
          10139758
        ],
        "postalCode": "L5H1K8",
        "streetName": "PARK",
        "streetDirectionId": "W",
        "streetTypeId": "ST",
        "placeName": "MISSISSAUGA",
        "streetNameDisplayText": "PARK ST W, MISSISSAUGA"
      }
    ]
  },
  {
    "postal": "L5H3M7",
    "result": [
      {
        "electoralDistricts": [
          {
            "election": null,
            "id": 63,
            "name": "Mississauga—Lakeshore"
          }
        ],
        "pollDivisionIds": [
          10139759
        ],
        "postalCode": "L5H3M7",
        "streetName": "PORTWAY",
        "streetDirectionId": null,
        "streetTypeId": "AVE",
        "placeName": "MISSISSAUGA",
        "streetNameDisplayText": "PORTWAY AVE, MISSISSAUGA"
      }
    ]
  },
  {
    "postal": "L5H1B2",
    "result": [
      {
        "electoralDistricts": [
          {
            "election": null,
            "id": 63,
            "name": "Mississauga—Lakeshore"
          }
        ],
        "pollDivisionIds": [
          10139763
        ],
        "postalCode": "L5H1B2",
        "streetName": "CONTOUR",
        "streetDirectionId": null,
        "streetTypeId": "DR",
        "placeName": "MISSISSAUGA",
        "streetNameDisplayText": "CONTOUR DR, MISSISSAUGA"
      }
    ]
  },
  {
    "postal": "L5H0H9",
    "result": []
  },
  {
    "postal": "L5H8M4",
    "result": []
  },
  {
    "postal": "L5H2M5",
    "result": [
      {
        "electoralDistricts": [
          {
            "election": null,
            "id": 63,
            "name": "Mississauga—Lakeshore"
          }
        ],
        "pollDivisionIds": [
          10139758
        ],
        "postalCode": "L5H2M5",
        "streetName": "WESLEY",
        "streetDirectionId": null,
        "streetTypeId": "AVE",
        "placeName": "MISSISSAUGA",
        "streetNameDisplayText": "WESLEY AVE, MISSISSAUGA"
      }
    ]
  },
  {
    "postal": "L5H0T9",
    "result": []
  },
  {
    "postal": "L5H3P1",
    "result": [
      {
        "electoralDistricts": [
          {
            "election": null,
            "id": 63,
            "name": "Mississauga—Lakeshore"
          }
        ],
        "pollDivisionIds": [
          10139760
        ],
        "postalCode": "L5H3P1",
        "streetName": "TECUMSEH PARK",
        "streetDirectionId": null,
        "streetTypeId": "DR",
        "placeName": "MISSISSAUGA",
        "streetNameDisplayText": "TECUMSEH PARK DR, MISSISSAUGA"
      }
    ]
  },
  {
    "postal": "L5H1R6",
    "result": [
      {
        "electoralDistricts": [
          {
            "election": null,
            "id": 63,
            "name": "Mississauga—Lakeshore"
          }
        ],
        "pollDivisionIds": [
          10139760
        ],
        "postalCode": "L5H1R6",
        "streetName": "INDIAN",
        "streetDirectionId": null,
        "streetTypeId": "RD",
        "placeName": "MISSISSAUGA",
        "streetNameDisplayText": "INDIAN RD, MISSISSAUGA"
      }
    ]
  },
  {
    "postal": "L5H9V5",
    "result": []
  },
  {
    "postal": "L5H9T0",
    "result": []
  },
  {
    "postal": "L5H0A9",
    "result": []
  },
  {
    "postal": "L5H1M3",
    "result": [
      {
        "electoralDistricts": [
          {
            "election": null,
            "id": 63,
            "name": "Mississauga—Lakeshore"
          }
        ],
        "pollDivisionIds": [
          10139760
        ],
        "postalCode": "L5H1M3",
        "streetName": "FAIR BIRCH",
        "streetDirectionId": null,
        "streetTypeId": "DR",
        "placeName": "MISSISSAUGA",
        "streetNameDisplayText": "FAIR BIRCH DR, MISSISSAUGA"
      }
    ]
  },
  {
    "postal": "L5H1W8",
    "result": [
      {
        "electoralDistricts": [
          {
            "election": null,
            "id": 63,
            "name": "Mississauga—Lakeshore"
          }
        ],
        "pollDivisionIds": [
          10139760
        ],
        "postalCode": "L5H1W8",
        "streetName": "STREAMBANK",
        "streetDirectionId": null,
        "streetTypeId": "DR",
        "placeName": "MISSISSAUGA",
        "streetNameDisplayText": "STREAMBANK DR, MISSISSAUGA"
      }
    ]
  },
  {
    "postal": "L5H9J1",
    "result": []
  },
  {
    "postal": "L5H8N5",
    "result": []
  },
  {
    "postal": "L5H5X1",
    "result": []
  },
  {
    "postal": "L5H6S2",
    "result": []
  },
  {
    "postal": "L5H2A2",
    "result": []
  },
  {
    "postal": "L5H6A6",
    "result": []
  },
  {
    "postal": "L5H0S3",
    "result": []
  },
  {
    "postal": "L5H3E7",
    "result": [
      {
        "electoralDistricts": [
          {
            "election": null,
            "id": 63,
            "name": "Mississauga—Lakeshore"
          }
        ],
        "pollDivisionIds": [
          10139760
        ],
        "postalCode": "L5H3E7",
        "streetName": "SOUTH ALDO",
        "streetDirectionId": null,
        "streetTypeId": "DR",
        "placeName": "MISSISSAUGA",
        "streetNameDisplayText": "SOUTH ALDO DR, MISSISSAUGA"
      }
    ]
  },
  {
    "postal": "L5H5R7",
    "result": []
  },
  {
    "postal": "L5H3R6",
    "result": [
      {
        "electoralDistricts": [
          {
            "election": null,
            "id": 63,
            "name": "Mississauga—Lakeshore"
          }
        ],
        "pollDivisionIds": [
          10139760
        ],
        "postalCode": "L5H3R6",
        "streetName": "ROYAL OAKS",
        "streetDirectionId": null,
        "streetTypeId": "RD",
        "placeName": "MISSISSAUGA",
        "streetNameDisplayText": "ROYAL OAKS RD, MISSISSAUGA"
      }
    ]
  },
  {
    "postal": "L5H6K4",
    "result": []
  },
  {
    "postal": "L5H2W5",
    "result": [
      {
        "electoralDistricts": [
          {
            "election": null,
            "id": 63,
            "name": "Mississauga—Lakeshore"
          }
        ],
        "pollDivisionIds": [
          10139760
        ],
        "postalCode": "L5H2W5",
        "streetName": "TECUMSEH PARK",
        "streetDirectionId": null,
        "streetTypeId": "DR",
        "placeName": "MISSISSAUGA",
        "streetNameDisplayText": "TECUMSEH PARK DR, MISSISSAUGA"
      }
    ]
  },
  {
    "postal": "L5H8W4",
    "result": []
  },
  {
    "postal": "L5H9C2",
    "result": []
  },
  {
    "postal": "L5H2C0",
    "result": []
  },
  {
    "postal": "L5H0E1",
    "result": []
  },
  {
    "postal": "L5H1K9",
    "result": [
      {
        "electoralDistricts": [
          {
            "election": null,
            "id": 63,
            "name": "Mississauga—Lakeshore"
          }
        ],
        "pollDivisionIds": [
          10139758
        ],
        "postalCode": "L5H1K9",
        "streetName": "PARK",
        "streetDirectionId": "W",
        "streetTypeId": "ST",
        "placeName": "MISSISSAUGA",
        "streetNameDisplayText": "PARK ST W, MISSISSAUGA"
      }
    ]
  },
  {
    "postal": "L5H1G7",
    "result": [
      {
        "electoralDistricts": [
          {
            "election": null,
            "id": 63,
            "name": "Mississauga—Lakeshore"
          }
        ],
        "pollDivisionIds": [
          10139758
        ],
        "postalCode": "L5H1G7",
        "streetName": "PARK",
        "streetDirectionId": "W",
        "streetTypeId": "ST",
        "placeName": "MISSISSAUGA",
        "streetNameDisplayText": "PARK ST W, MISSISSAUGA"
      }
    ]
  },
  {
    "postal": "L5H4E9",
    "result": [
      {
        "electoralDistricts": [
          {
            "election": null,
            "id": 63,
            "name": "Mississauga—Lakeshore"
          }
        ],
        "pollDivisionIds": [
          10139760
        ],
        "postalCode": "L5H4E9",
        "streetName": "SPENCE",
        "streetDirectionId": null,
        "streetTypeId": "CRT",
        "placeName": "MISSISSAUGA",
        "streetNameDisplayText": "SPENCE CRT, MISSISSAUGA"
      }
    ]
  },
  {
    "postal": "L5H9P0",
    "result": []
  },
  {
    "postal": "L5H5H3",
    "result": []
  },
  {
    "postal": "L5H9X6",
    "result": []
  },
  {
    "postal": "L5H5N7",
    "result": []
  },
  {
    "postal": "L5H5A6",
    "result": []
  },
  {
    "postal": "L5H4M0",
    "result": []
  },
  {
    "postal": "L5H3V6",
    "result": [
      {
        "electoralDistricts": [
          {
            "election": null,
            "id": 63,
            "name": "Mississauga—Lakeshore"
          }
        ],
        "pollDivisionIds": [
          10139759
        ],
        "postalCode": "L5H3V6",
        "streetName": "CHIPPEWA",
        "streetDirectionId": null,
        "streetTypeId": "TRAIL",
        "placeName": "MISSISSAUGA",
        "streetNameDisplayText": "CHIPPEWA TRAIL, MISSISSAUGA"
      }
    ]
  },
  {
    "postal": "L5H1L7",
    "result": [
      {
        "electoralDistricts": [
          {
            "election": null,
            "id": 63,
            "name": "Mississauga—Lakeshore"
          }
        ],
        "pollDivisionIds": [
          10139758
        ],
        "postalCode": "L5H1L7",
        "streetName": "QUEEN",
        "streetDirectionId": "W",
        "streetTypeId": "ST",
        "placeName": "MISSISSAUGA",
        "streetNameDisplayText": "QUEEN ST W, MISSISSAUGA"
      }
    ]
  },
  {
    "postal": "L5H2P9",
    "result": [
      {
        "electoralDistricts": [
          {
            "election": null,
            "id": 63,
            "name": "Mississauga—Lakeshore"
          }
        ],
        "pollDivisionIds": [
          10139758
        ],
        "postalCode": "L5H2P9",
        "streetName": "PINE",
        "streetDirectionId": "N",
        "streetTypeId": "AVE",
        "placeName": "MISSISSAUGA",
        "streetNameDisplayText": "PINE AVE N, MISSISSAUGA"
      }
    ]
  },
  {
    "postal": "L5H5T4",
    "result": []
  },
  {
    "postal": "L5H5Z1",
    "result": []
  },
  {
    "postal": "L5H2X0",
    "result": []
  },
  {
    "postal": "L5H6Z2",
    "result": []
  },
  {
    "postal": "L5H0E0",
    "result": []
  },
  {
    "postal": "L5H3Z5",
    "result": [
      {
        "electoralDistricts": [
          {
            "election": null,
            "id": 63,
            "name": "Mississauga—Lakeshore"
          }
        ],
        "pollDivisionIds": [
          10139759
        ],
        "postalCode": "L5H3Z5",
        "streetName": "TIPPERARY",
        "streetDirectionId": null,
        "streetTypeId": "CRT",
        "placeName": "MISSISSAUGA",
        "streetNameDisplayText": "TIPPERARY CRT, MISSISSAUGA"
      }
    ]
  },
  {
    "postal": "L5H8H3",
    "result": []
  },
  {
    "postal": "L5H7S6",
    "result": []
  },
  {
    "postal": "L5H4C1",
    "result": [
      {
        "electoralDistricts": [
          {
            "election": null,
            "id": 63,
            "name": "Mississauga—Lakeshore"
          }
        ],
        "pollDivisionIds": [
          10139757
        ],
        "postalCode": "L5H4C1",
        "streetName": "MESA",
        "streetDirectionId": null,
        "streetTypeId": "CRES",
        "placeName": "MISSISSAUGA",
        "streetNameDisplayText": "MESA CRES, MISSISSAUGA"
      }
    ]
  },
  {
    "postal": "L5H3K2",
    "result": [
      {
        "electoralDistricts": [
          {
            "election": null,
            "id": 63,
            "name": "Mississauga—Lakeshore"
          }
        ],
        "pollDivisionIds": [
          10139759
        ],
        "postalCode": "L5H3K2",
        "streetName": "TENOGA",
        "streetDirectionId": null,
        "streetTypeId": "DR",
        "placeName": "MISSISSAUGA",
        "streetNameDisplayText": "TENOGA DR, MISSISSAUGA"
      }
    ]
  },
  {
    "postal": "L5H1Y5",
    "result": [
      {
        "electoralDistricts": [
          {
            "election": null,
            "id": 63,
            "name": "Mississauga—Lakeshore"
          }
        ],
        "pollDivisionIds": [
          10139757
        ],
        "postalCode": "L5H1Y5",
        "streetName": "KEDLESTON",
        "streetDirectionId": null,
        "streetTypeId": "WAY",
        "placeName": "MISSISSAUGA",
        "streetNameDisplayText": "KEDLESTON WAY, MISSISSAUGA"
      }
    ]
  },
  {
    "postal": "L5H6P6",
    "result": []
  },
  {
    "postal": "L5H3N9",
    "result": [
      {
        "electoralDistricts": [
          {
            "election": null,
            "id": 63,
            "name": "Mississauga—Lakeshore"
          }
        ],
        "pollDivisionIds": [
          10139760
        ],
        "postalCode": "L5H3N9",
        "streetName": "INDIAN",
        "streetDirectionId": null,
        "streetTypeId": "RD",
        "placeName": "MISSISSAUGA",
        "streetNameDisplayText": "INDIAN RD, MISSISSAUGA"
      }
    ]
  },
  {
    "postal": "L5H3W2",
    "result": [
      {
        "electoralDistricts": [
          {
            "election": null,
            "id": 63,
            "name": "Mississauga—Lakeshore"
          }
        ],
        "pollDivisionIds": [
          10139759
        ],
        "postalCode": "L5H3W2",
        "streetName": "SHANNON",
        "streetDirectionId": null,
        "streetTypeId": "DR",
        "placeName": "MISSISSAUGA",
        "streetNameDisplayText": "SHANNON DR, MISSISSAUGA"
      }
    ]
  },
  {
    "postal": "L5H6H8",
    "result": []
  },
  {
    "postal": "L5H9T3",
    "result": []
  },
  {
    "postal": "L5H5L9",
    "result": []
  },
  {
    "postal": "L5H7X7",
    "result": []
  },
  {
    "postal": "L5H3J5",
    "result": [
      {
        "electoralDistricts": [
          {
            "election": null,
            "id": 63,
            "name": "Mississauga—Lakeshore"
          }
        ],
        "pollDivisionIds": [
          10139761
        ],
        "postalCode": "L5H3J5",
        "streetName": "GARDEN",
        "streetDirectionId": null,
        "streetTypeId": "RD",
        "placeName": "MISSISSAUGA",
        "streetNameDisplayText": "GARDEN RD, MISSISSAUGA"
      }
    ]
  },
  {
    "postal": "L5H4J5",
    "result": [
      {
        "electoralDistricts": [
          {
            "election": null,
            "id": 63,
            "name": "Mississauga—Lakeshore"
          }
        ],
        "pollDivisionIds": [
          10139757
        ],
        "postalCode": "L5H4J5",
        "streetName": "TRIDOM",
        "streetDirectionId": null,
        "streetTypeId": "CRT",
        "placeName": "MISSISSAUGA",
        "streetNameDisplayText": "TRIDOM CRT, MISSISSAUGA"
      }
    ]
  },
  {
    "postal": "L5H6J2",
    "result": []
  },
  {
    "postal": "L5H5V6",
    "result": []
  },
  {
    "postal": "L5H3N2",
    "result": [
      {
        "electoralDistricts": [
          {
            "election": null,
            "id": 63,
            "name": "Mississauga—Lakeshore"
          }
        ],
        "pollDivisionIds": [
          10139759
        ],
        "postalCode": "L5H3N2",
        "streetName": "OTAMI",
        "streetDirectionId": null,
        "streetTypeId": "TRAIL",
        "placeName": "MISSISSAUGA",
        "streetNameDisplayText": "OTAMI TRAIL, MISSISSAUGA"
      }
    ]
  },
  {
    "postal": "L5H3B1",
    "result": [
      {
        "electoralDistricts": [
          {
            "election": null,
            "id": 63,
            "name": "Mississauga—Lakeshore"
          }
        ],
        "pollDivisionIds": [
          10139761
        ],
        "postalCode": "L5H3B1",
        "streetName": "LORNE PARK",
        "streetDirectionId": null,
        "streetTypeId": "RD",
        "placeName": "MISSISSAUGA",
        "streetNameDisplayText": "LORNE PARK RD, MISSISSAUGA"
      }
    ]
  },
  {
    "postal": "L5H8B5",
    "result": []
  },
  {
    "postal": "L5H0K1",
    "result": []
  },
  {
    "postal": "L5H7M7",
    "result": []
  },
  {
    "postal": "L5H2M2",
    "result": [
      {
        "electoralDistricts": [
          {
            "election": null,
            "id": 63,
            "name": "Mississauga—Lakeshore"
          }
        ],
        "pollDivisionIds": [
          10139757
        ],
        "postalCode": "L5H2M2",
        "streetName": "KANE",
        "streetDirectionId": null,
        "streetTypeId": "RD",
        "placeName": "MISSISSAUGA",
        "streetNameDisplayText": "KANE RD, MISSISSAUGA"
      }
    ]
  },
  {
    "postal": "L5H9N3",
    "result": []
  },
  {
    "postal": "L5H4Y8",
    "result": []
  },
  {
    "postal": "L5H3V7",
    "result": [
      {
        "electoralDistricts": [
          {
            "election": null,
            "id": 63,
            "name": "Mississauga—Lakeshore"
          }
        ],
        "pollDivisionIds": [
          10139759
        ],
        "postalCode": "L5H3V7",
        "streetName": "CHIPPEWA",
        "streetDirectionId": null,
        "streetTypeId": "TRAIL",
        "placeName": "MISSISSAUGA",
        "streetNameDisplayText": "CHIPPEWA TRAIL, MISSISSAUGA"
      }
    ]
  },
  {
    "postal": "L5H8Z1",
    "result": []
  },
  {
    "postal": "L5H7B3",
    "result": []
  },
  {
    "postal": "L5H3A8",
    "result": [
      {
        "electoralDistricts": [
          {
            "election": null,
            "id": 63,
            "name": "Mississauga—Lakeshore"
          }
        ],
        "pollDivisionIds": [
          10139761
        ],
        "postalCode": "L5H3A8",
        "streetName": "LORNE PARK",
        "streetDirectionId": null,
        "streetTypeId": "RD",
        "placeName": "MISSISSAUGA",
        "streetNameDisplayText": "LORNE PARK RD, MISSISSAUGA"
      }
    ]
  },
  {
    "postal": "L5H7V5",
    "result": []
  },
  {
    "postal": "L5H2T2",
    "result": [
      {
        "electoralDistricts": [
          {
            "election": null,
            "id": 63,
            "name": "Mississauga—Lakeshore"
          }
        ],
        "pollDivisionIds": [
          10139763
        ],
        "postalCode": "L5H2T2",
        "streetName": "CROZIER",
        "streetDirectionId": null,
        "streetTypeId": "CRT",
        "placeName": "MISSISSAUGA",
        "streetNameDisplayText": "CROZIER CRT, MISSISSAUGA"
      }
    ]
  },
  {
    "postal": "L5H6L3",
    "result": []
  },
  {
    "postal": "L5H0L2",
    "result": []
  },
  {
    "postal": "L5H5Y8",
    "result": []
  },
  {
    "postal": "L5H0B8",
    "result": []
  },
  {
    "postal": "L5H6R5",
    "result": []
  },
  {
    "postal": "L5H8W6",
    "result": []
  },
  {
    "postal": "L5H8G6",
    "result": []
  },
  {
    "postal": "L5H6X3",
    "result": []
  },
  {
    "postal": "L5H7R7",
    "result": []
  },
  {
    "postal": "L5H4B6",
    "result": [
      {
        "electoralDistricts": [
          {
            "election": null,
            "id": 63,
            "name": "Mississauga—Lakeshore"
          }
        ],
        "pollDivisionIds": [
          10139759
        ],
        "postalCode": "L5H4B6",
        "streetName": "IFIELD",
        "streetDirectionId": null,
        "streetTypeId": "RD",
        "placeName": "MISSISSAUGA",
        "streetNameDisplayText": "IFIELD RD, MISSISSAUGA"
      }
    ]
  },
  {
    "postal": "L5H3P9",
    "result": [
      {
        "electoralDistricts": [
          {
            "election": null,
            "id": 63,
            "name": "Mississauga—Lakeshore"
          }
        ],
        "pollDivisionIds": [
          10139759
        ],
        "postalCode": "L5H3P9",
        "streetName": "KAWARTHA",
        "streetDirectionId": null,
        "streetTypeId": "CRES",
        "placeName": "MISSISSAUGA",
        "streetNameDisplayText": "KAWARTHA CRES, MISSISSAUGA"
      }
    ]
  },
  {
    "postal": "L5H2T3",
    "result": [
      {
        "electoralDistricts": [
          {
            "election": null,
            "id": 63,
            "name": "Mississauga—Lakeshore"
          }
        ],
        "pollDivisionIds": [
          10139763
        ],
        "postalCode": "L5H2T3",
        "streetName": "CROZIER",
        "streetDirectionId": null,
        "streetTypeId": "CRT",
        "placeName": "MISSISSAUGA",
        "streetNameDisplayText": "CROZIER CRT, MISSISSAUGA"
      }
    ]
  },
  {
    "postal": "L5H1M4",
    "result": [
      {
        "electoralDistricts": [
          {
            "election": null,
            "id": 63,
            "name": "Mississauga—Lakeshore"
          }
        ],
        "pollDivisionIds": [
          10139760
        ],
        "postalCode": "L5H1M4",
        "streetName": "FAIR BIRCH",
        "streetDirectionId": null,
        "streetTypeId": "DR",
        "placeName": "MISSISSAUGA",
        "streetNameDisplayText": "FAIR BIRCH DR, MISSISSAUGA"
      }
    ]
  },
  {
    "postal": "L5H0H1",
    "result": []
  },
  {
    "postal": "L5H9W3",
    "result": []
  },
  {
    "postal": "L5H6P1",
    "result": []
  },
  {
    "postal": "L5H7G2",
    "result": []
  },
  {
    "postal": "L5H4J9",
    "result": [
      {
        "electoralDistricts": [
          {
            "election": null,
            "id": 63,
            "name": "Mississauga—Lakeshore"
          }
        ],
        "pollDivisionIds": [
          10139763
        ],
        "postalCode": "L5H4J9",
        "streetName": "QUEEN",
        "streetDirectionId": "W",
        "streetTypeId": "ST",
        "placeName": "MISSISSAUGA",
        "streetNameDisplayText": "QUEEN ST W, MISSISSAUGA"
      }
    ]
  },
  {
    "postal": "L5H9E4",
    "result": []
  },
  {
    "postal": "L5H8H0",
    "result": []
  },
  {
    "postal": "L5H4M7",
    "result": [
      {
        "electoralDistricts": [
          {
            "election": null,
            "id": 63,
            "name": "Mississauga—Lakeshore"
          }
        ],
        "pollDivisionIds": [
          10139757
        ],
        "postalCode": "L5H4M7",
        "streetName": "BURROWHILL",
        "streetDirectionId": null,
        "streetTypeId": "LANE",
        "placeName": "MISSISSAUGA",
        "streetNameDisplayText": "BURROWHILL LANE, MISSISSAUGA"
      }
    ]
  },
  {
    "postal": "L5H2G9",
    "result": []
  },
  {
    "postal": "L5H8T2",
    "result": []
  },
  {
    "postal": "L5H7G7",
    "result": []
  },
  {
    "postal": "L5H4Z3",
    "result": []
  },
  {
    "postal": "L5H5B3",
    "result": []
  },
  {
    "postal": "L5H1S7",
    "result": [
      {
        "electoralDistricts": [
          {
            "election": null,
            "id": 63,
            "name": "Mississauga—Lakeshore"
          }
        ],
        "pollDivisionIds": [
          10139761
        ],
        "postalCode": "L5H1S7",
        "streetName": "INDIAN",
        "streetDirectionId": null,
        "streetTypeId": "RD",
        "placeName": "MISSISSAUGA",
        "streetNameDisplayText": "INDIAN RD, MISSISSAUGA"
      }
    ]
  },
  {
    "postal": "L5H2N7",
    "result": [
      {
        "electoralDistricts": [
          {
            "election": null,
            "id": 63,
            "name": "Mississauga—Lakeshore"
          }
        ],
        "pollDivisionIds": [
          10139757
        ],
        "postalCode": "L5H2N7",
        "streetName": "SHADOWA",
        "streetDirectionId": null,
        "streetTypeId": "RD",
        "placeName": "MISSISSAUGA",
        "streetNameDisplayText": "SHADOWA RD, MISSISSAUGA"
      }
    ]
  },
  {
    "postal": "L5H0H8",
    "result": []
  },
  {
    "postal": "L5H7Z4",
    "result": []
  },
  {
    "postal": "L5H7B1",
    "result": []
  },
  {
    "postal": "L5H7P8",
    "result": []
  },
  {
    "postal": "L5H7N0",
    "result": []
  },
  {
    "postal": "L5H3Y5",
    "result": [
      {
        "electoralDistricts": [
          {
            "election": null,
            "id": 63,
            "name": "Mississauga—Lakeshore"
          }
        ],
        "pollDivisionIds": [
          10139757
        ],
        "postalCode": "L5H3Y5",
        "streetName": "RAINTREE",
        "streetDirectionId": null,
        "streetTypeId": "LANE",
        "placeName": "MISSISSAUGA",
        "streetNameDisplayText": "RAINTREE LANE, MISSISSAUGA"
      }
    ]
  },
  {
    "postal": "L5H6K1",
    "result": []
  },
  {
    "postal": "L5H9X5",
    "result": []
  },
  {
    "postal": "L5H7S5",
    "result": []
  },
  {
    "postal": "L5H0A4",
    "result": []
  },
  {
    "postal": "L5H4T5",
    "result": []
  },
  {
    "postal": "L5H5K1",
    "result": []
  },
  {
    "postal": "L5H0Z9",
    "result": []
  },
  {
    "postal": "L5H7T2",
    "result": []
  },
  {
    "postal": "L5H1L5",
    "result": [
      {
        "electoralDistricts": [
          {
            "election": null,
            "id": 63,
            "name": "Mississauga—Lakeshore"
          }
        ],
        "pollDivisionIds": [
          10139758
        ],
        "postalCode": "L5H1L5",
        "streetName": "QUEEN",
        "streetDirectionId": "W",
        "streetTypeId": "ST",
        "placeName": "MISSISSAUGA",
        "streetNameDisplayText": "QUEEN ST W, MISSISSAUGA"
      }
    ]
  },
  {
    "postal": "L5H3N5",
    "result": [
      {
        "electoralDistricts": [
          {
            "election": null,
            "id": 63,
            "name": "Mississauga—Lakeshore"
          }
        ],
        "pollDivisionIds": [
          10139759
        ],
        "postalCode": "L5H3N5",
        "streetName": "SPRINGBANK",
        "streetDirectionId": null,
        "streetTypeId": "RD",
        "placeName": "MISSISSAUGA",
        "streetNameDisplayText": "SPRINGBANK RD, MISSISSAUGA"
      }
    ]
  },
  {
    "postal": "L5H6H4",
    "result": []
  },
  {
    "postal": "L5H5A5",
    "result": []
  },
  {
    "postal": "L5H3R9",
    "result": [
      {
        "electoralDistricts": [
          {
            "election": null,
            "id": 63,
            "name": "Mississauga—Lakeshore"
          }
        ],
        "pollDivisionIds": [
          10139760
        ],
        "postalCode": "L5H3R9",
        "streetName": "PRINCE ALBERT",
        "streetDirectionId": null,
        "streetTypeId": "CRT",
        "placeName": "MISSISSAUGA",
        "streetNameDisplayText": "PRINCE ALBERT CRT, MISSISSAUGA"
      }
    ]
  },
  {
    "postal": "L5H7L8",
    "result": []
  },
  {
    "postal": "L5H6T6",
    "result": []
  },
  {
    "postal": "L5H7Y7",
    "result": []
  },
  {
    "postal": "L5H3M8",
    "result": [
      {
        "electoralDistricts": [
          {
            "election": null,
            "id": 63,
            "name": "Mississauga—Lakeshore"
          }
        ],
        "pollDivisionIds": [
          10139759
        ],
        "postalCode": "L5H3M8",
        "streetName": "PORTWAY",
        "streetDirectionId": null,
        "streetTypeId": "AVE",
        "placeName": "MISSISSAUGA",
        "streetNameDisplayText": "PORTWAY AVE, MISSISSAUGA"
      }
    ]
  },
  {
    "postal": "L5H2E0",
    "result": []
  },
  {
    "postal": "L5H4B5",
    "result": [
      {
        "electoralDistricts": [
          {
            "election": null,
            "id": 63,
            "name": "Mississauga—Lakeshore"
          }
        ],
        "pollDivisionIds": [
          10139759
        ],
        "postalCode": "L5H4B5",
        "streetName": "SAXONY",
        "streetDirectionId": null,
        "streetTypeId": "CRT",
        "placeName": "MISSISSAUGA",
        "streetNameDisplayText": "SAXONY CRT, MISSISSAUGA"
      }
    ]
  },
  {
    "postal": "L5H1J3",
    "result": [
      {
        "electoralDistricts": [
          {
            "election": null,
            "id": 63,
            "name": "Mississauga—Lakeshore"
          }
        ],
        "pollDivisionIds": [
          10139763
        ],
        "postalCode": "L5H1J3",
        "streetName": "LAKESHORE",
        "streetDirectionId": "W",
        "streetTypeId": "RD",
        "placeName": "MISSISSAUGA",
        "streetNameDisplayText": "LAKESHORE RD W, MISSISSAUGA"
      }
    ]
  },
  {
    "postal": "L5H5S6",
    "result": []
  },
  {
    "postal": "L5H8P7",
    "result": []
  },
  {
    "postal": "L5H7S7",
    "result": []
  },
  {
    "postal": "L5H4C2",
    "result": [
      {
        "electoralDistricts": [
          {
            "election": null,
            "id": 63,
            "name": "Mississauga—Lakeshore"
          }
        ],
        "pollDivisionIds": [
          10139759
        ],
        "postalCode": "L5H4C2",
        "streetName": "BEAVERBROOK",
        "streetDirectionId": null,
        "streetTypeId": "WAY",
        "placeName": "MISSISSAUGA",
        "streetNameDisplayText": "BEAVERBROOK WAY, MISSISSAUGA"
      }
    ]
  },
  {
    "postal": "L5H5Y0",
    "result": []
  },
  {
    "postal": "L5H2V7",
    "result": [
      {
        "electoralDistricts": [
          {
            "election": null,
            "id": 63,
            "name": "Mississauga—Lakeshore"
          }
        ],
        "pollDivisionIds": [
          10139763
        ],
        "postalCode": "L5H2V7",
        "streetName": "BALBOA",
        "streetDirectionId": null,
        "streetTypeId": "DR",
        "placeName": "MISSISSAUGA",
        "streetNameDisplayText": "BALBOA DR, MISSISSAUGA"
      }
    ]
  },
  {
    "postal": "L5H8P5",
    "result": []
  },
  {
    "postal": "L5H5P5",
    "result": []
  },
  {
    "postal": "L5H5Z0",
    "result": []
  },
  {
    "postal": "L5H9B0",
    "result": []
  },
  {
    "postal": "L5H1L0",
    "result": []
  },
  {
    "postal": "L5H0B5",
    "result": []
  },
  {
    "postal": "L5H3L2",
    "result": [
      {
        "electoralDistricts": [
          {
            "election": null,
            "id": 63,
            "name": "Mississauga—Lakeshore"
          }
        ],
        "pollDivisionIds": [
          10139763
        ],
        "postalCode": "L5H3L2",
        "streetName": "BEXHILL",
        "streetDirectionId": null,
        "streetTypeId": "RD",
        "placeName": "MISSISSAUGA",
        "streetNameDisplayText": "BEXHILL RD, MISSISSAUGA"
      }
    ]
  },
  {
    "postal": "L5H3B7",
    "result": [
      {
        "electoralDistricts": [
          {
            "election": null,
            "id": 63,
            "name": "Mississauga—Lakeshore"
          }
        ],
        "pollDivisionIds": [
          10139760
        ],
        "postalCode": "L5H3B7",
        "streetName": "MOBRIDGE",
        "streetDirectionId": null,
        "streetTypeId": "CRT",
        "placeName": "MISSISSAUGA",
        "streetNameDisplayText": "MOBRIDGE CRT, MISSISSAUGA"
      }
    ]
  },
  {
    "postal": "L5H8L1",
    "result": []
  },
  {
    "postal": "L5H5M4",
    "result": []
  },
  {
    "postal": "L5H4G9",
    "result": [
      {
        "electoralDistricts": [
          {
            "election": null,
            "id": 63,
            "name": "Mississauga—Lakeshore"
          }
        ],
        "pollDivisionIds": [
          10139759
        ],
        "postalCode": "L5H4G9",
        "streetName": "MISSISSAUGA",
        "streetDirectionId": null,
        "streetTypeId": "RD",
        "placeName": "MISSISSAUGA",
        "streetNameDisplayText": "MISSISSAUGA RD, MISSISSAUGA"
      }
    ]
  },
  {
    "postal": "L5H0P0",
    "result": []
  },
  {
    "postal": "L5H8G2",
    "result": []
  },
  {
    "postal": "L5H1V9",
    "result": [
      {
        "electoralDistricts": [
          {
            "election": null,
            "id": 63,
            "name": "Mississauga—Lakeshore"
          }
        ],
        "pollDivisionIds": [
          10139757
        ],
        "postalCode": "L5H1V9",
        "streetName": "SHENANDOAH",
        "streetDirectionId": null,
        "streetTypeId": "DR",
        "placeName": "MISSISSAUGA",
        "streetNameDisplayText": "SHENANDOAH DR, MISSISSAUGA"
      }
    ]
  },
  {
    "postal": "L5H8N8",
    "result": []
  },
  {
    "postal": "L5H6S8",
    "result": []
  },
  {
    "postal": "L5H8H2",
    "result": []
  },
  {
    "postal": "L5H5R8",
    "result": []
  },
  {
    "postal": "L5H5L4",
    "result": []
  },
  {
    "postal": "L5H9E1",
    "result": []
  },
  {
    "postal": "L5H1C4",
    "result": [
      {
        "electoralDistricts": [
          {
            "election": null,
            "id": 63,
            "name": "Mississauga—Lakeshore"
          }
        ],
        "pollDivisionIds": [
          10139758
        ],
        "postalCode": "L5H1C4",
        "streetName": "BAY",
        "streetDirectionId": null,
        "streetTypeId": "ST",
        "placeName": "MISSISSAUGA",
        "streetNameDisplayText": "BAY ST, MISSISSAUGA"
      }
    ]
  },
  {
    "postal": "L5H8W5",
    "result": []
  },
  {
    "postal": "L5H1Y4",
    "result": [
      {
        "electoralDistricts": [
          {
            "election": null,
            "id": 63,
            "name": "Mississauga—Lakeshore"
          }
        ],
        "pollDivisionIds": [
          10139757
        ],
        "postalCode": "L5H1Y4",
        "streetName": "COCHISE",
        "streetDirectionId": null,
        "streetTypeId": "CRES",
        "placeName": "MISSISSAUGA",
        "streetNameDisplayText": "COCHISE CRES, MISSISSAUGA"
      }
    ]
  },
  {
    "postal": "L5H1C0",
    "result": []
  },
  {
    "postal": "L5H2J2",
    "result": [
      {
        "electoralDistricts": [
          {
            "election": null,
            "id": 63,
            "name": "Mississauga—Lakeshore"
          }
        ],
        "pollDivisionIds": [
          10139745
        ],
        "postalCode": "L5H2J2",
        "streetName": "MISSISSAUGA",
        "streetDirectionId": "N",
        "streetTypeId": "RD",
        "placeName": "MISSISSAUGA",
        "streetNameDisplayText": "MISSISSAUGA RD N, MISSISSAUGA"
      },
      {
        "electoralDistricts": [
          {
            "election": null,
            "id": 63,
            "name": "Mississauga—Lakeshore"
          }
        ],
        "pollDivisionIds": [
          10139757
        ],
        "postalCode": "L5H2J2",
        "streetName": "MISSISSAUGA",
        "streetDirectionId": null,
        "streetTypeId": "RD",
        "placeName": "MISSISSAUGA",
        "streetNameDisplayText": "MISSISSAUGA RD, MISSISSAUGA"
      }
    ]
  },
  {
    "postal": "L5H2J0",
    "result": []
  },
  {
    "postal": "L5H7A3",
    "result": []
  },
  {
    "postal": "L5H8M1",
    "result": []
  },
  {
    "postal": "L5H7T9",
    "result": []
  },
  {
    "postal": "L5H6C0",
    "result": []
  },
  {
    "postal": "L5H7X1",
    "result": []
  },
  {
    "postal": "L5H0G1",
    "result": []
  },
  {
    "postal": "L5H4X2",
    "result": []
  },
  {
    "postal": "L5H0N6",
    "result": []
  },
  {
    "postal": "L5H8E3",
    "result": []
  },
  {
    "postal": "L5H5S8",
    "result": []
  },
  {
    "postal": "L5H0R0",
    "result": []
  },
  {
    "postal": "L5H6J6",
    "result": []
  },
  {
    "postal": "L5H4B4",
    "result": [
      {
        "electoralDistricts": [
          {
            "election": null,
            "id": 63,
            "name": "Mississauga—Lakeshore"
          }
        ],
        "pollDivisionIds": [
          10139757
        ],
        "postalCode": "L5H4B4",
        "streetName": "BORDEAUX",
        "streetDirectionId": null,
        "streetTypeId": "CRT",
        "placeName": "MISSISSAUGA",
        "streetNameDisplayText": "BORDEAUX CRT, MISSISSAUGA"
      }
    ]
  },
  {
    "postal": "L5H7E3",
    "result": []
  },
  {
    "postal": "L5H3N6",
    "result": [
      {
        "electoralDistricts": [
          {
            "election": null,
            "id": 63,
            "name": "Mississauga—Lakeshore"
          }
        ],
        "pollDivisionIds": [
          10139759
        ],
        "postalCode": "L5H3N6",
        "streetName": "SPRINGBANK",
        "streetDirectionId": null,
        "streetTypeId": "RD",
        "placeName": "MISSISSAUGA",
        "streetNameDisplayText": "SPRINGBANK RD, MISSISSAUGA"
      }
    ]
  },
  {
    "postal": "L5H3X6",
    "result": [
      {
        "electoralDistricts": [
          {
            "election": null,
            "id": 63,
            "name": "Mississauga—Lakeshore"
          }
        ],
        "pollDivisionIds": [
          10139759
        ],
        "postalCode": "L5H3X6",
        "streetName": "SHAWANAGA",
        "streetDirectionId": null,
        "streetTypeId": "TRAIL",
        "placeName": "MISSISSAUGA",
        "streetNameDisplayText": "SHAWANAGA TRAIL, MISSISSAUGA"
      }
    ]
  },
  {
    "postal": "L5H8L0",
    "result": []
  },
  {
    "postal": "L5H8N1",
    "result": []
  },
  {
    "postal": "L5H4J0",
    "result": []
  },
  {
    "postal": "L5H0X7",
    "result": []
  },
  {
    "postal": "L5H6S4",
    "result": []
  },
  {
    "postal": "L5H0Z0",
    "result": []
  },
  {
    "postal": "L5H9X8",
    "result": []
  },
  {
    "postal": "L5H3H3",
    "result": [
      {
        "electoralDistricts": [
          {
            "election": null,
            "id": 63,
            "name": "Mississauga—Lakeshore"
          }
        ],
        "pollDivisionIds": [
          10139761
        ],
        "postalCode": "L5H3H3",
        "streetName": "QUEEN VICTORIA",
        "streetDirectionId": null,
        "streetTypeId": "AVE",
        "placeName": "MISSISSAUGA",
        "streetNameDisplayText": "QUEEN VICTORIA AVE, MISSISSAUGA"
      }
    ]
  },
  {
    "postal": "L5H7S2",
    "result": []
  },
  {
    "postal": "L5H3T3",
    "result": [
      {
        "electoralDistricts": [
          {
            "election": null,
            "id": 63,
            "name": "Mississauga—Lakeshore"
          }
        ],
        "pollDivisionIds": [
          10139757
        ],
        "postalCode": "L5H3T3",
        "streetName": "KOWAL",
        "streetDirectionId": null,
        "streetTypeId": "DR",
        "placeName": "MISSISSAUGA",
        "streetNameDisplayText": "KOWAL DR, MISSISSAUGA"
      }
    ]
  },
  {
    "postal": "L5H9P3",
    "result": []
  },
  {
    "postal": "L5H4H8",
    "result": [
      {
        "electoralDistricts": [
          {
            "election": null,
            "id": 63,
            "name": "Mississauga—Lakeshore"
          }
        ],
        "pollDivisionIds": [
          10139760
        ],
        "postalCode": "L5H4H8",
        "streetName": "IBAR",
        "streetDirectionId": null,
        "streetTypeId": "WAY",
        "placeName": "MISSISSAUGA",
        "streetNameDisplayText": "IBAR WAY, MISSISSAUGA"
      },
      {
        "electoralDistricts": [
          {
            "election": null,
            "id": 63,
            "name": "Mississauga—Lakeshore"
          }
        ],
        "pollDivisionIds": [
          10139760
        ],
        "postalCode": "L5H4H8",
        "streetName": "SERDICA",
        "streetDirectionId": null,
        "streetTypeId": "CRT",
        "placeName": "MISSISSAUGA",
        "streetNameDisplayText": "SERDICA CRT, MISSISSAUGA"
      }
    ]
  },
  {
    "postal": "L5H6R1",
    "result": []
  },
  {
    "postal": "L5H1S0",
    "result": []
  },
  {
    "postal": "L5H3W8",
    "result": [
      {
        "electoralDistricts": [
          {
            "election": null,
            "id": 63,
            "name": "Mississauga—Lakeshore"
          }
        ],
        "pollDivisionIds": [
          10139757
        ],
        "postalCode": "L5H3W8",
        "streetName": "VANIER",
        "streetDirectionId": null,
        "streetTypeId": "DR",
        "placeName": "MISSISSAUGA",
        "streetNameDisplayText": "VANIER DR, MISSISSAUGA"
      }
    ]
  },
  {
    "postal": "L5H4S3",
    "result": []
  },
  {
    "postal": "L5H1B6",
    "result": [
      {
        "electoralDistricts": [
          {
            "election": null,
            "id": 63,
            "name": "Mississauga—Lakeshore"
          }
        ],
        "pollDivisionIds": [
          10139763
        ],
        "postalCode": "L5H1B6",
        "streetName": "STOCKWELL",
        "streetDirectionId": null,
        "streetTypeId": "AVE",
        "placeName": "MISSISSAUGA",
        "streetNameDisplayText": "STOCKWELL AVE, MISSISSAUGA"
      }
    ]
  },
  {
    "postal": "L5H8R3",
    "result": []
  },
  {
    "postal": "L5H4V9",
    "result": []
  },
  {
    "postal": "L5H9W4",
    "result": []
  },
  {
    "postal": "L5H3T4",
    "result": [
      {
        "electoralDistricts": [
          {
            "election": null,
            "id": 63,
            "name": "Mississauga—Lakeshore"
          }
        ],
        "pollDivisionIds": [
          10139757
        ],
        "postalCode": "L5H3T4",
        "streetName": "KOWAL",
        "streetDirectionId": null,
        "streetTypeId": "DR",
        "placeName": "MISSISSAUGA",
        "streetNameDisplayText": "KOWAL DR, MISSISSAUGA"
      }
    ]
  },
  {
    "postal": "L5H5C7",
    "result": []
  },
  {
    "postal": "L5H3Y1",
    "result": [
      {
        "electoralDistricts": [
          {
            "election": null,
            "id": 63,
            "name": "Mississauga—Lakeshore"
          }
        ],
        "pollDivisionIds": [
          10139760
        ],
        "postalCode": "L5H3Y1",
        "streetName": "SOLANA",
        "streetDirectionId": null,
        "streetTypeId": "CRES",
        "placeName": "MISSISSAUGA",
        "streetNameDisplayText": "SOLANA CRES, MISSISSAUGA"
      }
    ]
  },
  {
    "postal": "L5H5V0",
    "result": []
  },
  {
    "postal": "L5H8G8",
    "result": []
  },
  {
    "postal": "L5H8B1",
    "result": []
  },
  {
    "postal": "L5H4P5",
    "result": []
  },
  {
    "postal": "L5H7B2",
    "result": []
  },
  {
    "postal": "L5H0R2",
    "result": []
  },
  {
    "postal": "L5H4M4",
    "result": [
      {
        "electoralDistricts": [
          {
            "election": null,
            "id": 63,
            "name": "Mississauga—Lakeshore"
          }
        ],
        "pollDivisionIds": [
          10139757
        ],
        "postalCode": "L5H4M4",
        "streetName": "MERLOT",
        "streetDirectionId": null,
        "streetTypeId": "CRT",
        "placeName": "MISSISSAUGA",
        "streetNameDisplayText": "MERLOT CRT, MISSISSAUGA"
      }
    ]
  },
  {
    "postal": "L5H7M4",
    "result": []
  },
  {
    "postal": "L5H9S7",
    "result": []
  },
  {
    "postal": "L5H5Z7",
    "result": []
  },
  {
    "postal": "L5H7J7",
    "result": []
  },
  {
    "postal": "L5H8R8",
    "result": []
  },
  {
    "postal": "L5H9X1",
    "result": []
  },
  {
    "postal": "L5H5M9",
    "result": []
  },
  {
    "postal": "L5H9B4",
    "result": []
  },
  {
    "postal": "L5H0L9",
    "result": []
  },
  {
    "postal": "L5H9G4",
    "result": []
  },
  {
    "postal": "L5H1J4",
    "result": [
      {
        "electoralDistricts": [
          {
            "election": null,
            "id": 63,
            "name": "Mississauga—Lakeshore"
          }
        ],
        "pollDivisionIds": [
          10139763
        ],
        "postalCode": "L5H1J4",
        "streetName": "LAKESHORE",
        "streetDirectionId": "W",
        "streetTypeId": "RD",
        "placeName": "MISSISSAUGA",
        "streetNameDisplayText": "LAKESHORE RD W, MISSISSAUGA"
      }
    ]
  },
  {
    "postal": "L5H0W6",
    "result": []
  }
]
