[
  {
    "postal": "M9R9J6",
    "result": []
  },
  {
    "postal": "M9R9Z5",
    "result": []
  },
  {
    "postal": "M9R7H8",
    "result": []
  },
  {
    "postal": "M9R0P6",
    "result": []
  },
  {
    "postal": "M9R0S7",
    "result": []
  },
  {
    "postal": "M9R8B9",
    "result": []
  },
  {
    "postal": "M9R2A6",
    "result": [
      {
        "electoralDistricts": [
          {
            "election": null,
            "id": 28,
            "name": "Etobicoke Centre"
          }
        ],
        "pollDivisionIds": [
          10138087
        ],
        "postalCode": "M9R2A6",
        "streetName": "FARLEY",
        "streetDirectionId": null,
        "streetTypeId": "CRES",
        "placeName": "ETOBICOKE",
        "streetNameDisplayText": "FARLEY CRES, ETOBICOKE"
      }
    ]
  },
  {
    "postal": "M9R7V2",
    "result": []
  },
  {
    "postal": "M9R9P4",
    "result": []
  },
  {
    "postal": "M9R6G0",
    "result": []
  },
  {
    "postal": "M9R2K0",
    "result": []
  },
  {
    "postal": "M9R7N6",
    "result": []
  },
  {
    "postal": "M9R5R3",
    "result": []
  },
  {
    "postal": "M9R7K0",
    "result": []
  },
  {
    "postal": "M9R3R2",
    "result": [
      {
        "electoralDistricts": [
          {
            "election": null,
            "id": 28,
            "name": "Etobicoke Centre"
          }
        ],
        "pollDivisionIds": [
          10138088
        ],
        "postalCode": "M9R3R2",
        "streetName": "SANDWELL",
        "streetDirectionId": null,
        "streetTypeId": "DR",
        "placeName": "ETOBICOKE",
        "streetNameDisplayText": "SANDWELL DR, ETOBICOKE"
      }
    ]
  },
  {
    "postal": "M9R0J1",
    "result": []
  },
  {
    "postal": "M9R0B0",
    "result": []
  },
  {
    "postal": "M9R5Z2",
    "result": []
  },
  {
    "postal": "M9R7P3",
    "result": []
  },
  {
    "postal": "M9R2K3",
    "result": [
      {
        "electoralDistricts": [
          {
            "election": null,
            "id": 30,
            "name": "Etobicoke North"
          }
        ],
        "pollDivisionIds": [
          10138207
        ],
        "postalCode": "M9R2K3",
        "streetName": "BRIDESBURG",
        "streetDirectionId": null,
        "streetTypeId": "DR",
        "placeName": "ETOBICOKE",
        "streetNameDisplayText": "BRIDESBURG DR, ETOBICOKE"
      }
    ]
  },
  {
    "postal": "M9R7Y6",
    "result": []
  },
  {
    "postal": "M9R1L9",
    "result": [
      {
        "electoralDistricts": [
          {
            "election": null,
            "id": 28,
            "name": "Etobicoke Centre"
          }
        ],
        "pollDivisionIds": [
          10138086
        ],
        "postalCode": "M9R1L9",
        "streetName": "TYLER",
        "streetDirectionId": null,
        "streetTypeId": "PL",
        "placeName": "ETOBICOKE",
        "streetNameDisplayText": "TYLER PL, ETOBICOKE"
      }
    ]
  },
  {
    "postal": "M9R8T0",
    "result": []
  },
  {
    "postal": "M9R3K8",
    "result": [
      {
        "electoralDistricts": [
          {
            "election": null,
            "id": 28,
            "name": "Etobicoke Centre"
          }
        ],
        "pollDivisionIds": [
          10138087
        ],
        "postalCode": "M9R3K8",
        "streetName": "CALLOWHILL",
        "streetDirectionId": null,
        "streetTypeId": "DR",
        "placeName": "ETOBICOKE",
        "streetNameDisplayText": "CALLOWHILL DR, ETOBICOKE"
      }
    ]
  },
  {
    "postal": "M9R5W9",
    "result": []
  },
  {
    "postal": "M9R6T9",
    "result": []
  },
  {
    "postal": "M9R4H1",
    "result": []
  },
  {
    "postal": "M9R7A2",
    "result": []
  },
  {
    "postal": "M9R5G0",
    "result": []
  },
  {
    "postal": "M9R8V5",
    "result": []
  },
  {
    "postal": "M9R2Y8",
    "result": [
      {
        "electoralDistricts": [
          {
            "election": null,
            "id": 28,
            "name": "Etobicoke Centre"
          }
        ],
        "pollDivisionIds": [
          10138086
        ],
        "postalCode": "M9R2Y8",
        "streetName": "KIPLING",
        "streetDirectionId": null,
        "streetTypeId": "AVE",
        "placeName": "ETOBICOKE",
        "streetNameDisplayText": "KIPLING AVE, ETOBICOKE"
      }
    ]
  },
  {
    "postal": "M9R2B6",
    "result": [
      {
        "electoralDistricts": [
          {
            "election": null,
            "id": 28,
            "name": "Etobicoke Centre"
          }
        ],
        "pollDivisionIds": [
          10138088
        ],
        "postalCode": "M9R2B6",
        "streetName": "THELMERE",
        "streetDirectionId": null,
        "streetTypeId": "PL",
        "placeName": "ETOBICOKE",
        "streetNameDisplayText": "THELMERE PL, ETOBICOKE"
      }
    ]
  },
  {
    "postal": "M9R4W8",
    "result": []
  },
  {
    "postal": "M9R8H7",
    "result": []
  },
  {
    "postal": "M9R5P1",
    "result": []
  },
  {
    "postal": "M9R2B8",
    "result": [
      {
        "electoralDistricts": [
          {
            "election": null,
            "id": 28,
            "name": "Etobicoke Centre"
          }
        ],
        "pollDivisionIds": [
          10138088
        ],
        "postalCode": "M9R2B8",
        "streetName": "JARDINE",
        "streetDirectionId": null,
        "streetTypeId": "PL",
        "placeName": "ETOBICOKE",
        "streetNameDisplayText": "JARDINE PL, ETOBICOKE"
      }
    ]
  },
  {
    "postal": "M9R0P2",
    "result": []
  },
  {
    "postal": "M9R9M1",
    "result": []
  },
  {
    "postal": "M9R3G0",
    "result": []
  },
  {
    "postal": "M9R9Z2",
    "result": []
  },
  {
    "postal": "M9R2A0",
    "result": []
  },
  {
    "postal": "M9R6Y0",
    "result": []
  },
  {
    "postal": "M9R2Z8",
    "result": [
      {
        "electoralDistricts": [
          {
            "election": null,
            "id": 28,
            "name": "Etobicoke Centre"
          }
        ],
        "pollDivisionIds": [
          10138086
        ],
        "postalCode": "M9R2Z8",
        "streetName": "STAPLETON",
        "streetDirectionId": null,
        "streetTypeId": "DR",
        "placeName": "ETOBICOKE",
        "streetNameDisplayText": "STAPLETON DR, ETOBICOKE"
      }
    ]
  },
  {
    "postal": "M9R7Y3",
    "result": []
  },
  {
    "postal": "M9R6Z5",
    "result": []
  },
  {
    "postal": "M9R6E0",
    "result": []
  },
  {
    "postal": "M9R9B7",
    "result": []
  },
  {
    "postal": "M9R9S5",
    "result": []
  },
  {
    "postal": "M9R3X3",
    "result": [
      {
        "electoralDistricts": [
          {
            "election": null,
            "id": 30,
            "name": "Etobicoke North"
          }
        ],
        "pollDivisionIds": [
          10138210
        ],
        "postalCode": "M9R3X3",
        "streetName": "INGLEPORT",
        "streetDirectionId": null,
        "streetTypeId": "PL",
        "placeName": "ETOBICOKE",
        "streetNameDisplayText": "INGLEPORT PL, ETOBICOKE"
      }
    ]
  },
  {
    "postal": "M9R7R5",
    "result": []
  },
  {
    "postal": "M9R2X3",
    "result": [
      {
        "electoralDistricts": [
          {
            "election": null,
            "id": 28,
            "name": "Etobicoke Centre"
          }
        ],
        "pollDivisionIds": [
          10138085
        ],
        "postalCode": "M9R2X3",
        "streetName": "PETTIT",
        "streetDirectionId": null,
        "streetTypeId": "DR",
        "placeName": "ETOBICOKE",
        "streetNameDisplayText": "PETTIT DR, ETOBICOKE"
      }
    ]
  },
  {
    "postal": "M9R8Z9",
    "result": []
  },
  {
    "postal": "M9R0N4",
    "result": []
  },
  {
    "postal": "M9R1K1",
    "result": [
      {
        "electoralDistricts": [
          {
            "election": null,
            "id": 28,
            "name": "Etobicoke Centre"
          }
        ],
        "pollDivisionIds": [
          10138086
        ],
        "postalCode": "M9R1K1",
        "streetName": "HOLYWELL",
        "streetDirectionId": null,
        "streetTypeId": "DR",
        "placeName": "ETOBICOKE",
        "streetNameDisplayText": "HOLYWELL DR, ETOBICOKE"
      }
    ]
  },
  {
    "postal": "M9R1S3",
    "result": [
      {
        "electoralDistricts": [
          {
            "election": null,
            "id": 30,
            "name": "Etobicoke North"
          },
          {
            "election": null,
            "id": 28,
            "name": "Etobicoke Centre"
          }
        ],
        "pollDivisionIds": [
          10138204,
          10138086
        ],
        "postalCode": "M9R1S3",
        "streetName": "DIXON",
        "streetDirectionId": null,
        "streetTypeId": "RD",
        "placeName": "ETOBICOKE",
        "streetNameDisplayText": "DIXON RD, ETOBICOKE"
      }
    ]
  },
  {
    "postal": "M9R6M4",
    "result": []
  },
  {
    "postal": "M9R9A9",
    "result": []
  },
  {
    "postal": "M9R9Z9",
    "result": []
  },
  {
    "postal": "M9R6T4",
    "result": []
  },
  {
    "postal": "M9R0B2",
    "result": [
      {
        "electoralDistricts": [
          {
            "election": null,
            "id": 28,
            "name": "Etobicoke Centre"
          }
        ],
        "pollDivisionIds": [
          10138085
        ],
        "postalCode": "M9R0B2",
        "streetName": "DRYDEN",
        "streetDirectionId": null,
        "streetTypeId": "WAY",
        "placeName": "ETOBICOKE",
        "streetNameDisplayText": "DRYDEN WAY, ETOBICOKE"
      }
    ]
  },
  {
    "postal": "M9R2L9",
    "result": [
      {
        "electoralDistricts": [
          {
            "election": null,
            "id": 30,
            "name": "Etobicoke North"
          }
        ],
        "pollDivisionIds": [
          10138210
        ],
        "postalCode": "M9R2L9",
        "streetName": "CAVERLEY",
        "streetDirectionId": null,
        "streetTypeId": "DR",
        "placeName": "ETOBICOKE",
        "streetNameDisplayText": "CAVERLEY DR, ETOBICOKE"
      }
    ]
  },
  {
    "postal": "M9R8K9",
    "result": []
  },
  {
    "postal": "M9R2H9",
    "result": [
      {
        "electoralDistricts": [
          {
            "election": null,
            "id": 28,
            "name": "Etobicoke Centre"
          }
        ],
        "pollDivisionIds": [
          10138088
        ],
        "postalCode": "M9R2H9",
        "streetName": "LUDSTONE",
        "streetDirectionId": null,
        "streetTypeId": "DR",
        "placeName": "ETOBICOKE",
        "streetNameDisplayText": "LUDSTONE DR, ETOBICOKE"
      }
    ]
  },
  {
    "postal": "M9R3Z6",
    "result": [
      {
        "electoralDistricts": [
          {
            "election": null,
            "id": 30,
            "name": "Etobicoke North"
          }
        ],
        "pollDivisionIds": [
          10138210
        ],
        "postalCode": "M9R3Z6",
        "streetName": "WILLOWRIDGE",
        "streetDirectionId": null,
        "streetTypeId": "RD",
        "placeName": "ETOBICOKE",
        "streetNameDisplayText": "WILLOWRIDGE RD, ETOBICOKE"
      }
    ]
  },
  {
    "postal": "M9R3B0",
    "result": []
  },
  {
    "postal": "M9R2H8",
    "result": [
      {
        "electoralDistricts": [
          {
            "election": null,
            "id": 28,
            "name": "Etobicoke Centre"
          }
        ],
        "pollDivisionIds": [
          10138088
        ],
        "postalCode": "M9R2H8",
        "streetName": "LUDSTONE",
        "streetDirectionId": null,
        "streetTypeId": "DR",
        "placeName": "ETOBICOKE",
        "streetNameDisplayText": "LUDSTONE DR, ETOBICOKE"
      }
    ]
  },
  {
    "postal": "M9R3X2",
    "result": [
      {
        "electoralDistricts": [
          {
            "election": null,
            "id": 30,
            "name": "Etobicoke North"
          }
        ],
        "pollDivisionIds": [
          10138210
        ],
        "postalCode": "M9R3X2",
        "streetName": "ABIGAIL",
        "streetDirectionId": null,
        "streetTypeId": "PL",
        "placeName": "ETOBICOKE",
        "streetNameDisplayText": "ABIGAIL PL, ETOBICOKE"
      }
    ]
  },
  {
    "postal": "M9R2E9",
    "result": [
      {
        "electoralDistricts": [
          {
            "election": null,
            "id": 28,
            "name": "Etobicoke Centre"
          }
        ],
        "pollDivisionIds": [
          10138088
        ],
        "postalCode": "M9R2E9",
        "streetName": "LEARMONT",
        "streetDirectionId": null,
        "streetTypeId": "DR",
        "placeName": "ETOBICOKE",
        "streetNameDisplayText": "LEARMONT DR, ETOBICOKE"
      }
    ]
  },
  {
    "postal": "M9R9P6",
    "result": []
  },
  {
    "postal": "M9R9E2",
    "result": []
  },
  {
    "postal": "M9R9H2",
    "result": []
  },
  {
    "postal": "M9R1S8",
    "result": [
      {
        "electoralDistricts": [
          {
            "election": null,
            "id": 30,
            "name": "Etobicoke North"
          }
        ],
        "pollDivisionIds": [
          10138208
        ],
        "postalCode": "M9R1S8",
        "streetName": "DIXON",
        "streetDirectionId": null,
        "streetTypeId": "RD",
        "placeName": "ETOBICOKE",
        "streetNameDisplayText": "DIXON RD, ETOBICOKE"
      }
    ]
  },
  {
    "postal": "M9R3M6",
    "result": [
      {
        "electoralDistricts": [
          {
            "election": null,
            "id": 28,
            "name": "Etobicoke Centre"
          }
        ],
        "pollDivisionIds": [
          10138088
        ],
        "postalCode": "M9R3M6",
        "streetName": "CELESTINE",
        "streetDirectionId": null,
        "streetTypeId": "DR",
        "placeName": "ETOBICOKE",
        "streetNameDisplayText": "CELESTINE DR, ETOBICOKE"
      }
    ]
  },
  {
    "postal": "M9R6Z8",
    "result": []
  },
  {
    "postal": "M9R4J2",
    "result": []
  },
  {
    "postal": "M9R9Y1",
    "result": []
  },
  {
    "postal": "M9R8V6",
    "result": []
  },
  {
    "postal": "M9R6B2",
    "result": []
  },
  {
    "postal": "M9R1P8",
    "result": [
      {
        "electoralDistricts": [
          {
            "election": null,
            "id": 28,
            "name": "Etobicoke Centre"
          }
        ],
        "pollDivisionIds": [
          10138086
        ],
        "postalCode": "M9R1P8",
        "streetName": "NORTHCREST",
        "streetDirectionId": null,
        "streetTypeId": "RD",
        "placeName": "ETOBICOKE",
        "streetNameDisplayText": "NORTHCREST RD, ETOBICOKE"
      }
    ]
  },
  {
    "postal": "M9R0V8",
    "result": []
  },
  {
    "postal": "M9R4Y0",
    "result": []
  },
  {
    "postal": "M9R2T4",
    "result": [
      {
        "electoralDistricts": [
          {
            "election": null,
            "id": 28,
            "name": "Etobicoke Centre"
          }
        ],
        "pollDivisionIds": [
          10138085
        ],
        "postalCode": "M9R2T4",
        "streetName": "LINSTEAD",
        "streetDirectionId": null,
        "streetTypeId": "CRT",
        "placeName": "ETOBICOKE",
        "streetNameDisplayText": "LINSTEAD CRT, ETOBICOKE"
      }
    ]
  },
  {
    "postal": "M9R2S3",
    "result": [
      {
        "electoralDistricts": [
          {
            "election": null,
            "id": 28,
            "name": "Etobicoke Centre"
          }
        ],
        "pollDivisionIds": [
          10138085
        ],
        "postalCode": "M9R2S3",
        "streetName": "HARTSDALE",
        "streetDirectionId": null,
        "streetTypeId": "DR",
        "placeName": "ETOBICOKE",
        "streetNameDisplayText": "HARTSDALE DR, ETOBICOKE"
      }
    ]
  },
  {
    "postal": "M9R0K0",
    "result": []
  },
  {
    "postal": "M9R5N1",
    "result": []
  },
  {
    "postal": "M9R7T0",
    "result": []
  },
  {
    "postal": "M9R9N2",
    "result": []
  },
  {
    "postal": "M9R5L1",
    "result": []
  },
  {
    "postal": "M9R7G5",
    "result": []
  },
  {
    "postal": "M9R6K2",
    "result": []
  },
  {
    "postal": "M9R6P9",
    "result": []
  },
  {
    "postal": "M9R0E6",
    "result": []
  },
  {
    "postal": "M9R8R9",
    "result": []
  },
  {
    "postal": "M9R3G9",
    "result": [
      {
        "electoralDistricts": [
          {
            "election": null,
            "id": 30,
            "name": "Etobicoke North"
          }
        ],
        "pollDivisionIds": [
          10138207
        ],
        "postalCode": "M9R3G9",
        "streetName": "EVERNBY",
        "streetDirectionId": null,
        "streetTypeId": "BLVD",
        "placeName": "ETOBICOKE",
        "streetNameDisplayText": "EVERNBY BLVD, ETOBICOKE"
      }
    ]
  },
  {
    "postal": "M9R0V7",
    "result": []
  },
  {
    "postal": "M9R2Z1",
    "result": [
      {
        "electoralDistricts": [
          {
            "election": null,
            "id": 28,
            "name": "Etobicoke Centre"
          }
        ],
        "pollDivisionIds": [
          10138086
        ],
        "postalCode": "M9R2Z1",
        "streetName": "AIKENHEAD",
        "streetDirectionId": null,
        "streetTypeId": "RD",
        "placeName": "ETOBICOKE",
        "streetNameDisplayText": "AIKENHEAD RD, ETOBICOKE"
      }
    ]
  },
  {
    "postal": "M9R7N1",
    "result": []
  },
  {
    "postal": "M9R3C6",
    "result": [
      {
        "electoralDistricts": [
          {
            "election": null,
            "id": 28,
            "name": "Etobicoke Centre"
          }
        ],
        "pollDivisionIds": [
          10138086
        ],
        "postalCode": "M9R3C6",
        "streetName": "TEMPLAR",
        "streetDirectionId": null,
        "streetTypeId": "DR",
        "placeName": "ETOBICOKE",
        "streetNameDisplayText": "TEMPLAR DR, ETOBICOKE"
      }
    ]
  },
  {
    "postal": "M9R4M1",
    "result": []
  },
  {
    "postal": "M9R9K2",
    "result": []
  },
  {
    "postal": "M9R9S6",
    "result": []
  },
  {
    "postal": "M9R4X1",
    "result": []
  },
  {
    "postal": "M9R8W2",
    "result": []
  },
  {
    "postal": "M9R7N2",
    "result": []
  },
  {
    "postal": "M9R8S3",
    "result": []
  },
  {
    "postal": "M9R4V0",
    "result": []
  },
  {
    "postal": "M9R6W4",
    "result": []
  },
  {
    "postal": "M9R5M1",
    "result": []
  },
  {
    "postal": "M9R0S4",
    "result": []
  },
  {
    "postal": "M9R5X6",
    "result": []
  },
  {
    "postal": "M9R8L5",
    "result": []
  },
  {
    "postal": "M9R5M8",
    "result": []
  },
  {
    "postal": "M9R2G3",
    "result": [
      {
        "electoralDistricts": [
          {
            "election": null,
            "id": 28,
            "name": "Etobicoke Centre"
          }
        ],
        "pollDivisionIds": [
          10138088
        ],
        "postalCode": "M9R2G3",
        "streetName": "LEARMONT",
        "streetDirectionId": null,
        "streetTypeId": "DR",
        "placeName": "ETOBICOKE",
        "streetNameDisplayText": "LEARMONT DR, ETOBICOKE"
      }
    ]
  },
  {
    "postal": "M9R8E4",
    "result": []
  },
  {
    "postal": "M9R7S9",
    "result": []
  },
  {
    "postal": "M9R1K3",
    "result": [
      {
        "electoralDistricts": [
          {
            "election": null,
            "id": 28,
            "name": "Etobicoke Centre"
          }
        ],
        "pollDivisionIds": [
          10138086
        ],
        "postalCode": "M9R1K3",
        "streetName": "HOLYWELL",
        "streetDirectionId": null,
        "streetTypeId": "DR",
        "placeName": "ETOBICOKE",
        "streetNameDisplayText": "HOLYWELL DR, ETOBICOKE"
      }
    ]
  },
  {
    "postal": "M9R4E1",
    "result": []
  },
  {
    "postal": "M9R4R2",
    "result": []
  },
  {
    "postal": "M9R6T0",
    "result": []
  },
  {
    "postal": "M9R3K5",
    "result": [
      {
        "electoralDistricts": [
          {
            "election": null,
            "id": 28,
            "name": "Etobicoke Centre"
          }
        ],
        "pollDivisionIds": [
          10138087
        ],
        "postalCode": "M9R3K5",
        "streetName": "BUCKLEY",
        "streetDirectionId": null,
        "streetTypeId": "CRES",
        "placeName": "ETOBICOKE",
        "streetNameDisplayText": "BUCKLEY CRES, ETOBICOKE"
      }
    ]
  },
  {
    "postal": "M9R3S3",
    "result": [
      {
        "electoralDistricts": [
          {
            "election": null,
            "id": 28,
            "name": "Etobicoke Centre"
          }
        ],
        "pollDivisionIds": [
          10138088
        ],
        "postalCode": "M9R3S3",
        "streetName": "ARKLEY",
        "streetDirectionId": null,
        "streetTypeId": "CRES",
        "placeName": "ETOBICOKE",
        "streetNameDisplayText": "ARKLEY CRES, ETOBICOKE"
      }
    ]
  },
  {
    "postal": "M9R3L4",
    "result": [
      {
        "electoralDistricts": [
          {
            "election": null,
            "id": 28,
            "name": "Etobicoke Centre"
          }
        ],
        "pollDivisionIds": [
          10138087
        ],
        "postalCode": "M9R3L4",
        "streetName": "CALLOWHILL",
        "streetDirectionId": null,
        "streetTypeId": "DR",
        "placeName": "ETOBICOKE",
        "streetNameDisplayText": "CALLOWHILL DR, ETOBICOKE"
      }
    ]
  },
  {
    "postal": "M9R9Y2",
    "result": []
  },
  {
    "postal": "M9R1E0",
    "result": []
  },
  {
    "postal": "M9R9A4",
    "result": []
  },
  {
    "postal": "M9R1L3",
    "result": [
      {
        "electoralDistricts": [
          {
            "election": null,
            "id": 28,
            "name": "Etobicoke Centre"
          }
        ],
        "pollDivisionIds": [
          10138086
        ],
        "postalCode": "M9R1L3",
        "streetName": "POYNTER",
        "streetDirectionId": null,
        "streetTypeId": "DR",
        "placeName": "ETOBICOKE",
        "streetNameDisplayText": "POYNTER DR, ETOBICOKE"
      }
    ]
  },
  {
    "postal": "M9R6N1",
    "result": []
  },
  {
    "postal": "M9R6G7",
    "result": []
  },
  {
    "postal": "M9R7W1",
    "result": []
  },
  {
    "postal": "M9R4M6",
    "result": []
  },
  {
    "postal": "M9R1K0",
    "result": []
  },
  {
    "postal": "M9R3E2",
    "result": [
      {
        "electoralDistricts": [
          {
            "election": null,
            "id": 30,
            "name": "Etobicoke North"
          }
        ],
        "pollDivisionIds": [
          10138207
        ],
        "postalCode": "M9R3E2",
        "streetName": "YORK",
        "streetDirectionId": null,
        "streetTypeId": "RD",
        "placeName": "ETOBICOKE",
        "streetNameDisplayText": "YORK RD, ETOBICOKE"
      }
    ]
  },
  {
    "postal": "M9R5H4",
    "result": []
  },
  {
    "postal": "M9R1K7",
    "result": [
      {
        "electoralDistricts": [
          {
            "election": null,
            "id": 28,
            "name": "Etobicoke Centre"
          }
        ],
        "pollDivisionIds": [
          10138086
        ],
        "postalCode": "M9R1K7",
        "streetName": "FLETCHER",
        "streetDirectionId": null,
        "streetTypeId": "PL",
        "placeName": "ETOBICOKE",
        "streetNameDisplayText": "FLETCHER PL, ETOBICOKE"
      }
    ]
  },
  {
    "postal": "M9R0H0",
    "result": []
  },
  {
    "postal": "M9R0J3",
    "result": []
  },
  {
    "postal": "M9R1X6",
    "result": [
      {
        "electoralDistricts": [
          {
            "election": null,
            "id": 30,
            "name": "Etobicoke North"
          }
        ],
        "pollDivisionIds": [
          10138207
        ],
        "postalCode": "M9R1X6",
        "streetName": "WESTHAMPTON",
        "streetDirectionId": null,
        "streetTypeId": "DR",
        "placeName": "ETOBICOKE",
        "streetNameDisplayText": "WESTHAMPTON DR, ETOBICOKE"
      }
    ]
  },
  {
    "postal": "M9R2Z6",
    "result": [
      {
        "electoralDistricts": [
          {
            "election": null,
            "id": 28,
            "name": "Etobicoke Centre"
          }
        ],
        "pollDivisionIds": [
          10138086
        ],
        "postalCode": "M9R2Z6",
        "streetName": "EPPING",
        "streetDirectionId": null,
        "streetTypeId": "ST",
        "placeName": "ETOBICOKE",
        "streetNameDisplayText": "EPPING ST, ETOBICOKE"
      }
    ]
  },
  {
    "postal": "M9R4R9",
    "result": []
  },
  {
    "postal": "M9R0W8",
    "result": []
  },
  {
    "postal": "M9R1L4",
    "result": [
      {
        "electoralDistricts": [
          {
            "election": null,
            "id": 28,
            "name": "Etobicoke Centre"
          }
        ],
        "pollDivisionIds": [
          10138086
        ],
        "postalCode": "M9R1L4",
        "streetName": "POYNTER",
        "streetDirectionId": null,
        "streetTypeId": "DR",
        "placeName": "ETOBICOKE",
        "streetNameDisplayText": "POYNTER DR, ETOBICOKE"
      }
    ]
  },
  {
    "postal": "M9R0C8",
    "result": []
  },
  {
    "postal": "M9R9X7",
    "result": []
  },
  {
    "postal": "M9R4T1",
    "result": []
  },
  {
    "postal": "M9R0M0",
    "result": []
  },
  {
    "postal": "M9R6A2",
    "result": []
  },
  {
    "postal": "M9R9S8",
    "result": []
  },
  {
    "postal": "M9R9T4",
    "result": []
  },
  {
    "postal": "M9R9Y4",
    "result": []
  },
  {
    "postal": "M9R6G5",
    "result": []
  },
  {
    "postal": "M9R6H9",
    "result": []
  },
  {
    "postal": "M9R2P3",
    "result": [
      {
        "electoralDistricts": [
          {
            "election": null,
            "id": 28,
            "name": "Etobicoke Centre"
          }
        ],
        "pollDivisionIds": [
          10138086
        ],
        "postalCode": "M9R2P3",
        "streetName": "WINCOTT",
        "streetDirectionId": null,
        "streetTypeId": "DR",
        "placeName": "ETOBICOKE",
        "streetNameDisplayText": "WINCOTT DR, ETOBICOKE"
      }
    ]
  },
  {
    "postal": "M9R1T6",
    "result": [
      {
        "electoralDistricts": [
          {
            "election": null,
            "id": 30,
            "name": "Etobicoke North"
          }
        ],
        "pollDivisionIds": [
          10138207
        ],
        "postalCode": "M9R1T6",
        "streetName": "KINGSVIEW",
        "streetDirectionId": null,
        "streetTypeId": "BLVD",
        "placeName": "ETOBICOKE",
        "streetNameDisplayText": "KINGSVIEW BLVD, ETOBICOKE"
      }
    ]
  },
  {
    "postal": "M9R4P6",
    "result": []
  },
  {
    "postal": "M9R3K1",
    "result": [
      {
        "electoralDistricts": [
          {
            "election": null,
            "id": 28,
            "name": "Etobicoke Centre"
          }
        ],
        "pollDivisionIds": [
          10138087
        ],
        "postalCode": "M9R3K1",
        "streetName": "BRAMPTON",
        "streetDirectionId": null,
        "streetTypeId": "RD",
        "placeName": "ETOBICOKE",
        "streetNameDisplayText": "BRAMPTON RD, ETOBICOKE"
      }
    ]
  },
  {
    "postal": "M9R6X4",
    "result": []
  },
  {
    "postal": "M9R4M8",
    "result": []
  },
  {
    "postal": "M9R2Y1",
    "result": [
      {
        "electoralDistricts": [
          {
            "election": null,
            "id": 28,
            "name": "Etobicoke Centre"
          }
        ],
        "pollDivisionIds": [
          10138087
        ],
        "postalCode": "M9R2Y1",
        "streetName": "KIPLING",
        "streetDirectionId": null,
        "streetTypeId": "AVE",
        "placeName": "ETOBICOKE",
        "streetNameDisplayText": "KIPLING AVE, ETOBICOKE"
      }
    ]
  },
  {
    "postal": "M9R6M1",
    "result": []
  },
  {
    "postal": "M9R5L8",
    "result": []
  },
  {
    "postal": "M9R3P6",
    "result": [
      {
        "electoralDistricts": [
          {
            "election": null,
            "id": 28,
            "name": "Etobicoke Centre"
          }
        ],
        "pollDivisionIds": [
          10138088
        ],
        "postalCode": "M9R3P6",
        "streetName": "LANDIGO",
        "streetDirectionId": null,
        "streetTypeId": "DR",
        "placeName": "ETOBICOKE",
        "streetNameDisplayText": "LANDIGO DR, ETOBICOKE"
      }
    ]
  },
  {
    "postal": "M9R9A5",
    "result": []
  },
  {
    "postal": "M9R7K1",
    "result": []
  },
  {
    "postal": "M9R3J4",
    "result": [
      {
        "electoralDistricts": [
          {
            "election": null,
            "id": 28,
            "name": "Etobicoke Centre"
          }
        ],
        "pollDivisionIds": [
          10138088
        ],
        "postalCode": "M9R3J4",
        "streetName": "BRAMPTON",
        "streetDirectionId": null,
        "streetTypeId": "RD",
        "placeName": "ETOBICOKE",
        "streetNameDisplayText": "BRAMPTON RD, ETOBICOKE"
      }
    ]
  },
  {
    "postal": "M9R5E7",
    "result": []
  },
  {
    "postal": "M9R3A7",
    "result": [
      {
        "electoralDistricts": [
          {
            "election": null,
            "id": 28,
            "name": "Etobicoke Centre"
          }
        ],
        "pollDivisionIds": [
          10138086
        ],
        "postalCode": "M9R3A7",
        "streetName": "STAPLETON",
        "streetDirectionId": null,
        "streetTypeId": "DR",
        "placeName": "ETOBICOKE",
        "streetNameDisplayText": "STAPLETON DR, ETOBICOKE"
      }
    ]
  },
  {
    "postal": "M9R1B9",
    "result": [
      {
        "electoralDistricts": [
          {
            "election": null,
            "id": 28,
            "name": "Etobicoke Centre"
          }
        ],
        "pollDivisionIds": [
          10138085
        ],
        "postalCode": "M9R1B9",
        "streetName": "HUNTING",
        "streetDirectionId": null,
        "streetTypeId": "RIDGE",
        "placeName": "ETOBICOKE",
        "streetNameDisplayText": "HUNTING RIDGE, ETOBICOKE"
      }
    ]
  },
  {
    "postal": "M9R9E8",
    "result": []
  },
  {
    "postal": "M9R1C9",
    "result": [
      {
        "electoralDistricts": [
          {
            "election": null,
            "id": 28,
            "name": "Etobicoke Centre"
          }
        ],
        "pollDivisionIds": [
          10138085
        ],
        "postalCode": "M9R1C9",
        "streetName": "ASHMOUNT",
        "streetDirectionId": null,
        "streetTypeId": "CRES",
        "placeName": "ETOBICOKE",
        "streetNameDisplayText": "ASHMOUNT CRES, ETOBICOKE"
      }
    ]
  },
  {
    "postal": "M9R3B5",
    "result": [
      {
        "electoralDistricts": [
          {
            "election": null,
            "id": 28,
            "name": "Etobicoke Centre"
          }
        ],
        "pollDivisionIds": [
          10138086
        ],
        "postalCode": "M9R3B5",
        "streetName": "MARBLEHEAD",
        "streetDirectionId": null,
        "streetTypeId": "RD",
        "placeName": "ETOBICOKE",
        "streetNameDisplayText": "MARBLEHEAD RD, ETOBICOKE"
      }
    ]
  },
  {
    "postal": "M9R8R0",
    "result": []
  },
  {
    "postal": "M9R3P2",
    "result": [
      {
        "electoralDistricts": [
          {
            "election": null,
            "id": 28,
            "name": "Etobicoke Centre"
          }
        ],
        "pollDivisionIds": [
          10138088
        ],
        "postalCode": "M9R3P2",
        "streetName": "TAPLEY",
        "streetDirectionId": null,
        "streetTypeId": "DR",
        "placeName": "ETOBICOKE",
        "streetNameDisplayText": "TAPLEY DR, ETOBICOKE"
      }
    ]
  },
  {
    "postal": "M9R5V4",
    "result": []
  },
  {
    "postal": "M9R4H0",
    "result": []
  },
  {
    "postal": "M9R4S7",
    "result": []
  },
  {
    "postal": "M9R6C2",
    "result": []
  },
  {
    "postal": "M9R8W3",
    "result": []
  },
  {
    "postal": "M9R4M5",
    "result": []
  },
  {
    "postal": "M9R5T1",
    "result": []
  },
  {
    "postal": "M9R3B3",
    "result": [
      {
        "electoralDistricts": [
          {
            "election": null,
            "id": 28,
            "name": "Etobicoke Centre"
          }
        ],
        "pollDivisionIds": [
          10138086
        ],
        "postalCode": "M9R3B3",
        "streetName": "MARBLEHEAD",
        "streetDirectionId": null,
        "streetTypeId": "RD",
        "placeName": "ETOBICOKE",
        "streetNameDisplayText": "MARBLEHEAD RD, ETOBICOKE"
      }
    ]
  },
  {
    "postal": "M9R6C6",
    "result": []
  },
  {
    "postal": "M9R7N8",
    "result": []
  },
  {
    "postal": "M9R2Y3",
    "result": []
  },
  {
    "postal": "M9R2R6",
    "result": [
      {
        "electoralDistricts": [
          {
            "election": null,
            "id": 28,
            "name": "Etobicoke Centre"
          }
        ],
        "pollDivisionIds": [
          10138085
        ],
        "postalCode": "M9R2R6",
        "streetName": "WINCOTT",
        "streetDirectionId": null,
        "streetTypeId": "DR",
        "placeName": "ETOBICOKE",
        "streetNameDisplayText": "WINCOTT DR, ETOBICOKE"
      }
    ]
  },
  {
    "postal": "M9R7N3",
    "result": []
  },
  {
    "postal": "M9R8J2",
    "result": []
  },
  {
    "postal": "M9R6A9",
    "result": []
  },
  {
    "postal": "M9R3V2",
    "result": [
      {
        "electoralDistricts": [
          {
            "election": null,
            "id": 30,
            "name": "Etobicoke North"
          }
        ],
        "pollDivisionIds": [
          10138210
        ],
        "postalCode": "M9R3V2",
        "streetName": "REDGRAVE",
        "streetDirectionId": null,
        "streetTypeId": "DR",
        "placeName": "ETOBICOKE",
        "streetNameDisplayText": "REDGRAVE DR, ETOBICOKE"
      }
    ]
  },
  {
    "postal": "M9R2N3",
    "result": [
      {
        "electoralDistricts": [
          {
            "election": null,
            "id": 30,
            "name": "Etobicoke North"
          }
        ],
        "pollDivisionIds": [
          10138210
        ],
        "postalCode": "M9R2N3",
        "streetName": "VAN CAMP",
        "streetDirectionId": null,
        "streetTypeId": "PL",
        "placeName": "ETOBICOKE",
        "streetNameDisplayText": "VAN CAMP PL, ETOBICOKE"
      }
    ]
  },
  {
    "postal": "M9R1S5",
    "result": [
      {
        "electoralDistricts": [
          {
            "election": null,
            "id": 30,
            "name": "Etobicoke North"
          },
          {
            "election": null,
            "id": 28,
            "name": "Etobicoke Centre"
          }
        ],
        "pollDivisionIds": [
          10138207,
          10138086
        ],
        "postalCode": "M9R1S5",
        "streetName": "DIXON",
        "streetDirectionId": null,
        "streetTypeId": "RD",
        "placeName": "ETOBICOKE",
        "streetNameDisplayText": "DIXON RD, ETOBICOKE"
      }
    ]
  },
  {
    "postal": "M9R4T7",
    "result": []
  },
  {
    "postal": "M9R6Y7",
    "result": []
  },
  {
    "postal": "M9R0W7",
    "result": []
  },
  {
    "postal": "M9R2W9",
    "result": [
      {
        "electoralDistricts": [
          {
            "election": null,
            "id": 28,
            "name": "Etobicoke Centre"
          }
        ],
        "pollDivisionIds": [
          10138085
        ],
        "postalCode": "M9R2W9",
        "streetName": "PETTIT",
        "streetDirectionId": null,
        "streetTypeId": "DR",
        "placeName": "ETOBICOKE",
        "streetNameDisplayText": "PETTIT DR, ETOBICOKE"
      }
    ]
  },
  {
    "postal": "M9R8V0",
    "result": []
  },
  {
    "postal": "M9R0H4",
    "result": []
  },
  {
    "postal": "M9R2T1",
    "result": [
      {
        "electoralDistricts": [
          {
            "election": null,
            "id": 28,
            "name": "Etobicoke Centre"
          }
        ],
        "pollDivisionIds": [
          10138085
        ],
        "postalCode": "M9R2T1",
        "streetName": "PADDINGTON",
        "streetDirectionId": null,
        "streetTypeId": "PL",
        "placeName": "ETOBICOKE",
        "streetNameDisplayText": "PADDINGTON PL, ETOBICOKE"
      }
    ]
  },
  {
    "postal": "M9R1B1",
    "result": [
      {
        "electoralDistricts": [
          {
            "election": null,
            "id": 28,
            "name": "Etobicoke Centre"
          }
        ],
        "pollDivisionIds": [
          10138122
        ],
        "postalCode": "M9R1B1",
        "streetName": "WIDDICOMBE",
        "streetDirectionId": null,
        "streetTypeId": "HILL",
        "placeName": "ETOBICOKE",
        "streetNameDisplayText": "WIDDICOMBE HILL, ETOBICOKE"
      }
    ]
  },
  {
    "postal": "M9R8B6",
    "result": []
  },
  {
    "postal": "M9R6H1",
    "result": []
  },
  {
    "postal": "M9R8T8",
    "result": []
  },
  {
    "postal": "M9R0T4",
    "result": []
  },
  {
    "postal": "M9R2C4",
    "result": [
      {
        "electoralDistricts": [
          {
            "election": null,
            "id": 28,
            "name": "Etobicoke Centre"
          }
        ],
        "pollDivisionIds": [
          10138088
        ],
        "postalCode": "M9R2C4",
        "streetName": "BETHWIN",
        "streetDirectionId": null,
        "streetTypeId": "PL",
        "placeName": "ETOBICOKE",
        "streetNameDisplayText": "BETHWIN PL, ETOBICOKE"
      }
    ]
  },
  {
    "postal": "M9R8N3",
    "result": []
  },
  {
    "postal": "M9R4L8",
    "result": []
  },
  {
    "postal": "M9R2B5",
    "result": [
      {
        "electoralDistricts": [
          {
            "election": null,
            "id": 28,
            "name": "Etobicoke Centre"
          }
        ],
        "pollDivisionIds": [
          10138088
        ],
        "postalCode": "M9R2B5",
        "streetName": "TYNEVALE",
        "streetDirectionId": null,
        "streetTypeId": "DR",
        "placeName": "ETOBICOKE",
        "streetNameDisplayText": "TYNEVALE DR, ETOBICOKE"
      }
    ]
  },
  {
    "postal": "M9R3H1",
    "result": [
      {
        "electoralDistricts": [
          {
            "election": null,
            "id": 28,
            "name": "Etobicoke Centre"
          }
        ],
        "pollDivisionIds": [
          10138087
        ],
        "postalCode": "M9R3H1",
        "streetName": "DENFIELD",
        "streetDirectionId": null,
        "streetTypeId": "ST",
        "placeName": "ETOBICOKE",
        "streetNameDisplayText": "DENFIELD ST, ETOBICOKE"
      }
    ]
  },
  {
    "postal": "M9R4Y1",
    "result": []
  },
  {
    "postal": "M9R7E2",
    "result": []
  },
  {
    "postal": "M9R2P5",
    "result": [
      {
        "electoralDistricts": [
          {
            "election": null,
            "id": 28,
            "name": "Etobicoke Centre"
          }
        ],
        "pollDivisionIds": [
          10138086
        ],
        "postalCode": "M9R2P5",
        "streetName": "WINCOTT",
        "streetDirectionId": null,
        "streetTypeId": "DR",
        "placeName": "ETOBICOKE",
        "streetNameDisplayText": "WINCOTT DR, ETOBICOKE"
      }
    ]
  },
  {
    "postal": "M9R8R7",
    "result": []
  },
  {
    "postal": "M9R9P1",
    "result": []
  },
  {
    "postal": "M9R3B8",
    "result": [
      {
        "electoralDistricts": [
          {
            "election": null,
            "id": 28,
            "name": "Etobicoke Centre"
          }
        ],
        "pollDivisionIds": [
          10138086
        ],
        "postalCode": "M9R3B8",
        "streetName": "ACME",
        "streetDirectionId": null,
        "streetTypeId": "CRES",
        "placeName": "ETOBICOKE",
        "streetNameDisplayText": "ACME CRES, ETOBICOKE"
      }
    ]
  },
  {
    "postal": "M9R3P7",
    "result": [
      {
        "electoralDistricts": [
          {
            "election": null,
            "id": 28,
            "name": "Etobicoke Centre"
          }
        ],
        "pollDivisionIds": [
          10138088
        ],
        "postalCode": "M9R3P7",
        "streetName": "SANDWELL",
        "streetDirectionId": null,
        "streetTypeId": "DR",
        "placeName": "ETOBICOKE",
        "streetNameDisplayText": "SANDWELL DR, ETOBICOKE"
      }
    ]
  },
  {
    "postal": "M9R9B2",
    "result": []
  },
  {
    "postal": "M9R6Z3",
    "result": []
  },
  {
    "postal": "M9R4N5",
    "result": []
  },
  {
    "postal": "M9R8T3",
    "result": []
  },
  {
    "postal": "M9R1V2",
    "result": [
      {
        "electoralDistricts": [
          {
            "election": null,
            "id": 30,
            "name": "Etobicoke North"
          }
        ],
        "pollDivisionIds": [
          10138207
        ],
        "postalCode": "M9R1V2",
        "streetName": "KINGSVIEW",
        "streetDirectionId": null,
        "streetTypeId": "BLVD",
        "placeName": "ETOBICOKE",
        "streetNameDisplayText": "KINGSVIEW BLVD, ETOBICOKE"
      }
    ]
  },
  {
    "postal": "M9R1Y0",
    "result": []
  },
  {
    "postal": "M9R3G6",
    "result": [
      {
        "electoralDistricts": [
          {
            "election": null,
            "id": 30,
            "name": "Etobicoke North"
          }
        ],
        "pollDivisionIds": [
          10138207
        ],
        "postalCode": "M9R3G6",
        "streetName": "WINDSOR",
        "streetDirectionId": null,
        "streetTypeId": "RD",
        "placeName": "ETOBICOKE",
        "streetNameDisplayText": "WINDSOR RD, ETOBICOKE"
      }
    ]
  },
  {
    "postal": "M9R3H7",
    "result": [
      {
        "electoralDistricts": [
          {
            "election": null,
            "id": 28,
            "name": "Etobicoke Centre"
          }
        ],
        "pollDivisionIds": [
          10138087
        ],
        "postalCode": "M9R3H7",
        "streetName": "SHIPLEY",
        "streetDirectionId": null,
        "streetTypeId": "RD",
        "placeName": "ETOBICOKE",
        "streetNameDisplayText": "SHIPLEY RD, ETOBICOKE"
      }
    ]
  },
  {
    "postal": "M9R7X8",
    "result": []
  },
  {
    "postal": "M9R0C7",
    "result": []
  },
  {
    "postal": "M9R0W9",
    "result": []
  },
  {
    "postal": "M9R8E6",
    "result": []
  },
  {
    "postal": "M9R9Z8",
    "result": []
  },
  {
    "postal": "M9R3P4",
    "result": [
      {
        "electoralDistricts": [
          {
            "election": null,
            "id": 28,
            "name": "Etobicoke Centre"
          }
        ],
        "pollDivisionIds": [
          10138088
        ],
        "postalCode": "M9R3P4",
        "streetName": "TAPLEY",
        "streetDirectionId": null,
        "streetTypeId": "DR",
        "placeName": "ETOBICOKE",
        "streetNameDisplayText": "TAPLEY DR, ETOBICOKE"
      }
    ]
  },
  {
    "postal": "M9R6L8",
    "result": []
  },
  {
    "postal": "M9R2R4",
    "result": [
      {
        "electoralDistricts": [
          {
            "election": null,
            "id": 28,
            "name": "Etobicoke Centre"
          }
        ],
        "pollDivisionIds": [
          10138085
        ],
        "postalCode": "M9R2R4",
        "streetName": "WINCOTT",
        "streetDirectionId": null,
        "streetTypeId": "DR",
        "placeName": "ETOBICOKE",
        "streetNameDisplayText": "WINCOTT DR, ETOBICOKE"
      }
    ]
  },
  {
    "postal": "M9R2W1",
    "result": [
      {
        "electoralDistricts": [
          {
            "election": null,
            "id": 28,
            "name": "Etobicoke Centre"
          }
        ],
        "pollDivisionIds": [
          10138085
        ],
        "postalCode": "M9R2W1",
        "streetName": "FULFORD",
        "streetDirectionId": null,
        "streetTypeId": "PL",
        "placeName": "ETOBICOKE",
        "streetNameDisplayText": "FULFORD PL, ETOBICOKE"
      }
    ]
  },
  {
    "postal": "M9R9H8",
    "result": []
  },
  {
    "postal": "M9R8X9",
    "result": []
  },
  {
    "postal": "M9R7H4",
    "result": []
  },
  {
    "postal": "M9R3J1",
    "result": [
      {
        "electoralDistricts": [
          {
            "election": null,
            "id": 28,
            "name": "Etobicoke Centre"
          }
        ],
        "pollDivisionIds": [
          10138088
        ],
        "postalCode": "M9R3J1",
        "streetName": "BRAMPTON",
        "streetDirectionId": null,
        "streetTypeId": "RD",
        "placeName": "ETOBICOKE",
        "streetNameDisplayText": "BRAMPTON RD, ETOBICOKE"
      }
    ]
  },
  {
    "postal": "M9R1P4",
    "result": [
      {
        "electoralDistricts": [
          {
            "election": null,
            "id": 28,
            "name": "Etobicoke Centre"
          }
        ],
        "pollDivisionIds": [
          10138086
        ],
        "postalCode": "M9R1P4",
        "streetName": "HAWTHORNE",
        "streetDirectionId": null,
        "streetTypeId": "RD",
        "placeName": "ETOBICOKE",
        "streetNameDisplayText": "HAWTHORNE RD, ETOBICOKE"
      }
    ]
  },
  {
    "postal": "M9R2A3",
    "result": [
      {
        "electoralDistricts": [
          {
            "election": null,
            "id": 28,
            "name": "Etobicoke Centre"
          }
        ],
        "pollDivisionIds": [
          10138087
        ],
        "postalCode": "M9R2A3",
        "streetName": "GRACEY",
        "streetDirectionId": null,
        "streetTypeId": "BLVD",
        "placeName": "ETOBICOKE",
        "streetNameDisplayText": "GRACEY BLVD, ETOBICOKE"
      }
    ]
  },
  {
    "postal": "M9R0Z1",
    "result": []
  },
  {
    "postal": "M9R1C1",
    "result": [
      {
        "electoralDistricts": [
          {
            "election": null,
            "id": 28,
            "name": "Etobicoke Centre"
          }
        ],
        "pollDivisionIds": [
          10138085
        ],
        "postalCode": "M9R1C1",
        "streetName": "HUNTING",
        "streetDirectionId": null,
        "streetTypeId": "RIDGE",
        "placeName": "ETOBICOKE",
        "streetNameDisplayText": "HUNTING RIDGE, ETOBICOKE"
      }
    ]
  },
  {
    "postal": "M9R0H3",
    "result": []
  },
  {
    "postal": "M9R7B0",
    "result": []
  },
  {
    "postal": "M9R5K2",
    "result": []
  },
  {
    "postal": "M9R1E9",
    "result": [
      {
        "electoralDistricts": [
          {
            "election": null,
            "id": 28,
            "name": "Etobicoke Centre"
          }
        ],
        "pollDivisionIds": [
          10138085
        ],
        "postalCode": "M9R1E9",
        "streetName": "THE WESTWAY",
        "streetDirectionId": null,
        "streetTypeId": null,
        "placeName": "ETOBICOKE",
        "streetNameDisplayText": "THE WESTWAY, ETOBICOKE"
      }
    ]
  },
  {
    "postal": "M9R9W7",
    "result": []
  },
  {
    "postal": "M9R5W6",
    "result": []
  },
  {
    "postal": "M9R6S6",
    "result": []
  },
  {
    "postal": "M9R2P8",
    "result": [
      {
        "electoralDistricts": [
          {
            "election": null,
            "id": 28,
            "name": "Etobicoke Centre"
          }
        ],
        "pollDivisionIds": [
          10138085
        ],
        "postalCode": "M9R2P8",
        "streetName": "WINCOTT",
        "streetDirectionId": null,
        "streetTypeId": "DR",
        "placeName": "ETOBICOKE",
        "streetNameDisplayText": "WINCOTT DR, ETOBICOKE"
      }
    ]
  },
  {
    "postal": "M9R4P8",
    "result": []
  },
  {
    "postal": "M9R0V9",
    "result": []
  },
  {
    "postal": "M9R5Y2",
    "result": []
  },
  {
    "postal": "M9R7Z7",
    "result": []
  },
  {
    "postal": "M9R6Y8",
    "result": []
  },
  {
    "postal": "M9R2G7",
    "result": [
      {
        "electoralDistricts": [
          {
            "election": null,
            "id": 28,
            "name": "Etobicoke Centre"
          }
        ],
        "pollDivisionIds": [
          10138088
        ],
        "postalCode": "M9R2G7",
        "streetName": "HAYHURST",
        "streetDirectionId": null,
        "streetTypeId": "RD",
        "placeName": "ETOBICOKE",
        "streetNameDisplayText": "HAYHURST RD, ETOBICOKE"
      }
    ]
  },
  {
    "postal": "M9R8C1",
    "result": []
  },
  {
    "postal": "M9R5C5",
    "result": []
  },
  {
    "postal": "M9R2X8",
    "result": [
      {
        "electoralDistricts": [
          {
            "election": null,
            "id": 28,
            "name": "Etobicoke Centre"
          }
        ],
        "pollDivisionIds": [
          10138085
        ],
        "postalCode": "M9R2X8",
        "streetName": "PARMALEA",
        "streetDirectionId": null,
        "streetTypeId": "CRES",
        "placeName": "ETOBICOKE",
        "streetNameDisplayText": "PARMALEA CRES, ETOBICOKE"
      }
    ]
  },
  {
    "postal": "M9R1W5",
    "result": [
      {
        "electoralDistricts": [
          {
            "election": null,
            "id": 30,
            "name": "Etobicoke North"
          }
        ],
        "pollDivisionIds": [
          10138207
        ],
        "postalCode": "M9R1W5",
        "streetName": "ST ANDREWS",
        "streetDirectionId": null,
        "streetTypeId": "BLVD",
        "placeName": "ETOBICOKE",
        "streetNameDisplayText": "ST ANDREWS BLVD, ETOBICOKE"
      }
    ]
  },
  {
    "postal": "M9R7G0",
    "result": []
  },
  {
    "postal": "M9R8J8",
    "result": []
  },
  {
    "postal": "M9R3Y0",
    "result": []
  },
  {
    "postal": "M9R9T7",
    "result": []
  },
  {
    "postal": "M9R5P4",
    "result": []
  },
  {
    "postal": "M9R4B0",
    "result": []
  },
  {
    "postal": "M9R9N8",
    "result": []
  },
  {
    "postal": "M9R4A7",
    "result": [
      {
        "electoralDistricts": [
          {
            "election": null,
            "id": 30,
            "name": "Etobicoke North"
          }
        ],
        "pollDivisionIds": [
          10138207
        ],
        "postalCode": "M9R4A7",
        "streetName": "HAMER",
        "streetDirectionId": null,
        "streetTypeId": "BLVD",
        "placeName": "ETOBICOKE",
        "streetNameDisplayText": "HAMER BLVD, ETOBICOKE"
      }
    ]
  },
  {
    "postal": "M9R4H9",
    "result": []
  },
  {
    "postal": "M9R6X1",
    "result": []
  },
  {
    "postal": "M9R9Y7",
    "result": []
  },
  {
    "postal": "M9R2Y5",
    "result": [
      {
        "electoralDistricts": [
          {
            "election": null,
            "id": 28,
            "name": "Etobicoke Centre"
          }
        ],
        "pollDivisionIds": [
          10138086
        ],
        "postalCode": "M9R2Y5",
        "streetName": "KIPLING",
        "streetDirectionId": null,
        "streetTypeId": "AVE",
        "placeName": "ETOBICOKE",
        "streetNameDisplayText": "KIPLING AVE, ETOBICOKE"
      }
    ]
  },
  {
    "postal": "M9R8L7",
    "result": []
  },
  {
    "postal": "M9R2A8",
    "result": [
      {
        "electoralDistricts": [
          {
            "election": null,
            "id": 28,
            "name": "Etobicoke Centre"
          }
        ],
        "pollDivisionIds": [
          10138087
        ],
        "postalCode": "M9R2A8",
        "streetName": "LADBROOKE",
        "streetDirectionId": null,
        "streetTypeId": "RD",
        "placeName": "ETOBICOKE",
        "streetNameDisplayText": "LADBROOKE RD, ETOBICOKE"
      }
    ]
  },
  {
    "postal": "M9R2K9",
    "result": [
      {
        "electoralDistricts": [
          {
            "election": null,
            "id": 30,
            "name": "Etobicoke North"
          }
        ],
        "pollDivisionIds": [
          10138210
        ],
        "postalCode": "M9R2K9",
        "streetName": "RICHGROVE",
        "streetDirectionId": null,
        "streetTypeId": "DR",
        "placeName": "ETOBICOKE",
        "streetNameDisplayText": "RICHGROVE DR, ETOBICOKE"
      }
    ]
  },
  {
    "postal": "M9R3E5",
    "result": [
      {
        "electoralDistricts": [
          {
            "election": null,
            "id": 30,
            "name": "Etobicoke North"
          }
        ],
        "pollDivisionIds": [
          10138207
        ],
        "postalCode": "M9R3E5",
        "streetName": "YORK",
        "streetDirectionId": null,
        "streetTypeId": "RD",
        "placeName": "ETOBICOKE",
        "streetNameDisplayText": "YORK RD, ETOBICOKE"
      }
    ]
  },
  {
    "postal": "M9R8N6",
    "result": []
  },
  {
    "postal": "M9R8J4",
    "result": []
  },
  {
    "postal": "M9R4R7",
    "result": []
  },
  {
    "postal": "M9R9K1",
    "result": []
  },
  {
    "postal": "M9R8E1",
    "result": []
  },
  {
    "postal": "M9R0R1",
    "result": []
  },
  {
    "postal": "M9R4J3",
    "result": []
  },
  {
    "postal": "M9R7E7",
    "result": []
  },
  {
    "postal": "M9R0J0",
    "result": []
  },
  {
    "postal": "M9R7R8",
    "result": []
  },
  {
    "postal": "M9R9X0",
    "result": []
  },
  {
    "postal": "M9R7P6",
    "result": []
  },
  {
    "postal": "M9R0R7",
    "result": []
  },
  {
    "postal": "M9R5W1",
    "result": []
  },
  {
    "postal": "M9R0K4",
    "result": []
  },
  {
    "postal": "M9R7N9",
    "result": []
  },
  {
    "postal": "M9R1N0",
    "result": []
  },
  {
    "postal": "M9R6P3",
    "result": []
  },
  {
    "postal": "M9R5A1",
    "result": []
  },
  {
    "postal": "M9R9M9",
    "result": []
  },
  {
    "postal": "M9R7T6",
    "result": []
  },
  {
    "postal": "M9R3X0",
    "result": []
  },
  {
    "postal": "M9R2T0",
    "result": []
  },
  {
    "postal": "M9R5X9",
    "result": []
  },
  {
    "postal": "M9R2R3",
    "result": [
      {
        "electoralDistricts": [
          {
            "election": null,
            "id": 28,
            "name": "Etobicoke Centre"
          }
        ],
        "pollDivisionIds": [
          10138085
        ],
        "postalCode": "M9R2R3",
        "streetName": "WINCOTT",
        "streetDirectionId": null,
        "streetTypeId": "DR",
        "placeName": "ETOBICOKE",
        "streetNameDisplayText": "WINCOTT DR, ETOBICOKE"
      }
    ]
  },
  {
    "postal": "M9R5N2",
    "result": []
  },
  {
    "postal": "M9R4Y7",
    "result": []
  },
  {
    "postal": "M9R7M0",
    "result": []
  },
  {
    "postal": "M9R8P3",
    "result": []
  },
  {
    "postal": "M9R3N3",
    "result": [
      {
        "electoralDistricts": [
          {
            "election": null,
            "id": 28,
            "name": "Etobicoke Centre"
          }
        ],
        "pollDivisionIds": [
          10138088
        ],
        "postalCode": "M9R3N3",
        "streetName": "CELESTINE",
        "streetDirectionId": null,
        "streetTypeId": "DR",
        "placeName": "ETOBICOKE",
        "streetNameDisplayText": "CELESTINE DR, ETOBICOKE"
      }
    ]
  },
  {
    "postal": "M9R7S3",
    "result": []
  },
  {
    "postal": "M9R3V9",
    "result": [
      {
        "electoralDistricts": [
          {
            "election": null,
            "id": 30,
            "name": "Etobicoke North"
          }
        ],
        "pollDivisionIds": [
          10138210
        ],
        "postalCode": "M9R3V9",
        "streetName": "REDGRAVE",
        "streetDirectionId": null,
        "streetTypeId": "DR",
        "placeName": "ETOBICOKE",
        "streetNameDisplayText": "REDGRAVE DR, ETOBICOKE"
      }
    ]
  },
  {
    "postal": "M9R9N7",
    "result": []
  },
  {
    "postal": "M9R0G4",
    "result": []
  },
  {
    "postal": "M9R2E2",
    "result": [
      {
        "electoralDistricts": [
          {
            "election": null,
            "id": 28,
            "name": "Etobicoke Centre"
          }
        ],
        "pollDivisionIds": [
          10138088
        ],
        "postalCode": "M9R2E2",
        "streetName": "CROMER",
        "streetDirectionId": null,
        "streetTypeId": "PL",
        "placeName": "ETOBICOKE",
        "streetNameDisplayText": "CROMER PL, ETOBICOKE"
      }
    ]
  },
  {
    "postal": "M9R7W8",
    "result": []
  },
  {
    "postal": "M9R7M5",
    "result": []
  },
  {
    "postal": "M9R5W8",
    "result": []
  },
  {
    "postal": "M9R5E5",
    "result": []
  },
  {
    "postal": "M9R1P9",
    "result": [
      {
        "electoralDistricts": [
          {
            "election": null,
            "id": 28,
            "name": "Etobicoke Centre"
          }
        ],
        "pollDivisionIds": [
          10138086
        ],
        "postalCode": "M9R1P9",
        "streetName": "NORTHCREST",
        "streetDirectionId": null,
        "streetTypeId": "RD",
        "placeName": "ETOBICOKE",
        "streetNameDisplayText": "NORTHCREST RD, ETOBICOKE"
      }
    ]
  },
  {
    "postal": "M9R8V8",
    "result": []
  },
  {
    "postal": "M9R9G8",
    "result": []
  },
  {
    "postal": "M9R8H9",
    "result": []
  },
  {
    "postal": "M9R1Z1",
    "result": [
      {
        "electoralDistricts": [
          {
            "election": null,
            "id": 28,
            "name": "Etobicoke Centre"
          }
        ],
        "pollDivisionIds": [
          10138087
        ],
        "postalCode": "M9R1Z1",
        "streetName": "CLEMENT",
        "streetDirectionId": null,
        "streetTypeId": "RD",
        "placeName": "ETOBICOKE",
        "streetNameDisplayText": "CLEMENT RD, ETOBICOKE"
      }
    ]
  },
  {
    "postal": "M9R8M3",
    "result": []
  },
  {
    "postal": "M9R5H6",
    "result": []
  },
  {
    "postal": "M9R7W7",
    "result": []
  },
  {
    "postal": "M9R4L0",
    "result": []
  },
  {
    "postal": "M9R2N1",
    "result": [
      {
        "electoralDistricts": [
          {
            "election": null,
            "id": 30,
            "name": "Etobicoke North"
          }
        ],
        "pollDivisionIds": [
          10138210
        ],
        "postalCode": "M9R2N1",
        "streetName": "HILLIARD",
        "streetDirectionId": null,
        "streetTypeId": "PL",
        "placeName": "ETOBICOKE",
        "streetNameDisplayText": "HILLIARD PL, ETOBICOKE"
      }
    ]
  },
  {
    "postal": "M9R2H4",
    "result": [
      {
        "electoralDistricts": [
          {
            "election": null,
            "id": 28,
            "name": "Etobicoke Centre"
          }
        ],
        "pollDivisionIds": [
          10138088
        ],
        "postalCode": "M9R2H4",
        "streetName": "LAVINGTON",
        "streetDirectionId": null,
        "streetTypeId": "DR",
        "placeName": "ETOBICOKE",
        "streetNameDisplayText": "LAVINGTON DR, ETOBICOKE"
      }
    ]
  },
  {
    "postal": "M9R5C8",
    "result": []
  },
  {
    "postal": "M9R8B0",
    "result": []
  },
  {
    "postal": "M9R1T4",
    "result": [
      {
        "electoralDistricts": [
          {
            "election": null,
            "id": 30,
            "name": "Etobicoke North"
          }
        ],
        "pollDivisionIds": [
          10138209
        ],
        "postalCode": "M9R1T4",
        "streetName": "DIXON",
        "streetDirectionId": null,
        "streetTypeId": "RD",
        "placeName": "ETOBICOKE",
        "streetNameDisplayText": "DIXON RD, ETOBICOKE"
      }
    ]
  },
  {
    "postal": "M9R7N7",
    "result": []
  },
  {
    "postal": "M9R4L3",
    "result": []
  },
  {
    "postal": "M9R2N2",
    "result": [
      {
        "electoralDistricts": [
          {
            "election": null,
            "id": 30,
            "name": "Etobicoke North"
          }
        ],
        "pollDivisionIds": [
          10138210
        ],
        "postalCode": "M9R2N2",
        "streetName": "VAN CAMP",
        "streetDirectionId": null,
        "streetTypeId": "PL",
        "placeName": "ETOBICOKE",
        "streetNameDisplayText": "VAN CAMP PL, ETOBICOKE"
      }
    ]
  },
  {
    "postal": "M9R4N8",
    "result": []
  },
  {
    "postal": "M9R3M5",
    "result": [
      {
        "electoralDistricts": [
          {
            "election": null,
            "id": 28,
            "name": "Etobicoke Centre"
          }
        ],
        "pollDivisionIds": [
          10138088
        ],
        "postalCode": "M9R3M5",
        "streetName": "BREADNER",
        "streetDirectionId": null,
        "streetTypeId": "DR",
        "placeName": "ETOBICOKE",
        "streetNameDisplayText": "BREADNER DR, ETOBICOKE"
      }
    ]
  },
  {
    "postal": "M9R6H7",
    "result": []
  },
  {
    "postal": "M9R8Y8",
    "result": []
  },
  {
    "postal": "M9R5R9",
    "result": []
  },
  {
    "postal": "M9R8G3",
    "result": []
  },
  {
    "postal": "M9R4N7",
    "result": []
  },
  {
    "postal": "M9R0B9",
    "result": []
  },
  {
    "postal": "M9R9K7",
    "result": []
  },
  {
    "postal": "M9R9K9",
    "result": []
  },
  {
    "postal": "M9R3Z2",
    "result": [
      {
        "electoralDistricts": [
          {
            "election": null,
            "id": 30,
            "name": "Etobicoke North"
          }
        ],
        "pollDivisionIds": [
          10138210
        ],
        "postalCode": "M9R3Z2",
        "streetName": "WILLOWRIDGE",
        "streetDirectionId": null,
        "streetTypeId": "RD",
        "placeName": "ETOBICOKE",
        "streetNameDisplayText": "WILLOWRIDGE RD, ETOBICOKE"
      }
    ]
  },
  {
    "postal": "M9R6W7",
    "result": []
  },
  {
    "postal": "M9R0P1",
    "result": []
  },
  {
    "postal": "M9R3A0",
    "result": []
  },
  {
    "postal": "M9R8L9",
    "result": []
  },
  {
    "postal": "M9R6X0",
    "result": []
  },
  {
    "postal": "M9R3E9",
    "result": [
      {
        "electoralDistricts": [
          {
            "election": null,
            "id": 30,
            "name": "Etobicoke North"
          }
        ],
        "pollDivisionIds": [
          10138207
        ],
        "postalCode": "M9R3E9",
        "streetName": "WINDSOR",
        "streetDirectionId": null,
        "streetTypeId": "RD",
        "placeName": "ETOBICOKE",
        "streetNameDisplayText": "WINDSOR RD, ETOBICOKE"
      }
    ]
  },
  {
    "postal": "M9R0S5",
    "result": []
  },
  {
    "postal": "M9R1A2",
    "result": [
      {
        "electoralDistricts": [
          {
            "election": null,
            "id": 28,
            "name": "Etobicoke Centre"
          }
        ],
        "pollDivisionIds": [
          10138085
        ],
        "postalCode": "M9R1A2",
        "streetName": "QUEENSBOROUGH",
        "streetDirectionId": null,
        "streetTypeId": "CRES",
        "placeName": "ETOBICOKE",
        "streetNameDisplayText": "QUEENSBOROUGH CRES, ETOBICOKE"
      }
    ]
  },
  {
    "postal": "M9R5V8",
    "result": []
  },
  {
    "postal": "M9R8C5",
    "result": []
  },
  {
    "postal": "M9R6N0",
    "result": []
  },
  {
    "postal": "M9R9E6",
    "result": []
  },
  {
    "postal": "M9R5J7",
    "result": []
  },
  {
    "postal": "M9R2R2",
    "result": [
      {
        "electoralDistricts": [
          {
            "election": null,
            "id": 28,
            "name": "Etobicoke Centre"
          }
        ],
        "pollDivisionIds": [
          10138085
        ],
        "postalCode": "M9R2R2",
        "streetName": "WINCOTT",
        "streetDirectionId": null,
        "streetTypeId": "DR",
        "placeName": "ETOBICOKE",
        "streetNameDisplayText": "WINCOTT DR, ETOBICOKE"
      }
    ]
  },
  {
    "postal": "M9R0P5",
    "result": []
  },
  {
    "postal": "M9R5A7",
    "result": []
  },
  {
    "postal": "M9R1G1",
    "result": [
      {
        "electoralDistricts": [
          {
            "election": null,
            "id": 28,
            "name": "Etobicoke Centre"
          }
        ],
        "pollDivisionIds": [
          10138086
        ],
        "postalCode": "M9R1G1",
        "streetName": "THE WESTWAY",
        "streetDirectionId": null,
        "streetTypeId": null,
        "placeName": "ETOBICOKE",
        "streetNameDisplayText": "THE WESTWAY, ETOBICOKE"
      }
    ]
  },
  {
    "postal": "M9R9R6",
    "result": []
  },
  {
    "postal": "M9R4Z9",
    "result": []
  },
  {
    "postal": "M9R1V5",
    "result": [
      {
        "electoralDistricts": [
          {
            "election": null,
            "id": 30,
            "name": "Etobicoke North"
          }
        ],
        "pollDivisionIds": [
          10138207
        ],
        "postalCode": "M9R1V5",
        "streetName": "KINGSVIEW",
        "streetDirectionId": null,
        "streetTypeId": "BLVD",
        "placeName": "ETOBICOKE",
        "streetNameDisplayText": "KINGSVIEW BLVD, ETOBICOKE"
      }
    ]
  },
  {
    "postal": "M9R9Y5",
    "result": []
  },
  {
    "postal": "M9R1P2",
    "result": [
      {
        "electoralDistricts": [
          {
            "election": null,
            "id": 28,
            "name": "Etobicoke Centre"
          }
        ],
        "pollDivisionIds": [
          10138086
        ],
        "postalCode": "M9R1P2",
        "streetName": "HAWTHORNE",
        "streetDirectionId": null,
        "streetTypeId": "RD",
        "placeName": "ETOBICOKE",
        "streetNameDisplayText": "HAWTHORNE RD, ETOBICOKE"
      }
    ]
  },
  {
    "postal": "M9R5X0",
    "result": []
  },
  {
    "postal": "M9R7B8",
    "result": []
  },
  {
    "postal": "M9R0C6",
    "result": []
  },
  {
    "postal": "M9R6G1",
    "result": []
  },
  {
    "postal": "M9R3K3",
    "result": [
      {
        "electoralDistricts": [
          {
            "election": null,
            "id": 28,
            "name": "Etobicoke Centre"
          }
        ],
        "pollDivisionIds": [
          10138087
        ],
        "postalCode": "M9R3K3",
        "streetName": "BRAMPTON",
        "streetDirectionId": null,
        "streetTypeId": "RD",
        "placeName": "ETOBICOKE",
        "streetNameDisplayText": "BRAMPTON RD, ETOBICOKE"
      }
    ]
  },
  {
    "postal": "M9R9R0",
    "result": []
  },
  {
    "postal": "M9R4R8",
    "result": []
  },
  {
    "postal": "M9R5P9",
    "result": []
  },
  {
    "postal": "M9R8N4",
    "result": []
  },
  {
    "postal": "M9R8H4",
    "result": []
  },
  {
    "postal": "M9R4V1",
    "result": []
  },
  {
    "postal": "M9R1K5",
    "result": [
      {
        "electoralDistricts": [
          {
            "election": null,
            "id": 28,
            "name": "Etobicoke Centre"
          }
        ],
        "pollDivisionIds": [
          10138086
        ],
        "postalCode": "M9R1K5",
        "streetName": "FLETCHER",
        "streetDirectionId": null,
        "streetTypeId": "PL",
        "placeName": "ETOBICOKE",
        "streetNameDisplayText": "FLETCHER PL, ETOBICOKE"
      }
    ]
  },
  {
    "postal": "M9R1Z5",
    "result": [
      {
        "electoralDistricts": [
          {
            "election": null,
            "id": 28,
            "name": "Etobicoke Centre"
          }
        ],
        "pollDivisionIds": [
          10138087
        ],
        "postalCode": "M9R1Z5",
        "streetName": "SEDGELEY",
        "streetDirectionId": null,
        "streetTypeId": "DR",
        "placeName": "ETOBICOKE",
        "streetNameDisplayText": "SEDGELEY DR, ETOBICOKE"
      }
    ]
  },
  {
    "postal": "M9R9L9",
    "result": []
  },
  {
    "postal": "M9R5L2",
    "result": []
  },
  {
    "postal": "M9R0M2",
    "result": []
  },
  {
    "postal": "M9R1K8",
    "result": [
      {
        "electoralDistricts": [
          {
            "election": null,
            "id": 28,
            "name": "Etobicoke Centre"
          }
        ],
        "pollDivisionIds": [
          10138086
        ],
        "postalCode": "M9R1K8",
        "streetName": "POYNTER",
        "streetDirectionId": null,
        "streetTypeId": "DR",
        "placeName": "ETOBICOKE",
        "streetNameDisplayText": "POYNTER DR, ETOBICOKE"
      }
    ]
  },
  {
    "postal": "M9R3M7",
    "result": [
      {
        "electoralDistricts": [
          {
            "election": null,
            "id": 28,
            "name": "Etobicoke Centre"
          }
        ],
        "pollDivisionIds": [
          10138088
        ],
        "postalCode": "M9R3M7",
        "streetName": "CELESTINE",
        "streetDirectionId": null,
        "streetTypeId": "DR",
        "placeName": "ETOBICOKE",
        "streetNameDisplayText": "CELESTINE DR, ETOBICOKE"
      }
    ]
  },
  {
    "postal": "M9R1B2",
    "result": [
      {
        "electoralDistricts": [
          {
            "election": null,
            "id": 28,
            "name": "Etobicoke Centre"
          }
        ],
        "pollDivisionIds": [
          10138122
        ],
        "postalCode": "M9R1B2",
        "streetName": "WIDDICOMBE",
        "streetDirectionId": null,
        "streetTypeId": "HILL",
        "placeName": "ETOBICOKE",
        "streetNameDisplayText": "WIDDICOMBE HILL, ETOBICOKE"
      }
    ]
  },
  {
    "postal": "M9R0H9",
    "result": []
  },
  {
    "postal": "M9R8M4",
    "result": []
  },
  {
    "postal": "M9R2M5",
    "result": [
      {
        "electoralDistricts": [
          {
            "election": null,
            "id": 30,
            "name": "Etobicoke North"
          }
        ],
        "pollDivisionIds": [
          10138210
        ],
        "postalCode": "M9R2M5",
        "streetName": "LONGBOURNE",
        "streetDirectionId": null,
        "streetTypeId": "DR",
        "placeName": "ETOBICOKE",
        "streetNameDisplayText": "LONGBOURNE DR, ETOBICOKE"
      }
    ]
  },
  {
    "postal": "M9R0T9",
    "result": []
  },
  {
    "postal": "M9R3P1",
    "result": [
      {
        "electoralDistricts": [
          {
            "election": null,
            "id": 28,
            "name": "Etobicoke Centre"
          }
        ],
        "pollDivisionIds": [
          10138088
        ],
        "postalCode": "M9R3P1",
        "streetName": "CELESTINE",
        "streetDirectionId": null,
        "streetTypeId": "DR",
        "placeName": "ETOBICOKE",
        "streetNameDisplayText": "CELESTINE DR, ETOBICOKE"
      }
    ]
  },
  {
    "postal": "M9R1R6",
    "result": [
      {
        "electoralDistricts": [
          {
            "election": null,
            "id": 28,
            "name": "Etobicoke Centre"
          },
          {
            "election": null,
            "id": 30,
            "name": "Etobicoke North"
          }
        ],
        "pollDivisionIds": [
          10138086,
          10138210
        ],
        "postalCode": "M9R1R6",
        "streetName": "DIXON",
        "streetDirectionId": null,
        "streetTypeId": "RD",
        "placeName": "ETOBICOKE",
        "streetNameDisplayText": "DIXON RD, ETOBICOKE"
      }
    ]
  },
  {
    "postal": "M9R9V5",
    "result": []
  },
  {
    "postal": "M9R9T0",
    "result": []
  },
  {
    "postal": "M9R0A9",
    "result": [
      {
        "electoralDistricts": [
          {
            "election": null,
            "id": 28,
            "name": "Etobicoke Centre"
          }
        ],
        "pollDivisionIds": [
          10138087
        ],
        "postalCode": "M9R0A9",
        "streetName": "EGLINTON",
        "streetDirectionId": "W",
        "streetTypeId": "AVE",
        "placeName": "ETOBICOKE",
        "streetNameDisplayText": "EGLINTON AVE W, ETOBICOKE"
      },
      {
        "electoralDistricts": [
          {
            "election": null,
            "id": 28,
            "name": "Etobicoke Centre"
          }
        ],
        "pollDivisionIds": [
          10138087
        ],
        "postalCode": "M9R0A9",
        "streetName": "WIDDICOMBE HILL",
        "streetDirectionId": null,
        "streetTypeId": "BLVD",
        "placeName": "ETOBICOKE",
        "streetNameDisplayText": "WIDDICOMBE HILL BLVD, ETOBICOKE"
      }
    ]
  },
  {
    "postal": "M9R1M3",
    "result": [
      {
        "electoralDistricts": [
          {
            "election": null,
            "id": 28,
            "name": "Etobicoke Centre"
          }
        ],
        "pollDivisionIds": [
          10138086
        ],
        "postalCode": "M9R1M3",
        "streetName": "FENLEY",
        "streetDirectionId": null,
        "streetTypeId": "DR",
        "placeName": "ETOBICOKE",
        "streetNameDisplayText": "FENLEY DR, ETOBICOKE"
      }
    ]
  },
  {
    "postal": "M9R1W8",
    "result": [
      {
        "electoralDistricts": [
          {
            "election": null,
            "id": 30,
            "name": "Etobicoke North"
          }
        ],
        "pollDivisionIds": [
          10138207
        ],
        "postalCode": "M9R1W8",
        "streetName": "BYWORTH",
        "streetDirectionId": null,
        "streetTypeId": "BLVD",
        "placeName": "ETOBICOKE",
        "streetNameDisplayText": "BYWORTH BLVD, ETOBICOKE"
      }
    ]
  },
  {
    "postal": "M9R9J1",
    "result": []
  },
  {
    "postal": "M9R8N5",
    "result": []
  },
  {
    "postal": "M9R5X1",
    "result": []
  },
  {
    "postal": "M9R6S2",
    "result": []
  },
  {
    "postal": "M9R2A2",
    "result": [
      {
        "electoralDistricts": [
          {
            "election": null,
            "id": 28,
            "name": "Etobicoke Centre"
          }
        ],
        "pollDivisionIds": [
          10138087
        ],
        "postalCode": "M9R2A2",
        "streetName": "GRACEY",
        "streetDirectionId": null,
        "streetTypeId": "BLVD",
        "placeName": "ETOBICOKE",
        "streetNameDisplayText": "GRACEY BLVD, ETOBICOKE"
      }
    ]
  },
  {
    "postal": "M9R6A6",
    "result": []
  },
  {
    "postal": "M9R0S3",
    "result": []
  },
  {
    "postal": "M9R3E7",
    "result": [
      {
        "electoralDistricts": [
          {
            "election": null,
            "id": 30,
            "name": "Etobicoke North"
          }
        ],
        "pollDivisionIds": [
          10138207
        ],
        "postalCode": "M9R3E7",
        "streetName": "YORK",
        "streetDirectionId": null,
        "streetTypeId": "RD",
        "placeName": "ETOBICOKE",
        "streetNameDisplayText": "YORK RD, ETOBICOKE"
      }
    ]
  },
  {
    "postal": "M9R5R7",
    "result": []
  },
  {
    "postal": "M9R3R6",
    "result": [
      {
        "electoralDistricts": [
          {
            "election": null,
            "id": 28,
            "name": "Etobicoke Centre"
          }
        ],
        "pollDivisionIds": [
          10138088
        ],
        "postalCode": "M9R3R6",
        "streetName": "B HOBDEN",
        "streetDirectionId": null,
        "streetTypeId": "PLACE",
        "placeName": "ETOBICOKE",
        "streetNameDisplayText": "B HOBDEN PLACE, ETOBICOKE"
      },
      {
        "electoralDistricts": [
          {
            "election": null,
            "id": 28,
            "name": "Etobicoke Centre"
          }
        ],
        "pollDivisionIds": [
          10138088
        ],
        "postalCode": "M9R3R6",
        "streetName": "C HOBDEN",
        "streetDirectionId": null,
        "streetTypeId": "PLACE",
        "placeName": "ETOBICOKE",
        "streetNameDisplayText": "C HOBDEN PLACE, ETOBICOKE"
      },
      {
        "electoralDistricts": [
          {
            "election": null,
            "id": 28,
            "name": "Etobicoke Centre"
          }
        ],
        "pollDivisionIds": [
          10138088
        ],
        "postalCode": "M9R3R6",
        "streetName": "HOBDEN",
        "streetDirectionId": null,
        "streetTypeId": "PL",
        "placeName": "ETOBICOKE",
        "streetNameDisplayText": "HOBDEN PL, ETOBICOKE"
      }
    ]
  },
  {
    "postal": "M9R6K4",
    "result": []
  },
  {
    "postal": "M9R2W5",
    "result": [
      {
        "electoralDistricts": [
          {
            "election": null,
            "id": 28,
            "name": "Etobicoke Centre"
          }
        ],
        "pollDivisionIds": [
          10138085
        ],
        "postalCode": "M9R2W5",
        "streetName": "SHEFFLEY",
        "streetDirectionId": null,
        "streetTypeId": "CRES",
        "placeName": "ETOBICOKE",
        "streetNameDisplayText": "SHEFFLEY CRES, ETOBICOKE"
      }
    ]
  },
  {
    "postal": "M9R8W4",
    "result": []
  },
  {
    "postal": "M9R9C2",
    "result": []
  },
  {
    "postal": "M9R2C0",
    "result": []
  },
  {
    "postal": "M9R0E1",
    "result": []
  },
  {
    "postal": "M9R1K9",
    "result": [
      {
        "electoralDistricts": [
          {
            "election": null,
            "id": 28,
            "name": "Etobicoke Centre"
          }
        ],
        "pollDivisionIds": [
          10138086
        ],
        "postalCode": "M9R1K9",
        "streetName": "POYNTER",
        "streetDirectionId": null,
        "streetTypeId": "DR",
        "placeName": "ETOBICOKE",
        "streetNameDisplayText": "POYNTER DR, ETOBICOKE"
      }
    ]
  },
  {
    "postal": "M9R1G7",
    "result": [
      {
        "electoralDistricts": [
          {
            "election": null,
            "id": 28,
            "name": "Etobicoke Centre"
          }
        ],
        "pollDivisionIds": [
          10138085
        ],
        "postalCode": "M9R1G7",
        "streetName": "THE WESTWAY",
        "streetDirectionId": null,
        "streetTypeId": null,
        "placeName": "ETOBICOKE",
        "streetNameDisplayText": "THE WESTWAY, ETOBICOKE"
      }
    ]
  },
  {
    "postal": "M9R4E9",
    "result": []
  },
  {
    "postal": "M9R9P0",
    "result": []
  },
  {
    "postal": "M9R5H3",
    "result": []
  },
  {
    "postal": "M9R9X6",
    "result": []
  },
  {
    "postal": "M9R5N7",
    "result": []
  },
  {
    "postal": "M9R5A6",
    "result": []
  },
  {
    "postal": "M9R4M0",
    "result": []
  },
  {
    "postal": "M9R3V6",
    "result": [
      {
        "electoralDistricts": [
          {
            "election": null,
            "id": 30,
            "name": "Etobicoke North"
          }
        ],
        "pollDivisionIds": [
          10138210
        ],
        "postalCode": "M9R3V6",
        "streetName": "REDGRAVE",
        "streetDirectionId": null,
        "streetTypeId": "DR",
        "placeName": "ETOBICOKE",
        "streetNameDisplayText": "REDGRAVE DR, ETOBICOKE"
      }
    ]
  },
  {
    "postal": "M9R1L7",
    "result": [
      {
        "electoralDistricts": [
          {
            "election": null,
            "id": 28,
            "name": "Etobicoke Centre"
          }
        ],
        "pollDivisionIds": [
          10138086
        ],
        "postalCode": "M9R1L7",
        "streetName": "POYNTER",
        "streetDirectionId": null,
        "streetTypeId": "DR",
        "placeName": "ETOBICOKE",
        "streetNameDisplayText": "POYNTER DR, ETOBICOKE"
      }
    ]
  },
  {
    "postal": "M9R2P9",
    "result": [
      {
        "electoralDistricts": [
          {
            "election": null,
            "id": 28,
            "name": "Etobicoke Centre"
          }
        ],
        "pollDivisionIds": [
          10138085
        ],
        "postalCode": "M9R2P9",
        "streetName": "WINCOTT",
        "streetDirectionId": null,
        "streetTypeId": "DR",
        "placeName": "ETOBICOKE",
        "streetNameDisplayText": "WINCOTT DR, ETOBICOKE"
      }
    ]
  },
  {
    "postal": "M9R5T4",
    "result": []
  },
  {
    "postal": "M9R5Z1",
    "result": []
  },
  {
    "postal": "M9R2X0",
    "result": []
  },
  {
    "postal": "M9R6Z2",
    "result": []
  },
  {
    "postal": "M9R0E0",
    "result": []
  },
  {
    "postal": "M9R3Z5",
    "result": [
      {
        "electoralDistricts": [
          {
            "election": null,
            "id": 30,
            "name": "Etobicoke North"
          }
        ],
        "pollDivisionIds": [
          10138210
        ],
        "postalCode": "M9R3Z5",
        "streetName": "WILLOWRIDGE",
        "streetDirectionId": null,
        "streetTypeId": "RD",
        "placeName": "ETOBICOKE",
        "streetNameDisplayText": "WILLOWRIDGE RD, ETOBICOKE"
      }
    ]
  },
  {
    "postal": "M9R8H3",
    "result": []
  },
  {
    "postal": "M9R7S6",
    "result": []
  },
  {
    "postal": "M9R4C1",
    "result": [
      {
        "electoralDistricts": [
          {
            "election": null,
            "id": 30,
            "name": "Etobicoke North"
          }
        ],
        "pollDivisionIds": [
          10138207
        ],
        "postalCode": "M9R4C1",
        "streetName": "WORTHVIEW",
        "streetDirectionId": null,
        "streetTypeId": "CRT",
        "placeName": "ETOBICOKE",
        "streetNameDisplayText": "WORTHVIEW CRT, ETOBICOKE"
      }
    ]
  },
  {
    "postal": "M9R3K2",
    "result": [
      {
        "electoralDistricts": [
          {
            "election": null,
            "id": 28,
            "name": "Etobicoke Centre"
          }
        ],
        "pollDivisionIds": [
          10138087
        ],
        "postalCode": "M9R3K2",
        "streetName": "BRAMPTON",
        "streetDirectionId": null,
        "streetTypeId": "RD",
        "placeName": "ETOBICOKE",
        "streetNameDisplayText": "BRAMPTON RD, ETOBICOKE"
      }
    ]
  },
  {
    "postal": "M9R1Y5",
    "result": [
      {
        "electoralDistricts": [
          {
            "election": null,
            "id": 28,
            "name": "Etobicoke Centre"
          }
        ],
        "pollDivisionIds": [
          10138087
        ],
        "postalCode": "M9R1Y5",
        "streetName": "CLEMENT",
        "streetDirectionId": null,
        "streetTypeId": "RD",
        "placeName": "ETOBICOKE",
        "streetNameDisplayText": "CLEMENT RD, ETOBICOKE"
      }
    ]
  },
  {
    "postal": "M9R6P6",
    "result": []
  },
  {
    "postal": "M9R3N9",
    "result": [
      {
        "electoralDistricts": [
          {
            "election": null,
            "id": 28,
            "name": "Etobicoke Centre"
          }
        ],
        "pollDivisionIds": [
          10138088
        ],
        "postalCode": "M9R3N9",
        "streetName": "CELESTINE",
        "streetDirectionId": null,
        "streetTypeId": "DR",
        "placeName": "ETOBICOKE",
        "streetNameDisplayText": "CELESTINE DR, ETOBICOKE"
      }
    ]
  },
  {
    "postal": "M9R3W2",
    "result": [
      {
        "electoralDistricts": [
          {
            "election": null,
            "id": 30,
            "name": "Etobicoke North"
          }
        ],
        "pollDivisionIds": [
          10138210
        ],
        "postalCode": "M9R3W2",
        "streetName": "HEPWORTH",
        "streetDirectionId": null,
        "streetTypeId": "DR",
        "placeName": "ETOBICOKE",
        "streetNameDisplayText": "HEPWORTH DR, ETOBICOKE"
      }
    ]
  },
  {
    "postal": "M9R6H8",
    "result": []
  },
  {
    "postal": "M9R9T3",
    "result": []
  },
  {
    "postal": "M9R5L9",
    "result": []
  },
  {
    "postal": "M9R7X7",
    "result": []
  },
  {
    "postal": "M9R3J5",
    "result": [
      {
        "electoralDistricts": [
          {
            "election": null,
            "id": 28,
            "name": "Etobicoke Centre"
          }
        ],
        "pollDivisionIds": [
          10138087
        ],
        "postalCode": "M9R3J5",
        "streetName": "BRAMPTON",
        "streetDirectionId": null,
        "streetTypeId": "RD",
        "placeName": "ETOBICOKE",
        "streetNameDisplayText": "BRAMPTON RD, ETOBICOKE"
      }
    ]
  },
  {
    "postal": "M9R4J5",
    "result": []
  },
  {
    "postal": "M9R6J2",
    "result": []
  },
  {
    "postal": "M9R5V6",
    "result": []
  },
  {
    "postal": "M9R3N2",
    "result": [
      {
        "electoralDistricts": [
          {
            "election": null,
            "id": 28,
            "name": "Etobicoke Centre"
          }
        ],
        "pollDivisionIds": [
          10138088
        ],
        "postalCode": "M9R3N2",
        "streetName": "CELESTINE",
        "streetDirectionId": null,
        "streetTypeId": "DR",
        "placeName": "ETOBICOKE",
        "streetNameDisplayText": "CELESTINE DR, ETOBICOKE"
      }
    ]
  },
  {
    "postal": "M9R3B1",
    "result": [
      {
        "electoralDistricts": [
          {
            "election": null,
            "id": 28,
            "name": "Etobicoke Centre"
          }
        ],
        "pollDivisionIds": [
          10138086
        ],
        "postalCode": "M9R3B1",
        "streetName": "MARBLEHEAD",
        "streetDirectionId": null,
        "streetTypeId": "RD",
        "placeName": "ETOBICOKE",
        "streetNameDisplayText": "MARBLEHEAD RD, ETOBICOKE"
      }
    ]
  },
  {
    "postal": "M9R8B5",
    "result": []
  },
  {
    "postal": "M9R0K1",
    "result": []
  },
  {
    "postal": "M9R7M7",
    "result": []
  },
  {
    "postal": "M9R2M2",
    "result": [
      {
        "electoralDistricts": [
          {
            "election": null,
            "id": 30,
            "name": "Etobicoke North"
          }
        ],
        "pollDivisionIds": [
          10138210
        ],
        "postalCode": "M9R2M2",
        "streetName": "WESTWYND",
        "streetDirectionId": null,
        "streetTypeId": "CRT",
        "placeName": "ETOBICOKE",
        "streetNameDisplayText": "WESTWYND CRT, ETOBICOKE"
      }
    ]
  },
  {
    "postal": "M9R9N3",
    "result": []
  },
  {
    "postal": "M9R4Y8",
    "result": []
  },
  {
    "postal": "M9R3V7",
    "result": [
      {
        "electoralDistricts": [
          {
            "election": null,
            "id": 30,
            "name": "Etobicoke North"
          }
        ],
        "pollDivisionIds": [
          10138210
        ],
        "postalCode": "M9R3V7",
        "streetName": "REDGRAVE",
        "streetDirectionId": null,
        "streetTypeId": "DR",
        "placeName": "ETOBICOKE",
        "streetNameDisplayText": "REDGRAVE DR, ETOBICOKE"
      }
    ]
  },
  {
    "postal": "M9R8Z1",
    "result": []
  },
  {
    "postal": "M9R7B3",
    "result": []
  },
  {
    "postal": "M9R3A8",
    "result": [
      {
        "electoralDistricts": [
          {
            "election": null,
            "id": 28,
            "name": "Etobicoke Centre"
          }
        ],
        "pollDivisionIds": [
          10138086
        ],
        "postalCode": "M9R3A8",
        "streetName": "STAPLETON",
        "streetDirectionId": null,
        "streetTypeId": "DR",
        "placeName": "ETOBICOKE",
        "streetNameDisplayText": "STAPLETON DR, ETOBICOKE"
      }
    ]
  },
  {
    "postal": "M9R7V5",
    "result": []
  },
  {
    "postal": "M9R2T2",
    "result": [
      {
        "electoralDistricts": [
          {
            "election": null,
            "id": 28,
            "name": "Etobicoke Centre"
          }
        ],
        "pollDivisionIds": [
          10138085
        ],
        "postalCode": "M9R2T2",
        "streetName": "SHORTLAND",
        "streetDirectionId": null,
        "streetTypeId": "CRES",
        "placeName": "ETOBICOKE",
        "streetNameDisplayText": "SHORTLAND CRES, ETOBICOKE"
      }
    ]
  },
  {
    "postal": "M9R6L3",
    "result": []
  },
  {
    "postal": "M9R0L2",
    "result": []
  },
  {
    "postal": "M9R5Y8",
    "result": []
  },
  {
    "postal": "M9R0B8",
    "result": []
  },
  {
    "postal": "M9R6R5",
    "result": []
  },
  {
    "postal": "M9R8W6",
    "result": []
  },
  {
    "postal": "M9R8G6",
    "result": []
  },
  {
    "postal": "M9R6X3",
    "result": []
  },
  {
    "postal": "M9R7R7",
    "result": []
  },
  {
    "postal": "M9R4B6",
    "result": [
      {
        "electoralDistricts": [
          {
            "election": null,
            "id": 30,
            "name": "Etobicoke North"
          }
        ],
        "pollDivisionIds": [
          10138207
        ],
        "postalCode": "M9R4B6",
        "streetName": "LANNI",
        "streetDirectionId": null,
        "streetTypeId": "CRT",
        "placeName": "ETOBICOKE",
        "streetNameDisplayText": "LANNI CRT, ETOBICOKE"
      }
    ]
  },
  {
    "postal": "M9R3P9",
    "result": [
      {
        "electoralDistricts": [
          {
            "election": null,
            "id": 28,
            "name": "Etobicoke Centre"
          }
        ],
        "pollDivisionIds": [
          10138088
        ],
        "postalCode": "M9R3P9",
        "streetName": "SANDWELL",
        "streetDirectionId": null,
        "streetTypeId": "DR",
        "placeName": "ETOBICOKE",
        "streetNameDisplayText": "SANDWELL DR, ETOBICOKE"
      }
    ]
  },
  {
    "postal": "M9R2T3",
    "result": [
      {
        "electoralDistricts": [
          {
            "election": null,
            "id": 28,
            "name": "Etobicoke Centre"
          }
        ],
        "pollDivisionIds": [
          10138085
        ],
        "postalCode": "M9R2T3",
        "streetName": "SHORTLAND",
        "streetDirectionId": null,
        "streetTypeId": "CRES",
        "placeName": "ETOBICOKE",
        "streetNameDisplayText": "SHORTLAND CRES, ETOBICOKE"
      }
    ]
  },
  {
    "postal": "M9R1M4",
    "result": [
      {
        "electoralDistricts": [
          {
            "election": null,
            "id": 28,
            "name": "Etobicoke Centre"
          }
        ],
        "pollDivisionIds": [
          10138086
        ],
        "postalCode": "M9R1M4",
        "streetName": "FENLEY",
        "streetDirectionId": null,
        "streetTypeId": "DR",
        "placeName": "ETOBICOKE",
        "streetNameDisplayText": "FENLEY DR, ETOBICOKE"
      }
    ]
  },
  {
    "postal": "M9R0H1",
    "result": []
  },
  {
    "postal": "M9R9W3",
    "result": []
  },
  {
    "postal": "M9R6P1",
    "result": []
  },
  {
    "postal": "M9R7G2",
    "result": []
  },
  {
    "postal": "M9R4J9",
    "result": []
  },
  {
    "postal": "M9R9E4",
    "result": []
  },
  {
    "postal": "M9R8H0",
    "result": []
  },
  {
    "postal": "M9R4M7",
    "result": []
  },
  {
    "postal": "M9R2G9",
    "result": [
      {
        "electoralDistricts": [
          {
            "election": null,
            "id": 28,
            "name": "Etobicoke Centre"
          }
        ],
        "pollDivisionIds": [
          10138088
        ],
        "postalCode": "M9R2G9",
        "streetName": "LAVINGTON",
        "streetDirectionId": null,
        "streetTypeId": "DR",
        "placeName": "ETOBICOKE",
        "streetNameDisplayText": "LAVINGTON DR, ETOBICOKE"
      }
    ]
  },
  {
    "postal": "M9R8T2",
    "result": []
  },
  {
    "postal": "M9R7G7",
    "result": []
  },
  {
    "postal": "M9R4Z3",
    "result": []
  },
  {
    "postal": "M9R5B3",
    "result": []
  },
  {
    "postal": "M9R1S7",
    "result": [
      {
        "electoralDistricts": [
          {
            "election": null,
            "id": 30,
            "name": "Etobicoke North"
          }
        ],
        "pollDivisionIds": [
          10138209
        ],
        "postalCode": "M9R1S7",
        "streetName": "DIXON",
        "streetDirectionId": null,
        "streetTypeId": "RD",
        "placeName": "ETOBICOKE",
        "streetNameDisplayText": "DIXON RD, ETOBICOKE"
      }
    ]
  },
  {
    "postal": "M9R2N7",
    "result": [
      {
        "electoralDistricts": [
          {
            "election": null,
            "id": 28,
            "name": "Etobicoke Centre"
          }
        ],
        "pollDivisionIds": [
          10138085
        ],
        "postalCode": "M9R2N7",
        "streetName": "WATERFORD",
        "streetDirectionId": null,
        "streetTypeId": "DR",
        "placeName": "ETOBICOKE",
        "streetNameDisplayText": "WATERFORD DR, ETOBICOKE"
      }
    ]
  },
  {
    "postal": "M9R0H8",
    "result": []
  },
  {
    "postal": "M9R7Z4",
    "result": []
  },
  {
    "postal": "M9R7B1",
    "result": []
  },
  {
    "postal": "M9R7P8",
    "result": []
  },
  {
    "postal": "M9R7N0",
    "result": []
  },
  {
    "postal": "M9R3Y5",
    "result": [
      {
        "electoralDistricts": [
          {
            "election": null,
            "id": 30,
            "name": "Etobicoke North"
          }
        ],
        "pollDivisionIds": [
          10138210
        ],
        "postalCode": "M9R3Y5",
        "streetName": "CLARION",
        "streetDirectionId": null,
        "streetTypeId": "RD",
        "placeName": "ETOBICOKE",
        "streetNameDisplayText": "CLARION RD, ETOBICOKE"
      }
    ]
  },
  {
    "postal": "M9R6K1",
    "result": []
  },
  {
    "postal": "M9R9X5",
    "result": []
  },
  {
    "postal": "M9R7S5",
    "result": []
  },
  {
    "postal": "M9R0A4",
    "result": []
  },
  {
    "postal": "M9R4T5",
    "result": []
  },
  {
    "postal": "M9R5K1",
    "result": []
  },
  {
    "postal": "M9R0Z9",
    "result": []
  },
  {
    "postal": "M9R7T2",
    "result": []
  },
  {
    "postal": "M9R1L5",
    "result": [
      {
        "electoralDistricts": [
          {
            "election": null,
            "id": 28,
            "name": "Etobicoke Centre"
          }
        ],
        "pollDivisionIds": [
          10138086
        ],
        "postalCode": "M9R1L5",
        "streetName": "POYNTER",
        "streetDirectionId": null,
        "streetTypeId": "DR",
        "placeName": "ETOBICOKE",
        "streetNameDisplayText": "POYNTER DR, ETOBICOKE"
      }
    ]
  },
  {
    "postal": "M9R3N5",
    "result": [
      {
        "electoralDistricts": [
          {
            "election": null,
            "id": 28,
            "name": "Etobicoke Centre"
          }
        ],
        "pollDivisionIds": [
          10138088
        ],
        "postalCode": "M9R3N5",
        "streetName": "CELESTINE",
        "streetDirectionId": null,
        "streetTypeId": "DR",
        "placeName": "ETOBICOKE",
        "streetNameDisplayText": "CELESTINE DR, ETOBICOKE"
      }
    ]
  },
  {
    "postal": "M9R6H4",
    "result": []
  },
  {
    "postal": "M9R5A5",
    "result": []
  },
  {
    "postal": "M9R3R9",
    "result": [
      {
        "electoralDistricts": [
          {
            "election": null,
            "id": 28,
            "name": "Etobicoke Centre"
          }
        ],
        "pollDivisionIds": [
          10138088
        ],
        "postalCode": "M9R3R9",
        "streetName": "FELLER",
        "streetDirectionId": null,
        "streetTypeId": "RD",
        "placeName": "ETOBICOKE",
        "streetNameDisplayText": "FELLER RD, ETOBICOKE"
      }
    ]
  },
  {
    "postal": "M9R7L8",
    "result": []
  },
  {
    "postal": "M9R6T6",
    "result": []
  },
  {
    "postal": "M9R7Y7",
    "result": []
  },
  {
    "postal": "M9R3M8",
    "result": [
      {
        "electoralDistricts": [
          {
            "election": null,
            "id": 28,
            "name": "Etobicoke Centre"
          }
        ],
        "pollDivisionIds": [
          10138088
        ],
        "postalCode": "M9R3M8",
        "streetName": "CELESTINE",
        "streetDirectionId": null,
        "streetTypeId": "DR",
        "placeName": "ETOBICOKE",
        "streetNameDisplayText": "CELESTINE DR, ETOBICOKE"
      }
    ]
  },
  {
    "postal": "M9R2E0",
    "result": []
  },
  {
    "postal": "M9R4B5",
    "result": [
      {
        "electoralDistricts": [
          {
            "election": null,
            "id": 30,
            "name": "Etobicoke North"
          }
        ],
        "pollDivisionIds": [
          10138207
        ],
        "postalCode": "M9R4B5",
        "streetName": "KINGSVIEW",
        "streetDirectionId": null,
        "streetTypeId": "BLVD",
        "placeName": "ETOBICOKE",
        "streetNameDisplayText": "KINGSVIEW BLVD, ETOBICOKE"
      }
    ]
  },
  {
    "postal": "M9R1J3",
    "result": [
      {
        "electoralDistricts": [
          {
            "election": null,
            "id": 28,
            "name": "Etobicoke Centre"
          }
        ],
        "pollDivisionIds": [
          10138086
        ],
        "postalCode": "M9R1J3",
        "streetName": "BROUGHAM",
        "streetDirectionId": null,
        "streetTypeId": "CRES",
        "placeName": "ETOBICOKE",
        "streetNameDisplayText": "BROUGHAM CRES, ETOBICOKE"
      }
    ]
  },
  {
    "postal": "M9R5S6",
    "result": []
  },
  {
    "postal": "M9R8P7",
    "result": []
  },
  {
    "postal": "M9R7S7",
    "result": []
  },
  {
    "postal": "M9R4C2",
    "result": [
      {
        "electoralDistricts": [
          {
            "election": null,
            "id": 28,
            "name": "Etobicoke Centre"
          }
        ],
        "pollDivisionIds": [
          10138139
        ],
        "postalCode": "M9R4C2",
        "streetName": "CLEMENT",
        "streetDirectionId": null,
        "streetTypeId": "RD",
        "placeName": "ETOBICOKE",
        "streetNameDisplayText": "CLEMENT RD, ETOBICOKE"
      }
    ]
  },
  {
    "postal": "M9R5Y0",
    "result": []
  },
  {
    "postal": "M9R2V7",
    "result": [
      {
        "electoralDistricts": [
          {
            "election": null,
            "id": 28,
            "name": "Etobicoke Centre"
          }
        ],
        "pollDivisionIds": [
          10138085
        ],
        "postalCode": "M9R2V7",
        "streetName": "SHADWICK",
        "streetDirectionId": null,
        "streetTypeId": "DR",
        "placeName": "ETOBICOKE",
        "streetNameDisplayText": "SHADWICK DR, ETOBICOKE"
      }
    ]
  },
  {
    "postal": "M9R8P5",
    "result": []
  },
  {
    "postal": "M9R5P5",
    "result": []
  },
  {
    "postal": "M9R5Z0",
    "result": []
  },
  {
    "postal": "M9R9B0",
    "result": []
  },
  {
    "postal": "M9R1L0",
    "result": []
  },
  {
    "postal": "M9R0B5",
    "result": []
  },
  {
    "postal": "M9R3L2",
    "result": [
      {
        "electoralDistricts": [
          {
            "election": null,
            "id": 28,
            "name": "Etobicoke Centre"
          }
        ],
        "pollDivisionIds": [
          10138087
        ],
        "postalCode": "M9R3L2",
        "streetName": "CALLOWHILL",
        "streetDirectionId": null,
        "streetTypeId": "DR",
        "placeName": "ETOBICOKE",
        "streetNameDisplayText": "CALLOWHILL DR, ETOBICOKE"
      }
    ]
  },
  {
    "postal": "M9R3B7",
    "result": [
      {
        "electoralDistricts": [
          {
            "election": null,
            "id": 28,
            "name": "Etobicoke Centre"
          }
        ],
        "pollDivisionIds": [
          10138086
        ],
        "postalCode": "M9R3B7",
        "streetName": "ACME",
        "streetDirectionId": null,
        "streetTypeId": "CRES",
        "placeName": "ETOBICOKE",
        "streetNameDisplayText": "ACME CRES, ETOBICOKE"
      }
    ]
  },
  {
    "postal": "M9R8L1",
    "result": []
  },
  {
    "postal": "M9R5M4",
    "result": []
  },
  {
    "postal": "M9R4G9",
    "result": []
  },
  {
    "postal": "M9R0P0",
    "result": []
  },
  {
    "postal": "M9R8G2",
    "result": []
  },
  {
    "postal": "M9R1V9",
    "result": [
      {
        "electoralDistricts": [
          {
            "election": null,
            "id": 112,
            "name": "UniversityRosedale"
          }
        ],
        "pollDivisionIds": [
          10136388
        ],
        "postalCode": "M9R1V9",
        "streetName": "ST ANDREW",
        "streetDirectionId": null,
        "streetTypeId": "ST",
        "placeName": "ETOBICOKE",
        "streetNameDisplayText": "ST ANDREW ST, ETOBICOKE"
      },
      {
        "electoralDistricts": [
          {
            "election": null,
            "id": 30,
            "name": "Etobicoke North"
          }
        ],
        "pollDivisionIds": [
          10138207
        ],
        "postalCode": "M9R1V9",
        "streetName": "ST ANDREWS",
        "streetDirectionId": null,
        "streetTypeId": "BLVD",
        "placeName": "ETOBICOKE",
        "streetNameDisplayText": "ST ANDREWS BLVD, ETOBICOKE"
      }
    ]
  },
  {
    "postal": "M9R8N8",
    "result": []
  },
  {
    "postal": "M9R6S8",
    "result": []
  },
  {
    "postal": "M9R8H2",
    "result": []
  },
  {
    "postal": "M9R5R8",
    "result": []
  },
  {
    "postal": "M9R5L4",
    "result": []
  },
  {
    "postal": "M9R9E1",
    "result": []
  },
  {
    "postal": "M9R1C4",
    "result": [
      {
        "electoralDistricts": [
          {
            "election": null,
            "id": 28,
            "name": "Etobicoke Centre"
          }
        ],
        "pollDivisionIds": [
          10138085
        ],
        "postalCode": "M9R1C4",
        "streetName": "HOLGATE",
        "streetDirectionId": null,
        "streetTypeId": "ST",
        "placeName": "ETOBICOKE",
        "streetNameDisplayText": "HOLGATE ST, ETOBICOKE"
      }
    ]
  },
  {
    "postal": "M9R8W5",
    "result": []
  },
  {
    "postal": "M9R1Y4",
    "result": [
      {
        "electoralDistricts": [
          {
            "election": null,
            "id": 28,
            "name": "Etobicoke Centre"
          }
        ],
        "pollDivisionIds": [
          10138123
        ],
        "postalCode": "M9R1Y4",
        "streetName": "WIDDICOMBE HILL",
        "streetDirectionId": null,
        "streetTypeId": "BLVD",
        "placeName": "ETOBICOKE",
        "streetNameDisplayText": "WIDDICOMBE HILL BLVD, ETOBICOKE"
      }
    ]
  },
  {
    "postal": "M9R1C0",
    "result": []
  },
  {
    "postal": "M9R2J2",
    "result": [
      {
        "electoralDistricts": [
          {
            "election": null,
            "id": 28,
            "name": "Etobicoke Centre"
          }
        ],
        "pollDivisionIds": [
          10138088
        ],
        "postalCode": "M9R2J2",
        "streetName": "LUDSTONE",
        "streetDirectionId": null,
        "streetTypeId": "DR",
        "placeName": "ETOBICOKE",
        "streetNameDisplayText": "LUDSTONE DR, ETOBICOKE"
      }
    ]
  },
  {
    "postal": "M9R2J0",
    "result": []
  },
  {
    "postal": "M9R7A3",
    "result": []
  },
  {
    "postal": "M9R8M1",
    "result": []
  },
  {
    "postal": "M9R7T9",
    "result": []
  },
  {
    "postal": "M9R6C0",
    "result": []
  },
  {
    "postal": "M9R7X1",
    "result": []
  },
  {
    "postal": "M9R0G1",
    "result": []
  },
  {
    "postal": "M9R4X2",
    "result": []
  },
  {
    "postal": "M9R0N6",
    "result": []
  },
  {
    "postal": "M9R8E3",
    "result": []
  },
  {
    "postal": "M9R5S8",
    "result": []
  },
  {
    "postal": "M9R0R0",
    "result": []
  },
  {
    "postal": "M9R6J6",
    "result": []
  },
  {
    "postal": "M9R4B4",
    "result": []
  },
  {
    "postal": "M9R7E3",
    "result": []
  },
  {
    "postal": "M9R3N6",
    "result": [
      {
        "electoralDistricts": [
          {
            "election": null,
            "id": 28,
            "name": "Etobicoke Centre"
          }
        ],
        "pollDivisionIds": [
          10138088
        ],
        "postalCode": "M9R3N6",
        "streetName": "CELESTINE",
        "streetDirectionId": null,
        "streetTypeId": "DR",
        "placeName": "ETOBICOKE",
        "streetNameDisplayText": "CELESTINE DR, ETOBICOKE"
      }
    ]
  },
  {
    "postal": "M9R3X6",
    "result": [
      {
        "electoralDistricts": [
          {
            "election": null,
            "id": 30,
            "name": "Etobicoke North"
          }
        ],
        "pollDivisionIds": [
          10138210
        ],
        "postalCode": "M9R3X6",
        "streetName": "WATERBURY",
        "streetDirectionId": null,
        "streetTypeId": "DR",
        "placeName": "ETOBICOKE",
        "streetNameDisplayText": "WATERBURY DR, ETOBICOKE"
      }
    ]
  },
  {
    "postal": "M9R8L0",
    "result": []
  },
  {
    "postal": "M9R8N1",
    "result": []
  },
  {
    "postal": "M9R4J0",
    "result": []
  },
  {
    "postal": "M9R0X7",
    "result": []
  },
  {
    "postal": "M9R6S4",
    "result": []
  },
  {
    "postal": "M9R0Z0",
    "result": []
  },
  {
    "postal": "M9R9X8",
    "result": []
  },
  {
    "postal": "M9R3H3",
    "result": [
      {
        "electoralDistricts": [
          {
            "election": null,
            "id": 28,
            "name": "Etobicoke Centre"
          }
        ],
        "pollDivisionIds": [
          10138087
        ],
        "postalCode": "M9R3H3",
        "streetName": "CLEMENTVIEW",
        "streetDirectionId": null,
        "streetTypeId": "CRT",
        "placeName": "ETOBICOKE",
        "streetNameDisplayText": "CLEMENTVIEW CRT, ETOBICOKE"
      }
    ]
  },
  {
    "postal": "M9R7S2",
    "result": []
  },
  {
    "postal": "M9R3T3",
    "result": [
      {
        "electoralDistricts": [
          {
            "election": null,
            "id": 30,
            "name": "Etobicoke North"
          }
        ],
        "pollDivisionIds": [
          10138207
        ],
        "postalCode": "M9R3T3",
        "streetName": "CAMPERDOWN",
        "streetDirectionId": null,
        "streetTypeId": "AVE",
        "placeName": "ETOBICOKE",
        "streetNameDisplayText": "CAMPERDOWN AVE, ETOBICOKE"
      }
    ]
  },
  {
    "postal": "M9R9P3",
    "result": []
  },
  {
    "postal": "M9R4H8",
    "result": []
  },
  {
    "postal": "M9R6R1",
    "result": []
  },
  {
    "postal": "M9R1S0",
    "result": []
  },
  {
    "postal": "M9R3W8",
    "result": [
      {
        "electoralDistricts": [
          {
            "election": null,
            "id": 30,
            "name": "Etobicoke North"
          }
        ],
        "pollDivisionIds": [
          10138210
        ],
        "postalCode": "M9R3W8",
        "streetName": "VANDERBRENT",
        "streetDirectionId": null,
        "streetTypeId": "CRES",
        "placeName": "ETOBICOKE",
        "streetNameDisplayText": "VANDERBRENT CRES, ETOBICOKE"
      }
    ]
  },
  {
    "postal": "M9R4S3",
    "result": []
  },
  {
    "postal": "M9R1B6",
    "result": [
      {
        "electoralDistricts": [
          {
            "election": null,
            "id": 28,
            "name": "Etobicoke Centre"
          }
        ],
        "pollDivisionIds": [
          10138085
        ],
        "postalCode": "M9R1B6",
        "streetName": "HUNTING",
        "streetDirectionId": null,
        "streetTypeId": "RIDGE",
        "placeName": "ETOBICOKE",
        "streetNameDisplayText": "HUNTING RIDGE, ETOBICOKE"
      }
    ]
  },
  {
    "postal": "M9R8R3",
    "result": []
  },
  {
    "postal": "M9R4V9",
    "result": []
  },
  {
    "postal": "M9R9W4",
    "result": []
  },
  {
    "postal": "M9R3T4",
    "result": [
      {
        "electoralDistricts": [
          {
            "election": null,
            "id": 30,
            "name": "Etobicoke North"
          }
        ],
        "pollDivisionIds": [
          10138207
        ],
        "postalCode": "M9R3T4",
        "streetName": "CAMPERDOWN",
        "streetDirectionId": null,
        "streetTypeId": "AVE",
        "placeName": "ETOBICOKE",
        "streetNameDisplayText": "CAMPERDOWN AVE, ETOBICOKE"
      }
    ]
  },
  {
    "postal": "M9R5C7",
    "result": []
  },
  {
    "postal": "M9R3Y1",
    "result": [
      {
        "electoralDistricts": [
          {
            "election": null,
            "id": 111,
            "name": "TorontoSt. Paul's"
          },
          {
            "election": null,
            "id": 30,
            "name": "Etobicoke North"
          }
        ],
        "pollDivisionIds": [
          10136054,
          10138210
        ],
        "postalCode": "M9R3Y1",
        "streetName": "WATERBURY",
        "streetDirectionId": null,
        "streetTypeId": "DR",
        "placeName": "ETOBICOKE",
        "streetNameDisplayText": "WATERBURY DR, ETOBICOKE"
      }
    ]
  },
  {
    "postal": "M9R5V0",
    "result": []
  },
  {
    "postal": "M9R8G8",
    "result": []
  },
  {
    "postal": "M9R8B1",
    "result": []
  },
  {
    "postal": "M9R4P5",
    "result": []
  },
  {
    "postal": "M9R7B2",
    "result": []
  },
  {
    "postal": "M9R0R2",
    "result": []
  },
  {
    "postal": "M9R4M4",
    "result": []
  },
  {
    "postal": "M9R7M4",
    "result": []
  },
  {
    "postal": "M9R9S7",
    "result": []
  },
  {
    "postal": "M9R5Z7",
    "result": []
  },
  {
    "postal": "M9R7J7",
    "result": []
  },
  {
    "postal": "M9R8R8",
    "result": []
  },
  {
    "postal": "M9R9X1",
    "result": []
  },
  {
    "postal": "M9R5M9",
    "result": []
  },
  {
    "postal": "M9R9B4",
    "result": []
  },
  {
    "postal": "M9R0L9",
    "result": []
  },
  {
    "postal": "M9R9G4",
    "result": []
  },
  {
    "postal": "M9R1J4",
    "result": [
      {
        "electoralDistricts": [
          {
            "election": null,
            "id": 28,
            "name": "Etobicoke Centre"
          }
        ],
        "pollDivisionIds": [
          10138086
        ],
        "postalCode": "M9R1J4",
        "streetName": "BROUGHAM",
        "streetDirectionId": null,
        "streetTypeId": "CRES",
        "placeName": "ETOBICOKE",
        "streetNameDisplayText": "BROUGHAM CRES, ETOBICOKE"
      }
    ]
  },
  {
    "postal": "M9R0W6",
    "result": []
  }
]
