[
  {
    "postal": "L6B9J6",
    "result": []
  },
  {
    "postal": "L6B9Z5",
    "result": []
  },
  {
    "postal": "L6B7H8",
    "result": []
  },
  {
    "postal": "L6B0P6",
    "result": [
      {
        "electoralDistricts": [
          {
            "election": null,
            "id": 56,
            "name": "Markham—Stouffville"
          }
        ],
        "pollDivisionIds": [
          10134351
        ],
        "postalCode": "L6B0P6",
        "streetName": "ALBERT LEWIS",
        "streetDirectionId": null,
        "streetTypeId": "ST",
        "placeName": "MARKHAM",
        "streetNameDisplayText": "ALBERT LEWIS ST, MARKHAM"
      },
      {
        "electoralDistricts": [
          {
            "election": null,
            "id": 56,
            "name": "Markham—Stouffville"
          }
        ],
        "pollDivisionIds": [
          10134351
        ],
        "postalCode": "L6B0P6",
        "streetName": "AUTUMN GLOW",
        "streetDirectionId": null,
        "streetTypeId": "DR",
        "placeName": "MARKHAM",
        "streetNameDisplayText": "AUTUMN GLOW DR, MARKHAM"
      },
      {
        "electoralDistricts": [
          {
            "election": null,
            "id": 56,
            "name": "Markham—Stouffville"
          }
        ],
        "pollDivisionIds": [
          10134351
        ],
        "postalCode": "L6B0P6",
        "streetName": "LIMESTONE",
        "streetDirectionId": null,
        "streetTypeId": "ST",
        "placeName": "MARKHAM",
        "streetNameDisplayText": "LIMESTONE ST, MARKHAM"
      },
      {
        "electoralDistricts": [
          {
            "election": null,
            "id": 56,
            "name": "Markham—Stouffville"
          }
        ],
        "pollDivisionIds": [
          10134351
        ],
        "postalCode": "L6B0P6",
        "streetName": "SHADY OAKS",
        "streetDirectionId": null,
        "streetTypeId": "AVE",
        "placeName": "MARKHAM",
        "streetNameDisplayText": "SHADY OAKS AVE, MARKHAM"
      }
    ]
  },
  {
    "postal": "L6B0S7",
    "result": [
      {
        "electoralDistricts": [
          {
            "election": null,
            "id": 56,
            "name": "Markham—Stouffville"
          }
        ],
        "pollDivisionIds": [
          10134361
        ],
        "postalCode": "L6B0S7",
        "streetName": "BERNBRIDGE",
        "streetDirectionId": null,
        "streetTypeId": "RD",
        "placeName": "MARKHAM",
        "streetNameDisplayText": "BERNBRIDGE RD, MARKHAM"
      },
      {
        "electoralDistricts": [
          {
            "election": null,
            "id": 56,
            "name": "Markham—Stouffville"
          }
        ],
        "pollDivisionIds": [
          10134361
        ],
        "postalCode": "L6B0S7",
        "streetName": "STARGAZER",
        "streetDirectionId": null,
        "streetTypeId": "CRES",
        "placeName": "MARKHAM",
        "streetNameDisplayText": "STARGAZER CRES, MARKHAM"
      }
    ]
  },
  {
    "postal": "L6B8B9",
    "result": []
  },
  {
    "postal": "L6B2A6",
    "result": []
  },
  {
    "postal": "L6B7V2",
    "result": []
  },
  {
    "postal": "L6B9P4",
    "result": []
  },
  {
    "postal": "L6B6G0",
    "result": []
  },
  {
    "postal": "L6B2K0",
    "result": []
  },
  {
    "postal": "L6B7N6",
    "result": []
  },
  {
    "postal": "L6B5R3",
    "result": []
  },
  {
    "postal": "L6B7K0",
    "result": []
  },
  {
    "postal": "L6B3R2",
    "result": []
  },
  {
    "postal": "L6B0J1",
    "result": [
      {
        "electoralDistricts": [
          {
            "election": null,
            "id": 56,
            "name": "Markham—Stouffville"
          }
        ],
        "pollDivisionIds": [
          10134358
        ],
        "postalCode": "L6B0J1",
        "streetName": "STONECHURCH",
        "streetDirectionId": null,
        "streetTypeId": "CRES",
        "placeName": "MARKHAM",
        "streetNameDisplayText": "STONECHURCH CRES, MARKHAM"
      }
    ]
  },
  {
    "postal": "L6B0B0",
    "result": []
  },
  {
    "postal": "L6B5Z2",
    "result": []
  },
  {
    "postal": "L6B7P3",
    "result": []
  },
  {
    "postal": "L6B2K3",
    "result": []
  },
  {
    "postal": "L6B7Y6",
    "result": []
  },
  {
    "postal": "L6B1L9",
    "result": [
      {
        "electoralDistricts": [
          {
            "election": null,
            "id": 56,
            "name": "Markham—Stouffville"
          }
        ],
        "pollDivisionIds": [
          10134351
        ],
        "postalCode": "L6B1L9",
        "streetName": "CHIPPENHAM",
        "streetDirectionId": null,
        "streetTypeId": "LANE",
        "placeName": "MARKHAM",
        "streetNameDisplayText": "CHIPPENHAM LANE, MARKHAM"
      },
      {
        "electoralDistricts": [
          {
            "election": null,
            "id": 56,
            "name": "Markham—Stouffville"
          }
        ],
        "pollDivisionIds": [
          10134351
        ],
        "postalCode": "L6B1L9",
        "streetName": "MORNING DOVE",
        "streetDirectionId": null,
        "streetTypeId": "DR",
        "placeName": "MARKHAM",
        "streetNameDisplayText": "MORNING DOVE DR, MARKHAM"
      },
      {
        "electoralDistricts": [
          {
            "election": null,
            "id": 56,
            "name": "Markham—Stouffville"
          }
        ],
        "pollDivisionIds": [
          10134351
        ],
        "postalCode": "L6B1L9",
        "streetName": "ROCKING HORSE",
        "streetDirectionId": null,
        "streetTypeId": "ST",
        "placeName": "MARKHAM",
        "streetNameDisplayText": "ROCKING HORSE ST, MARKHAM"
      }
    ]
  },
  {
    "postal": "L6B8T0",
    "result": []
  },
  {
    "postal": "L6B3K8",
    "result": []
  },
  {
    "postal": "L6B5W9",
    "result": []
  },
  {
    "postal": "L6B6T9",
    "result": []
  },
  {
    "postal": "L6B4H1",
    "result": []
  },
  {
    "postal": "L6B7A2",
    "result": []
  },
  {
    "postal": "L6B5G0",
    "result": []
  },
  {
    "postal": "L6B8V5",
    "result": []
  },
  {
    "postal": "L6B2Y8",
    "result": []
  },
  {
    "postal": "L6B2B6",
    "result": []
  },
  {
    "postal": "L6B4W8",
    "result": []
  },
  {
    "postal": "L6B8H7",
    "result": []
  },
  {
    "postal": "L6B5P1",
    "result": []
  },
  {
    "postal": "L6B2B8",
    "result": []
  },
  {
    "postal": "L6B0P2",
    "result": [
      {
        "electoralDistricts": [
          {
            "election": null,
            "id": 56,
            "name": "Markham—Stouffville"
          }
        ],
        "pollDivisionIds": [
          10134358
        ],
        "postalCode": "L6B0P2",
        "streetName": "COPPER CREEK",
        "streetDirectionId": null,
        "streetTypeId": "DR",
        "placeName": "MARKHAM",
        "streetNameDisplayText": "COPPER CREEK DR, MARKHAM"
      }
    ]
  },
  {
    "postal": "L6B9M1",
    "result": []
  },
  {
    "postal": "L6B3G0",
    "result": []
  },
  {
    "postal": "L6B9Z2",
    "result": []
  },
  {
    "postal": "L6B2A0",
    "result": []
  },
  {
    "postal": "L6B6Y0",
    "result": []
  },
  {
    "postal": "L6B2Z8",
    "result": []
  },
  {
    "postal": "L6B7Y3",
    "result": []
  },
  {
    "postal": "L6B6Z5",
    "result": []
  },
  {
    "postal": "L6B6E0",
    "result": []
  },
  {
    "postal": "L6B9B7",
    "result": []
  },
  {
    "postal": "L6B9S5",
    "result": []
  },
  {
    "postal": "L6B3X3",
    "result": []
  },
  {
    "postal": "L6B7R5",
    "result": []
  },
  {
    "postal": "L6B2X3",
    "result": []
  },
  {
    "postal": "L6B8Z9",
    "result": []
  },
  {
    "postal": "L6B0N4",
    "result": [
      {
        "electoralDistricts": [
          {
            "election": null,
            "id": 56,
            "name": "Markham—Stouffville"
          }
        ],
        "pollDivisionIds": [
          10134359
        ],
        "postalCode": "L6B0N4",
        "streetName": "ABBERLEY",
        "streetDirectionId": null,
        "streetTypeId": "ST",
        "placeName": "MARKHAM",
        "streetNameDisplayText": "ABBERLEY ST, MARKHAM"
      },
      {
        "electoralDistricts": [
          {
            "election": null,
            "id": 56,
            "name": "Markham—Stouffville"
          }
        ],
        "pollDivisionIds": [
          10134359
        ],
        "postalCode": "L6B0N4",
        "streetName": "WELLAND",
        "streetDirectionId": null,
        "streetTypeId": "RD",
        "placeName": "MARKHAM",
        "streetNameDisplayText": "WELLAND RD, MARKHAM"
      },
      {
        "electoralDistricts": [
          {
            "election": null,
            "id": 56,
            "name": "Markham—Stouffville"
          }
        ],
        "pollDivisionIds": [
          10134359
        ],
        "postalCode": "L6B0N4",
        "streetName": "WOODWAY",
        "streetDirectionId": null,
        "streetTypeId": "LANE",
        "placeName": "MARKHAM",
        "streetNameDisplayText": "WOODWAY LANE, MARKHAM"
      }
    ]
  },
  {
    "postal": "L6B1K1",
    "result": [
      {
        "electoralDistricts": [
          {
            "election": null,
            "id": 56,
            "name": "Markham—Stouffville"
          }
        ],
        "pollDivisionIds": [
          10134351
        ],
        "postalCode": "L6B1K1",
        "streetName": "BITTERSWEET",
        "streetDirectionId": null,
        "streetTypeId": "ST",
        "placeName": "MARKHAM",
        "streetNameDisplayText": "BITTERSWEET ST, MARKHAM"
      },
      {
        "electoralDistricts": [
          {
            "election": null,
            "id": 56,
            "name": "Markham—Stouffville"
          }
        ],
        "pollDivisionIds": [
          10134351
        ],
        "postalCode": "L6B1K1",
        "streetName": "BLACK CREEK",
        "streetDirectionId": null,
        "streetTypeId": "DR",
        "placeName": "MARKHAM",
        "streetNameDisplayText": "BLACK CREEK DR, MARKHAM"
      },
      {
        "electoralDistricts": [
          {
            "election": null,
            "id": 56,
            "name": "Markham—Stouffville"
          }
        ],
        "pollDivisionIds": [
          10134351
        ],
        "postalCode": "L6B1K1",
        "streetName": "WHITE'S HILL",
        "streetDirectionId": null,
        "streetTypeId": "AVE",
        "placeName": "MARKHAM",
        "streetNameDisplayText": "WHITE'S HILL AVE, MARKHAM"
      }
    ]
  },
  {
    "postal": "L6B1S3",
    "result": []
  },
  {
    "postal": "L6B6M4",
    "result": []
  },
  {
    "postal": "L6B9A9",
    "result": []
  },
  {
    "postal": "L6B9Z9",
    "result": []
  },
  {
    "postal": "L6B6T4",
    "result": []
  },
  {
    "postal": "L6B0B2",
    "result": [
      {
        "electoralDistricts": [
          {
            "election": null,
            "id": 56,
            "name": "Markham—Stouffville"
          }
        ],
        "pollDivisionIds": [
          10134359
        ],
        "postalCode": "L6B0B2",
        "streetName": "GRIBILASTON",
        "streetDirectionId": null,
        "streetTypeId": "LANE",
        "placeName": "MARKHAM",
        "streetNameDisplayText": "GRIBILASTON LANE, MARKHAM"
      },
      {
        "electoralDistricts": [
          {
            "election": null,
            "id": 56,
            "name": "Markham—Stouffville"
          }
        ],
        "pollDivisionIds": [
          10134359
        ],
        "postalCode": "L6B0B2",
        "streetName": "MICHELINA",
        "streetDirectionId": null,
        "streetTypeId": "TERR",
        "placeName": "MARKHAM",
        "streetNameDisplayText": "MICHELINA TERR, MARKHAM"
      }
    ]
  },
  {
    "postal": "L6B2L9",
    "result": []
  },
  {
    "postal": "L6B8K9",
    "result": []
  },
  {
    "postal": "L6B2H9",
    "result": []
  },
  {
    "postal": "L6B3Z6",
    "result": []
  },
  {
    "postal": "L6B3B0",
    "result": []
  },
  {
    "postal": "L6B2H8",
    "result": []
  },
  {
    "postal": "L6B3X2",
    "result": []
  },
  {
    "postal": "L6B2E9",
    "result": []
  },
  {
    "postal": "L6B9P6",
    "result": []
  },
  {
    "postal": "L6B9E2",
    "result": []
  },
  {
    "postal": "L6B9H2",
    "result": []
  },
  {
    "postal": "L6B1S8",
    "result": []
  },
  {
    "postal": "L6B3M6",
    "result": []
  },
  {
    "postal": "L6B6Z8",
    "result": []
  },
  {
    "postal": "L6B4J2",
    "result": []
  },
  {
    "postal": "L6B9Y1",
    "result": []
  },
  {
    "postal": "L6B8V6",
    "result": []
  },
  {
    "postal": "L6B6B2",
    "result": []
  },
  {
    "postal": "L6B1P8",
    "result": [
      {
        "electoralDistricts": [
          {
            "election": null,
            "id": 56,
            "name": "Markham—Stouffville"
          }
        ],
        "pollDivisionIds": [
          10134359
        ],
        "postalCode": "L6B1P8",
        "streetName": "CORNELL CENTRE",
        "streetDirectionId": null,
        "streetTypeId": "BLVD",
        "placeName": "MARKHAM",
        "streetNameDisplayText": "CORNELL CENTRE BLVD, MARKHAM"
      },
      {
        "electoralDistricts": [
          {
            "election": null,
            "id": 56,
            "name": "Markham—Stouffville"
          }
        ],
        "pollDivisionIds": [
          10134359
        ],
        "postalCode": "L6B1P8",
        "streetName": "WILLIAM FORSTER",
        "streetDirectionId": null,
        "streetTypeId": "RD",
        "placeName": "MARKHAM",
        "streetNameDisplayText": "WILLIAM FORSTER RD, MARKHAM"
      }
    ]
  },
  {
    "postal": "L6B0V8",
    "result": [
      {
        "electoralDistricts": [
          {
            "election": null,
            "id": 56,
            "name": "Markham—Stouffville"
          }
        ],
        "pollDivisionIds": [
          10134359
        ],
        "postalCode": "L6B0V8",
        "streetName": "CHURCH",
        "streetDirectionId": null,
        "streetTypeId": "ST",
        "placeName": "MARKHAM",
        "streetNameDisplayText": "CHURCH ST, MARKHAM"
      },
      {
        "electoralDistricts": [
          {
            "election": null,
            "id": 56,
            "name": "Markham—Stouffville"
          }
        ],
        "pollDivisionIds": [
          10134359
        ],
        "postalCode": "L6B0V8",
        "streetName": "DIMMA",
        "streetDirectionId": null,
        "streetTypeId": "ST",
        "placeName": "MARKHAM",
        "streetNameDisplayText": "DIMMA ST, MARKHAM"
      },
      {
        "electoralDistricts": [
          {
            "election": null,
            "id": 56,
            "name": "Markham—Stouffville"
          }
        ],
        "pollDivisionIds": [
          10134359
        ],
        "postalCode": "L6B0V8",
        "streetName": "RIVERLANDS",
        "streetDirectionId": null,
        "streetTypeId": "AVE",
        "placeName": "MARKHAM",
        "streetNameDisplayText": "RIVERLANDS AVE, MARKHAM"
      }
    ]
  },
  {
    "postal": "L6B4Y0",
    "result": []
  },
  {
    "postal": "L6B2T4",
    "result": []
  },
  {
    "postal": "L6B2S3",
    "result": []
  },
  {
    "postal": "L6B0K0",
    "result": []
  },
  {
    "postal": "L6B5N1",
    "result": []
  },
  {
    "postal": "L6B7T0",
    "result": []
  },
  {
    "postal": "L6B9N2",
    "result": []
  },
  {
    "postal": "L6B5L1",
    "result": []
  },
  {
    "postal": "L6B7G5",
    "result": []
  },
  {
    "postal": "L6B6K2",
    "result": []
  },
  {
    "postal": "L6B6P9",
    "result": []
  },
  {
    "postal": "L6B0E6",
    "result": [
      {
        "electoralDistricts": [
          {
            "election": null,
            "id": 56,
            "name": "Markham—Stouffville"
          }
        ],
        "pollDivisionIds": [
          10134361
        ],
        "postalCode": "L6B0E6",
        "streetName": "RIZAL",
        "streetDirectionId": null,
        "streetTypeId": "AVE",
        "placeName": "MARKHAM",
        "streetNameDisplayText": "RIZAL AVE, MARKHAM"
      },
      {
        "electoralDistricts": [
          {
            "election": null,
            "id": 56,
            "name": "Markham—Stouffville"
          }
        ],
        "pollDivisionIds": [
          10134361
        ],
        "postalCode": "L6B0E6",
        "streetName": "SMOOTHWATER",
        "streetDirectionId": null,
        "streetTypeId": "TERR",
        "placeName": "MARKHAM",
        "streetNameDisplayText": "SMOOTHWATER TERR, MARKHAM"
      }
    ]
  },
  {
    "postal": "L6B8R9",
    "result": []
  },
  {
    "postal": "L6B3G9",
    "result": []
  },
  {
    "postal": "L6B0V7",
    "result": [
      {
        "electoralDistricts": [
          {
            "election": null,
            "id": 56,
            "name": "Markham—Stouffville"
          }
        ],
        "pollDivisionIds": [
          10134361
        ],
        "postalCode": "L6B0V7",
        "streetName": "MOORE'S",
        "streetDirectionId": null,
        "streetTypeId": "CRT",
        "placeName": "MARKHAM",
        "streetNameDisplayText": "MOORE'S CRT, MARKHAM"
      },
      {
        "electoralDistricts": [
          {
            "election": null,
            "id": 56,
            "name": "Markham—Stouffville"
          }
        ],
        "pollDivisionIds": [
          10134361
        ],
        "postalCode": "L6B0V7",
        "streetName": "VETTESE",
        "streetDirectionId": null,
        "streetTypeId": "CRT",
        "placeName": "MARKHAM",
        "streetNameDisplayText": "VETTESE CRT, MARKHAM"
      }
    ]
  },
  {
    "postal": "L6B2Z1",
    "result": []
  },
  {
    "postal": "L6B7N1",
    "result": []
  },
  {
    "postal": "L6B3C6",
    "result": []
  },
  {
    "postal": "L6B4M1",
    "result": []
  },
  {
    "postal": "L6B9K2",
    "result": []
  },
  {
    "postal": "L6B9S6",
    "result": []
  },
  {
    "postal": "L6B4X1",
    "result": []
  },
  {
    "postal": "L6B8W2",
    "result": []
  },
  {
    "postal": "L6B7N2",
    "result": []
  },
  {
    "postal": "L6B8S3",
    "result": []
  },
  {
    "postal": "L6B4V0",
    "result": []
  },
  {
    "postal": "L6B6W4",
    "result": []
  },
  {
    "postal": "L6B5M1",
    "result": []
  },
  {
    "postal": "L6B0S4",
    "result": [
      {
        "electoralDistricts": [
          {
            "election": null,
            "id": 56,
            "name": "Markham—Stouffville"
          }
        ],
        "pollDivisionIds": [
          10134361
        ],
        "postalCode": "L6B0S4",
        "streetName": "BERNBRIDGE",
        "streetDirectionId": null,
        "streetTypeId": "RD",
        "placeName": "MARKHAM",
        "streetNameDisplayText": "BERNBRIDGE RD, MARKHAM"
      },
      {
        "electoralDistricts": [
          {
            "election": null,
            "id": 56,
            "name": "Markham—Stouffville"
          }
        ],
        "pollDivisionIds": [
          10134361
        ],
        "postalCode": "L6B0S4",
        "streetName": "GOOSEMAN",
        "streetDirectionId": null,
        "streetTypeId": "CRES",
        "placeName": "MARKHAM",
        "streetNameDisplayText": "GOOSEMAN CRES, MARKHAM"
      }
    ]
  },
  {
    "postal": "L6B5X6",
    "result": []
  },
  {
    "postal": "L6B8L5",
    "result": []
  },
  {
    "postal": "L6B5M8",
    "result": []
  },
  {
    "postal": "L6B2G3",
    "result": []
  },
  {
    "postal": "L6B8E4",
    "result": []
  },
  {
    "postal": "L6B7S9",
    "result": []
  },
  {
    "postal": "L6B1K3",
    "result": [
      {
        "electoralDistricts": [
          {
            "election": null,
            "id": 56,
            "name": "Markham—Stouffville"
          }
        ],
        "pollDivisionIds": [
          10134351
        ],
        "postalCode": "L6B1K3",
        "streetName": "BITTERSWEET",
        "streetDirectionId": null,
        "streetTypeId": "ST",
        "placeName": "MARKHAM",
        "streetNameDisplayText": "BITTERSWEET ST, MARKHAM"
      },
      {
        "electoralDistricts": [
          {
            "election": null,
            "id": 56,
            "name": "Markham—Stouffville"
          }
        ],
        "pollDivisionIds": [
          10134351
        ],
        "postalCode": "L6B1K3",
        "streetName": "COLCHESTER",
        "streetDirectionId": null,
        "streetTypeId": "ST",
        "placeName": "MARKHAM",
        "streetNameDisplayText": "COLCHESTER ST, MARKHAM"
      },
      {
        "electoralDistricts": [
          {
            "election": null,
            "id": 56,
            "name": "Markham—Stouffville"
          }
        ],
        "pollDivisionIds": [
          10134351
        ],
        "postalCode": "L6B1K3",
        "streetName": "GAS LAMP",
        "streetDirectionId": null,
        "streetTypeId": "LANE",
        "placeName": "MARKHAM",
        "streetNameDisplayText": "GAS LAMP LANE, MARKHAM"
      },
      {
        "electoralDistricts": [
          {
            "election": null,
            "id": 56,
            "name": "Markham—Stouffville"
          }
        ],
        "pollDivisionIds": [
          10134351
        ],
        "postalCode": "L6B1K3",
        "streetName": "HORSETAIL",
        "streetDirectionId": null,
        "streetTypeId": "ST",
        "placeName": "MARKHAM",
        "streetNameDisplayText": "HORSETAIL ST, MARKHAM"
      }
    ]
  },
  {
    "postal": "L6B4E1",
    "result": []
  },
  {
    "postal": "L6B4R2",
    "result": []
  },
  {
    "postal": "L6B6T0",
    "result": []
  },
  {
    "postal": "L6B3K5",
    "result": []
  },
  {
    "postal": "L6B3S3",
    "result": []
  },
  {
    "postal": "L6B3L4",
    "result": []
  },
  {
    "postal": "L6B9Y2",
    "result": []
  },
  {
    "postal": "L6B1E0",
    "result": []
  },
  {
    "postal": "L6B9A4",
    "result": []
  },
  {
    "postal": "L6B1L3",
    "result": [
      {
        "electoralDistricts": [
          {
            "election": null,
            "id": 56,
            "name": "Markham—Stouffville"
          }
        ],
        "pollDivisionIds": [
          10134351
        ],
        "postalCode": "L6B1L3",
        "streetName": "GOWLAND",
        "streetDirectionId": null,
        "streetTypeId": "RD",
        "placeName": "MARKHAM",
        "streetNameDisplayText": "GOWLAND RD, MARKHAM"
      },
      {
        "electoralDistricts": [
          {
            "election": null,
            "id": 56,
            "name": "Markham—Stouffville"
          }
        ],
        "pollDivisionIds": [
          10134351
        ],
        "postalCode": "L6B1L3",
        "streetName": "LAPPE",
        "streetDirectionId": null,
        "streetTypeId": "AVE",
        "placeName": "MARKHAM",
        "streetNameDisplayText": "LAPPE AVE, MARKHAM"
      },
      {
        "electoralDistricts": [
          {
            "election": null,
            "id": 56,
            "name": "Markham—Stouffville"
          }
        ],
        "pollDivisionIds": [
          10134351
        ],
        "postalCode": "L6B1L3",
        "streetName": "WINKLERS",
        "streetDirectionId": null,
        "streetTypeId": "LANE",
        "placeName": "MARKHAM",
        "streetNameDisplayText": "WINKLERS LANE, MARKHAM"
      }
    ]
  },
  {
    "postal": "L6B6N1",
    "result": []
  },
  {
    "postal": "L6B6G7",
    "result": []
  },
  {
    "postal": "L6B7W1",
    "result": []
  },
  {
    "postal": "L6B4M6",
    "result": []
  },
  {
    "postal": "L6B1K0",
    "result": []
  },
  {
    "postal": "L6B3E2",
    "result": []
  },
  {
    "postal": "L6B5H4",
    "result": []
  },
  {
    "postal": "L6B1K7",
    "result": [
      {
        "electoralDistricts": [
          {
            "election": null,
            "id": 56,
            "name": "Markham—Stouffville"
          }
        ],
        "pollDivisionIds": [
          10134351,
          10134347
        ],
        "postalCode": "L6B1K7",
        "streetName": "BUR OAK",
        "streetDirectionId": null,
        "streetTypeId": "AVE",
        "placeName": "MARKHAM",
        "streetNameDisplayText": "BUR OAK AVE, MARKHAM"
      },
      {
        "electoralDistricts": [
          {
            "election": null,
            "id": 56,
            "name": "Markham—Stouffville"
          }
        ],
        "pollDivisionIds": [
          10134347
        ],
        "postalCode": "L6B1K7",
        "streetName": "MORNING DOVE",
        "streetDirectionId": null,
        "streetTypeId": "DR",
        "placeName": "MARKHAM",
        "streetNameDisplayText": "MORNING DOVE DR, MARKHAM"
      }
    ]
  },
  {
    "postal": "L6B0H0",
    "result": []
  },
  {
    "postal": "L6B0J3",
    "result": [
      {
        "electoralDistricts": [
          {
            "election": null,
            "id": 56,
            "name": "Markham—Stouffville"
          }
        ],
        "pollDivisionIds": [
          10134351
        ],
        "postalCode": "L6B0J3",
        "streetName": "CORNELL CENTRE",
        "streetDirectionId": null,
        "streetTypeId": "BLVD",
        "placeName": "MARKHAM",
        "streetNameDisplayText": "CORNELL CENTRE BLVD, MARKHAM"
      },
      {
        "electoralDistricts": [
          {
            "election": null,
            "id": 56,
            "name": "Markham—Stouffville"
          }
        ],
        "pollDivisionIds": [
          10134351
        ],
        "postalCode": "L6B0J3",
        "streetName": "SHADY OAKS",
        "streetDirectionId": null,
        "streetTypeId": "AVE",
        "placeName": "MARKHAM",
        "streetNameDisplayText": "SHADY OAKS AVE, MARKHAM"
      },
      {
        "electoralDistricts": [
          {
            "election": null,
            "id": 56,
            "name": "Markham—Stouffville"
          }
        ],
        "pollDivisionIds": [
          10134351
        ],
        "postalCode": "L6B0J3",
        "streetName": "SUMMERSIDE",
        "streetDirectionId": null,
        "streetTypeId": "ST",
        "placeName": "MARKHAM",
        "streetNameDisplayText": "SUMMERSIDE ST, MARKHAM"
      },
      {
        "electoralDistricts": [
          {
            "election": null,
            "id": 56,
            "name": "Markham—Stouffville"
          }
        ],
        "pollDivisionIds": [
          10134351
        ],
        "postalCode": "L6B0J3",
        "streetName": "WHITE'S HILL",
        "streetDirectionId": null,
        "streetTypeId": "AVE",
        "placeName": "MARKHAM",
        "streetNameDisplayText": "WHITE'S HILL AVE, MARKHAM"
      }
    ]
  },
  {
    "postal": "L6B1X6",
    "result": []
  },
  {
    "postal": "L6B2Z6",
    "result": []
  },
  {
    "postal": "L6B4R9",
    "result": []
  },
  {
    "postal": "L6B0W8",
    "result": [
      {
        "electoralDistricts": [
          {
            "election": null,
            "id": 56,
            "name": "Markham—Stouffville"
          }
        ],
        "pollDivisionIds": [
          10134359
        ],
        "postalCode": "L6B0W8",
        "streetName": "CORNELL CENTRE",
        "streetDirectionId": null,
        "streetTypeId": "BLVD",
        "placeName": "MARKHAM",
        "streetNameDisplayText": "CORNELL CENTRE BLVD, MARKHAM"
      },
      {
        "electoralDistricts": [
          {
            "election": null,
            "id": 56,
            "name": "Markham—Stouffville"
          }
        ],
        "pollDivisionIds": [
          10134359
        ],
        "postalCode": "L6B0W8",
        "streetName": "CORNELL PARK",
        "streetDirectionId": null,
        "streetTypeId": "AVE",
        "placeName": "MARKHAM",
        "streetNameDisplayText": "CORNELL PARK AVE, MARKHAM"
      },
      {
        "electoralDistricts": [
          {
            "election": null,
            "id": 56,
            "name": "Markham—Stouffville"
          }
        ],
        "pollDivisionIds": [
          10134359
        ],
        "postalCode": "L6B0W8",
        "streetName": "RAVEN CROSS",
        "streetDirectionId": null,
        "streetTypeId": "AVE",
        "placeName": "MARKHAM",
        "streetNameDisplayText": "RAVEN CROSS AVE, MARKHAM"
      }
    ]
  },
  {
    "postal": "L6B1L4",
    "result": [
      {
        "electoralDistricts": [
          {
            "election": null,
            "id": 56,
            "name": "Markham—Stouffville"
          }
        ],
        "pollDivisionIds": [
          10134351
        ],
        "postalCode": "L6B1L4",
        "streetName": "MORNING DOVE",
        "streetDirectionId": null,
        "streetTypeId": "DR",
        "placeName": "MARKHAM",
        "streetNameDisplayText": "MORNING DOVE DR, MARKHAM"
      },
      {
        "electoralDistricts": [
          {
            "election": null,
            "id": 56,
            "name": "Markham—Stouffville"
          }
        ],
        "pollDivisionIds": [
          10134351
        ],
        "postalCode": "L6B1L4",
        "streetName": "WINKLERS",
        "streetDirectionId": null,
        "streetTypeId": "LANE",
        "placeName": "MARKHAM",
        "streetNameDisplayText": "WINKLERS LANE, MARKHAM"
      }
    ]
  },
  {
    "postal": "L6B0C8",
    "result": [
      {
        "electoralDistricts": [
          {
            "election": null,
            "id": 56,
            "name": "Markham—Stouffville"
          }
        ],
        "pollDivisionIds": [
          10134361
        ],
        "postalCode": "L6B0C8",
        "streetName": "ANDRIANA",
        "streetDirectionId": null,
        "streetTypeId": "CRES",
        "placeName": "MARKHAM",
        "streetNameDisplayText": "ANDRIANA CRES, MARKHAM"
      },
      {
        "electoralDistricts": [
          {
            "election": null,
            "id": 56,
            "name": "Markham—Stouffville"
          }
        ],
        "pollDivisionIds": [
          10134361
        ],
        "postalCode": "L6B0C8",
        "streetName": "RIVERWALK",
        "streetDirectionId": null,
        "streetTypeId": "DR",
        "placeName": "MARKHAM",
        "streetNameDisplayText": "RIVERWALK DR, MARKHAM"
      }
    ]
  },
  {
    "postal": "L6B9X7",
    "result": []
  },
  {
    "postal": "L6B4T1",
    "result": []
  },
  {
    "postal": "L6B0M0",
    "result": []
  },
  {
    "postal": "L6B6A2",
    "result": []
  },
  {
    "postal": "L6B9S8",
    "result": []
  },
  {
    "postal": "L6B9T4",
    "result": []
  },
  {
    "postal": "L6B9Y4",
    "result": []
  },
  {
    "postal": "L6B6G5",
    "result": []
  },
  {
    "postal": "L6B6H9",
    "result": []
  },
  {
    "postal": "L6B2P3",
    "result": []
  },
  {
    "postal": "L6B1T6",
    "result": []
  },
  {
    "postal": "L6B4P6",
    "result": []
  },
  {
    "postal": "L6B3K1",
    "result": []
  },
  {
    "postal": "L6B6X4",
    "result": []
  },
  {
    "postal": "L6B4M8",
    "result": []
  },
  {
    "postal": "L6B2Y1",
    "result": []
  },
  {
    "postal": "L6B6M1",
    "result": []
  },
  {
    "postal": "L6B5L8",
    "result": []
  },
  {
    "postal": "L6B3P6",
    "result": []
  },
  {
    "postal": "L6B9A5",
    "result": []
  },
  {
    "postal": "L6B7K1",
    "result": []
  },
  {
    "postal": "L6B3J4",
    "result": []
  },
  {
    "postal": "L6B5E7",
    "result": []
  },
  {
    "postal": "L6B3A7",
    "result": []
  },
  {
    "postal": "L6B1B9",
    "result": [
      {
        "electoralDistricts": [
          {
            "election": null,
            "id": 56,
            "name": "Markham—Stouffville"
          }
        ],
        "pollDivisionIds": [
          10134351
        ],
        "postalCode": "L6B1B9",
        "streetName": "ALMIRA",
        "streetDirectionId": null,
        "streetTypeId": "AVE",
        "placeName": "MARKHAM",
        "streetNameDisplayText": "ALMIRA AVE, MARKHAM"
      },
      {
        "electoralDistricts": [
          {
            "election": null,
            "id": 56,
            "name": "Markham—Stouffville"
          }
        ],
        "pollDivisionIds": [
          10134351
        ],
        "postalCode": "L6B1B9",
        "streetName": "BUR OAK",
        "streetDirectionId": null,
        "streetTypeId": "AVE",
        "placeName": "MARKHAM",
        "streetNameDisplayText": "BUR OAK AVE, MARKHAM"
      },
      {
        "electoralDistricts": [
          {
            "election": null,
            "id": 56,
            "name": "Markham—Stouffville"
          }
        ],
        "pollDivisionIds": [
          10134351
        ],
        "postalCode": "L6B1B9",
        "streetName": "WALKERVILLE",
        "streetDirectionId": null,
        "streetTypeId": "RD",
        "placeName": "MARKHAM",
        "streetNameDisplayText": "WALKERVILLE RD, MARKHAM"
      }
    ]
  },
  {
    "postal": "L6B9E8",
    "result": []
  },
  {
    "postal": "L6B1C9",
    "result": [
      {
        "electoralDistricts": [
          {
            "election": null,
            "id": 56,
            "name": "Markham—Stouffville"
          }
        ],
        "pollDivisionIds": [
          10134371
        ],
        "postalCode": "L6B1C9",
        "streetName": "BUR OAK",
        "streetDirectionId": null,
        "streetTypeId": "AVE",
        "placeName": "MARKHAM",
        "streetNameDisplayText": "BUR OAK AVE, MARKHAM"
      }
    ]
  },
  {
    "postal": "L6B3B5",
    "result": []
  },
  {
    "postal": "L6B8R0",
    "result": []
  },
  {
    "postal": "L6B3P2",
    "result": []
  },
  {
    "postal": "L6B5V4",
    "result": []
  },
  {
    "postal": "L6B4H0",
    "result": []
  },
  {
    "postal": "L6B4S7",
    "result": []
  },
  {
    "postal": "L6B6C2",
    "result": []
  },
  {
    "postal": "L6B8W3",
    "result": []
  },
  {
    "postal": "L6B4M5",
    "result": []
  },
  {
    "postal": "L6B5T1",
    "result": []
  },
  {
    "postal": "L6B3B3",
    "result": []
  },
  {
    "postal": "L6B6C6",
    "result": []
  },
  {
    "postal": "L6B7N8",
    "result": []
  },
  {
    "postal": "L6B2Y3",
    "result": []
  },
  {
    "postal": "L6B2R6",
    "result": []
  },
  {
    "postal": "L6B7N3",
    "result": []
  },
  {
    "postal": "L6B8J2",
    "result": []
  },
  {
    "postal": "L6B6A9",
    "result": []
  },
  {
    "postal": "L6B3V2",
    "result": []
  },
  {
    "postal": "L6B2N3",
    "result": []
  },
  {
    "postal": "L6B1S5",
    "result": []
  },
  {
    "postal": "L6B4T7",
    "result": []
  },
  {
    "postal": "L6B6Y7",
    "result": []
  },
  {
    "postal": "L6B0W7",
    "result": [
      {
        "electoralDistricts": [
          {
            "election": null,
            "id": 56,
            "name": "Markham—Stouffville"
          }
        ],
        "pollDivisionIds": [
          10134359
        ],
        "postalCode": "L6B0W7",
        "streetName": "CORNELL PARK",
        "streetDirectionId": null,
        "streetTypeId": "AVE",
        "placeName": "MARKHAM",
        "streetNameDisplayText": "CORNELL PARK AVE, MARKHAM"
      },
      {
        "electoralDistricts": [
          {
            "election": null,
            "id": 56,
            "name": "Markham—Stouffville"
          }
        ],
        "pollDivisionIds": [
          10134359
        ],
        "postalCode": "L6B0W7",
        "streetName": "DEMOTT",
        "streetDirectionId": null,
        "streetTypeId": "AVE",
        "placeName": "MARKHAM",
        "streetNameDisplayText": "DEMOTT AVE, MARKHAM"
      },
      {
        "electoralDistricts": [
          {
            "election": null,
            "id": 56,
            "name": "Markham—Stouffville"
          }
        ],
        "pollDivisionIds": [
          10134359
        ],
        "postalCode": "L6B0W7",
        "streetName": "TERRY FOX",
        "streetDirectionId": null,
        "streetTypeId": "ST",
        "placeName": "MARKHAM",
        "streetNameDisplayText": "TERRY FOX ST, MARKHAM"
      }
    ]
  },
  {
    "postal": "L6B2W9",
    "result": []
  },
  {
    "postal": "L6B8V0",
    "result": []
  },
  {
    "postal": "L6B0H4",
    "result": [
      {
        "electoralDistricts": [
          {
            "election": null,
            "id": 56,
            "name": "Markham—Stouffville"
          }
        ],
        "pollDivisionIds": [
          10134358
        ],
        "postalCode": "L6B0H4",
        "streetName": "OAKBOROUGH",
        "streetDirectionId": null,
        "streetTypeId": "DR",
        "placeName": "MARKHAM",
        "streetNameDisplayText": "OAKBOROUGH DR, MARKHAM"
      },
      {
        "electoralDistricts": [
          {
            "election": null,
            "id": 56,
            "name": "Markham—Stouffville"
          }
        ],
        "pollDivisionIds": [
          10134358
        ],
        "postalCode": "L6B0H4",
        "streetName": "STONECHURCH",
        "streetDirectionId": null,
        "streetTypeId": "CRES",
        "placeName": "MARKHAM",
        "streetNameDisplayText": "STONECHURCH CRES, MARKHAM"
      }
    ]
  },
  {
    "postal": "L6B2T1",
    "result": []
  },
  {
    "postal": "L6B1B1",
    "result": []
  },
  {
    "postal": "L6B8B6",
    "result": []
  },
  {
    "postal": "L6B6H1",
    "result": []
  },
  {
    "postal": "L6B8T8",
    "result": []
  },
  {
    "postal": "L6B0T4",
    "result": [
      {
        "electoralDistricts": [
          {
            "election": null,
            "id": 56,
            "name": "Markham—Stouffville"
          }
        ],
        "pollDivisionIds": [
          10134347
        ],
        "postalCode": "L6B0T4",
        "streetName": "DUNCAN",
        "streetDirectionId": null,
        "streetTypeId": "RD",
        "placeName": "MARKHAM",
        "streetNameDisplayText": "DUNCAN RD, MARKHAM"
      },
      {
        "electoralDistricts": [
          {
            "election": null,
            "id": 56,
            "name": "Markham—Stouffville"
          }
        ],
        "pollDivisionIds": [
          10134347
        ],
        "postalCode": "L6B0T4",
        "streetName": "GARDEN TRAIL",
        "streetDirectionId": null,
        "streetTypeId": "RD",
        "placeName": "MARKHAM",
        "streetNameDisplayText": "GARDEN TRAIL RD, MARKHAM"
      },
      {
        "electoralDistricts": [
          {
            "election": null,
            "id": 56,
            "name": "Markham—Stouffville"
          }
        ],
        "pollDivisionIds": [
          10134347
        ],
        "postalCode": "L6B0T4",
        "streetName": "PAPER BIRCH",
        "streetDirectionId": null,
        "streetTypeId": "DR",
        "placeName": "MARKHAM",
        "streetNameDisplayText": "PAPER BIRCH DR, MARKHAM"
      }
    ]
  },
  {
    "postal": "L6B2C4",
    "result": []
  },
  {
    "postal": "L6B8N3",
    "result": []
  },
  {
    "postal": "L6B4L8",
    "result": []
  },
  {
    "postal": "L6B2B5",
    "result": []
  },
  {
    "postal": "L6B3H1",
    "result": []
  },
  {
    "postal": "L6B4Y1",
    "result": []
  },
  {
    "postal": "L6B7E2",
    "result": []
  },
  {
    "postal": "L6B2P5",
    "result": []
  },
  {
    "postal": "L6B8R7",
    "result": []
  },
  {
    "postal": "L6B9P1",
    "result": []
  },
  {
    "postal": "L6B3B8",
    "result": []
  },
  {
    "postal": "L6B3P7",
    "result": []
  },
  {
    "postal": "L6B9B2",
    "result": []
  },
  {
    "postal": "L6B6Z3",
    "result": []
  },
  {
    "postal": "L6B4N5",
    "result": []
  },
  {
    "postal": "L6B8T3",
    "result": []
  },
  {
    "postal": "L6B1V2",
    "result": []
  },
  {
    "postal": "L6B1Y0",
    "result": []
  },
  {
    "postal": "L6B3G6",
    "result": []
  },
  {
    "postal": "L6B3H7",
    "result": []
  },
  {
    "postal": "L6B7X8",
    "result": []
  },
  {
    "postal": "L6B0C7",
    "result": [
      {
        "electoralDistricts": [
          {
            "election": null,
            "id": 56,
            "name": "Markham—Stouffville"
          }
        ],
        "pollDivisionIds": [
          10134361
        ],
        "postalCode": "L6B0C7",
        "streetName": "14TH",
        "streetDirectionId": null,
        "streetTypeId": "AVE",
        "placeName": "MARKHAM",
        "streetNameDisplayText": "14TH AVE, MARKHAM"
      },
      {
        "electoralDistricts": [
          {
            "election": null,
            "id": 56,
            "name": "Markham—Stouffville"
          }
        ],
        "pollDivisionIds": [
          10134361
        ],
        "postalCode": "L6B0C7",
        "streetName": "ANDRIANA",
        "streetDirectionId": null,
        "streetTypeId": "CRES",
        "placeName": "MARKHAM",
        "streetNameDisplayText": "ANDRIANA CRES, MARKHAM"
      }
    ]
  },
  {
    "postal": "L6B0W9",
    "result": [
      {
        "electoralDistricts": [
          {
            "election": null,
            "id": 56,
            "name": "Markham—Stouffville"
          }
        ],
        "pollDivisionIds": [
          10134359
        ],
        "postalCode": "L6B0W9",
        "streetName": "TERRY FOX",
        "streetDirectionId": null,
        "streetTypeId": "ST",
        "placeName": "MARKHAM",
        "streetNameDisplayText": "TERRY FOX ST, MARKHAM"
      },
      {
        "electoralDistricts": [
          {
            "election": null,
            "id": 56,
            "name": "Markham—Stouffville"
          }
        ],
        "pollDivisionIds": [
          10134359
        ],
        "postalCode": "L6B0W9",
        "streetName": "WAGON WORKS",
        "streetDirectionId": null,
        "streetTypeId": "ST",
        "placeName": "MARKHAM",
        "streetNameDisplayText": "WAGON WORKS ST, MARKHAM"
      }
    ]
  },
  {
    "postal": "L6B8E6",
    "result": []
  },
  {
    "postal": "L6B9Z8",
    "result": []
  },
  {
    "postal": "L6B3P4",
    "result": []
  },
  {
    "postal": "L6B6L8",
    "result": []
  },
  {
    "postal": "L6B2R4",
    "result": []
  },
  {
    "postal": "L6B2W1",
    "result": []
  },
  {
    "postal": "L6B9H8",
    "result": []
  },
  {
    "postal": "L6B8X9",
    "result": []
  },
  {
    "postal": "L6B7H4",
    "result": []
  },
  {
    "postal": "L6B3J1",
    "result": []
  },
  {
    "postal": "L6B1P4",
    "result": []
  },
  {
    "postal": "L6B2A3",
    "result": []
  },
  {
    "postal": "L6B0Z1",
    "result": [
      {
        "electoralDistricts": [
          {
            "election": null,
            "id": 56,
            "name": "Markham—Stouffville"
          }
        ],
        "pollDivisionIds": [
          10134359
        ],
        "postalCode": "L6B0Z1",
        "streetName": "DEMOTT",
        "streetDirectionId": null,
        "streetTypeId": "AVE",
        "placeName": "MARKHAM",
        "streetNameDisplayText": "DEMOTT AVE, MARKHAM"
      },
      {
        "electoralDistricts": [
          {
            "election": null,
            "id": 56,
            "name": "Markham—Stouffville"
          }
        ],
        "pollDivisionIds": [
          10134351,
          10134359
        ],
        "postalCode": "L6B0Z1",
        "streetName": "DONALD SIM",
        "streetDirectionId": null,
        "streetTypeId": "AVE",
        "placeName": "MARKHAM",
        "streetNameDisplayText": "DONALD SIM AVE, MARKHAM"
      },
      {
        "electoralDistricts": [
          {
            "election": null,
            "id": 56,
            "name": "Markham—Stouffville"
          }
        ],
        "pollDivisionIds": [
          10134359
        ],
        "postalCode": "L6B0Z1",
        "streetName": "LAWRENCE PILKINGTON",
        "streetDirectionId": null,
        "streetTypeId": "AVE",
        "placeName": "MARKHAM",
        "streetNameDisplayText": "LAWRENCE PILKINGTON AVE, MARKHAM"
      }
    ]
  },
  {
    "postal": "L6B1C1",
    "result": [
      {
        "electoralDistricts": [
          {
            "election": null,
            "id": 56,
            "name": "Markham—Stouffville"
          }
        ],
        "pollDivisionIds": [
          10134351
        ],
        "postalCode": "L6B1C1",
        "streetName": "WHITE'S HILL",
        "streetDirectionId": null,
        "streetTypeId": "AVE",
        "placeName": "MARKHAM",
        "streetNameDisplayText": "WHITE'S HILL AVE, MARKHAM"
      }
    ]
  },
  {
    "postal": "L6B0H3",
    "result": [
      {
        "electoralDistricts": [
          {
            "election": null,
            "id": 56,
            "name": "Markham—Stouffville"
          }
        ],
        "pollDivisionIds": [
          10134358,
          10134361
        ],
        "postalCode": "L6B0H3",
        "streetName": "OAKBOROUGH",
        "streetDirectionId": null,
        "streetTypeId": "DR",
        "placeName": "MARKHAM",
        "streetNameDisplayText": "OAKBOROUGH DR, MARKHAM"
      },
      {
        "electoralDistricts": [
          {
            "election": null,
            "id": 56,
            "name": "Markham—Stouffville"
          }
        ],
        "pollDivisionIds": [
          10134358
        ],
        "postalCode": "L6B0H3",
        "streetName": "RIVERWALK",
        "streetDirectionId": null,
        "streetTypeId": "DR",
        "placeName": "MARKHAM",
        "streetNameDisplayText": "RIVERWALK DR, MARKHAM"
      }
    ]
  },
  {
    "postal": "L6B7B0",
    "result": []
  },
  {
    "postal": "L6B5K2",
    "result": []
  },
  {
    "postal": "L6B1E9",
    "result": [
      {
        "electoralDistricts": [
          {
            "election": null,
            "id": 56,
            "name": "Markham—Stouffville"
          }
        ],
        "pollDivisionIds": [
          10134347
        ],
        "postalCode": "L6B1E9",
        "streetName": "BUR OAK",
        "streetDirectionId": null,
        "streetTypeId": "AVE",
        "placeName": "MARKHAM",
        "streetNameDisplayText": "BUR OAK AVE, MARKHAM"
      },
      {
        "electoralDistricts": [
          {
            "election": null,
            "id": 56,
            "name": "Markham—Stouffville"
          }
        ],
        "pollDivisionIds": [
          10134347
        ],
        "postalCode": "L6B1E9",
        "streetName": "EVARIDGE",
        "streetDirectionId": null,
        "streetTypeId": "DR",
        "placeName": "MARKHAM",
        "streetNameDisplayText": "EVARIDGE DR, MARKHAM"
      }
    ]
  },
  {
    "postal": "L6B9W7",
    "result": []
  },
  {
    "postal": "L6B5W6",
    "result": []
  },
  {
    "postal": "L6B6S6",
    "result": []
  },
  {
    "postal": "L6B2P8",
    "result": []
  },
  {
    "postal": "L6B4P8",
    "result": []
  },
  {
    "postal": "L6B0V9",
    "result": [
      {
        "electoralDistricts": [
          {
            "election": null,
            "id": 56,
            "name": "Markham—Stouffville"
          }
        ],
        "pollDivisionIds": [
          10134359
        ],
        "postalCode": "L6B0V9",
        "streetName": "CHURCH",
        "streetDirectionId": null,
        "streetTypeId": "ST",
        "placeName": "MARKHAM",
        "streetNameDisplayText": "CHURCH ST, MARKHAM"
      },
      {
        "electoralDistricts": [
          {
            "election": null,
            "id": 56,
            "name": "Markham—Stouffville"
          }
        ],
        "pollDivisionIds": [
          10134359
        ],
        "postalCode": "L6B0V9",
        "streetName": "CORNELL CENTRE",
        "streetDirectionId": null,
        "streetTypeId": "BLVD",
        "placeName": "MARKHAM",
        "streetNameDisplayText": "CORNELL CENTRE BLVD, MARKHAM"
      },
      {
        "electoralDistricts": [
          {
            "election": null,
            "id": 56,
            "name": "Markham—Stouffville"
          }
        ],
        "pollDivisionIds": [
          10134359
        ],
        "postalCode": "L6B0V9",
        "streetName": "FRANK DAVIS",
        "streetDirectionId": null,
        "streetTypeId": "ST",
        "placeName": "MARKHAM",
        "streetNameDisplayText": "FRANK DAVIS ST, MARKHAM"
      },
      {
        "electoralDistricts": [
          {
            "election": null,
            "id": 56,
            "name": "Markham—Stouffville"
          }
        ],
        "pollDivisionIds": [
          10134359
        ],
        "postalCode": "L6B0V9",
        "streetName": "RIVERLANDS",
        "streetDirectionId": null,
        "streetTypeId": "AVE",
        "placeName": "MARKHAM",
        "streetNameDisplayText": "RIVERLANDS AVE, MARKHAM"
      }
    ]
  },
  {
    "postal": "L6B5Y2",
    "result": []
  },
  {
    "postal": "L6B7Z7",
    "result": []
  },
  {
    "postal": "L6B6Y8",
    "result": []
  },
  {
    "postal": "L6B2G7",
    "result": []
  },
  {
    "postal": "L6B8C1",
    "result": []
  },
  {
    "postal": "L6B5C5",
    "result": []
  },
  {
    "postal": "L6B2X8",
    "result": []
  },
  {
    "postal": "L6B1W5",
    "result": []
  },
  {
    "postal": "L6B7G0",
    "result": []
  },
  {
    "postal": "L6B8J8",
    "result": []
  },
  {
    "postal": "L6B3Y0",
    "result": []
  },
  {
    "postal": "L6B9T7",
    "result": []
  },
  {
    "postal": "L6B5P4",
    "result": []
  },
  {
    "postal": "L6B4B0",
    "result": []
  },
  {
    "postal": "L6B9N8",
    "result": []
  },
  {
    "postal": "L6B4A7",
    "result": []
  },
  {
    "postal": "L6B4H9",
    "result": []
  },
  {
    "postal": "L6B6X1",
    "result": []
  },
  {
    "postal": "L6B9Y7",
    "result": []
  },
  {
    "postal": "L6B2Y5",
    "result": []
  },
  {
    "postal": "L6B8L7",
    "result": []
  },
  {
    "postal": "L6B2A8",
    "result": []
  },
  {
    "postal": "L6B2K9",
    "result": []
  },
  {
    "postal": "L6B3E5",
    "result": []
  },
  {
    "postal": "L6B8N6",
    "result": []
  },
  {
    "postal": "L6B8J4",
    "result": []
  },
  {
    "postal": "L6B4R7",
    "result": []
  },
  {
    "postal": "L6B9K1",
    "result": []
  },
  {
    "postal": "L6B8E1",
    "result": []
  },
  {
    "postal": "L6B0R1",
    "result": [
      {
        "electoralDistricts": [
          {
            "election": null,
            "id": 56,
            "name": "Markham—Stouffville"
          }
        ],
        "pollDivisionIds": [
          10134359
        ],
        "postalCode": "L6B0R1",
        "streetName": "BUR OAK",
        "streetDirectionId": null,
        "streetTypeId": "AVE",
        "placeName": "MARKHAM",
        "streetNameDisplayText": "BUR OAK AVE, MARKHAM"
      }
    ]
  },
  {
    "postal": "L6B4J3",
    "result": []
  },
  {
    "postal": "L6B7E7",
    "result": []
  },
  {
    "postal": "L6B0J0",
    "result": []
  },
  {
    "postal": "L6B7R8",
    "result": []
  },
  {
    "postal": "L6B9X0",
    "result": []
  },
  {
    "postal": "L6B7P6",
    "result": []
  },
  {
    "postal": "L6B0R7",
    "result": [
      {
        "electoralDistricts": [
          {
            "election": null,
            "id": 56,
            "name": "Markham—Stouffville"
          }
        ],
        "pollDivisionIds": [
          10134351
        ],
        "postalCode": "L6B0R7",
        "streetName": "PYNESIDE",
        "streetDirectionId": null,
        "streetTypeId": "ST",
        "placeName": "MARKHAM",
        "streetNameDisplayText": "PYNESIDE ST, MARKHAM"
      },
      {
        "electoralDistricts": [
          {
            "election": null,
            "id": 56,
            "name": "Markham—Stouffville"
          }
        ],
        "pollDivisionIds": [
          10134351
        ],
        "postalCode": "L6B0R7",
        "streetName": "WILLIAM FORSTER",
        "streetDirectionId": null,
        "streetTypeId": "RD",
        "placeName": "MARKHAM",
        "streetNameDisplayText": "WILLIAM FORSTER RD, MARKHAM"
      }
    ]
  },
  {
    "postal": "L6B5W1",
    "result": []
  },
  {
    "postal": "L6B0K4",
    "result": [
      {
        "electoralDistricts": [
          {
            "election": null,
            "id": 56,
            "name": "Markham—Stouffville"
          }
        ],
        "pollDivisionIds": [
          10134351
        ],
        "postalCode": "L6B0K4",
        "streetName": "ALBERT LEWIS",
        "streetDirectionId": null,
        "streetTypeId": "ST",
        "placeName": "MARKHAM",
        "streetNameDisplayText": "ALBERT LEWIS ST, MARKHAM"
      },
      {
        "electoralDistricts": [
          {
            "election": null,
            "id": 56,
            "name": "Markham—Stouffville"
          }
        ],
        "pollDivisionIds": [
          10134351
        ],
        "postalCode": "L6B0K4",
        "streetName": "COUNTRY GREEN",
        "streetDirectionId": null,
        "streetTypeId": "LANE",
        "placeName": "MARKHAM",
        "streetNameDisplayText": "COUNTRY GREEN LANE, MARKHAM"
      },
      {
        "electoralDistricts": [
          {
            "election": null,
            "id": 56,
            "name": "Markham—Stouffville"
          }
        ],
        "pollDivisionIds": [
          10134351
        ],
        "postalCode": "L6B0K4",
        "streetName": "OLD OAK",
        "streetDirectionId": null,
        "streetTypeId": "LANE",
        "placeName": "MARKHAM",
        "streetNameDisplayText": "OLD OAK LANE, MARKHAM"
      },
      {
        "electoralDistricts": [
          {
            "election": null,
            "id": 56,
            "name": "Markham—Stouffville"
          }
        ],
        "pollDivisionIds": [
          10134351
        ],
        "postalCode": "L6B0K4",
        "streetName": "SNOWCREEK",
        "streetDirectionId": null,
        "streetTypeId": "ST",
        "placeName": "MARKHAM",
        "streetNameDisplayText": "SNOWCREEK ST, MARKHAM"
      }
    ]
  },
  {
    "postal": "L6B7N9",
    "result": []
  },
  {
    "postal": "L6B1N0",
    "result": []
  },
  {
    "postal": "L6B6P3",
    "result": []
  },
  {
    "postal": "L6B5A1",
    "result": []
  },
  {
    "postal": "L6B9M9",
    "result": []
  },
  {
    "postal": "L6B7T6",
    "result": []
  },
  {
    "postal": "L6B3X0",
    "result": []
  },
  {
    "postal": "L6B2T0",
    "result": []
  },
  {
    "postal": "L6B5X9",
    "result": []
  },
  {
    "postal": "L6B2R3",
    "result": []
  },
  {
    "postal": "L6B5N2",
    "result": []
  },
  {
    "postal": "L6B4Y7",
    "result": []
  },
  {
    "postal": "L6B7M0",
    "result": []
  },
  {
    "postal": "L6B8P3",
    "result": []
  },
  {
    "postal": "L6B3N3",
    "result": []
  },
  {
    "postal": "L6B7S3",
    "result": []
  },
  {
    "postal": "L6B3V9",
    "result": []
  },
  {
    "postal": "L6B9N7",
    "result": []
  },
  {
    "postal": "L6B0G4",
    "result": [
      {
        "electoralDistricts": [
          {
            "election": null,
            "id": 56,
            "name": "Markham—Stouffville"
          }
        ],
        "pollDivisionIds": [
          10134358
        ],
        "postalCode": "L6B0G4",
        "streetName": "BOSWELL",
        "streetDirectionId": null,
        "streetTypeId": "RD",
        "placeName": "MARKHAM",
        "streetNameDisplayText": "BOSWELL RD, MARKHAM"
      },
      {
        "electoralDistricts": [
          {
            "election": null,
            "id": 56,
            "name": "Markham—Stouffville"
          }
        ],
        "pollDivisionIds": [
          10134358
        ],
        "postalCode": "L6B0G4",
        "streetName": "COLLINGHAM",
        "streetDirectionId": null,
        "streetTypeId": "PL",
        "placeName": "MARKHAM",
        "streetNameDisplayText": "COLLINGHAM PL, MARKHAM"
      },
      {
        "electoralDistricts": [
          {
            "election": null,
            "id": 56,
            "name": "Markham—Stouffville"
          }
        ],
        "pollDivisionIds": [
          10134358
        ],
        "postalCode": "L6B0G4",
        "streetName": "COLLINGHAM",
        "streetDirectionId": null,
        "streetTypeId": "PLACE",
        "placeName": "MARKHAM",
        "streetNameDisplayText": "COLLINGHAM PLACE, MARKHAM"
      },
      {
        "electoralDistricts": [
          {
            "election": null,
            "id": 56,
            "name": "Markham—Stouffville"
          }
        ],
        "pollDivisionIds": [
          10134358
        ],
        "postalCode": "L6B0G4",
        "streetName": "GEDDINGTON",
        "streetDirectionId": null,
        "streetTypeId": "CRES",
        "placeName": "MARKHAM",
        "streetNameDisplayText": "GEDDINGTON CRES, MARKHAM"
      },
      {
        "electoralDistricts": [
          {
            "election": null,
            "id": 56,
            "name": "Markham—Stouffville"
          }
        ],
        "pollDivisionIds": [
          10134358
        ],
        "postalCode": "L6B0G4",
        "streetName": "WICKSON",
        "streetDirectionId": null,
        "streetTypeId": "ST",
        "placeName": "MARKHAM",
        "streetNameDisplayText": "WICKSON ST, MARKHAM"
      }
    ]
  },
  {
    "postal": "L6B2E2",
    "result": []
  },
  {
    "postal": "L6B7W8",
    "result": []
  },
  {
    "postal": "L6B7M5",
    "result": []
  },
  {
    "postal": "L6B5W8",
    "result": []
  },
  {
    "postal": "L6B5E5",
    "result": []
  },
  {
    "postal": "L6B1P9",
    "result": []
  },
  {
    "postal": "L6B8V8",
    "result": []
  },
  {
    "postal": "L6B9G8",
    "result": []
  },
  {
    "postal": "L6B8H9",
    "result": []
  },
  {
    "postal": "L6B1Z1",
    "result": []
  },
  {
    "postal": "L6B8M3",
    "result": []
  },
  {
    "postal": "L6B5H6",
    "result": []
  },
  {
    "postal": "L6B7W7",
    "result": []
  },
  {
    "postal": "L6B4L0",
    "result": []
  },
  {
    "postal": "L6B2N1",
    "result": []
  },
  {
    "postal": "L6B2H4",
    "result": []
  },
  {
    "postal": "L6B5C8",
    "result": []
  },
  {
    "postal": "L6B8B0",
    "result": []
  },
  {
    "postal": "L6B1T4",
    "result": []
  },
  {
    "postal": "L6B7N7",
    "result": []
  },
  {
    "postal": "L6B4L3",
    "result": []
  },
  {
    "postal": "L6B2N2",
    "result": []
  },
  {
    "postal": "L6B4N8",
    "result": []
  },
  {
    "postal": "L6B3M5",
    "result": []
  },
  {
    "postal": "L6B6H7",
    "result": []
  },
  {
    "postal": "L6B8Y8",
    "result": []
  },
  {
    "postal": "L6B5R9",
    "result": []
  },
  {
    "postal": "L6B8G3",
    "result": []
  },
  {
    "postal": "L6B4N7",
    "result": []
  },
  {
    "postal": "L6B0B9",
    "result": [
      {
        "electoralDistricts": [
          {
            "election": null,
            "id": 56,
            "name": "Markham—Stouffville"
          }
        ],
        "pollDivisionIds": [
          10134361
        ],
        "postalCode": "L6B0B9",
        "streetName": "RIVERWALK",
        "streetDirectionId": null,
        "streetTypeId": "DR",
        "placeName": "MARKHAM",
        "streetNameDisplayText": "RIVERWALK DR, MARKHAM"
      }
    ]
  },
  {
    "postal": "L6B9K7",
    "result": []
  },
  {
    "postal": "L6B9K9",
    "result": []
  },
  {
    "postal": "L6B3Z2",
    "result": []
  },
  {
    "postal": "L6B6W7",
    "result": []
  },
  {
    "postal": "L6B0P1",
    "result": [
      {
        "electoralDistricts": [
          {
            "election": null,
            "id": 56,
            "name": "Markham—Stouffville"
          }
        ],
        "pollDivisionIds": [
          10134359
        ],
        "postalCode": "L6B0P1",
        "streetName": "OAKMOOR",
        "streetDirectionId": null,
        "streetTypeId": "LANE",
        "placeName": "MARKHAM",
        "streetNameDisplayText": "OAKMOOR LANE, MARKHAM"
      },
      {
        "electoralDistricts": [
          {
            "election": null,
            "id": 56,
            "name": "Markham—Stouffville"
          }
        ],
        "pollDivisionIds": [
          10134359
        ],
        "postalCode": "L6B0P1",
        "streetName": "WILDMOOR",
        "streetDirectionId": null,
        "streetTypeId": "ST",
        "placeName": "MARKHAM",
        "streetNameDisplayText": "WILDMOOR ST, MARKHAM"
      }
    ]
  },
  {
    "postal": "L6B3A0",
    "result": []
  },
  {
    "postal": "L6B8L9",
    "result": []
  },
  {
    "postal": "L6B6X0",
    "result": []
  },
  {
    "postal": "L6B3E9",
    "result": []
  },
  {
    "postal": "L6B0S5",
    "result": [
      {
        "electoralDistricts": [
          {
            "election": null,
            "id": 56,
            "name": "Markham—Stouffville"
          }
        ],
        "pollDivisionIds": [
          10134361
        ],
        "postalCode": "L6B0S5",
        "streetName": "BERNBRIDGE",
        "streetDirectionId": null,
        "streetTypeId": "RD",
        "placeName": "MARKHAM",
        "streetNameDisplayText": "BERNBRIDGE RD, MARKHAM"
      },
      {
        "electoralDistricts": [
          {
            "election": null,
            "id": 56,
            "name": "Markham—Stouffville"
          }
        ],
        "pollDivisionIds": [
          10134361
        ],
        "postalCode": "L6B0S5",
        "streetName": "TURNHOUSE",
        "streetDirectionId": null,
        "streetTypeId": "CRES",
        "placeName": "MARKHAM",
        "streetNameDisplayText": "TURNHOUSE CRES, MARKHAM"
      }
    ]
  },
  {
    "postal": "L6B1A2",
    "result": []
  },
  {
    "postal": "L6B5V8",
    "result": []
  },
  {
    "postal": "L6B8C5",
    "result": []
  },
  {
    "postal": "L6B6N0",
    "result": []
  },
  {
    "postal": "L6B9E6",
    "result": []
  },
  {
    "postal": "L6B5J7",
    "result": []
  },
  {
    "postal": "L6B2R2",
    "result": []
  },
  {
    "postal": "L6B0P5",
    "result": [
      {
        "electoralDistricts": [
          {
            "election": null,
            "id": 56,
            "name": "Markham—Stouffville"
          }
        ],
        "pollDivisionIds": [
          10134351
        ],
        "postalCode": "L6B0P5",
        "streetName": "AUTUMN GLOW",
        "streetDirectionId": null,
        "streetTypeId": "DR",
        "placeName": "MARKHAM",
        "streetNameDisplayText": "AUTUMN GLOW DR, MARKHAM"
      },
      {
        "electoralDistricts": [
          {
            "election": null,
            "id": 56,
            "name": "Markham—Stouffville"
          },
          {
            "election": null,
            "id": 58,
            "name": "Markham—Unionville"
          }
        ],
        "pollDivisionIds": [
          10134351,
          10139664
        ],
        "postalCode": "L6B0P5",
        "streetName": "BALSAM",
        "streetDirectionId": null,
        "streetTypeId": "ST",
        "placeName": "MARKHAM",
        "streetNameDisplayText": "BALSAM ST, MARKHAM"
      },
      {
        "electoralDistricts": [
          {
            "election": null,
            "id": 56,
            "name": "Markham—Stouffville"
          }
        ],
        "pollDivisionIds": [
          10134351
        ],
        "postalCode": "L6B0P5",
        "streetName": "SHADY OAKS",
        "streetDirectionId": null,
        "streetTypeId": "AVE",
        "placeName": "MARKHAM",
        "streetNameDisplayText": "SHADY OAKS AVE, MARKHAM"
      }
    ]
  },
  {
    "postal": "L6B5A7",
    "result": []
  },
  {
    "postal": "L6B1G1",
    "result": [
      {
        "electoralDistricts": [
          {
            "election": null,
            "id": 56,
            "name": "Markham—Stouffville"
          }
        ],
        "pollDivisionIds": [
          10134347
        ],
        "postalCode": "L6B1G1",
        "streetName": "BUR OAK",
        "streetDirectionId": null,
        "streetTypeId": "AVE",
        "placeName": "MARKHAM",
        "streetNameDisplayText": "BUR OAK AVE, MARKHAM"
      },
      {
        "electoralDistricts": [
          {
            "election": null,
            "id": 56,
            "name": "Markham—Stouffville"
          }
        ],
        "pollDivisionIds": [
          10134347
        ],
        "postalCode": "L6B1G1",
        "streetName": "CARDREW",
        "streetDirectionId": null,
        "streetTypeId": "ST",
        "placeName": "MARKHAM",
        "streetNameDisplayText": "CARDREW ST, MARKHAM"
      },
      {
        "electoralDistricts": [
          {
            "election": null,
            "id": 56,
            "name": "Markham—Stouffville"
          }
        ],
        "pollDivisionIds": [
          10134347
        ],
        "postalCode": "L6B1G1",
        "streetName": "ST JAMES",
        "streetDirectionId": null,
        "streetTypeId": "CRT",
        "placeName": "MARKHAM",
        "streetNameDisplayText": "ST JAMES CRT, MARKHAM"
      },
      {
        "electoralDistricts": [
          {
            "election": null,
            "id": 56,
            "name": "Markham—Stouffville"
          }
        ],
        "pollDivisionIds": [
          10134347
        ],
        "postalCode": "L6B1G1",
        "streetName": "ST. JAMES",
        "streetDirectionId": null,
        "streetTypeId": "CRT",
        "placeName": "MARKHAM",
        "streetNameDisplayText": "ST. JAMES CRT, MARKHAM"
      }
    ]
  },
  {
    "postal": "L6B9R6",
    "result": []
  },
  {
    "postal": "L6B4Z9",
    "result": []
  },
  {
    "postal": "L6B1V5",
    "result": []
  },
  {
    "postal": "L6B9Y5",
    "result": []
  },
  {
    "postal": "L6B1P2",
    "result": [
      {
        "electoralDistricts": [
          {
            "election": null,
            "id": 56,
            "name": "Markham—Stouffville"
          }
        ],
        "pollDivisionIds": [
          10134359
        ],
        "postalCode": "L6B1P2",
        "streetName": "ADAM SELLERS",
        "streetDirectionId": null,
        "streetTypeId": "ST",
        "placeName": "MARKHAM",
        "streetNameDisplayText": "ADAM SELLERS ST, MARKHAM"
      }
    ]
  },
  {
    "postal": "L6B5X0",
    "result": []
  },
  {
    "postal": "L6B7B8",
    "result": []
  },
  {
    "postal": "L6B0C6",
    "result": [
      {
        "electoralDistricts": [
          {
            "election": null,
            "id": 56,
            "name": "Markham—Stouffville"
          }
        ],
        "pollDivisionIds": [
          10134361
        ],
        "postalCode": "L6B0C6",
        "streetName": "BOSWELL",
        "streetDirectionId": null,
        "streetTypeId": "RD",
        "placeName": "MARKHAM",
        "streetNameDisplayText": "BOSWELL RD, MARKHAM"
      },
      {
        "electoralDistricts": [
          {
            "election": null,
            "id": 56,
            "name": "Markham—Stouffville"
          }
        ],
        "pollDivisionIds": [
          10134361,
          10134358
        ],
        "postalCode": "L6B0C6",
        "streetName": "FORESTBROOK",
        "streetDirectionId": null,
        "streetTypeId": "DR",
        "placeName": "MARKHAM",
        "streetNameDisplayText": "FORESTBROOK DR, MARKHAM"
      },
      {
        "electoralDistricts": [
          {
            "election": null,
            "id": 56,
            "name": "Markham—Stouffville"
          }
        ],
        "pollDivisionIds": [
          10134361
        ],
        "postalCode": "L6B0C6",
        "streetName": "HISLOP",
        "streetDirectionId": null,
        "streetTypeId": "DR",
        "placeName": "MARKHAM",
        "streetNameDisplayText": "HISLOP DR, MARKHAM"
      }
    ]
  },
  {
    "postal": "L6B6G1",
    "result": []
  },
  {
    "postal": "L6B3K3",
    "result": []
  },
  {
    "postal": "L6B9R0",
    "result": []
  },
  {
    "postal": "L6B4R8",
    "result": []
  },
  {
    "postal": "L6B5P9",
    "result": []
  },
  {
    "postal": "L6B8N4",
    "result": []
  },
  {
    "postal": "L6B8H4",
    "result": []
  },
  {
    "postal": "L6B4V1",
    "result": []
  },
  {
    "postal": "L6B1K5",
    "result": [
      {
        "electoralDistricts": [
          {
            "election": null,
            "id": 56,
            "name": "Markham—Stouffville"
          }
        ],
        "pollDivisionIds": [
          10134351
        ],
        "postalCode": "L6B1K5",
        "streetName": "BUR OAK",
        "streetDirectionId": null,
        "streetTypeId": "AVE",
        "placeName": "MARKHAM",
        "streetNameDisplayText": "BUR OAK AVE, MARKHAM"
      },
      {
        "electoralDistricts": [
          {
            "election": null,
            "id": 56,
            "name": "Markham—Stouffville"
          }
        ],
        "pollDivisionIds": [
          10134351
        ],
        "postalCode": "L6B1K5",
        "streetName": "COLCHESTER",
        "streetDirectionId": null,
        "streetTypeId": "ST",
        "placeName": "MARKHAM",
        "streetNameDisplayText": "COLCHESTER ST, MARKHAM"
      },
      {
        "electoralDistricts": [
          {
            "election": null,
            "id": 56,
            "name": "Markham—Stouffville"
          }
        ],
        "pollDivisionIds": [
          10134351
        ],
        "postalCode": "L6B1K5",
        "streetName": "GAS LAMP",
        "streetDirectionId": null,
        "streetTypeId": "LANE",
        "placeName": "MARKHAM",
        "streetNameDisplayText": "GAS LAMP LANE, MARKHAM"
      },
      {
        "electoralDistricts": [
          {
            "election": null,
            "id": 56,
            "name": "Markham—Stouffville"
          }
        ],
        "pollDivisionIds": [
          10134351
        ],
        "postalCode": "L6B1K5",
        "streetName": "NUTHATCH",
        "streetDirectionId": null,
        "streetTypeId": "LANE",
        "placeName": "MARKHAM",
        "streetNameDisplayText": "NUTHATCH LANE, MARKHAM"
      }
    ]
  },
  {
    "postal": "L6B1Z5",
    "result": []
  },
  {
    "postal": "L6B9L9",
    "result": []
  },
  {
    "postal": "L6B5L2",
    "result": []
  },
  {
    "postal": "L6B0M2",
    "result": [
      {
        "electoralDistricts": [
          {
            "election": null,
            "id": 56,
            "name": "Markham—Stouffville"
          }
        ],
        "pollDivisionIds": [
          10134361
        ],
        "postalCode": "L6B0M2",
        "streetName": "BEWELL",
        "streetDirectionId": null,
        "streetTypeId": "DR",
        "placeName": "MARKHAM",
        "streetNameDisplayText": "BEWELL DR, MARKHAM"
      },
      {
        "electoralDistricts": [
          {
            "election": null,
            "id": 56,
            "name": "Markham—Stouffville"
          }
        ],
        "pollDivisionIds": [
          10134361
        ],
        "postalCode": "L6B0M2",
        "streetName": "FIELDSIDE",
        "streetDirectionId": null,
        "streetTypeId": "ST",
        "placeName": "MARKHAM",
        "streetNameDisplayText": "FIELDSIDE ST, MARKHAM"
      },
      {
        "electoralDistricts": [
          {
            "election": null,
            "id": 56,
            "name": "Markham—Stouffville"
          }
        ],
        "pollDivisionIds": [
          10134361
        ],
        "postalCode": "L6B0M2",
        "streetName": "SANDERS",
        "streetDirectionId": null,
        "streetTypeId": "DR",
        "placeName": "MARKHAM",
        "streetNameDisplayText": "SANDERS DR, MARKHAM"
      },
      {
        "electoralDistricts": [
          {
            "election": null,
            "id": 56,
            "name": "Markham—Stouffville"
          }
        ],
        "pollDivisionIds": [
          10134361
        ],
        "postalCode": "L6B0M2",
        "streetName": "TERRANCE",
        "streetDirectionId": null,
        "streetTypeId": "DR",
        "placeName": "MARKHAM",
        "streetNameDisplayText": "TERRANCE DR, MARKHAM"
      }
    ]
  },
  {
    "postal": "L6B1K8",
    "result": [
      {
        "electoralDistricts": [
          {
            "election": null,
            "id": 56,
            "name": "Markham—Stouffville"
          }
        ],
        "pollDivisionIds": [
          10134351,
          10134347
        ],
        "postalCode": "L6B1K8",
        "streetName": "BUR OAK",
        "streetDirectionId": null,
        "streetTypeId": "AVE",
        "placeName": "MARKHAM",
        "streetNameDisplayText": "BUR OAK AVE, MARKHAM"
      },
      {
        "electoralDistricts": [
          {
            "election": null,
            "id": 56,
            "name": "Markham—Stouffville"
          }
        ],
        "pollDivisionIds": [
          10134347
        ],
        "postalCode": "L6B1K8",
        "streetName": "ROYAL FEATHERS",
        "streetDirectionId": null,
        "streetTypeId": "ST",
        "placeName": "MARKHAM",
        "streetNameDisplayText": "ROYAL FEATHERS ST, MARKHAM"
      }
    ]
  },
  {
    "postal": "L6B3M7",
    "result": []
  },
  {
    "postal": "L6B1B2",
    "result": []
  },
  {
    "postal": "L6B0H9",
    "result": [
      {
        "electoralDistricts": [
          {
            "election": null,
            "id": 56,
            "name": "Markham—Stouffville"
          }
        ],
        "pollDivisionIds": [
          10134358
        ],
        "postalCode": "L6B0H9",
        "streetName": "BLUE MEADOW",
        "streetDirectionId": null,
        "streetTypeId": "CRT",
        "placeName": "MARKHAM",
        "streetNameDisplayText": "BLUE MEADOW CRT, MARKHAM"
      },
      {
        "electoralDistricts": [
          {
            "election": null,
            "id": 56,
            "name": "Markham—Stouffville"
          }
        ],
        "pollDivisionIds": [
          10134358
        ],
        "postalCode": "L6B0H9",
        "streetName": "STONECHURCH",
        "streetDirectionId": null,
        "streetTypeId": "CRES",
        "placeName": "MARKHAM",
        "streetNameDisplayText": "STONECHURCH CRES, MARKHAM"
      }
    ]
  },
  {
    "postal": "L6B8M4",
    "result": []
  },
  {
    "postal": "L6B2M5",
    "result": []
  },
  {
    "postal": "L6B0T9",
    "result": [
      {
        "electoralDistricts": [
          {
            "election": null,
            "id": 56,
            "name": "Markham—Stouffville"
          }
        ],
        "pollDivisionIds": [
          10134347,
          10134351
        ],
        "postalCode": "L6B0T9",
        "streetName": "CORNELL ROUGE",
        "streetDirectionId": null,
        "streetTypeId": "BLVD",
        "placeName": "MARKHAM",
        "streetNameDisplayText": "CORNELL ROUGE BLVD, MARKHAM"
      },
      {
        "electoralDistricts": [
          {
            "election": null,
            "id": 56,
            "name": "Markham—Stouffville"
          }
        ],
        "pollDivisionIds": [
          10134351
        ],
        "postalCode": "L6B0T9",
        "streetName": "HONEY GLEN",
        "streetDirectionId": null,
        "streetTypeId": "AVE",
        "placeName": "MARKHAM",
        "streetNameDisplayText": "HONEY GLEN AVE, MARKHAM"
      },
      {
        "electoralDistricts": [
          {
            "election": null,
            "id": 56,
            "name": "Markham—Stouffville"
          }
        ],
        "pollDivisionIds": [
          10134351
        ],
        "postalCode": "L6B0T9",
        "streetName": "RIVERTREE",
        "streetDirectionId": null,
        "streetTypeId": "ST",
        "placeName": "MARKHAM",
        "streetNameDisplayText": "RIVERTREE ST, MARKHAM"
      }
    ]
  },
  {
    "postal": "L6B3P1",
    "result": []
  },
  {
    "postal": "L6B1R6",
    "result": []
  },
  {
    "postal": "L6B9V5",
    "result": []
  },
  {
    "postal": "L6B9T0",
    "result": []
  },
  {
    "postal": "L6B0A9",
    "result": [
      {
        "electoralDistricts": [
          {
            "election": null,
            "id": 56,
            "name": "Markham—Stouffville"
          }
        ],
        "pollDivisionIds": [
          10134359
        ],
        "postalCode": "L6B0A9",
        "streetName": "FOXTON",
        "streetDirectionId": null,
        "streetTypeId": "RD",
        "placeName": "MARKHAM",
        "streetNameDisplayText": "FOXTON RD, MARKHAM"
      },
      {
        "electoralDistricts": [
          {
            "election": null,
            "id": 56,
            "name": "Markham—Stouffville"
          }
        ],
        "pollDivisionIds": [
          10134359
        ],
        "postalCode": "L6B0A9",
        "streetName": "KENILWORTH",
        "streetDirectionId": null,
        "streetTypeId": "GATE",
        "placeName": "MARKHAM",
        "streetNameDisplayText": "KENILWORTH GATE, MARKHAM"
      },
      {
        "electoralDistricts": [
          {
            "election": null,
            "id": 56,
            "name": "Markham—Stouffville"
          }
        ],
        "pollDivisionIds": [
          10134359
        ],
        "postalCode": "L6B0A9",
        "streetName": "OUTER BANKS",
        "streetDirectionId": null,
        "streetTypeId": "DR",
        "placeName": "MARKHAM",
        "streetNameDisplayText": "OUTER BANKS DR, MARKHAM"
      }
    ]
  },
  {
    "postal": "L6B1M3",
    "result": [
      {
        "electoralDistricts": [
          {
            "election": null,
            "id": 56,
            "name": "Markham—Stouffville"
          }
        ],
        "pollDivisionIds": [
          10134351,
          10134347
        ],
        "postalCode": "L6B1M3",
        "streetName": "MORNING DOVE",
        "streetDirectionId": null,
        "streetTypeId": "DR",
        "placeName": "MARKHAM",
        "streetNameDisplayText": "MORNING DOVE DR, MARKHAM"
      }
    ]
  },
  {
    "postal": "L6B1W8",
    "result": []
  },
  {
    "postal": "L6B9J1",
    "result": []
  },
  {
    "postal": "L6B8N5",
    "result": []
  },
  {
    "postal": "L6B5X1",
    "result": []
  },
  {
    "postal": "L6B6S2",
    "result": []
  },
  {
    "postal": "L6B2A2",
    "result": []
  },
  {
    "postal": "L6B6A6",
    "result": []
  },
  {
    "postal": "L6B0S3",
    "result": [
      {
        "electoralDistricts": [
          {
            "election": null,
            "id": 56,
            "name": "Markham—Stouffville"
          }
        ],
        "pollDivisionIds": [
          10134361
        ],
        "postalCode": "L6B0S3",
        "streetName": "BERNBRIDGE",
        "streetDirectionId": null,
        "streetTypeId": "RD",
        "placeName": "MARKHAM",
        "streetNameDisplayText": "BERNBRIDGE RD, MARKHAM"
      },
      {
        "electoralDistricts": [
          {
            "election": null,
            "id": 56,
            "name": "Markham—Stouffville"
          },
          {
            "election": null,
            "id": 58,
            "name": "Markham—Unionville"
          }
        ],
        "pollDivisionIds": [
          10134361,
          10139667
        ],
        "postalCode": "L6B0S3",
        "streetName": "GOOSEMAN",
        "streetDirectionId": null,
        "streetTypeId": "CRES",
        "placeName": "MARKHAM",
        "streetNameDisplayText": "GOOSEMAN CRES, MARKHAM"
      }
    ]
  },
  {
    "postal": "L6B3E7",
    "result": []
  },
  {
    "postal": "L6B5R7",
    "result": []
  },
  {
    "postal": "L6B3R6",
    "result": []
  },
  {
    "postal": "L6B6K4",
    "result": []
  },
  {
    "postal": "L6B2W5",
    "result": []
  },
  {
    "postal": "L6B8W4",
    "result": []
  },
  {
    "postal": "L6B9C2",
    "result": []
  },
  {
    "postal": "L6B2C0",
    "result": []
  },
  {
    "postal": "L6B0E1",
    "result": [
      {
        "electoralDistricts": [
          {
            "election": null,
            "id": 56,
            "name": "Markham—Stouffville"
          }
        ],
        "pollDivisionIds": [
          10134361
        ],
        "postalCode": "L6B0E1",
        "streetName": "ANDRIANA",
        "streetDirectionId": null,
        "streetTypeId": "CRES",
        "placeName": "MARKHAM",
        "streetNameDisplayText": "ANDRIANA CRES, MARKHAM"
      },
      {
        "electoralDistricts": [
          {
            "election": null,
            "id": 56,
            "name": "Markham—Stouffville"
          }
        ],
        "pollDivisionIds": [
          10134361
        ],
        "postalCode": "L6B0E1",
        "streetName": "ROUND HILL",
        "streetDirectionId": null,
        "streetTypeId": "CRT",
        "placeName": "MARKHAM",
        "streetNameDisplayText": "ROUND HILL CRT, MARKHAM"
      }
    ]
  },
  {
    "postal": "L6B1K9",
    "result": [
      {
        "electoralDistricts": [
          {
            "election": null,
            "id": 56,
            "name": "Markham—Stouffville"
          }
        ],
        "pollDivisionIds": [
          10134347
        ],
        "postalCode": "L6B1K9",
        "streetName": "BUR OAK",
        "streetDirectionId": null,
        "streetTypeId": "AVE",
        "placeName": "MARKHAM",
        "streetNameDisplayText": "BUR OAK AVE, MARKHAM"
      },
      {
        "electoralDistricts": [
          {
            "election": null,
            "id": 56,
            "name": "Markham—Stouffville"
          }
        ],
        "pollDivisionIds": [
          10134347
        ],
        "postalCode": "L6B1K9",
        "streetName": "GAS LAMP",
        "streetDirectionId": null,
        "streetTypeId": "LANE",
        "placeName": "MARKHAM",
        "streetNameDisplayText": "GAS LAMP LANE, MARKHAM"
      },
      {
        "electoralDistricts": [
          {
            "election": null,
            "id": 56,
            "name": "Markham—Stouffville"
          }
        ],
        "pollDivisionIds": [
          10134347
        ],
        "postalCode": "L6B1K9",
        "streetName": "PEONY",
        "streetDirectionId": null,
        "streetTypeId": "ST",
        "placeName": "MARKHAM",
        "streetNameDisplayText": "PEONY ST, MARKHAM"
      },
      {
        "electoralDistricts": [
          {
            "election": null,
            "id": 56,
            "name": "Markham—Stouffville"
          }
        ],
        "pollDivisionIds": [
          10134347
        ],
        "postalCode": "L6B1K9",
        "streetName": "ROYAL FEATHERS",
        "streetDirectionId": null,
        "streetTypeId": "ST",
        "placeName": "MARKHAM",
        "streetNameDisplayText": "ROYAL FEATHERS ST, MARKHAM"
      }
    ]
  },
  {
    "postal": "L6B1G7",
    "result": [
      {
        "electoralDistricts": [
          {
            "election": null,
            "id": 56,
            "name": "Markham—Stouffville"
          }
        ],
        "pollDivisionIds": [
          10134347
        ],
        "postalCode": "L6B1G7",
        "streetName": "NORTHVALE",
        "streetDirectionId": null,
        "streetTypeId": "RD",
        "placeName": "MARKHAM",
        "streetNameDisplayText": "NORTHVALE RD, MARKHAM"
      },
      {
        "electoralDistricts": [
          {
            "election": null,
            "id": 56,
            "name": "Markham—Stouffville"
          }
        ],
        "pollDivisionIds": [
          10134347
        ],
        "postalCode": "L6B1G7",
        "streetName": "YALE",
        "streetDirectionId": null,
        "streetTypeId": "LANE",
        "placeName": "MARKHAM",
        "streetNameDisplayText": "YALE LANE, MARKHAM"
      }
    ]
  },
  {
    "postal": "L6B4E9",
    "result": []
  },
  {
    "postal": "L6B9P0",
    "result": []
  },
  {
    "postal": "L6B5H3",
    "result": []
  },
  {
    "postal": "L6B9X6",
    "result": []
  },
  {
    "postal": "L6B5N7",
    "result": []
  },
  {
    "postal": "L6B5A6",
    "result": []
  },
  {
    "postal": "L6B4M0",
    "result": []
  },
  {
    "postal": "L6B3V6",
    "result": []
  },
  {
    "postal": "L6B1L7",
    "result": [
      {
        "electoralDistricts": [
          {
            "election": null,
            "id": 56,
            "name": "Markham—Stouffville"
          }
        ],
        "pollDivisionIds": [
          10134351
        ],
        "postalCode": "L6B1L7",
        "streetName": "BITTERSWEET",
        "streetDirectionId": null,
        "streetTypeId": "ST",
        "placeName": "MARKHAM",
        "streetNameDisplayText": "BITTERSWEET ST, MARKHAM"
      },
      {
        "electoralDistricts": [
          {
            "election": null,
            "id": 56,
            "name": "Markham—Stouffville"
          }
        ],
        "pollDivisionIds": [
          10134351
        ],
        "postalCode": "L6B1L7",
        "streetName": "BLACK CREEK",
        "streetDirectionId": null,
        "streetTypeId": "DR",
        "placeName": "MARKHAM",
        "streetNameDisplayText": "BLACK CREEK DR, MARKHAM"
      },
      {
        "electoralDistricts": [
          {
            "election": null,
            "id": 56,
            "name": "Markham—Stouffville"
          }
        ],
        "pollDivisionIds": [
          10134351
        ],
        "postalCode": "L6B1L7",
        "streetName": "GAS LAMP",
        "streetDirectionId": null,
        "streetTypeId": "LANE",
        "placeName": "MARKHAM",
        "streetNameDisplayText": "GAS LAMP LANE, MARKHAM"
      },
      {
        "electoralDistricts": [
          {
            "election": null,
            "id": 56,
            "name": "Markham—Stouffville"
          }
        ],
        "pollDivisionIds": [
          10134351
        ],
        "postalCode": "L6B1L7",
        "streetName": "ROCKING HORSE",
        "streetDirectionId": null,
        "streetTypeId": "ST",
        "placeName": "MARKHAM",
        "streetNameDisplayText": "ROCKING HORSE ST, MARKHAM"
      }
    ]
  },
  {
    "postal": "L6B2P9",
    "result": []
  },
  {
    "postal": "L6B5T4",
    "result": []
  },
  {
    "postal": "L6B5Z1",
    "result": []
  },
  {
    "postal": "L6B2X0",
    "result": []
  },
  {
    "postal": "L6B6Z2",
    "result": []
  },
  {
    "postal": "L6B0E0",
    "result": []
  },
  {
    "postal": "L6B3Z5",
    "result": []
  },
  {
    "postal": "L6B8H3",
    "result": []
  },
  {
    "postal": "L6B7S6",
    "result": []
  },
  {
    "postal": "L6B4C1",
    "result": []
  },
  {
    "postal": "L6B3K2",
    "result": []
  },
  {
    "postal": "L6B1Y5",
    "result": []
  },
  {
    "postal": "L6B6P6",
    "result": []
  },
  {
    "postal": "L6B3N9",
    "result": []
  },
  {
    "postal": "L6B3W2",
    "result": []
  },
  {
    "postal": "L6B6H8",
    "result": []
  },
  {
    "postal": "L6B9T3",
    "result": []
  },
  {
    "postal": "L6B5L9",
    "result": []
  },
  {
    "postal": "L6B7X7",
    "result": []
  },
  {
    "postal": "L6B3J5",
    "result": []
  },
  {
    "postal": "L6B4J5",
    "result": []
  },
  {
    "postal": "L6B6J2",
    "result": []
  },
  {
    "postal": "L6B5V6",
    "result": []
  },
  {
    "postal": "L6B3N2",
    "result": []
  },
  {
    "postal": "L6B3B1",
    "result": []
  },
  {
    "postal": "L6B8B5",
    "result": []
  },
  {
    "postal": "L6B0K1",
    "result": [
      {
        "electoralDistricts": [
          {
            "election": null,
            "id": 56,
            "name": "Markham—Stouffville"
          }
        ],
        "pollDivisionIds": [
          10134351
        ],
        "postalCode": "L6B0K1",
        "streetName": "CORNELL ROUGE",
        "streetDirectionId": null,
        "streetTypeId": "BLVD",
        "placeName": "MARKHAM",
        "streetNameDisplayText": "CORNELL ROUGE BLVD, MARKHAM"
      },
      {
        "electoralDistricts": [
          {
            "election": null,
            "id": 56,
            "name": "Markham—Stouffville"
          }
        ],
        "pollDivisionIds": [
          10134351
        ],
        "postalCode": "L6B0K1",
        "streetName": "HOSTA",
        "streetDirectionId": null,
        "streetTypeId": "AVE",
        "placeName": "MARKHAM",
        "streetNameDisplayText": "HOSTA AVE, MARKHAM"
      },
      {
        "electoralDistricts": [
          {
            "election": null,
            "id": 56,
            "name": "Markham—Stouffville"
          }
        ],
        "pollDivisionIds": [
          10134351
        ],
        "postalCode": "L6B0K1",
        "streetName": "WHITE'S HILL",
        "streetDirectionId": null,
        "streetTypeId": "AVE",
        "placeName": "MARKHAM",
        "streetNameDisplayText": "WHITE'S HILL AVE, MARKHAM"
      }
    ]
  },
  {
    "postal": "L6B7M7",
    "result": []
  },
  {
    "postal": "L6B2M2",
    "result": []
  },
  {
    "postal": "L6B9N3",
    "result": []
  },
  {
    "postal": "L6B4Y8",
    "result": []
  },
  {
    "postal": "L6B3V7",
    "result": []
  },
  {
    "postal": "L6B8Z1",
    "result": []
  },
  {
    "postal": "L6B7B3",
    "result": []
  },
  {
    "postal": "L6B3A8",
    "result": []
  },
  {
    "postal": "L6B7V5",
    "result": []
  },
  {
    "postal": "L6B2T2",
    "result": []
  },
  {
    "postal": "L6B6L3",
    "result": []
  },
  {
    "postal": "L6B0L2",
    "result": [
      {
        "electoralDistricts": [
          {
            "election": null,
            "id": 56,
            "name": "Markham—Stouffville"
          }
        ],
        "pollDivisionIds": [
          10134358
        ],
        "postalCode": "L6B0L2",
        "streetName": "STONECHURCH",
        "streetDirectionId": null,
        "streetTypeId": "CRES",
        "placeName": "MARKHAM",
        "streetNameDisplayText": "STONECHURCH CRES, MARKHAM"
      }
    ]
  },
  {
    "postal": "L6B5Y8",
    "result": []
  },
  {
    "postal": "L6B0B8",
    "result": [
      {
        "electoralDistricts": [
          {
            "election": null,
            "id": 56,
            "name": "Markham—Stouffville"
          }
        ],
        "pollDivisionIds": [
          10134361
        ],
        "postalCode": "L6B0B8",
        "streetName": "CAPRARA",
        "streetDirectionId": null,
        "streetTypeId": "CRES",
        "placeName": "MARKHAM",
        "streetNameDisplayText": "CAPRARA CRES, MARKHAM"
      },
      {
        "electoralDistricts": [
          {
            "election": null,
            "id": 56,
            "name": "Markham—Stouffville"
          }
        ],
        "pollDivisionIds": [
          10134361
        ],
        "postalCode": "L6B0B8",
        "streetName": "NEVIS",
        "streetDirectionId": null,
        "streetTypeId": "DR",
        "placeName": "MARKHAM",
        "streetNameDisplayText": "NEVIS DR, MARKHAM"
      },
      {
        "electoralDistricts": [
          {
            "election": null,
            "id": 56,
            "name": "Markham—Stouffville"
          }
        ],
        "pollDivisionIds": [
          10134361
        ],
        "postalCode": "L6B0B8",
        "streetName": "RIVERWALK",
        "streetDirectionId": null,
        "streetTypeId": "DR",
        "placeName": "MARKHAM",
        "streetNameDisplayText": "RIVERWALK DR, MARKHAM"
      }
    ]
  },
  {
    "postal": "L6B6R5",
    "result": []
  },
  {
    "postal": "L6B8W6",
    "result": []
  },
  {
    "postal": "L6B8G6",
    "result": []
  },
  {
    "postal": "L6B6X3",
    "result": []
  },
  {
    "postal": "L6B7R7",
    "result": []
  },
  {
    "postal": "L6B4B6",
    "result": []
  },
  {
    "postal": "L6B3P9",
    "result": []
  },
  {
    "postal": "L6B2T3",
    "result": []
  },
  {
    "postal": "L6B1M4",
    "result": [
      {
        "electoralDistricts": [
          {
            "election": null,
            "id": 56,
            "name": "Markham—Stouffville"
          }
        ],
        "pollDivisionIds": [
          10134351
        ],
        "postalCode": "L6B1M4",
        "streetName": "DONALD COUSENS",
        "streetDirectionId": null,
        "streetTypeId": "PKY",
        "placeName": "MARKHAM",
        "streetNameDisplayText": "DONALD COUSENS PKY, MARKHAM"
      },
      {
        "electoralDistricts": [
          {
            "election": null,
            "id": 56,
            "name": "Markham—Stouffville"
          }
        ],
        "pollDivisionIds": [
          10134351
        ],
        "postalCode": "L6B1M4",
        "streetName": "PEARL LAKE",
        "streetDirectionId": null,
        "streetTypeId": "RD",
        "placeName": "MARKHAM",
        "streetNameDisplayText": "PEARL LAKE RD, MARKHAM"
      },
      {
        "electoralDistricts": [
          {
            "election": null,
            "id": 56,
            "name": "Markham—Stouffville"
          }
        ],
        "pollDivisionIds": [
          10134351
        ],
        "postalCode": "L6B1M4",
        "streetName": "WINDYTON",
        "streetDirectionId": null,
        "streetTypeId": "AVE",
        "placeName": "MARKHAM",
        "streetNameDisplayText": "WINDYTON AVE, MARKHAM"
      }
    ]
  },
  {
    "postal": "L6B0H1",
    "result": [
      {
        "electoralDistricts": [
          {
            "election": null,
            "id": 56,
            "name": "Markham—Stouffville"
          }
        ],
        "pollDivisionIds": [
          10134358
        ],
        "postalCode": "L6B0H1",
        "streetName": "ALBERT ROFFEY",
        "streetDirectionId": null,
        "streetTypeId": "CRES",
        "placeName": "MARKHAM",
        "streetNameDisplayText": "ALBERT ROFFEY CRES, MARKHAM"
      },
      {
        "electoralDistricts": [
          {
            "election": null,
            "id": 56,
            "name": "Markham—Stouffville"
          }
        ],
        "pollDivisionIds": [
          10134358,
          10134361
        ],
        "postalCode": "L6B0H1",
        "streetName": "RIVERWALK",
        "streetDirectionId": null,
        "streetTypeId": "DR",
        "placeName": "MARKHAM",
        "streetNameDisplayText": "RIVERWALK DR, MARKHAM"
      }
    ]
  },
  {
    "postal": "L6B9W3",
    "result": []
  },
  {
    "postal": "L6B6P1",
    "result": []
  },
  {
    "postal": "L6B7G2",
    "result": []
  },
  {
    "postal": "L6B4J9",
    "result": []
  },
  {
    "postal": "L6B9E4",
    "result": []
  },
  {
    "postal": "L6B8H0",
    "result": []
  },
  {
    "postal": "L6B4M7",
    "result": []
  },
  {
    "postal": "L6B2G9",
    "result": []
  },
  {
    "postal": "L6B8T2",
    "result": []
  },
  {
    "postal": "L6B7G7",
    "result": []
  },
  {
    "postal": "L6B4Z3",
    "result": []
  },
  {
    "postal": "L6B5B3",
    "result": []
  },
  {
    "postal": "L6B1S7",
    "result": []
  },
  {
    "postal": "L6B2N7",
    "result": []
  },
  {
    "postal": "L6B0H8",
    "result": [
      {
        "electoralDistricts": [
          {
            "election": null,
            "id": 56,
            "name": "Markham—Stouffville"
          }
        ],
        "pollDivisionIds": [
          10134347
        ],
        "postalCode": "L6B0H8",
        "streetName": "CLAYSON",
        "streetDirectionId": null,
        "streetTypeId": "ST",
        "placeName": "MARKHAM",
        "streetNameDisplayText": "CLAYSON ST, MARKHAM"
      },
      {
        "electoralDistricts": [
          {
            "election": null,
            "id": 56,
            "name": "Markham—Stouffville"
          }
        ],
        "pollDivisionIds": [
          10134347
        ],
        "postalCode": "L6B0H8",
        "streetName": "COUNTRY GLEN",
        "streetDirectionId": null,
        "streetTypeId": "RD",
        "placeName": "MARKHAM",
        "streetNameDisplayText": "COUNTRY GLEN RD, MARKHAM"
      },
      {
        "electoralDistricts": [
          {
            "election": null,
            "id": 56,
            "name": "Markham—Stouffville"
          }
        ],
        "pollDivisionIds": [
          10134347
        ],
        "postalCode": "L6B0H8",
        "streetName": "GAS LAMP",
        "streetDirectionId": null,
        "streetTypeId": "LANE",
        "placeName": "MARKHAM",
        "streetNameDisplayText": "GAS LAMP LANE, MARKHAM"
      }
    ]
  },
  {
    "postal": "L6B7Z4",
    "result": []
  },
  {
    "postal": "L6B7B1",
    "result": []
  },
  {
    "postal": "L6B7P8",
    "result": []
  },
  {
    "postal": "L6B7N0",
    "result": []
  },
  {
    "postal": "L6B3Y5",
    "result": []
  },
  {
    "postal": "L6B6K1",
    "result": []
  },
  {
    "postal": "L6B9X5",
    "result": []
  },
  {
    "postal": "L6B7S5",
    "result": []
  },
  {
    "postal": "L6B0A4",
    "result": [
      {
        "electoralDistricts": [
          {
            "election": null,
            "id": 56,
            "name": "Markham—Stouffville"
          }
        ],
        "pollDivisionIds": [
          10134359
        ],
        "postalCode": "L6B0A4",
        "streetName": "DALTON GARDENS",
        "streetDirectionId": null,
        "streetTypeId": "LANE",
        "placeName": "MARKHAM",
        "streetNameDisplayText": "DALTON GARDENS LANE, MARKHAM"
      },
      {
        "electoralDistricts": [
          {
            "election": null,
            "id": 56,
            "name": "Markham—Stouffville"
          }
        ],
        "pollDivisionIds": [
          10134359
        ],
        "postalCode": "L6B0A4",
        "streetName": "KENILWORTH",
        "streetDirectionId": null,
        "streetTypeId": "GATE",
        "placeName": "MARKHAM",
        "streetNameDisplayText": "KENILWORTH GATE, MARKHAM"
      },
      {
        "electoralDistricts": [
          {
            "election": null,
            "id": 56,
            "name": "Markham—Stouffville"
          }
        ],
        "pollDivisionIds": [
          10134359
        ],
        "postalCode": "L6B0A4",
        "streetName": "KNIGHTS",
        "streetDirectionId": null,
        "streetTypeId": "CRNRS",
        "placeName": "MARKHAM",
        "streetNameDisplayText": "KNIGHTS CRNRS, MARKHAM"
      }
    ]
  },
  {
    "postal": "L6B4T5",
    "result": []
  },
  {
    "postal": "L6B5K1",
    "result": []
  },
  {
    "postal": "L6B0Z9",
    "result": []
  },
  {
    "postal": "L6B7T2",
    "result": []
  },
  {
    "postal": "L6B1L5",
    "result": [
      {
        "electoralDistricts": [
          {
            "election": null,
            "id": 56,
            "name": "Markham—Stouffville"
          }
        ],
        "pollDivisionIds": [
          10134351
        ],
        "postalCode": "L6B1L5",
        "streetName": "WHITE'S HILL",
        "streetDirectionId": null,
        "streetTypeId": "AVE",
        "placeName": "MARKHAM",
        "streetNameDisplayText": "WHITE'S HILL AVE, MARKHAM"
      }
    ]
  },
  {
    "postal": "L6B3N5",
    "result": []
  },
  {
    "postal": "L6B6H4",
    "result": []
  },
  {
    "postal": "L6B5A5",
    "result": []
  },
  {
    "postal": "L6B3R9",
    "result": []
  },
  {
    "postal": "L6B7L8",
    "result": []
  },
  {
    "postal": "L6B6T6",
    "result": []
  },
  {
    "postal": "L6B7Y7",
    "result": []
  },
  {
    "postal": "L6B3M8",
    "result": []
  },
  {
    "postal": "L6B2E0",
    "result": []
  },
  {
    "postal": "L6B4B5",
    "result": []
  },
  {
    "postal": "L6B1J3",
    "result": [
      {
        "electoralDistricts": [
          {
            "election": null,
            "id": 56,
            "name": "Markham—Stouffville"
          }
        ],
        "pollDivisionIds": [
          10134347
        ],
        "postalCode": "L6B1J3",
        "streetName": "BUR OAK",
        "streetDirectionId": null,
        "streetTypeId": "AVE",
        "placeName": "MARKHAM",
        "streetNameDisplayText": "BUR OAK AVE, MARKHAM"
      },
      {
        "electoralDistricts": [
          {
            "election": null,
            "id": 56,
            "name": "Markham—Stouffville"
          },
          {
            "election": null,
            "id": 58,
            "name": "Markham—Unionville"
          }
        ],
        "pollDivisionIds": [
          10134347,
          10139669,
          10134337
        ],
        "postalCode": "L6B1J3",
        "streetName": "NORTHVALE",
        "streetDirectionId": null,
        "streetTypeId": "RD",
        "placeName": "MARKHAM",
        "streetNameDisplayText": "NORTHVALE RD, MARKHAM"
      }
    ]
  },
  {
    "postal": "L6B5S6",
    "result": []
  },
  {
    "postal": "L6B8P7",
    "result": []
  },
  {
    "postal": "L6B7S7",
    "result": []
  },
  {
    "postal": "L6B4C2",
    "result": []
  },
  {
    "postal": "L6B5Y0",
    "result": []
  },
  {
    "postal": "L6B2V7",
    "result": []
  },
  {
    "postal": "L6B8P5",
    "result": []
  },
  {
    "postal": "L6B5P5",
    "result": []
  },
  {
    "postal": "L6B5Z0",
    "result": []
  },
  {
    "postal": "L6B9B0",
    "result": []
  },
  {
    "postal": "L6B1L0",
    "result": []
  },
  {
    "postal": "L6B0B5",
    "result": [
      {
        "electoralDistricts": [
          {
            "election": null,
            "id": 56,
            "name": "Markham—Stouffville"
          }
        ],
        "pollDivisionIds": [
          10134361
        ],
        "postalCode": "L6B0B5",
        "streetName": "REGINALD LAMB",
        "streetDirectionId": null,
        "streetTypeId": "CRES",
        "placeName": "MARKHAM",
        "streetNameDisplayText": "REGINALD LAMB CRES, MARKHAM"
      }
    ]
  },
  {
    "postal": "L6B3L2",
    "result": []
  },
  {
    "postal": "L6B3B7",
    "result": []
  },
  {
    "postal": "L6B8L1",
    "result": []
  },
  {
    "postal": "L6B5M4",
    "result": []
  },
  {
    "postal": "L6B4G9",
    "result": []
  },
  {
    "postal": "L6B0P0",
    "result": []
  },
  {
    "postal": "L6B8G2",
    "result": []
  },
  {
    "postal": "L6B1V9",
    "result": []
  },
  {
    "postal": "L6B8N8",
    "result": []
  },
  {
    "postal": "L6B6S8",
    "result": []
  },
  {
    "postal": "L6B8H2",
    "result": []
  },
  {
    "postal": "L6B5R8",
    "result": []
  },
  {
    "postal": "L6B5L4",
    "result": []
  },
  {
    "postal": "L6B9E1",
    "result": []
  },
  {
    "postal": "L6B1C4",
    "result": [
      {
        "electoralDistricts": [
          {
            "election": null,
            "id": 56,
            "name": "Markham—Stouffville"
          }
        ],
        "pollDivisionIds": [
          10134351
        ],
        "postalCode": "L6B1C4",
        "streetName": "PASCOE",
        "streetDirectionId": null,
        "streetTypeId": "DR",
        "placeName": "MARKHAM",
        "streetNameDisplayText": "PASCOE DR, MARKHAM"
      },
      {
        "electoralDistricts": [
          {
            "election": null,
            "id": 56,
            "name": "Markham—Stouffville"
          }
        ],
        "pollDivisionIds": [
          10134351
        ],
        "postalCode": "L6B1C4",
        "streetName": "WINKLER'S",
        "streetDirectionId": null,
        "streetTypeId": "LANE",
        "placeName": "MARKHAM",
        "streetNameDisplayText": "WINKLER'S LANE, MARKHAM"
      }
    ]
  },
  {
    "postal": "L6B8W5",
    "result": []
  },
  {
    "postal": "L6B1Y4",
    "result": []
  },
  {
    "postal": "L6B1C0",
    "result": []
  },
  {
    "postal": "L6B2J2",
    "result": []
  },
  {
    "postal": "L6B2J0",
    "result": []
  },
  {
    "postal": "L6B7A3",
    "result": []
  },
  {
    "postal": "L6B8M1",
    "result": []
  },
  {
    "postal": "L6B7T9",
    "result": []
  },
  {
    "postal": "L6B6C0",
    "result": []
  },
  {
    "postal": "L6B7X1",
    "result": []
  },
  {
    "postal": "L6B0G1",
    "result": [
      {
        "electoralDistricts": [
          {
            "election": null,
            "id": 56,
            "name": "Markham—Stouffville"
          }
        ],
        "pollDivisionIds": [
          10134361
        ],
        "postalCode": "L6B0G1",
        "streetName": "BOSWELL",
        "streetDirectionId": null,
        "streetTypeId": "RD",
        "placeName": "MARKHAM",
        "streetNameDisplayText": "BOSWELL RD, MARKHAM"
      },
      {
        "electoralDistricts": [
          {
            "election": null,
            "id": 56,
            "name": "Markham—Stouffville"
          }
        ],
        "pollDivisionIds": [
          10134358
        ],
        "postalCode": "L6B0G1",
        "streetName": "FORESTBROOK",
        "streetDirectionId": null,
        "streetTypeId": "DR",
        "placeName": "MARKHAM",
        "streetNameDisplayText": "FORESTBROOK DR, MARKHAM"
      },
      {
        "electoralDistricts": [
          {
            "election": null,
            "id": 56,
            "name": "Markham—Stouffville"
          }
        ],
        "pollDivisionIds": [
          10134361
        ],
        "postalCode": "L6B0G1",
        "streetName": "LUNDY",
        "streetDirectionId": null,
        "streetTypeId": "DR",
        "placeName": "MARKHAM",
        "streetNameDisplayText": "LUNDY DR, MARKHAM"
      }
    ]
  },
  {
    "postal": "L6B4X2",
    "result": []
  },
  {
    "postal": "L6B0N6",
    "result": [
      {
        "electoralDistricts": [
          {
            "election": null,
            "id": 56,
            "name": "Markham—Stouffville"
          }
        ],
        "pollDivisionIds": [
          10134359
        ],
        "postalCode": "L6B0N6",
        "streetName": "SILVERDALE",
        "streetDirectionId": null,
        "streetTypeId": "RD",
        "placeName": "MARKHAM",
        "streetNameDisplayText": "SILVERDALE RD, MARKHAM"
      }
    ]
  },
  {
    "postal": "L6B8E3",
    "result": []
  },
  {
    "postal": "L6B5S8",
    "result": []
  },
  {
    "postal": "L6B0R0",
    "result": []
  },
  {
    "postal": "L6B6J6",
    "result": []
  },
  {
    "postal": "L6B4B4",
    "result": []
  },
  {
    "postal": "L6B7E3",
    "result": []
  },
  {
    "postal": "L6B3N6",
    "result": []
  },
  {
    "postal": "L6B3X6",
    "result": []
  },
  {
    "postal": "L6B8L0",
    "result": []
  },
  {
    "postal": "L6B8N1",
    "result": []
  },
  {
    "postal": "L6B4J0",
    "result": []
  },
  {
    "postal": "L6B0X7",
    "result": []
  },
  {
    "postal": "L6B6S4",
    "result": []
  },
  {
    "postal": "L6B0Z0",
    "result": []
  },
  {
    "postal": "L6B9X8",
    "result": []
  },
  {
    "postal": "L6B3H3",
    "result": []
  },
  {
    "postal": "L6B7S2",
    "result": []
  },
  {
    "postal": "L6B3T3",
    "result": []
  },
  {
    "postal": "L6B9P3",
    "result": []
  },
  {
    "postal": "L6B4H8",
    "result": []
  },
  {
    "postal": "L6B6R1",
    "result": []
  },
  {
    "postal": "L6B1S0",
    "result": []
  },
  {
    "postal": "L6B3W8",
    "result": []
  },
  {
    "postal": "L6B4S3",
    "result": []
  },
  {
    "postal": "L6B1B6",
    "result": [
      {
        "electoralDistricts": [
          {
            "election": null,
            "id": 56,
            "name": "Markham—Stouffville"
          }
        ],
        "pollDivisionIds": [
          10134359,
          10134346
        ],
        "postalCode": "L6B1B6",
        "streetName": "BUR OAK",
        "streetDirectionId": null,
        "streetTypeId": "AVE",
        "placeName": "MARKHAM",
        "streetNameDisplayText": "BUR OAK AVE, MARKHAM"
      },
      {
        "electoralDistricts": [
          {
            "election": null,
            "id": 56,
            "name": "Markham—Stouffville"
          }
        ],
        "pollDivisionIds": [
          10134351
        ],
        "postalCode": "L6B1B6",
        "streetName": "CHRISTIAN REESOR PARK",
        "streetDirectionId": null,
        "streetTypeId": "AVE",
        "placeName": "MARKHAM",
        "streetNameDisplayText": "CHRISTIAN REESOR PARK AVE, MARKHAM"
      },
      {
        "electoralDistricts": [
          {
            "election": null,
            "id": 56,
            "name": "Markham—Stouffville"
          }
        ],
        "pollDivisionIds": [
          10134351
        ],
        "postalCode": "L6B1B6",
        "streetName": "CORNELL MEADOWS",
        "streetDirectionId": null,
        "streetTypeId": "AVE",
        "placeName": "MARKHAM",
        "streetNameDisplayText": "CORNELL MEADOWS AVE, MARKHAM"
      },
      {
        "electoralDistricts": [
          {
            "election": null,
            "id": 56,
            "name": "Markham—Stouffville"
          }
        ],
        "pollDivisionIds": [
          10134359,
          10134351
        ],
        "postalCode": "L6B1B6",
        "streetName": "CORNELL PARK",
        "streetDirectionId": null,
        "streetTypeId": "AVE",
        "placeName": "MARKHAM",
        "streetNameDisplayText": "CORNELL PARK AVE, MARKHAM"
      },
      {
        "electoralDistricts": [
          {
            "election": null,
            "id": 56,
            "name": "Markham—Stouffville"
          }
        ],
        "pollDivisionIds": [
          10134351,
          10134359
        ],
        "postalCode": "L6B1B6",
        "streetName": "COUNTRY GLEN",
        "streetDirectionId": null,
        "streetTypeId": "RD",
        "placeName": "MARKHAM",
        "streetNameDisplayText": "COUNTRY GLEN RD, MARKHAM"
      },
      {
        "electoralDistricts": [
          {
            "election": null,
            "id": 56,
            "name": "Markham—Stouffville"
          }
        ],
        "pollDivisionIds": [
          10134351
        ],
        "postalCode": "L6B1B6",
        "streetName": "DONALD SIM",
        "streetDirectionId": null,
        "streetTypeId": "AVE",
        "placeName": "MARKHAM",
        "streetNameDisplayText": "DONALD SIM AVE, MARKHAM"
      },
      {
        "electoralDistricts": [
          {
            "election": null,
            "id": 56,
            "name": "Markham—Stouffville"
          }
        ],
        "pollDivisionIds": [
          10134355
        ],
        "postalCode": "L6B1B6",
        "streetName": "PARKWAY",
        "streetDirectionId": null,
        "streetTypeId": "AVE",
        "placeName": "MARKHAM",
        "streetNameDisplayText": "PARKWAY AVE, MARKHAM"
      },
      {
        "electoralDistricts": [
          {
            "election": null,
            "id": 56,
            "name": "Markham—Stouffville"
          }
        ],
        "pollDivisionIds": [
          10134359
        ],
        "postalCode": "L6B1B6",
        "streetName": "RIVERLANDS",
        "streetDirectionId": null,
        "streetTypeId": "AVE",
        "placeName": "MARKHAM",
        "streetNameDisplayText": "RIVERLANDS AVE, MARKHAM"
      },
      {
        "electoralDistricts": [
          {
            "election": null,
            "id": 56,
            "name": "Markham—Stouffville"
          }
        ],
        "pollDivisionIds": [
          10134359
        ],
        "postalCode": "L6B1B6",
        "streetName": "SETTLEMENT PARK",
        "streetDirectionId": null,
        "streetTypeId": "AVE",
        "placeName": "MARKHAM",
        "streetNameDisplayText": "SETTLEMENT PARK AVE, MARKHAM"
      },
      {
        "electoralDistricts": [
          {
            "election": null,
            "id": 56,
            "name": "Markham—Stouffville"
          }
        ],
        "pollDivisionIds": [
          10134359
        ],
        "postalCode": "L6B1B6",
        "streetName": "SPRING MEADOW",
        "streetDirectionId": null,
        "streetTypeId": "AVE",
        "placeName": "MARKHAM",
        "streetNameDisplayText": "SPRING MEADOW AVE, MARKHAM"
      },
      {
        "electoralDistricts": [
          {
            "election": null,
            "id": 56,
            "name": "Markham—Stouffville"
          }
        ],
        "pollDivisionIds": [
          10134359
        ],
        "postalCode": "L6B1B6",
        "streetName": "THE MEADOWS",
        "streetDirectionId": null,
        "streetTypeId": "AVE",
        "placeName": "MARKHAM",
        "streetNameDisplayText": "THE MEADOWS AVE, MARKHAM"
      },
      {
        "electoralDistricts": [
          {
            "election": null,
            "id": 56,
            "name": "Markham—Stouffville"
          }
        ],
        "pollDivisionIds": [
          10134359,
          10134351
        ],
        "postalCode": "L6B1B6",
        "streetName": "WALKERVILLE",
        "streetDirectionId": null,
        "streetTypeId": "RD",
        "placeName": "MARKHAM",
        "streetNameDisplayText": "WALKERVILLE RD, MARKHAM"
      }
    ]
  },
  {
    "postal": "L6B8R3",
    "result": []
  },
  {
    "postal": "L6B4V9",
    "result": []
  },
  {
    "postal": "L6B9W4",
    "result": []
  },
  {
    "postal": "L6B3T4",
    "result": []
  },
  {
    "postal": "L6B5C7",
    "result": []
  },
  {
    "postal": "L6B3Y1",
    "result": []
  },
  {
    "postal": "L6B5V0",
    "result": []
  },
  {
    "postal": "L6B8G8",
    "result": []
  },
  {
    "postal": "L6B8B1",
    "result": []
  },
  {
    "postal": "L6B4P5",
    "result": []
  },
  {
    "postal": "L6B7B2",
    "result": []
  },
  {
    "postal": "L6B0R2",
    "result": [
      {
        "electoralDistricts": [
          {
            "election": null,
            "id": 56,
            "name": "Markham—Stouffville"
          }
        ],
        "pollDivisionIds": [
          10134351
        ],
        "postalCode": "L6B0R2",
        "streetName": "BITTERSWEET",
        "streetDirectionId": null,
        "streetTypeId": "ST",
        "placeName": "MARKHAM",
        "streetNameDisplayText": "BITTERSWEET ST, MARKHAM"
      },
      {
        "electoralDistricts": [
          {
            "election": null,
            "id": 56,
            "name": "Markham—Stouffville"
          }
        ],
        "pollDivisionIds": [
          10134351
        ],
        "postalCode": "L6B0R2",
        "streetName": "MURRAY WILSON",
        "streetDirectionId": null,
        "streetTypeId": "DR",
        "placeName": "MARKHAM",
        "streetNameDisplayText": "MURRAY WILSON DR, MARKHAM"
      },
      {
        "electoralDistricts": [
          {
            "election": null,
            "id": 56,
            "name": "Markham—Stouffville"
          }
        ],
        "pollDivisionIds": [
          10134351
        ],
        "postalCode": "L6B0R2",
        "streetName": "STOCKPORT",
        "streetDirectionId": null,
        "streetTypeId": "RD",
        "placeName": "MARKHAM",
        "streetNameDisplayText": "STOCKPORT RD, MARKHAM"
      }
    ]
  },
  {
    "postal": "L6B4M4",
    "result": []
  },
  {
    "postal": "L6B7M4",
    "result": []
  },
  {
    "postal": "L6B9S7",
    "result": []
  },
  {
    "postal": "L6B5Z7",
    "result": []
  },
  {
    "postal": "L6B7J7",
    "result": []
  },
  {
    "postal": "L6B8R8",
    "result": []
  },
  {
    "postal": "L6B9X1",
    "result": []
  },
  {
    "postal": "L6B5M9",
    "result": []
  },
  {
    "postal": "L6B9B4",
    "result": []
  },
  {
    "postal": "L6B0L9",
    "result": [
      {
        "electoralDistricts": [
          {
            "election": null,
            "id": 56,
            "name": "Markham—Stouffville"
          }
        ],
        "pollDivisionIds": [
          10134361
        ],
        "postalCode": "L6B0L9",
        "streetName": "BERGER",
        "streetDirectionId": null,
        "streetTypeId": "AVE",
        "placeName": "MARKHAM",
        "streetNameDisplayText": "BERGER AVE, MARKHAM"
      },
      {
        "electoralDistricts": [
          {
            "election": null,
            "id": 56,
            "name": "Markham—Stouffville"
          }
        ],
        "pollDivisionIds": [
          10134361
        ],
        "postalCode": "L6B0L9",
        "streetName": "DUCKETT",
        "streetDirectionId": null,
        "streetTypeId": "AVE",
        "placeName": "MARKHAM",
        "streetNameDisplayText": "DUCKETT AVE, MARKHAM"
      },
      {
        "electoralDistricts": [
          {
            "election": null,
            "id": 56,
            "name": "Markham—Stouffville"
          }
        ],
        "pollDivisionIds": [
          10134361
        ],
        "postalCode": "L6B0L9",
        "streetName": "RIVERWALK",
        "streetDirectionId": null,
        "streetTypeId": "DR",
        "placeName": "MARKHAM",
        "streetNameDisplayText": "RIVERWALK DR, MARKHAM"
      }
    ]
  },
  {
    "postal": "L6B9G4",
    "result": []
  },
  {
    "postal": "L6B1J4",
    "result": [
      {
        "electoralDistricts": [
          {
            "election": null,
            "id": 56,
            "name": "Markham—Stouffville"
          }
        ],
        "pollDivisionIds": [
          10134347
        ],
        "postalCode": "L6B1J4",
        "streetName": "BUR OAK",
        "streetDirectionId": null,
        "streetTypeId": "AVE",
        "placeName": "MARKHAM",
        "streetNameDisplayText": "BUR OAK AVE, MARKHAM"
      },
      {
        "electoralDistricts": [
          {
            "election": null,
            "id": 56,
            "name": "Markham—Stouffville"
          }
        ],
        "pollDivisionIds": [
          10134347
        ],
        "postalCode": "L6B1J4",
        "streetName": "SADDLEBROOK",
        "streetDirectionId": null,
        "streetTypeId": "DR",
        "placeName": "MARKHAM",
        "streetNameDisplayText": "SADDLEBROOK DR, MARKHAM"
      }
    ]
  },
  {
    "postal": "L6B0W6",
    "result": [
      {
        "electoralDistricts": [
          {
            "election": null,
            "id": 56,
            "name": "Markham—Stouffville"
          }
        ],
        "pollDivisionIds": [
          10134359
        ],
        "postalCode": "L6B0W6",
        "streetName": "CORNELL CENTRE",
        "streetDirectionId": null,
        "streetTypeId": "BLVD",
        "placeName": "MARKHAM",
        "streetNameDisplayText": "CORNELL CENTRE BLVD, MARKHAM"
      },
      {
        "electoralDistricts": [
          {
            "election": null,
            "id": 56,
            "name": "Markham—Stouffville"
          }
        ],
        "pollDivisionIds": [
          10134359
        ],
        "postalCode": "L6B0W6",
        "streetName": "PEER",
        "streetDirectionId": null,
        "streetTypeId": "ST",
        "placeName": "MARKHAM",
        "streetNameDisplayText": "PEER ST, MARKHAM"
      },
      {
        "electoralDistricts": [
          {
            "election": null,
            "id": 56,
            "name": "Markham—Stouffville"
          }
        ],
        "pollDivisionIds": [
          10134359
        ],
        "postalCode": "L6B0W6",
        "streetName": "RAVEN CROSS",
        "streetDirectionId": null,
        "streetTypeId": "AVE",
        "placeName": "MARKHAM",
        "streetNameDisplayText": "RAVEN CROSS AVE, MARKHAM"
      },
      {
        "electoralDistricts": [
          {
            "election": null,
            "id": 56,
            "name": "Markham—Stouffville"
          }
        ],
        "pollDivisionIds": [
          10134359
        ],
        "postalCode": "L6B0W6",
        "streetName": "THE MEADOWS",
        "streetDirectionId": null,
        "streetTypeId": "AVE",
        "placeName": "MARKHAM",
        "streetNameDisplayText": "THE MEADOWS AVE, MARKHAM"
      }
    ]
  }
]
