[
  {
    "postal": "L1T9J6",
    "result": []
  },
  {
    "postal": "L1T9Z5",
    "result": []
  },
  {
    "postal": "L1T7H8",
    "result": []
  },
  {
    "postal": "L1T0P6",
    "result": []
  },
  {
    "postal": "L1T0S7",
    "result": []
  },
  {
    "postal": "L1T8B9",
    "result": []
  },
  {
    "postal": "L1T2A6",
    "result": [
      {
        "electoralDistricts": [
          {
            "election": null,
            "id": 1,
            "name": "Ajax"
          }
        ],
        "pollDivisionIds": [
          10136690
        ],
        "postalCode": "L1T2A6",
        "streetName": "MULLEN",
        "streetDirectionId": null,
        "streetTypeId": "DR",
        "placeName": "AJAX",
        "streetNameDisplayText": "MULLEN DR, AJAX"
      }
    ]
  },
  {
    "postal": "L1T7V2",
    "result": []
  },
  {
    "postal": "L1T9P4",
    "result": []
  },
  {
    "postal": "L1T6G0",
    "result": []
  },
  {
    "postal": "L1T2K0",
    "result": []
  },
  {
    "postal": "L1T7N6",
    "result": []
  },
  {
    "postal": "L1T5R3",
    "result": []
  },
  {
    "postal": "L1T7K0",
    "result": []
  },
  {
    "postal": "L1T3R2",
    "result": [
      {
        "electoralDistricts": [
          {
            "election": null,
            "id": 1,
            "name": "Ajax"
          }
        ],
        "pollDivisionIds": [
          10136689
        ],
        "postalCode": "L1T3R2",
        "streetName": "SHARP",
        "streetDirectionId": null,
        "streetTypeId": "CRES",
        "placeName": "AJAX",
        "streetNameDisplayText": "SHARP CRES, AJAX"
      }
    ]
  },
  {
    "postal": "L1T0J1",
    "result": [
      {
        "electoralDistricts": [
          {
            "election": null,
            "id": 1,
            "name": "Ajax"
          }
        ],
        "pollDivisionIds": [
          10136682
        ],
        "postalCode": "L1T0J1",
        "streetName": "DRISCOLL",
        "streetDirectionId": null,
        "streetTypeId": "DR",
        "placeName": "AJAX",
        "streetNameDisplayText": "DRISCOLL DR, AJAX"
      },
      {
        "electoralDistricts": [
          {
            "election": null,
            "id": 1,
            "name": "Ajax"
          }
        ],
        "pollDivisionIds": [
          10136682
        ],
        "postalCode": "L1T0J1",
        "streetName": "RAVENSCROFT",
        "streetDirectionId": null,
        "streetTypeId": "RD",
        "placeName": "AJAX",
        "streetNameDisplayText": "RAVENSCROFT RD, AJAX"
      },
      {
        "electoralDistricts": [
          {
            "election": null,
            "id": 1,
            "name": "Ajax"
          }
        ],
        "pollDivisionIds": [
          10136682
        ],
        "postalCode": "L1T0J1",
        "streetName": "WILLIAMSON",
        "streetDirectionId": "W",
        "streetTypeId": "DR",
        "placeName": "AJAX",
        "streetNameDisplayText": "WILLIAMSON DR W, AJAX"
      }
    ]
  },
  {
    "postal": "L1T0B0",
    "result": []
  },
  {
    "postal": "L1T5Z2",
    "result": []
  },
  {
    "postal": "L1T7P3",
    "result": []
  },
  {
    "postal": "L1T2K3",
    "result": [
      {
        "electoralDistricts": [
          {
            "election": null,
            "id": 1,
            "name": "Ajax"
          }
        ],
        "pollDivisionIds": [
          10136694
        ],
        "postalCode": "L1T2K3",
        "streetName": "DELANEY",
        "streetDirectionId": null,
        "streetTypeId": "DR",
        "placeName": "AJAX",
        "streetNameDisplayText": "DELANEY DR, AJAX"
      }
    ]
  },
  {
    "postal": "L1T7Y6",
    "result": []
  },
  {
    "postal": "L1T1L9",
    "result": []
  },
  {
    "postal": "L1T8T0",
    "result": []
  },
  {
    "postal": "L1T3K8",
    "result": [
      {
        "electoralDistricts": [
          {
            "election": null,
            "id": 1,
            "name": "Ajax"
          }
        ],
        "pollDivisionIds": [
          10136689
        ],
        "postalCode": "L1T3K8",
        "streetName": "LOCKER",
        "streetDirectionId": null,
        "streetTypeId": "DR",
        "placeName": "AJAX",
        "streetNameDisplayText": "LOCKER DR, AJAX"
      },
      {
        "electoralDistricts": [
          {
            "election": null,
            "id": 1,
            "name": "Ajax"
          }
        ],
        "pollDivisionIds": [
          10136689
        ],
        "postalCode": "L1T3K8",
        "streetName": "NOAKE",
        "streetDirectionId": null,
        "streetTypeId": "CRES",
        "placeName": "AJAX",
        "streetNameDisplayText": "NOAKE CRES, AJAX"
      },
      {
        "electoralDistricts": [
          {
            "election": null,
            "id": 1,
            "name": "Ajax"
          }
        ],
        "pollDivisionIds": [
          10136689
        ],
        "postalCode": "L1T3K8",
        "streetName": "SULLIVAN",
        "streetDirectionId": null,
        "streetTypeId": "DR",
        "placeName": "AJAX",
        "streetNameDisplayText": "SULLIVAN DR, AJAX"
      }
    ]
  },
  {
    "postal": "L1T5W9",
    "result": []
  },
  {
    "postal": "L1T6T9",
    "result": []
  },
  {
    "postal": "L1T4H1",
    "result": [
      {
        "electoralDistricts": [
          {
            "election": null,
            "id": 1,
            "name": "Ajax"
          }
        ],
        "pollDivisionIds": [
          10136689
        ],
        "postalCode": "L1T4H1",
        "streetName": "MCGONICAL",
        "streetDirectionId": null,
        "streetTypeId": "LANE",
        "placeName": "AJAX",
        "streetNameDisplayText": "MCGONICAL LANE, AJAX"
      },
      {
        "electoralDistricts": [
          {
            "election": null,
            "id": 1,
            "name": "Ajax"
          }
        ],
        "pollDivisionIds": [
          10136689
        ],
        "postalCode": "L1T4H1",
        "streetName": "PENNEFATHER",
        "streetDirectionId": null,
        "streetTypeId": "LANE",
        "placeName": "AJAX",
        "streetNameDisplayText": "PENNEFATHER LANE, AJAX"
      }
    ]
  },
  {
    "postal": "L1T7A2",
    "result": []
  },
  {
    "postal": "L1T5G0",
    "result": []
  },
  {
    "postal": "L1T8V5",
    "result": []
  },
  {
    "postal": "L1T2Y8",
    "result": [
      {
        "electoralDistricts": [
          {
            "election": null,
            "id": 1,
            "name": "Ajax"
          }
        ],
        "pollDivisionIds": [
          10136693
        ],
        "postalCode": "L1T2Y8",
        "streetName": "SHERWOOD",
        "streetDirectionId": "E",
        "streetTypeId": "RD",
        "placeName": "AJAX",
        "streetNameDisplayText": "SHERWOOD RD E, AJAX"
      }
    ]
  },
  {
    "postal": "L1T2B6",
    "result": [
      {
        "electoralDistricts": [
          {
            "election": null,
            "id": 1,
            "name": "Ajax"
          }
        ],
        "pollDivisionIds": [
          10136690
        ],
        "postalCode": "L1T2B6",
        "streetName": "DELANEY",
        "streetDirectionId": null,
        "streetTypeId": "DR",
        "placeName": "AJAX",
        "streetNameDisplayText": "DELANEY DR, AJAX"
      }
    ]
  },
  {
    "postal": "L1T4W8",
    "result": [
      {
        "electoralDistricts": [
          {
            "election": null,
            "id": 1,
            "name": "Ajax"
          }
        ],
        "pollDivisionIds": [
          10136687
        ],
        "postalCode": "L1T4W8",
        "streetName": "BUTTERWORTH",
        "streetDirectionId": null,
        "streetTypeId": "DR",
        "placeName": "AJAX",
        "streetNameDisplayText": "BUTTERWORTH DR, AJAX"
      },
      {
        "electoralDistricts": [
          {
            "election": null,
            "id": 1,
            "name": "Ajax"
          }
        ],
        "pollDivisionIds": [
          10136687
        ],
        "postalCode": "L1T4W8",
        "streetName": "O'SHEA",
        "streetDirectionId": null,
        "streetTypeId": "CRES",
        "placeName": "AJAX",
        "streetNameDisplayText": "O'SHEA CRES, AJAX"
      },
      {
        "electoralDistricts": [
          {
            "election": null,
            "id": 1,
            "name": "Ajax"
          }
        ],
        "pollDivisionIds": [
          10136687
        ],
        "postalCode": "L1T4W8",
        "streetName": "OSHEA",
        "streetDirectionId": null,
        "streetTypeId": "CRES",
        "placeName": "AJAX,ON",
        "streetNameDisplayText": "OSHEA CRES, AJAX,ON"
      }
    ]
  },
  {
    "postal": "L1T8H7",
    "result": []
  },
  {
    "postal": "L1T5P1",
    "result": []
  },
  {
    "postal": "L1T2B8",
    "result": [
      {
        "electoralDistricts": [
          {
            "election": null,
            "id": 1,
            "name": "Ajax"
          }
        ],
        "pollDivisionIds": [
          10136694,
          10136690
        ],
        "postalCode": "L1T2B8",
        "streetName": "DELANEY",
        "streetDirectionId": null,
        "streetTypeId": "DR",
        "placeName": "AJAX",
        "streetNameDisplayText": "DELANEY DR, AJAX"
      }
    ]
  },
  {
    "postal": "L1T0P2",
    "result": [
      {
        "electoralDistricts": [
          {
            "election": null,
            "id": 1,
            "name": "Ajax"
          }
        ],
        "pollDivisionIds": [
          10136681
        ],
        "postalCode": "L1T0P2",
        "streetName": "SEAGRAVE",
        "streetDirectionId": null,
        "streetTypeId": "LANE",
        "placeName": "AJAX",
        "streetNameDisplayText": "SEAGRAVE LANE, AJAX"
      }
    ]
  },
  {
    "postal": "L1T9M1",
    "result": []
  },
  {
    "postal": "L1T3G0",
    "result": []
  },
  {
    "postal": "L1T9Z2",
    "result": []
  },
  {
    "postal": "L1T2A0",
    "result": []
  },
  {
    "postal": "L1T6Y0",
    "result": []
  },
  {
    "postal": "L1T2Z8",
    "result": [
      {
        "electoralDistricts": [
          {
            "election": null,
            "id": 1,
            "name": "Ajax"
          }
        ],
        "pollDivisionIds": [
          10136692
        ],
        "postalCode": "L1T2Z8",
        "streetName": "OLD KINGSTON",
        "streetDirectionId": null,
        "streetTypeId": "RD",
        "placeName": "AJAX",
        "streetNameDisplayText": "OLD KINGSTON RD, AJAX"
      }
    ]
  },
  {
    "postal": "L1T7Y3",
    "result": []
  },
  {
    "postal": "L1T6Z5",
    "result": []
  },
  {
    "postal": "L1T6E0",
    "result": []
  },
  {
    "postal": "L1T9B7",
    "result": []
  },
  {
    "postal": "L1T9S5",
    "result": []
  },
  {
    "postal": "L1T3X3",
    "result": [
      {
        "electoralDistricts": [
          {
            "election": null,
            "id": 1,
            "name": "Ajax"
          }
        ],
        "pollDivisionIds": [
          10136682
        ],
        "postalCode": "L1T3X3",
        "streetName": "MACINTYRE",
        "streetDirectionId": null,
        "streetTypeId": "LANE",
        "placeName": "AJAX",
        "streetNameDisplayText": "MACINTYRE LANE, AJAX"
      }
    ]
  },
  {
    "postal": "L1T7R5",
    "result": []
  },
  {
    "postal": "L1T2X3",
    "result": [
      {
        "electoralDistricts": [
          {
            "election": null,
            "id": 1,
            "name": "Ajax"
          }
        ],
        "pollDivisionIds": [
          10136693
        ],
        "postalCode": "L1T2X3",
        "streetName": "GEORGE JONES",
        "streetDirectionId": null,
        "streetTypeId": "ST",
        "placeName": "AJAX",
        "streetNameDisplayText": "GEORGE JONES ST, AJAX"
      }
    ]
  },
  {
    "postal": "L1T8Z9",
    "result": []
  },
  {
    "postal": "L1T0N4",
    "result": [
      {
        "electoralDistricts": [
          {
            "election": null,
            "id": 1,
            "name": "Ajax"
          }
        ],
        "pollDivisionIds": [
          10136687,
          10136685
        ],
        "postalCode": "L1T0N4",
        "streetName": "KEENLYSIDE",
        "streetDirectionId": null,
        "streetTypeId": "LANE",
        "placeName": "AJAX",
        "streetNameDisplayText": "KEENLYSIDE LANE, AJAX"
      }
    ]
  },
  {
    "postal": "L1T1K1",
    "result": []
  },
  {
    "postal": "L1T1S3",
    "result": [
      {
        "electoralDistricts": [
          {
            "election": null,
            "id": 1,
            "name": "Ajax"
          }
        ],
        "pollDivisionIds": [
          10136694
        ],
        "postalCode": "L1T1S3",
        "streetName": "BRIGHTLY",
        "streetDirectionId": null,
        "streetTypeId": "DR",
        "placeName": "AJAX",
        "streetNameDisplayText": "BRIGHTLY DR, AJAX"
      },
      {
        "electoralDistricts": [
          {
            "election": null,
            "id": 1,
            "name": "Ajax"
          }
        ],
        "pollDivisionIds": [
          10136694
        ],
        "postalCode": "L1T1S3",
        "streetName": "DEVERILL",
        "streetDirectionId": null,
        "streetTypeId": "CRES",
        "placeName": "AJAX",
        "streetNameDisplayText": "DEVERILL CRES, AJAX"
      }
    ]
  },
  {
    "postal": "L1T6M4",
    "result": []
  },
  {
    "postal": "L1T9A9",
    "result": []
  },
  {
    "postal": "L1T9Z9",
    "result": []
  },
  {
    "postal": "L1T6T4",
    "result": []
  },
  {
    "postal": "L1T0B2",
    "result": [
      {
        "electoralDistricts": [
          {
            "election": null,
            "id": 1,
            "name": "Ajax"
          }
        ],
        "pollDivisionIds": [
          10136682
        ],
        "postalCode": "L1T0B2",
        "streetName": "JONESRIDGE",
        "streetDirectionId": null,
        "streetTypeId": "DR",
        "placeName": "AJAX",
        "streetNameDisplayText": "JONESRIDGE DR, AJAX"
      },
      {
        "electoralDistricts": [
          {
            "election": null,
            "id": 1,
            "name": "Ajax"
          }
        ],
        "pollDivisionIds": [
          10136682
        ],
        "postalCode": "L1T0B2",
        "streetName": "NAPIERMEWS",
        "streetDirectionId": null,
        "streetTypeId": "DR",
        "placeName": "AJAX",
        "streetNameDisplayText": "NAPIERMEWS DR, AJAX"
      },
      {
        "electoralDistricts": [
          {
            "election": null,
            "id": 1,
            "name": "Ajax"
          }
        ],
        "pollDivisionIds": [
          10136682
        ],
        "postalCode": "L1T0B2",
        "streetName": "RAVENSCROFT",
        "streetDirectionId": null,
        "streetTypeId": "RD",
        "placeName": "AJAX",
        "streetNameDisplayText": "RAVENSCROFT RD, AJAX"
      }
    ]
  },
  {
    "postal": "L1T2L9",
    "result": [
      {
        "electoralDistricts": [
          {
            "election": null,
            "id": 1,
            "name": "Ajax"
          }
        ],
        "pollDivisionIds": [
          10136694
        ],
        "postalCode": "L1T2L9",
        "streetName": "DELANEY",
        "streetDirectionId": null,
        "streetTypeId": "DR",
        "placeName": "AJAX",
        "streetNameDisplayText": "DELANEY DR, AJAX"
      }
    ]
  },
  {
    "postal": "L1T8K9",
    "result": []
  },
  {
    "postal": "L1T2H9",
    "result": [
      {
        "electoralDistricts": [
          {
            "election": null,
            "id": 1,
            "name": "Ajax"
          }
        ],
        "pollDivisionIds": [
          10136694
        ],
        "postalCode": "L1T2H9",
        "streetName": "BROCKLESBY",
        "streetDirectionId": null,
        "streetTypeId": "CRES",
        "placeName": "AJAX",
        "streetNameDisplayText": "BROCKLESBY CRES, AJAX"
      }
    ]
  },
  {
    "postal": "L1T3Z6",
    "result": [
      {
        "electoralDistricts": [
          {
            "election": null,
            "id": 1,
            "name": "Ajax"
          }
        ],
        "pollDivisionIds": [
          10136681
        ],
        "postalCode": "L1T3Z6",
        "streetName": "HORNE",
        "streetDirectionId": null,
        "streetTypeId": "AVE",
        "placeName": "AJAX",
        "streetNameDisplayText": "HORNE AVE, AJAX"
      },
      {
        "electoralDistricts": [
          {
            "election": null,
            "id": 1,
            "name": "Ajax"
          }
        ],
        "pollDivisionIds": [
          10136681
        ],
        "postalCode": "L1T3Z6",
        "streetName": "MCKIE",
        "streetDirectionId": null,
        "streetTypeId": "CRT",
        "placeName": "AJAX",
        "streetNameDisplayText": "MCKIE CRT, AJAX"
      },
      {
        "electoralDistricts": [
          {
            "election": null,
            "id": 1,
            "name": "Ajax"
          }
        ],
        "pollDivisionIds": [
          10136681
        ],
        "postalCode": "L1T3Z6",
        "streetName": "ROBERSON",
        "streetDirectionId": null,
        "streetTypeId": "DR",
        "placeName": "AJAX",
        "streetNameDisplayText": "ROBERSON DR, AJAX"
      }
    ]
  },
  {
    "postal": "L1T3B0",
    "result": []
  },
  {
    "postal": "L1T2H8",
    "result": [
      {
        "electoralDistricts": [
          {
            "election": null,
            "id": 1,
            "name": "Ajax"
          }
        ],
        "pollDivisionIds": [
          10136694
        ],
        "postalCode": "L1T2H8",
        "streetName": "RADFORD",
        "streetDirectionId": null,
        "streetTypeId": "DR",
        "placeName": "AJAX",
        "streetNameDisplayText": "RADFORD DR, AJAX"
      }
    ]
  },
  {
    "postal": "L1T3X2",
    "result": [
      {
        "electoralDistricts": [
          {
            "election": null,
            "id": 1,
            "name": "Ajax"
          }
        ],
        "pollDivisionIds": [
          10136682
        ],
        "postalCode": "L1T3X2",
        "streetName": "MURPHY",
        "streetDirectionId": null,
        "streetTypeId": "LANE",
        "placeName": "AJAX",
        "streetNameDisplayText": "MURPHY LANE, AJAX"
      }
    ]
  },
  {
    "postal": "L1T2E9",
    "result": [
      {
        "electoralDistricts": [
          {
            "election": null,
            "id": 1,
            "name": "Ajax"
          }
        ],
        "pollDivisionIds": [
          10136694
        ],
        "postalCode": "L1T2E9",
        "streetName": "BRENNAN",
        "streetDirectionId": null,
        "streetTypeId": "RD",
        "placeName": "AJAX",
        "streetNameDisplayText": "BRENNAN RD, AJAX"
      }
    ]
  },
  {
    "postal": "L1T9P6",
    "result": []
  },
  {
    "postal": "L1T9E2",
    "result": []
  },
  {
    "postal": "L1T9H2",
    "result": []
  },
  {
    "postal": "L1T1S8",
    "result": [
      {
        "electoralDistricts": [
          {
            "election": null,
            "id": 1,
            "name": "Ajax"
          }
        ],
        "pollDivisionIds": [
          10136694
        ],
        "postalCode": "L1T1S8",
        "streetName": "ROTHERGLEN",
        "streetDirectionId": "N",
        "streetTypeId": "RD",
        "placeName": "AJAX",
        "streetNameDisplayText": "ROTHERGLEN RD N, AJAX"
      }
    ]
  },
  {
    "postal": "L1T3M6",
    "result": [
      {
        "electoralDistricts": [
          {
            "election": null,
            "id": 1,
            "name": "Ajax"
          }
        ],
        "pollDivisionIds": [
          10136689
        ],
        "postalCode": "L1T3M6",
        "streetName": "IVERS",
        "streetDirectionId": null,
        "streetTypeId": "CRT",
        "placeName": "AJAX",
        "streetNameDisplayText": "IVERS CRT, AJAX"
      },
      {
        "electoralDistricts": [
          {
            "election": null,
            "id": 1,
            "name": "Ajax"
          }
        ],
        "pollDivisionIds": [
          10136689
        ],
        "postalCode": "L1T3M6",
        "streetName": "SMITH",
        "streetDirectionId": null,
        "streetTypeId": "LANE",
        "placeName": "AJAX",
        "streetNameDisplayText": "SMITH LANE, AJAX"
      }
    ]
  },
  {
    "postal": "L1T6Z8",
    "result": []
  },
  {
    "postal": "L1T4J2",
    "result": [
      {
        "electoralDistricts": [
          {
            "election": null,
            "id": 1,
            "name": "Ajax"
          }
        ],
        "pollDivisionIds": [
          10136685
        ],
        "postalCode": "L1T4J2",
        "streetName": "DOOLEY",
        "streetDirectionId": null,
        "streetTypeId": "CRES",
        "placeName": "AJAX",
        "streetNameDisplayText": "DOOLEY CRES, AJAX"
      }
    ]
  },
  {
    "postal": "L1T9Y1",
    "result": []
  },
  {
    "postal": "L1T8V6",
    "result": []
  },
  {
    "postal": "L1T6B2",
    "result": []
  },
  {
    "postal": "L1T1P8",
    "result": [
      {
        "electoralDistricts": [
          {
            "election": null,
            "id": 1,
            "name": "Ajax"
          }
        ],
        "pollDivisionIds": [
          10136694
        ],
        "postalCode": "L1T1P8",
        "streetName": "ADDLEY",
        "streetDirectionId": null,
        "streetTypeId": "CRES",
        "placeName": "AJAX",
        "streetNameDisplayText": "ADDLEY CRES, AJAX"
      },
      {
        "electoralDistricts": [
          {
            "election": null,
            "id": 1,
            "name": "Ajax"
          }
        ],
        "pollDivisionIds": [
          10136694
        ],
        "postalCode": "L1T1P8",
        "streetName": "BEAUMONT",
        "streetDirectionId": null,
        "streetTypeId": "DR",
        "placeName": "AJAX",
        "streetNameDisplayText": "BEAUMONT DR, AJAX"
      }
    ]
  },
  {
    "postal": "L1T0V8",
    "result": []
  },
  {
    "postal": "L1T4Y0",
    "result": []
  },
  {
    "postal": "L1T2T4",
    "result": [
      {
        "electoralDistricts": [
          {
            "election": null,
            "id": 1,
            "name": "Ajax"
          }
        ],
        "pollDivisionIds": [
          10136690,
          10136691
        ],
        "postalCode": "L1T2T4",
        "streetName": "RAVENSCROFT",
        "streetDirectionId": null,
        "streetTypeId": "RD",
        "placeName": "AJAX",
        "streetNameDisplayText": "RAVENSCROFT RD, AJAX"
      }
    ]
  },
  {
    "postal": "L1T2S3",
    "result": [
      {
        "electoralDistricts": [
          {
            "election": null,
            "id": 1,
            "name": "Ajax"
          }
        ],
        "pollDivisionIds": [
          10136690,
          10136684
        ],
        "postalCode": "L1T2S3",
        "streetName": "LARGE",
        "streetDirectionId": null,
        "streetTypeId": "CRES",
        "placeName": "AJAX",
        "streetNameDisplayText": "LARGE CRES, AJAX"
      }
    ]
  },
  {
    "postal": "L1T0K0",
    "result": []
  },
  {
    "postal": "L1T5N1",
    "result": []
  },
  {
    "postal": "L1T7T0",
    "result": []
  },
  {
    "postal": "L1T9N2",
    "result": []
  },
  {
    "postal": "L1T5L1",
    "result": []
  },
  {
    "postal": "L1T7G5",
    "result": []
  },
  {
    "postal": "L1T6K2",
    "result": []
  },
  {
    "postal": "L1T6P9",
    "result": []
  },
  {
    "postal": "L1T0E6",
    "result": [
      {
        "electoralDistricts": [
          {
            "election": null,
            "id": 1,
            "name": "Ajax"
          }
        ],
        "pollDivisionIds": [
          10136687
        ],
        "postalCode": "L1T0E6",
        "streetName": "FEINT",
        "streetDirectionId": null,
        "streetTypeId": "DR",
        "placeName": "AJAX",
        "streetNameDisplayText": "FEINT DR, AJAX"
      },
      {
        "electoralDistricts": [
          {
            "election": null,
            "id": 1,
            "name": "Ajax"
          }
        ],
        "pollDivisionIds": [
          10136687
        ],
        "postalCode": "L1T0E6",
        "streetName": "PUGHE",
        "streetDirectionId": null,
        "streetTypeId": "ST",
        "placeName": "AJAX",
        "streetNameDisplayText": "PUGHE ST, AJAX"
      }
    ]
  },
  {
    "postal": "L1T8R9",
    "result": []
  },
  {
    "postal": "L1T3G9",
    "result": [
      {
        "electoralDistricts": [
          {
            "election": null,
            "id": 1,
            "name": "Ajax"
          }
        ],
        "pollDivisionIds": [
          10136695
        ],
        "postalCode": "L1T3G9",
        "streetName": "CHAPMAN",
        "streetDirectionId": null,
        "streetTypeId": "DR",
        "placeName": "AJAX",
        "streetNameDisplayText": "CHAPMAN DR, AJAX"
      }
    ]
  },
  {
    "postal": "L1T0V7",
    "result": []
  },
  {
    "postal": "L1T2Z1",
    "result": [
      {
        "electoralDistricts": [
          {
            "election": null,
            "id": 1,
            "name": "Ajax"
          }
        ],
        "pollDivisionIds": [
          10136693
        ],
        "postalCode": "L1T2Z1",
        "streetName": "SHERWOOD",
        "streetDirectionId": "E",
        "streetTypeId": "RD",
        "placeName": "AJAX",
        "streetNameDisplayText": "SHERWOOD RD E, AJAX"
      }
    ]
  },
  {
    "postal": "L1T7N1",
    "result": []
  },
  {
    "postal": "L1T3C6",
    "result": [
      {
        "electoralDistricts": [
          {
            "election": null,
            "id": 1,
            "name": "Ajax"
          }
        ],
        "pollDivisionIds": [
          10136695
        ],
        "postalCode": "L1T3C6",
        "streetName": "CHAPMAN",
        "streetDirectionId": null,
        "streetTypeId": "RD",
        "placeName": "AJAX",
        "streetNameDisplayText": "CHAPMAN RD, AJAX"
      },
      {
        "electoralDistricts": [
          {
            "election": null,
            "id": 1,
            "name": "Ajax"
          }
        ],
        "pollDivisionIds": [
          10136695
        ],
        "postalCode": "L1T3C6",
        "streetName": "COOMER",
        "streetDirectionId": null,
        "streetTypeId": "CRES",
        "placeName": "AJAX",
        "streetNameDisplayText": "COOMER CRES, AJAX"
      }
    ]
  },
  {
    "postal": "L1T4M1",
    "result": [
      {
        "electoralDistricts": [
          {
            "election": null,
            "id": 1,
            "name": "Ajax"
          }
        ],
        "pollDivisionIds": [
          10136685
        ],
        "postalCode": "L1T4M1",
        "streetName": "NOBBS",
        "streetDirectionId": null,
        "streetTypeId": "DR",
        "placeName": "AJAX",
        "streetNameDisplayText": "NOBBS DR, AJAX"
      }
    ]
  },
  {
    "postal": "L1T9K2",
    "result": []
  },
  {
    "postal": "L1T9S6",
    "result": []
  },
  {
    "postal": "L1T4X1",
    "result": [
      {
        "electoralDistricts": [
          {
            "election": null,
            "id": 1,
            "name": "Ajax"
          }
        ],
        "pollDivisionIds": [
          10136682
        ],
        "postalCode": "L1T4X1",
        "streetName": "RAVENSCROFT",
        "streetDirectionId": null,
        "streetTypeId": "RD",
        "placeName": "AJAX",
        "streetNameDisplayText": "RAVENSCROFT RD, AJAX"
      }
    ]
  },
  {
    "postal": "L1T8W2",
    "result": []
  },
  {
    "postal": "L1T7N2",
    "result": []
  },
  {
    "postal": "L1T8S3",
    "result": []
  },
  {
    "postal": "L1T4V0",
    "result": []
  },
  {
    "postal": "L1T6W4",
    "result": []
  },
  {
    "postal": "L1T5M1",
    "result": []
  },
  {
    "postal": "L1T0S4",
    "result": []
  },
  {
    "postal": "L1T5X6",
    "result": []
  },
  {
    "postal": "L1T8L5",
    "result": []
  },
  {
    "postal": "L1T5M8",
    "result": []
  },
  {
    "postal": "L1T2G3",
    "result": [
      {
        "electoralDistricts": [
          {
            "election": null,
            "id": 1,
            "name": "Ajax"
          }
        ],
        "pollDivisionIds": [
          10136694
        ],
        "postalCode": "L1T2G3",
        "streetName": "CHATFIELD",
        "streetDirectionId": null,
        "streetTypeId": "DR",
        "placeName": "AJAX",
        "streetNameDisplayText": "CHATFIELD DR, AJAX"
      }
    ]
  },
  {
    "postal": "L1T8E4",
    "result": []
  },
  {
    "postal": "L1T7S9",
    "result": []
  },
  {
    "postal": "L1T1K3",
    "result": []
  },
  {
    "postal": "L1T4E1",
    "result": [
      {
        "electoralDistricts": [
          {
            "election": null,
            "id": 1,
            "name": "Ajax"
          }
        ],
        "pollDivisionIds": [
          10136687
        ],
        "postalCode": "L1T4E1",
        "streetName": "HOPKINSON",
        "streetDirectionId": null,
        "streetTypeId": "CRES",
        "placeName": "AJAX",
        "streetNameDisplayText": "HOPKINSON CRES, AJAX"
      },
      {
        "electoralDistricts": [
          {
            "election": null,
            "id": 1,
            "name": "Ajax"
          }
        ],
        "pollDivisionIds": [
          10136687
        ],
        "postalCode": "L1T4E1",
        "streetName": "PHILLPOT",
        "streetDirectionId": null,
        "streetTypeId": "LANE",
        "placeName": "AJAX",
        "streetNameDisplayText": "PHILLPOT LANE, AJAX"
      }
    ]
  },
  {
    "postal": "L1T4R2",
    "result": [
      {
        "electoralDistricts": [
          {
            "election": null,
            "id": 1,
            "name": "Ajax"
          }
        ],
        "pollDivisionIds": [
          10136681
        ],
        "postalCode": "L1T4R2",
        "streetName": "CHURCH",
        "streetDirectionId": "N",
        "streetTypeId": "ST",
        "placeName": "AJAX",
        "streetNameDisplayText": "CHURCH ST N, AJAX"
      }
    ]
  },
  {
    "postal": "L1T6T0",
    "result": []
  },
  {
    "postal": "L1T3K5",
    "result": [
      {
        "electoralDistricts": [
          {
            "election": null,
            "id": 1,
            "name": "Ajax"
          }
        ],
        "pollDivisionIds": [
          10136691
        ],
        "postalCode": "L1T3K5",
        "streetName": "DELANEY",
        "streetDirectionId": null,
        "streetTypeId": "DR",
        "placeName": "AJAX",
        "streetNameDisplayText": "DELANEY DR, AJAX"
      },
      {
        "electoralDistricts": [
          {
            "election": null,
            "id": 1,
            "name": "Ajax"
          }
        ],
        "pollDivisionIds": [
          10136691,
          10136684
        ],
        "postalCode": "L1T3K5",
        "streetName": "FOAKES",
        "streetDirectionId": null,
        "streetTypeId": "DR",
        "placeName": "AJAX",
        "streetNameDisplayText": "FOAKES DR, AJAX"
      },
      {
        "electoralDistricts": [
          {
            "election": null,
            "id": 1,
            "name": "Ajax"
          }
        ],
        "pollDivisionIds": [
          10136691
        ],
        "postalCode": "L1T3K5",
        "streetName": "PANTOLL",
        "streetDirectionId": null,
        "streetTypeId": "ST",
        "placeName": "AJAX",
        "streetNameDisplayText": "PANTOLL ST, AJAX"
      },
      {
        "electoralDistricts": [
          {
            "election": null,
            "id": 1,
            "name": "Ajax"
          }
        ],
        "pollDivisionIds": [
          10136691
        ],
        "postalCode": "L1T3K5",
        "streetName": "RAVENSCROFT",
        "streetDirectionId": null,
        "streetTypeId": "RD",
        "placeName": "AJAX",
        "streetNameDisplayText": "RAVENSCROFT RD, AJAX"
      },
      {
        "electoralDistricts": [
          {
            "election": null,
            "id": 1,
            "name": "Ajax"
          }
        ],
        "pollDivisionIds": [
          10136691
        ],
        "postalCode": "L1T3K5",
        "streetName": "REESE",
        "streetDirectionId": null,
        "streetTypeId": "AVE",
        "placeName": "AJAX",
        "streetNameDisplayText": "REESE AVE, AJAX"
      }
    ]
  },
  {
    "postal": "L1T3S3",
    "result": []
  },
  {
    "postal": "L1T3L4",
    "result": [
      {
        "electoralDistricts": [
          {
            "election": null,
            "id": 1,
            "name": "Ajax"
          }
        ],
        "pollDivisionIds": [
          10136689,
          10136695
        ],
        "postalCode": "L1T3L4",
        "streetName": "NOAKE",
        "streetDirectionId": null,
        "streetTypeId": "CRES",
        "placeName": "AJAX",
        "streetNameDisplayText": "NOAKE CRES, AJAX"
      }
    ]
  },
  {
    "postal": "L1T9Y2",
    "result": []
  },
  {
    "postal": "L1T1E0",
    "result": []
  },
  {
    "postal": "L1T9A4",
    "result": []
  },
  {
    "postal": "L1T1L3",
    "result": []
  },
  {
    "postal": "L1T6N1",
    "result": []
  },
  {
    "postal": "L1T6G7",
    "result": []
  },
  {
    "postal": "L1T7W1",
    "result": []
  },
  {
    "postal": "L1T4M6",
    "result": [
      {
        "electoralDistricts": [
          {
            "election": null,
            "id": 1,
            "name": "Ajax"
          }
        ],
        "pollDivisionIds": [
          10136687
        ],
        "postalCode": "L1T4M6",
        "streetName": "MILLWARD",
        "streetDirectionId": null,
        "streetTypeId": "CRES",
        "placeName": "AJAX",
        "streetNameDisplayText": "MILLWARD CRES, AJAX"
      }
    ]
  },
  {
    "postal": "L1T1K0",
    "result": []
  },
  {
    "postal": "L1T3E2",
    "result": [
      {
        "electoralDistricts": [
          {
            "election": null,
            "id": 1,
            "name": "Ajax"
          }
        ],
        "pollDivisionIds": [
          10136695
        ],
        "postalCode": "L1T3E2",
        "streetName": "CARR",
        "streetDirectionId": null,
        "streetTypeId": "DR",
        "placeName": "AJAX",
        "streetNameDisplayText": "CARR DR, AJAX"
      },
      {
        "electoralDistricts": [
          {
            "election": null,
            "id": 1,
            "name": "Ajax"
          }
        ],
        "pollDivisionIds": [
          10136695
        ],
        "postalCode": "L1T3E2",
        "streetName": "DOWERS",
        "streetDirectionId": null,
        "streetTypeId": "DR",
        "placeName": "AJAX",
        "streetNameDisplayText": "DOWERS DR, AJAX"
      }
    ]
  },
  {
    "postal": "L1T5H4",
    "result": []
  },
  {
    "postal": "L1T1K7",
    "result": []
  },
  {
    "postal": "L1T0H0",
    "result": []
  },
  {
    "postal": "L1T0J3",
    "result": [
      {
        "electoralDistricts": [
          {
            "election": null,
            "id": 1,
            "name": "Ajax"
          }
        ],
        "pollDivisionIds": [
          10136686
        ],
        "postalCode": "L1T0J3",
        "streetName": "TOWERS",
        "streetDirectionId": null,
        "streetTypeId": "ST",
        "placeName": "AJAX",
        "streetNameDisplayText": "TOWERS ST, AJAX"
      },
      {
        "electoralDistricts": [
          {
            "election": null,
            "id": 1,
            "name": "Ajax"
          }
        ],
        "pollDivisionIds": [
          10136686
        ],
        "postalCode": "L1T0J3",
        "streetName": "WARNFORD",
        "streetDirectionId": null,
        "streetTypeId": "CIR",
        "placeName": "AJAX",
        "streetNameDisplayText": "WARNFORD CIR, AJAX"
      }
    ]
  },
  {
    "postal": "L1T1X6",
    "result": [
      {
        "electoralDistricts": [
          {
            "election": null,
            "id": 1,
            "name": "Ajax"
          }
        ],
        "pollDivisionIds": [
          10136694
        ],
        "postalCode": "L1T1X6",
        "streetName": "DANIELS",
        "streetDirectionId": null,
        "streetTypeId": "CRES",
        "placeName": "AJAX",
        "streetNameDisplayText": "DANIELS CRES, AJAX"
      },
      {
        "electoralDistricts": [
          {
            "election": null,
            "id": 1,
            "name": "Ajax"
          }
        ],
        "pollDivisionIds": [
          10136694
        ],
        "postalCode": "L1T1X6",
        "streetName": "NICHOLLS",
        "streetDirectionId": null,
        "streetTypeId": "CRT",
        "placeName": "AJAX",
        "streetNameDisplayText": "NICHOLLS CRT, AJAX"
      }
    ]
  },
  {
    "postal": "L1T2Z6",
    "result": [
      {
        "electoralDistricts": [
          {
            "election": null,
            "id": 1,
            "name": "Ajax"
          }
        ],
        "pollDivisionIds": [
          10136692
        ],
        "postalCode": "L1T2Z6",
        "streetName": "WINDSOR",
        "streetDirectionId": null,
        "streetTypeId": "DR",
        "placeName": "AJAX",
        "streetNameDisplayText": "WINDSOR DR, AJAX"
      }
    ]
  },
  {
    "postal": "L1T4R9",
    "result": [
      {
        "electoralDistricts": [
          {
            "election": null,
            "id": 1,
            "name": "Ajax"
          }
        ],
        "pollDivisionIds": [
          10136682
        ],
        "postalCode": "L1T4R9",
        "streetName": "RAVENSCROFT",
        "streetDirectionId": null,
        "streetTypeId": "RD",
        "placeName": "AJAX",
        "streetNameDisplayText": "RAVENSCROFT RD, AJAX"
      }
    ]
  },
  {
    "postal": "L1T0W8",
    "result": []
  },
  {
    "postal": "L1T1L4",
    "result": []
  },
  {
    "postal": "L1T0C8",
    "result": [
      {
        "electoralDistricts": [
          {
            "election": null,
            "id": 1,
            "name": "Ajax"
          }
        ],
        "pollDivisionIds": [
          10136687
        ],
        "postalCode": "L1T0C8",
        "streetName": "WESTACOTT",
        "streetDirectionId": null,
        "streetTypeId": "CRES",
        "placeName": "AJAX",
        "streetNameDisplayText": "WESTACOTT CRES, AJAX"
      },
      {
        "electoralDistricts": [
          {
            "election": null,
            "id": 1,
            "name": "Ajax"
          }
        ],
        "pollDivisionIds": [
          10136685,
          10136687
        ],
        "postalCode": "L1T0C8",
        "streetName": "WESTON",
        "streetDirectionId": null,
        "streetTypeId": "CRES",
        "placeName": "AJAX",
        "streetNameDisplayText": "WESTON CRES, AJAX"
      }
    ]
  },
  {
    "postal": "L1T9X7",
    "result": []
  },
  {
    "postal": "L1T4T1",
    "result": []
  },
  {
    "postal": "L1T0M0",
    "result": []
  },
  {
    "postal": "L1T6A2",
    "result": []
  },
  {
    "postal": "L1T9S8",
    "result": []
  },
  {
    "postal": "L1T9T4",
    "result": []
  },
  {
    "postal": "L1T9Y4",
    "result": []
  },
  {
    "postal": "L1T6G5",
    "result": []
  },
  {
    "postal": "L1T6H9",
    "result": []
  },
  {
    "postal": "L1T2P3",
    "result": [
      {
        "electoralDistricts": [
          {
            "election": null,
            "id": 1,
            "name": "Ajax"
          }
        ],
        "pollDivisionIds": [
          10136690
        ],
        "postalCode": "L1T2P3",
        "streetName": "GURR",
        "streetDirectionId": null,
        "streetTypeId": "CRES",
        "placeName": "AJAX",
        "streetNameDisplayText": "GURR CRES, AJAX"
      },
      {
        "electoralDistricts": [
          {
            "election": null,
            "id": 1,
            "name": "Ajax"
          }
        ],
        "pollDivisionIds": [
          10136690
        ],
        "postalCode": "L1T2P3",
        "streetName": "MARSHALL",
        "streetDirectionId": null,
        "streetTypeId": "CRES",
        "placeName": "AJAX",
        "streetNameDisplayText": "MARSHALL CRES, AJAX"
      }
    ]
  },
  {
    "postal": "L1T1T6",
    "result": [
      {
        "electoralDistricts": [
          {
            "election": null,
            "id": 1,
            "name": "Ajax"
          }
        ],
        "pollDivisionIds": [
          10136691
        ],
        "postalCode": "L1T1T6",
        "streetName": "ROTHERGLEN",
        "streetDirectionId": "N",
        "streetTypeId": "RD",
        "placeName": "AJAX",
        "streetNameDisplayText": "ROTHERGLEN RD N, AJAX"
      }
    ]
  },
  {
    "postal": "L1T4P6",
    "result": [
      {
        "electoralDistricts": [
          {
            "election": null,
            "id": 1,
            "name": "Ajax"
          }
        ],
        "pollDivisionIds": [
          10136687
        ],
        "postalCode": "L1T4P6",
        "streetName": "MORLAND",
        "streetDirectionId": null,
        "streetTypeId": "CRES",
        "placeName": "AJAX",
        "streetNameDisplayText": "MORLAND CRES, AJAX"
      }
    ]
  },
  {
    "postal": "L1T3K1",
    "result": [
      {
        "electoralDistricts": [
          {
            "election": null,
            "id": 1,
            "name": "Ajax"
          }
        ],
        "pollDivisionIds": [
          10136693,
          10136691
        ],
        "postalCode": "L1T3K1",
        "streetName": "SIMMS",
        "streetDirectionId": null,
        "streetTypeId": "DR",
        "placeName": "AJAX",
        "streetNameDisplayText": "SIMMS DR, AJAX"
      },
      {
        "electoralDistricts": [
          {
            "election": null,
            "id": 1,
            "name": "Ajax"
          }
        ],
        "pollDivisionIds": [
          10136693,
          10136691
        ],
        "postalCode": "L1T3K1",
        "streetName": "WILCE",
        "streetDirectionId": null,
        "streetTypeId": "DR",
        "placeName": "AJAX",
        "streetNameDisplayText": "WILCE DR, AJAX"
      }
    ]
  },
  {
    "postal": "L1T6X4",
    "result": []
  },
  {
    "postal": "L1T4M8",
    "result": [
      {
        "electoralDistricts": [
          {
            "election": null,
            "id": 1,
            "name": "Ajax"
          }
        ],
        "pollDivisionIds": [
          10136687
        ],
        "postalCode": "L1T4M8",
        "streetName": "MONTEBELLO",
        "streetDirectionId": null,
        "streetTypeId": "CRES",
        "placeName": "AJAX",
        "streetNameDisplayText": "MONTEBELLO CRES, AJAX"
      },
      {
        "electoralDistricts": [
          {
            "election": null,
            "id": 1,
            "name": "Ajax"
          }
        ],
        "pollDivisionIds": [
          10136687
        ],
        "postalCode": "L1T4M8",
        "streetName": "OLSEN",
        "streetDirectionId": null,
        "streetTypeId": "DR",
        "placeName": "AJAX",
        "streetNameDisplayText": "OLSEN DR, AJAX"
      },
      {
        "electoralDistricts": [
          {
            "election": null,
            "id": 1,
            "name": "Ajax"
          }
        ],
        "pollDivisionIds": [
          10136687
        ],
        "postalCode": "L1T4M8",
        "streetName": "WILLIAMSON",
        "streetDirectionId": "W",
        "streetTypeId": "DR",
        "placeName": "AJAX",
        "streetNameDisplayText": "WILLIAMSON DR W, AJAX"
      }
    ]
  },
  {
    "postal": "L1T2Y1",
    "result": [
      {
        "electoralDistricts": [
          {
            "election": null,
            "id": 1,
            "name": "Ajax"
          }
        ],
        "pollDivisionIds": [
          10136692
        ],
        "postalCode": "L1T2Y1",
        "streetName": "SHERWOOD",
        "streetDirectionId": "W",
        "streetTypeId": "RD",
        "placeName": "AJAX",
        "streetNameDisplayText": "SHERWOOD RD W, AJAX"
      }
    ]
  },
  {
    "postal": "L1T6M1",
    "result": []
  },
  {
    "postal": "L1T5L8",
    "result": []
  },
  {
    "postal": "L1T3P6",
    "result": [
      {
        "electoralDistricts": [
          {
            "election": null,
            "id": 1,
            "name": "Ajax"
          }
        ],
        "pollDivisionIds": [
          10136689
        ],
        "postalCode": "L1T3P6",
        "streetName": "HEARNE",
        "streetDirectionId": null,
        "streetTypeId": "CRES",
        "placeName": "AJAX",
        "streetNameDisplayText": "HEARNE CRES, AJAX"
      }
    ]
  },
  {
    "postal": "L1T9A5",
    "result": []
  },
  {
    "postal": "L1T7K1",
    "result": []
  },
  {
    "postal": "L1T3J4",
    "result": [
      {
        "electoralDistricts": [
          {
            "election": null,
            "id": 1,
            "name": "Ajax"
          }
        ],
        "pollDivisionIds": [
          10136693
        ],
        "postalCode": "L1T3J4",
        "streetName": "GENNER",
        "streetDirectionId": null,
        "streetTypeId": "DR",
        "placeName": "AJAX",
        "streetNameDisplayText": "GENNER DR, AJAX"
      },
      {
        "electoralDistricts": [
          {
            "election": null,
            "id": 1,
            "name": "Ajax"
          }
        ],
        "pollDivisionIds": [
          10136693
        ],
        "postalCode": "L1T3J4",
        "streetName": "GRIFFITHS",
        "streetDirectionId": null,
        "streetTypeId": "DR",
        "placeName": "AJAX",
        "streetNameDisplayText": "GRIFFITHS DR, AJAX"
      },
      {
        "electoralDistricts": [
          {
            "election": null,
            "id": 1,
            "name": "Ajax"
          }
        ],
        "pollDivisionIds": [
          10136693
        ],
        "postalCode": "L1T3J4",
        "streetName": "SYKES",
        "streetDirectionId": null,
        "streetTypeId": "ST",
        "placeName": "AJAX",
        "streetNameDisplayText": "SYKES ST, AJAX"
      },
      {
        "electoralDistricts": [
          {
            "election": null,
            "id": 1,
            "name": "Ajax"
          }
        ],
        "pollDivisionIds": [
          10136693
        ],
        "postalCode": "L1T3J4",
        "streetName": "WICKENS",
        "streetDirectionId": null,
        "streetTypeId": "CRES",
        "placeName": "AJAX",
        "streetNameDisplayText": "WICKENS CRES, AJAX"
      }
    ]
  },
  {
    "postal": "L1T5E7",
    "result": []
  },
  {
    "postal": "L1T3A7",
    "result": [
      {
        "electoralDistricts": [
          {
            "election": null,
            "id": 1,
            "name": "Ajax"
          }
        ],
        "pollDivisionIds": [
          10136692
        ],
        "postalCode": "L1T3A7",
        "streetName": "LINTON",
        "streetDirectionId": null,
        "streetTypeId": "AVE",
        "placeName": "AJAX",
        "streetNameDisplayText": "LINTON AVE, AJAX"
      }
    ]
  },
  {
    "postal": "L1T1B9",
    "result": []
  },
  {
    "postal": "L1T9E8",
    "result": []
  },
  {
    "postal": "L1T1C9",
    "result": []
  },
  {
    "postal": "L1T3B5",
    "result": [
      {
        "electoralDistricts": [
          {
            "election": null,
            "id": 1,
            "name": "Ajax"
          }
        ],
        "pollDivisionIds": [
          10136695
        ],
        "postalCode": "L1T3B5",
        "streetName": "DUCATEL",
        "streetDirectionId": null,
        "streetTypeId": "CRES",
        "placeName": "AJAX",
        "streetNameDisplayText": "DUCATEL CRES, AJAX"
      }
    ]
  },
  {
    "postal": "L1T8R0",
    "result": []
  },
  {
    "postal": "L1T3P2",
    "result": [
      {
        "electoralDistricts": [
          {
            "election": null,
            "id": 1,
            "name": "Ajax"
          }
        ],
        "pollDivisionIds": [
          10136689
        ],
        "postalCode": "L1T3P2",
        "streetName": "KEYS",
        "streetDirectionId": null,
        "streetTypeId": "DR",
        "placeName": "AJAX",
        "streetNameDisplayText": "KEYS DR, AJAX"
      },
      {
        "electoralDistricts": [
          {
            "election": null,
            "id": 1,
            "name": "Ajax"
          }
        ],
        "pollDivisionIds": [
          10136689
        ],
        "postalCode": "L1T3P2",
        "streetName": "SULLIVAN",
        "streetDirectionId": null,
        "streetTypeId": "DR",
        "placeName": "AJAX",
        "streetNameDisplayText": "SULLIVAN DR, AJAX"
      }
    ]
  },
  {
    "postal": "L1T5V4",
    "result": []
  },
  {
    "postal": "L1T4H0",
    "result": []
  },
  {
    "postal": "L1T4S7",
    "result": [
      {
        "electoralDistricts": [
          {
            "election": null,
            "id": 1,
            "name": "Ajax"
          }
        ],
        "pollDivisionIds": [
          10136683
        ],
        "postalCode": "L1T4S7",
        "streetName": "WESTNEY",
        "streetDirectionId": "N",
        "streetTypeId": "RD",
        "placeName": "AJAX",
        "streetNameDisplayText": "WESTNEY RD N, AJAX"
      }
    ]
  },
  {
    "postal": "L1T6C2",
    "result": []
  },
  {
    "postal": "L1T8W3",
    "result": []
  },
  {
    "postal": "L1T4M5",
    "result": [
      {
        "electoralDistricts": [
          {
            "election": null,
            "id": 1,
            "name": "Ajax"
          }
        ],
        "pollDivisionIds": [
          10136695
        ],
        "postalCode": "L1T4M5",
        "streetName": "MAGILL",
        "streetDirectionId": null,
        "streetTypeId": "DR",
        "placeName": "AJAX",
        "streetNameDisplayText": "MAGILL DR, AJAX"
      }
    ]
  },
  {
    "postal": "L1T5T1",
    "result": []
  },
  {
    "postal": "L1T3B3",
    "result": [
      {
        "electoralDistricts": [
          {
            "election": null,
            "id": 1,
            "name": "Ajax"
          }
        ],
        "pollDivisionIds": [
          10136695
        ],
        "postalCode": "L1T3B3",
        "streetName": "DOWERS",
        "streetDirectionId": null,
        "streetTypeId": "DR",
        "placeName": "AJAX",
        "streetNameDisplayText": "DOWERS DR, AJAX"
      }
    ]
  },
  {
    "postal": "L1T6C6",
    "result": []
  },
  {
    "postal": "L1T7N8",
    "result": []
  },
  {
    "postal": "L1T2Y3",
    "result": [
      {
        "electoralDistricts": [
          {
            "election": null,
            "id": 1,
            "name": "Ajax"
          }
        ],
        "pollDivisionIds": [
          10136692
        ],
        "postalCode": "L1T2Y3",
        "streetName": "SHERWOOD",
        "streetDirectionId": "W",
        "streetTypeId": "RD",
        "placeName": "AJAX",
        "streetNameDisplayText": "SHERWOOD RD W, AJAX"
      }
    ]
  },
  {
    "postal": "L1T2R6",
    "result": [
      {
        "electoralDistricts": [
          {
            "election": null,
            "id": 1,
            "name": "Ajax"
          }
        ],
        "pollDivisionIds": [
          10136690
        ],
        "postalCode": "L1T2R6",
        "streetName": "DAKIN",
        "streetDirectionId": null,
        "streetTypeId": "DR",
        "placeName": "AJAX",
        "streetNameDisplayText": "DAKIN DR, AJAX"
      },
      {
        "electoralDistricts": [
          {
            "election": null,
            "id": 1,
            "name": "Ajax"
          }
        ],
        "pollDivisionIds": [
          10136690
        ],
        "postalCode": "L1T2R6",
        "streetName": "LARGE",
        "streetDirectionId": null,
        "streetTypeId": "CRES",
        "placeName": "AJAX",
        "streetNameDisplayText": "LARGE CRES, AJAX"
      }
    ]
  },
  {
    "postal": "L1T7N3",
    "result": []
  },
  {
    "postal": "L1T8J2",
    "result": []
  },
  {
    "postal": "L1T6A9",
    "result": []
  },
  {
    "postal": "L1T3V2",
    "result": [
      {
        "electoralDistricts": [
          {
            "election": null,
            "id": 1,
            "name": "Ajax"
          }
        ],
        "pollDivisionIds": [
          10136694
        ],
        "postalCode": "L1T3V2",
        "streetName": "WESTNEY",
        "streetDirectionId": "N",
        "streetTypeId": "RD",
        "placeName": "AJAX",
        "streetNameDisplayText": "WESTNEY RD N, AJAX"
      }
    ]
  },
  {
    "postal": "L1T2N3",
    "result": [
      {
        "electoralDistricts": [
          {
            "election": null,
            "id": 1,
            "name": "Ajax"
          }
        ],
        "pollDivisionIds": [
          10136684,
          10136690
        ],
        "postalCode": "L1T2N3",
        "streetName": "TRESHER",
        "streetDirectionId": null,
        "streetTypeId": "CRT",
        "placeName": "AJAX",
        "streetNameDisplayText": "TRESHER CRT, AJAX"
      }
    ]
  },
  {
    "postal": "L1T1S5",
    "result": [
      {
        "electoralDistricts": [
          {
            "election": null,
            "id": 1,
            "name": "Ajax"
          }
        ],
        "pollDivisionIds": [
          10136694
        ],
        "postalCode": "L1T1S5",
        "streetName": "BRIGHTLY",
        "streetDirectionId": null,
        "streetTypeId": "DR",
        "placeName": "AJAX",
        "streetNameDisplayText": "BRIGHTLY DR, AJAX"
      }
    ]
  },
  {
    "postal": "L1T4T7",
    "result": [
      {
        "electoralDistricts": [
          {
            "election": null,
            "id": 1,
            "name": "Ajax"
          }
        ],
        "pollDivisionIds": [
          10136687
        ],
        "postalCode": "L1T4T7",
        "streetName": "WESTNEY",
        "streetDirectionId": "N",
        "streetTypeId": "RD",
        "placeName": "AJAX",
        "streetNameDisplayText": "WESTNEY RD N, AJAX"
      }
    ]
  },
  {
    "postal": "L1T6Y7",
    "result": []
  },
  {
    "postal": "L1T0W7",
    "result": []
  },
  {
    "postal": "L1T2W9",
    "result": [
      {
        "electoralDistricts": [
          {
            "election": null,
            "id": 1,
            "name": "Ajax"
          }
        ],
        "pollDivisionIds": [
          10136692
        ],
        "postalCode": "L1T2W9",
        "streetName": "ELIZABETH",
        "streetDirectionId": null,
        "streetTypeId": "ST",
        "placeName": "AJAX",
        "streetNameDisplayText": "ELIZABETH ST, AJAX"
      }
    ]
  },
  {
    "postal": "L1T8V0",
    "result": []
  },
  {
    "postal": "L1T0H4",
    "result": []
  },
  {
    "postal": "L1T2T1",
    "result": [
      {
        "electoralDistricts": [
          {
            "election": null,
            "id": 1,
            "name": "Ajax"
          }
        ],
        "pollDivisionIds": [
          10136690
        ],
        "postalCode": "L1T2T1",
        "streetName": "LARGE",
        "streetDirectionId": null,
        "streetTypeId": "CRES",
        "placeName": "AJAX",
        "streetNameDisplayText": "LARGE CRES, AJAX"
      }
    ]
  },
  {
    "postal": "L1T1B1",
    "result": []
  },
  {
    "postal": "L1T8B6",
    "result": []
  },
  {
    "postal": "L1T6H1",
    "result": []
  },
  {
    "postal": "L1T8T8",
    "result": []
  },
  {
    "postal": "L1T0T4",
    "result": []
  },
  {
    "postal": "L1T2C4",
    "result": [
      {
        "electoralDistricts": [
          {
            "election": null,
            "id": 1,
            "name": "Ajax"
          }
        ],
        "pollDivisionIds": [
          10136694
        ],
        "postalCode": "L1T2C4",
        "streetName": "BARRETT",
        "streetDirectionId": null,
        "streetTypeId": "CRES",
        "placeName": "AJAX",
        "streetNameDisplayText": "BARRETT CRES, AJAX"
      }
    ]
  },
  {
    "postal": "L1T8N3",
    "result": []
  },
  {
    "postal": "L1T4L8",
    "result": [
      {
        "electoralDistricts": [
          {
            "election": null,
            "id": 1,
            "name": "Ajax"
          }
        ],
        "pollDivisionIds": [
          10136685
        ],
        "postalCode": "L1T4L8",
        "streetName": "BATT",
        "streetDirectionId": null,
        "streetTypeId": "CRES",
        "placeName": "AJAX",
        "streetNameDisplayText": "BATT CRES, AJAX"
      },
      {
        "electoralDistricts": [
          {
            "election": null,
            "id": 1,
            "name": "Ajax"
          }
        ],
        "pollDivisionIds": [
          10136685
        ],
        "postalCode": "L1T4L8",
        "streetName": "NOBBS",
        "streetDirectionId": null,
        "streetTypeId": "DR",
        "placeName": "AJAX",
        "streetNameDisplayText": "NOBBS DR, AJAX"
      }
    ]
  },
  {
    "postal": "L1T2B5",
    "result": [
      {
        "electoralDistricts": [
          {
            "election": null,
            "id": 1,
            "name": "Ajax"
          }
        ],
        "pollDivisionIds": [
          10136694,
          10136690,
          10136691
        ],
        "postalCode": "L1T2B5",
        "streetName": "DELANEY",
        "streetDirectionId": null,
        "streetTypeId": "DR",
        "placeName": "AJAX",
        "streetNameDisplayText": "DELANEY DR, AJAX"
      }
    ]
  },
  {
    "postal": "L1T3H1",
    "result": [
      {
        "electoralDistricts": [
          {
            "election": null,
            "id": 1,
            "name": "Ajax"
          }
        ],
        "pollDivisionIds": [
          10136695
        ],
        "postalCode": "L1T3H1",
        "streetName": "CHAPMAN",
        "streetDirectionId": null,
        "streetTypeId": "DR",
        "placeName": "AJAX",
        "streetNameDisplayText": "CHAPMAN DR, AJAX"
      },
      {
        "electoralDistricts": [
          {
            "election": null,
            "id": 1,
            "name": "Ajax"
          }
        ],
        "pollDivisionIds": [
          10136695
        ],
        "postalCode": "L1T3H1",
        "streetName": "CHAPMAN",
        "streetDirectionId": null,
        "streetTypeId": "RD",
        "placeName": "AJAX",
        "streetNameDisplayText": "CHAPMAN RD, AJAX"
      }
    ]
  },
  {
    "postal": "L1T4Y1",
    "result": [
      {
        "electoralDistricts": [
          {
            "election": null,
            "id": 1,
            "name": "Ajax"
          }
        ],
        "pollDivisionIds": [
          10136682
        ],
        "postalCode": "L1T4Y1",
        "streetName": "CLAPPERTON",
        "streetDirectionId": null,
        "streetTypeId": "DR",
        "placeName": "AJAX",
        "streetNameDisplayText": "CLAPPERTON DR, AJAX"
      }
    ]
  },
  {
    "postal": "L1T7E2",
    "result": []
  },
  {
    "postal": "L1T2P5",
    "result": [
      {
        "electoralDistricts": [
          {
            "election": null,
            "id": 1,
            "name": "Ajax"
          }
        ],
        "pollDivisionIds": [
          10136690
        ],
        "postalCode": "L1T2P5",
        "streetName": "CARRICK",
        "streetDirectionId": null,
        "streetTypeId": "AVE",
        "placeName": "AJAX",
        "streetNameDisplayText": "CARRICK AVE, AJAX"
      },
      {
        "electoralDistricts": [
          {
            "election": null,
            "id": 1,
            "name": "Ajax"
          }
        ],
        "pollDivisionIds": [
          10136690
        ],
        "postalCode": "L1T2P5",
        "streetName": "GURR",
        "streetDirectionId": null,
        "streetTypeId": "CRES",
        "placeName": "AJAX",
        "streetNameDisplayText": "GURR CRES, AJAX"
      }
    ]
  },
  {
    "postal": "L1T8R7",
    "result": []
  },
  {
    "postal": "L1T9P1",
    "result": []
  },
  {
    "postal": "L1T3B8",
    "result": [
      {
        "electoralDistricts": [
          {
            "election": null,
            "id": 1,
            "name": "Ajax"
          }
        ],
        "pollDivisionIds": [
          10136695
        ],
        "postalCode": "L1T3B8",
        "streetName": "COOMER",
        "streetDirectionId": null,
        "streetTypeId": "CRES",
        "placeName": "AJAX",
        "streetNameDisplayText": "COOMER CRES, AJAX"
      },
      {
        "electoralDistricts": [
          {
            "election": null,
            "id": 1,
            "name": "Ajax"
          }
        ],
        "pollDivisionIds": [
          10136695
        ],
        "postalCode": "L1T3B8",
        "streetName": "DUCATEL",
        "streetDirectionId": null,
        "streetTypeId": "CRES",
        "placeName": "AJAX",
        "streetNameDisplayText": "DUCATEL CRES, AJAX"
      }
    ]
  },
  {
    "postal": "L1T3P7",
    "result": [
      {
        "electoralDistricts": [
          {
            "election": null,
            "id": 1,
            "name": "Ajax"
          }
        ],
        "pollDivisionIds": [
          10136689
        ],
        "postalCode": "L1T3P7",
        "streetName": "HUGHES",
        "streetDirectionId": null,
        "streetTypeId": "CRES",
        "placeName": "AJAX",
        "streetNameDisplayText": "HUGHES CRES, AJAX"
      },
      {
        "electoralDistricts": [
          {
            "election": null,
            "id": 1,
            "name": "Ajax"
          }
        ],
        "pollDivisionIds": [
          10136689
        ],
        "postalCode": "L1T3P7",
        "streetName": "KEYS",
        "streetDirectionId": null,
        "streetTypeId": "DR",
        "placeName": "AJAX",
        "streetNameDisplayText": "KEYS DR, AJAX"
      }
    ]
  },
  {
    "postal": "L1T9B2",
    "result": []
  },
  {
    "postal": "L1T6Z3",
    "result": []
  },
  {
    "postal": "L1T4N5",
    "result": [
      {
        "electoralDistricts": [
          {
            "election": null,
            "id": 1,
            "name": "Ajax"
          }
        ],
        "pollDivisionIds": [
          10136682
        ],
        "postalCode": "L1T4N5",
        "streetName": "CARTER-BENNETT",
        "streetDirectionId": null,
        "streetTypeId": "DR",
        "placeName": "AJAX",
        "streetNameDisplayText": "CARTER-BENNETT DR, AJAX"
      },
      {
        "electoralDistricts": [
          {
            "election": null,
            "id": 1,
            "name": "Ajax"
          }
        ],
        "pollDivisionIds": [
          10136682
        ],
        "postalCode": "L1T4N5",
        "streetName": "FREER",
        "streetDirectionId": null,
        "streetTypeId": "CRES",
        "placeName": "AJAX",
        "streetNameDisplayText": "FREER CRES, AJAX"
      }
    ]
  },
  {
    "postal": "L1T8T3",
    "result": []
  },
  {
    "postal": "L1T1V2",
    "result": [
      {
        "electoralDistricts": [
          {
            "election": null,
            "id": 1,
            "name": "Ajax"
          }
        ],
        "pollDivisionIds": [
          10136694
        ],
        "postalCode": "L1T1V2",
        "streetName": "ADDLEY",
        "streetDirectionId": null,
        "streetTypeId": "CRES",
        "placeName": "AJAX",
        "streetNameDisplayText": "ADDLEY CRES, AJAX"
      }
    ]
  },
  {
    "postal": "L1T1Y0",
    "result": []
  },
  {
    "postal": "L1T3G6",
    "result": [
      {
        "electoralDistricts": [
          {
            "election": null,
            "id": 1,
            "name": "Ajax"
          }
        ],
        "pollDivisionIds": [
          10136695
        ],
        "postalCode": "L1T3G6",
        "streetName": "COLES",
        "streetDirectionId": null,
        "streetTypeId": "AVE",
        "placeName": "AJAX",
        "streetNameDisplayText": "COLES AVE, AJAX"
      }
    ]
  },
  {
    "postal": "L1T3H7",
    "result": [
      {
        "electoralDistricts": [
          {
            "election": null,
            "id": 1,
            "name": "Ajax"
          }
        ],
        "pollDivisionIds": [
          10136695
        ],
        "postalCode": "L1T3H7",
        "streetName": "DOMINY",
        "streetDirectionId": null,
        "streetTypeId": "DR",
        "placeName": "AJAX",
        "streetNameDisplayText": "DOMINY DR, AJAX"
      },
      {
        "electoralDistricts": [
          {
            "election": null,
            "id": 1,
            "name": "Ajax"
          }
        ],
        "pollDivisionIds": [
          10136689,
          10136695
        ],
        "postalCode": "L1T3H7",
        "streetName": "MAGILL",
        "streetDirectionId": null,
        "streetTypeId": "DR",
        "placeName": "AJAX",
        "streetNameDisplayText": "MAGILL DR, AJAX"
      }
    ]
  },
  {
    "postal": "L1T7X8",
    "result": []
  },
  {
    "postal": "L1T0C7",
    "result": [
      {
        "electoralDistricts": [
          {
            "election": null,
            "id": 1,
            "name": "Ajax"
          }
        ],
        "pollDivisionIds": [
          10136687
        ],
        "postalCode": "L1T0C7",
        "streetName": "HASKELL",
        "streetDirectionId": null,
        "streetTypeId": "AVE",
        "placeName": "AJAX",
        "streetNameDisplayText": "HASKELL AVE, AJAX"
      },
      {
        "electoralDistricts": [
          {
            "election": null,
            "id": 1,
            "name": "Ajax"
          }
        ],
        "pollDivisionIds": [
          10136687
        ],
        "postalCode": "L1T0C7",
        "streetName": "WESTON",
        "streetDirectionId": null,
        "streetTypeId": "CRES",
        "placeName": "AJAX",
        "streetNameDisplayText": "WESTON CRES, AJAX"
      }
    ]
  },
  {
    "postal": "L1T0W9",
    "result": []
  },
  {
    "postal": "L1T8E6",
    "result": []
  },
  {
    "postal": "L1T9Z8",
    "result": []
  },
  {
    "postal": "L1T3P4",
    "result": [
      {
        "electoralDistricts": [
          {
            "election": null,
            "id": 1,
            "name": "Ajax"
          }
        ],
        "pollDivisionIds": [
          10136689
        ],
        "postalCode": "L1T3P4",
        "streetName": "KEYS",
        "streetDirectionId": null,
        "streetTypeId": "DR",
        "placeName": "AJAX",
        "streetNameDisplayText": "KEYS DR, AJAX"
      },
      {
        "electoralDistricts": [
          {
            "election": null,
            "id": 1,
            "name": "Ajax"
          }
        ],
        "pollDivisionIds": [
          10136683,
          10136689
        ],
        "postalCode": "L1T3P4",
        "streetName": "SULLIVAN",
        "streetDirectionId": null,
        "streetTypeId": "DR",
        "placeName": "AJAX",
        "streetNameDisplayText": "SULLIVAN DR, AJAX"
      },
      {
        "electoralDistricts": [
          {
            "election": null,
            "id": 1,
            "name": "Ajax"
          }
        ],
        "pollDivisionIds": [
          10136689
        ],
        "postalCode": "L1T3P4",
        "streetName": "WILLER",
        "streetDirectionId": null,
        "streetTypeId": "AVE",
        "placeName": "AJAX",
        "streetNameDisplayText": "WILLER AVE, AJAX"
      }
    ]
  },
  {
    "postal": "L1T6L8",
    "result": []
  },
  {
    "postal": "L1T2R4",
    "result": [
      {
        "electoralDistricts": [
          {
            "election": null,
            "id": 1,
            "name": "Ajax"
          }
        ],
        "pollDivisionIds": [
          10136690
        ],
        "postalCode": "L1T2R4",
        "streetName": "LARGE",
        "streetDirectionId": null,
        "streetTypeId": "CRES",
        "placeName": "AJAX",
        "streetNameDisplayText": "LARGE CRES, AJAX"
      }
    ]
  },
  {
    "postal": "L1T2W1",
    "result": [
      {
        "electoralDistricts": [
          {
            "election": null,
            "id": 1,
            "name": "Ajax"
          }
        ],
        "pollDivisionIds": [
          10136692
        ],
        "postalCode": "L1T2W1",
        "streetName": "CAMERON",
        "streetDirectionId": null,
        "streetTypeId": "ST",
        "placeName": "AJAX",
        "streetNameDisplayText": "CAMERON ST, AJAX"
      }
    ]
  },
  {
    "postal": "L1T9H8",
    "result": []
  },
  {
    "postal": "L1T8X9",
    "result": []
  },
  {
    "postal": "L1T7H4",
    "result": []
  },
  {
    "postal": "L1T3J1",
    "result": [
      {
        "electoralDistricts": [
          {
            "election": null,
            "id": 1,
            "name": "Ajax"
          }
        ],
        "pollDivisionIds": [
          10136695
        ],
        "postalCode": "L1T3J1",
        "streetName": "COE",
        "streetDirectionId": null,
        "streetTypeId": "DR",
        "placeName": "AJAX",
        "streetNameDisplayText": "COE DR, AJAX"
      }
    ]
  },
  {
    "postal": "L1T1P4",
    "result": [
      {
        "electoralDistricts": [
          {
            "election": null,
            "id": 1,
            "name": "Ajax"
          }
        ],
        "pollDivisionIds": [
          10136694
        ],
        "postalCode": "L1T1P4",
        "streetName": "WESTNEY",
        "streetDirectionId": "N",
        "streetTypeId": "RD",
        "placeName": "AJAX",
        "streetNameDisplayText": "WESTNEY RD N, AJAX"
      }
    ]
  },
  {
    "postal": "L1T2A3",
    "result": [
      {
        "electoralDistricts": [
          {
            "election": null,
            "id": 1,
            "name": "Ajax"
          }
        ],
        "pollDivisionIds": [
          10136691
        ],
        "postalCode": "L1T2A3",
        "streetName": "RAVENSCROFT",
        "streetDirectionId": null,
        "streetTypeId": "RD",
        "placeName": "AJAX",
        "streetNameDisplayText": "RAVENSCROFT RD, AJAX"
      }
    ]
  },
  {
    "postal": "L1T0Z1",
    "result": []
  },
  {
    "postal": "L1T1C1",
    "result": []
  },
  {
    "postal": "L1T0H3",
    "result": []
  },
  {
    "postal": "L1T7B0",
    "result": []
  },
  {
    "postal": "L1T5K2",
    "result": []
  },
  {
    "postal": "L1T1E9",
    "result": []
  },
  {
    "postal": "L1T9W7",
    "result": []
  },
  {
    "postal": "L1T5W6",
    "result": []
  },
  {
    "postal": "L1T6S6",
    "result": []
  },
  {
    "postal": "L1T2P8",
    "result": [
      {
        "electoralDistricts": [
          {
            "election": null,
            "id": 1,
            "name": "Ajax"
          }
        ],
        "pollDivisionIds": [
          10136690
        ],
        "postalCode": "L1T2P8",
        "streetName": "PEARCE",
        "streetDirectionId": null,
        "streetTypeId": "DR",
        "placeName": "AJAX",
        "streetNameDisplayText": "PEARCE DR, AJAX"
      }
    ]
  },
  {
    "postal": "L1T4P8",
    "result": [
      {
        "electoralDistricts": [
          {
            "election": null,
            "id": 1,
            "name": "Ajax"
          }
        ],
        "pollDivisionIds": [
          10136681
        ],
        "postalCode": "L1T4P8",
        "streetName": "ROSSLAND",
        "streetDirectionId": "W",
        "streetTypeId": "RD",
        "placeName": "AJAX",
        "streetNameDisplayText": "ROSSLAND RD W, AJAX"
      }
    ]
  },
  {
    "postal": "L1T0V9",
    "result": []
  },
  {
    "postal": "L1T5Y2",
    "result": []
  },
  {
    "postal": "L1T7Z7",
    "result": []
  },
  {
    "postal": "L1T6Y8",
    "result": []
  },
  {
    "postal": "L1T2G7",
    "result": [
      {
        "electoralDistricts": [
          {
            "election": null,
            "id": 1,
            "name": "Ajax"
          }
        ],
        "pollDivisionIds": [
          10136694
        ],
        "postalCode": "L1T2G7",
        "streetName": "CHATFIELD",
        "streetDirectionId": null,
        "streetTypeId": "DR",
        "placeName": "AJAX",
        "streetNameDisplayText": "CHATFIELD DR, AJAX"
      },
      {
        "electoralDistricts": [
          {
            "election": null,
            "id": 1,
            "name": "Ajax"
          }
        ],
        "pollDivisionIds": [
          10136694
        ],
        "postalCode": "L1T2G7",
        "streetName": "STOCKBRIDGE",
        "streetDirectionId": null,
        "streetTypeId": "CRES",
        "placeName": "AJAX",
        "streetNameDisplayText": "STOCKBRIDGE CRES, AJAX"
      }
    ]
  },
  {
    "postal": "L1T8C1",
    "result": []
  },
  {
    "postal": "L1T5C5",
    "result": []
  },
  {
    "postal": "L1T2X8",
    "result": [
      {
        "electoralDistricts": [
          {
            "election": null,
            "id": 1,
            "name": "Ajax"
          }
        ],
        "pollDivisionIds": [
          10136693
        ],
        "postalCode": "L1T2X8",
        "streetName": "PINOAK",
        "streetDirectionId": null,
        "streetTypeId": "RD",
        "placeName": "AJAX",
        "streetNameDisplayText": "PINOAK RD, AJAX"
      }
    ]
  },
  {
    "postal": "L1T1W5",
    "result": [
      {
        "electoralDistricts": [
          {
            "election": null,
            "id": 1,
            "name": "Ajax"
          }
        ],
        "pollDivisionIds": [
          10136694
        ],
        "postalCode": "L1T1W5",
        "streetName": "DANIELS",
        "streetDirectionId": null,
        "streetTypeId": "CRES",
        "placeName": "AJAX",
        "streetNameDisplayText": "DANIELS CRES, AJAX"
      },
      {
        "electoralDistricts": [
          {
            "election": null,
            "id": 1,
            "name": "Ajax"
          }
        ],
        "pollDivisionIds": [
          10136694,
          10136691
        ],
        "postalCode": "L1T1W5",
        "streetName": "RAVENSCROFT",
        "streetDirectionId": null,
        "streetTypeId": "RD",
        "placeName": "AJAX",
        "streetNameDisplayText": "RAVENSCROFT RD, AJAX"
      }
    ]
  },
  {
    "postal": "L1T7G0",
    "result": []
  },
  {
    "postal": "L1T8J8",
    "result": []
  },
  {
    "postal": "L1T3Y0",
    "result": []
  },
  {
    "postal": "L1T9T7",
    "result": []
  },
  {
    "postal": "L1T5P4",
    "result": []
  },
  {
    "postal": "L1T4B0",
    "result": []
  },
  {
    "postal": "L1T9N8",
    "result": []
  },
  {
    "postal": "L1T4A7",
    "result": [
      {
        "electoralDistricts": [
          {
            "election": null,
            "id": 1,
            "name": "Ajax"
          }
        ],
        "pollDivisionIds": [
          10136681
        ],
        "postalCode": "L1T4A7",
        "streetName": "DENNIS",
        "streetDirectionId": null,
        "streetTypeId": "DR",
        "placeName": "AJAX",
        "streetNameDisplayText": "DENNIS DR, AJAX"
      },
      {
        "electoralDistricts": [
          {
            "election": null,
            "id": 1,
            "name": "Ajax"
          }
        ],
        "pollDivisionIds": [
          10136681
        ],
        "postalCode": "L1T4A7",
        "streetName": "KEMP",
        "streetDirectionId": null,
        "streetTypeId": "DR",
        "placeName": "AJAX",
        "streetNameDisplayText": "KEMP DR, AJAX"
      }
    ]
  },
  {
    "postal": "L1T4H9",
    "result": [
      {
        "electoralDistricts": [
          {
            "election": null,
            "id": 1,
            "name": "Ajax"
          }
        ],
        "pollDivisionIds": [
          10136687
        ],
        "postalCode": "L1T4H9",
        "streetName": "GOODHART",
        "streetDirectionId": null,
        "streetTypeId": "CRES",
        "placeName": "AJAX",
        "streetNameDisplayText": "GOODHART CRES, AJAX"
      },
      {
        "electoralDistricts": [
          {
            "election": null,
            "id": 1,
            "name": "Ajax"
          }
        ],
        "pollDivisionIds": [
          10136687
        ],
        "postalCode": "L1T4H9",
        "streetName": "MCALPINE",
        "streetDirectionId": null,
        "streetTypeId": "AVE",
        "placeName": "AJAX",
        "streetNameDisplayText": "MCALPINE AVE, AJAX"
      }
    ]
  },
  {
    "postal": "L1T6X1",
    "result": []
  },
  {
    "postal": "L1T9Y7",
    "result": []
  },
  {
    "postal": "L1T2Y5",
    "result": [
      {
        "electoralDistricts": [
          {
            "election": null,
            "id": 1,
            "name": "Ajax"
          }
        ],
        "pollDivisionIds": [
          10136693
        ],
        "postalCode": "L1T2Y5",
        "streetName": "SHERWOOD",
        "streetDirectionId": "E",
        "streetTypeId": "RD",
        "placeName": "AJAX",
        "streetNameDisplayText": "SHERWOOD RD E, AJAX"
      }
    ]
  },
  {
    "postal": "L1T8L7",
    "result": []
  },
  {
    "postal": "L1T2A8",
    "result": [
      {
        "electoralDistricts": [
          {
            "election": null,
            "id": 1,
            "name": "Ajax"
          }
        ],
        "pollDivisionIds": [
          10136690
        ],
        "postalCode": "L1T2A8",
        "streetName": "MULLEN",
        "streetDirectionId": null,
        "streetTypeId": "DR",
        "placeName": "AJAX",
        "streetNameDisplayText": "MULLEN DR, AJAX"
      }
    ]
  },
  {
    "postal": "L1T2K9",
    "result": [
      {
        "electoralDistricts": [
          {
            "election": null,
            "id": 1,
            "name": "Ajax"
          }
        ],
        "pollDivisionIds": [
          10136690
        ],
        "postalCode": "L1T2K9",
        "streetName": "TIPTON",
        "streetDirectionId": null,
        "streetTypeId": "CRES",
        "placeName": "AJAX",
        "streetNameDisplayText": "TIPTON CRES, AJAX"
      }
    ]
  },
  {
    "postal": "L1T3E5",
    "result": [
      {
        "electoralDistricts": [
          {
            "election": null,
            "id": 1,
            "name": "Ajax"
          }
        ],
        "pollDivisionIds": [
          10136695
        ],
        "postalCode": "L1T3E5",
        "streetName": "CARR",
        "streetDirectionId": null,
        "streetTypeId": "DR",
        "placeName": "AJAX",
        "streetNameDisplayText": "CARR DR, AJAX"
      },
      {
        "electoralDistricts": [
          {
            "election": null,
            "id": 1,
            "name": "Ajax"
          }
        ],
        "pollDivisionIds": [
          10136695
        ],
        "postalCode": "L1T3E5",
        "streetName": "CHAPMAN",
        "streetDirectionId": null,
        "streetTypeId": "DR",
        "placeName": "AJAX",
        "streetNameDisplayText": "CHAPMAN DR, AJAX"
      },
      {
        "electoralDistricts": [
          {
            "election": null,
            "id": 1,
            "name": "Ajax"
          }
        ],
        "pollDivisionIds": [
          10136689
        ],
        "postalCode": "L1T3E5",
        "streetName": "RAINE",
        "streetDirectionId": null,
        "streetTypeId": "DR",
        "placeName": "AJAX,ON",
        "streetNameDisplayText": "RAINE DR, AJAX,ON"
      }
    ]
  },
  {
    "postal": "L1T8N6",
    "result": []
  },
  {
    "postal": "L1T8J4",
    "result": []
  },
  {
    "postal": "L1T4R7",
    "result": [
      {
        "electoralDistricts": [
          {
            "election": null,
            "id": 1,
            "name": "Ajax"
          }
        ],
        "pollDivisionIds": [
          10136682
        ],
        "postalCode": "L1T4R7",
        "streetName": "RAVENSCROFT",
        "streetDirectionId": null,
        "streetTypeId": "RD",
        "placeName": "AJAX",
        "streetNameDisplayText": "RAVENSCROFT RD, AJAX"
      }
    ]
  },
  {
    "postal": "L1T9K1",
    "result": []
  },
  {
    "postal": "L1T8E1",
    "result": []
  },
  {
    "postal": "L1T0R1",
    "result": []
  },
  {
    "postal": "L1T4J3",
    "result": [
      {
        "electoralDistricts": [
          {
            "election": null,
            "id": 1,
            "name": "Ajax"
          }
        ],
        "pollDivisionIds": [
          10136685
        ],
        "postalCode": "L1T4J3",
        "streetName": "DOOLEY",
        "streetDirectionId": null,
        "streetTypeId": "CRES",
        "placeName": "AJAX",
        "streetNameDisplayText": "DOOLEY CRES, AJAX"
      }
    ]
  },
  {
    "postal": "L1T7E7",
    "result": []
  },
  {
    "postal": "L1T0J0",
    "result": []
  },
  {
    "postal": "L1T7R8",
    "result": []
  },
  {
    "postal": "L1T9X0",
    "result": []
  },
  {
    "postal": "L1T7P6",
    "result": []
  },
  {
    "postal": "L1T0R7",
    "result": []
  },
  {
    "postal": "L1T5W1",
    "result": []
  },
  {
    "postal": "L1T0K4",
    "result": []
  },
  {
    "postal": "L1T7N9",
    "result": []
  },
  {
    "postal": "L1T1N0",
    "result": []
  },
  {
    "postal": "L1T6P3",
    "result": []
  },
  {
    "postal": "L1T5A1",
    "result": [
      {
        "electoralDistricts": [
          {
            "election": null,
            "id": 1,
            "name": "Ajax"
          }
        ],
        "pollDivisionIds": [
          10136682,
          10136681
        ],
        "postalCode": "L1T5A1",
        "streetName": "TOZER",
        "streetDirectionId": null,
        "streetTypeId": "CRES",
        "placeName": "AJAX",
        "streetNameDisplayText": "TOZER CRES, AJAX"
      }
    ]
  },
  {
    "postal": "L1T9M9",
    "result": []
  },
  {
    "postal": "L1T7T6",
    "result": []
  },
  {
    "postal": "L1T3X0",
    "result": []
  },
  {
    "postal": "L1T2T0",
    "result": []
  },
  {
    "postal": "L1T5X9",
    "result": []
  },
  {
    "postal": "L1T2R3",
    "result": [
      {
        "electoralDistricts": [
          {
            "election": null,
            "id": 1,
            "name": "Ajax"
          }
        ],
        "pollDivisionIds": [
          10136690
        ],
        "postalCode": "L1T2R3",
        "streetName": "HUFTON",
        "streetDirectionId": null,
        "streetTypeId": "CRT",
        "placeName": "AJAX",
        "streetNameDisplayText": "HUFTON CRT, AJAX"
      },
      {
        "electoralDistricts": [
          {
            "election": null,
            "id": 1,
            "name": "Ajax"
          }
        ],
        "pollDivisionIds": [
          10136690
        ],
        "postalCode": "L1T2R3",
        "streetName": "LARGE",
        "streetDirectionId": null,
        "streetTypeId": "CRES",
        "placeName": "AJAX",
        "streetNameDisplayText": "LARGE CRES, AJAX"
      }
    ]
  },
  {
    "postal": "L1T5N2",
    "result": []
  },
  {
    "postal": "L1T4Y7",
    "result": [
      {
        "electoralDistricts": [
          {
            "election": null,
            "id": 1,
            "name": "Ajax"
          }
        ],
        "pollDivisionIds": [
          10136687
        ],
        "postalCode": "L1T4Y7",
        "streetName": "GRAINGER",
        "streetDirectionId": null,
        "streetTypeId": "CRES",
        "placeName": "AJAX",
        "streetNameDisplayText": "GRAINGER CRES, AJAX"
      },
      {
        "electoralDistricts": [
          {
            "election": null,
            "id": 1,
            "name": "Ajax"
          }
        ],
        "pollDivisionIds": [
          10136687
        ],
        "postalCode": "L1T4Y7",
        "streetName": "WHEATLEY",
        "streetDirectionId": null,
        "streetTypeId": "CRES",
        "placeName": "AJAX",
        "streetNameDisplayText": "WHEATLEY CRES, AJAX"
      }
    ]
  },
  {
    "postal": "L1T7M0",
    "result": []
  },
  {
    "postal": "L1T8P3",
    "result": []
  },
  {
    "postal": "L1T3N3",
    "result": [
      {
        "electoralDistricts": [
          {
            "election": null,
            "id": 1,
            "name": "Ajax"
          }
        ],
        "pollDivisionIds": [
          10136691
        ],
        "postalCode": "L1T3N3",
        "streetName": "GRIFFITHS",
        "streetDirectionId": null,
        "streetTypeId": "DR",
        "placeName": "AJAX",
        "streetNameDisplayText": "GRIFFITHS DR, AJAX"
      },
      {
        "electoralDistricts": [
          {
            "election": null,
            "id": 1,
            "name": "Ajax"
          }
        ],
        "pollDivisionIds": [
          10136691
        ],
        "postalCode": "L1T3N3",
        "streetName": "MARKS",
        "streetDirectionId": null,
        "streetTypeId": "CRT",
        "placeName": "AJAX",
        "streetNameDisplayText": "MARKS CRT, AJAX"
      },
      {
        "electoralDistricts": [
          {
            "election": null,
            "id": 1,
            "name": "Ajax"
          }
        ],
        "pollDivisionIds": [
          10136691
        ],
        "postalCode": "L1T3N3",
        "streetName": "MEEKINGS",
        "streetDirectionId": null,
        "streetTypeId": "DR",
        "placeName": "AJAX",
        "streetNameDisplayText": "MEEKINGS DR, AJAX"
      }
    ]
  },
  {
    "postal": "L1T7S3",
    "result": []
  },
  {
    "postal": "L1T3V9",
    "result": [
      {
        "electoralDistricts": [
          {
            "election": null,
            "id": 1,
            "name": "Ajax"
          }
        ],
        "pollDivisionIds": [
          10136691
        ],
        "postalCode": "L1T3V9",
        "streetName": "ILES",
        "streetDirectionId": null,
        "streetTypeId": "ST",
        "placeName": "AJAX",
        "streetNameDisplayText": "ILES ST, AJAX"
      },
      {
        "electoralDistricts": [
          {
            "election": null,
            "id": 1,
            "name": "Ajax"
          }
        ],
        "pollDivisionIds": [
          10136691
        ],
        "postalCode": "L1T3V9",
        "streetName": "SHALE",
        "streetDirectionId": null,
        "streetTypeId": "DR",
        "placeName": "AJAX",
        "streetNameDisplayText": "SHALE DR, AJAX"
      }
    ]
  },
  {
    "postal": "L1T9N7",
    "result": []
  },
  {
    "postal": "L1T0G4",
    "result": [
      {
        "electoralDistricts": [
          {
            "election": null,
            "id": 1,
            "name": "Ajax"
          }
        ],
        "pollDivisionIds": [
          10136686
        ],
        "postalCode": "L1T0G4",
        "streetName": "HESLOP",
        "streetDirectionId": null,
        "streetTypeId": "ST",
        "placeName": "AJAX",
        "streetNameDisplayText": "HESLOP ST, AJAX"
      },
      {
        "electoralDistricts": [
          {
            "election": null,
            "id": 1,
            "name": "Ajax"
          }
        ],
        "pollDivisionIds": [
          10136686
        ],
        "postalCode": "L1T0G4",
        "streetName": "HORNSELL",
        "streetDirectionId": null,
        "streetTypeId": "CIR",
        "placeName": "AJAX",
        "streetNameDisplayText": "HORNSELL CIR, AJAX"
      },
      {
        "electoralDistricts": [
          {
            "election": null,
            "id": 1,
            "name": "Ajax"
          }
        ],
        "pollDivisionIds": [
          10136686
        ],
        "postalCode": "L1T0G4",
        "streetName": "JESSETT",
        "streetDirectionId": null,
        "streetTypeId": "ST",
        "placeName": "AJAX",
        "streetNameDisplayText": "JESSETT ST, AJAX"
      }
    ]
  },
  {
    "postal": "L1T2E2",
    "result": [
      {
        "electoralDistricts": [
          {
            "election": null,
            "id": 1,
            "name": "Ajax"
          }
        ],
        "pollDivisionIds": [
          10136694
        ],
        "postalCode": "L1T2E2",
        "streetName": "RADFORD",
        "streetDirectionId": null,
        "streetTypeId": "DR",
        "placeName": "AJAX",
        "streetNameDisplayText": "RADFORD DR, AJAX"
      }
    ]
  },
  {
    "postal": "L1T7W8",
    "result": []
  },
  {
    "postal": "L1T7M5",
    "result": []
  },
  {
    "postal": "L1T5W8",
    "result": []
  },
  {
    "postal": "L1T5E5",
    "result": []
  },
  {
    "postal": "L1T1P9",
    "result": [
      {
        "electoralDistricts": [
          {
            "election": null,
            "id": 1,
            "name": "Ajax"
          }
        ],
        "pollDivisionIds": [
          10136694
        ],
        "postalCode": "L1T1P9",
        "streetName": "MILLINGTON",
        "streetDirectionId": null,
        "streetTypeId": "CRES",
        "placeName": "AJAX",
        "streetNameDisplayText": "MILLINGTON CRES, AJAX"
      }
    ]
  },
  {
    "postal": "L1T8V8",
    "result": []
  },
  {
    "postal": "L1T9G8",
    "result": []
  },
  {
    "postal": "L1T8H9",
    "result": []
  },
  {
    "postal": "L1T1Z1",
    "result": [
      {
        "electoralDistricts": [
          {
            "election": null,
            "id": 1,
            "name": "Ajax"
          }
        ],
        "pollDivisionIds": [
          10136691,
          10136694
        ],
        "postalCode": "L1T1Z1",
        "streetName": "DANIELS",
        "streetDirectionId": null,
        "streetTypeId": "CRES",
        "placeName": "AJAX",
        "streetNameDisplayText": "DANIELS CRES, AJAX"
      }
    ]
  },
  {
    "postal": "L1T8M3",
    "result": []
  },
  {
    "postal": "L1T5H6",
    "result": []
  },
  {
    "postal": "L1T7W7",
    "result": []
  },
  {
    "postal": "L1T4L0",
    "result": []
  },
  {
    "postal": "L1T2N1",
    "result": [
      {
        "electoralDistricts": [
          {
            "election": null,
            "id": 1,
            "name": "Ajax"
          }
        ],
        "pollDivisionIds": [
          10136690
        ],
        "postalCode": "L1T2N1",
        "streetName": "TRESHER",
        "streetDirectionId": null,
        "streetTypeId": "CRT",
        "placeName": "AJAX",
        "streetNameDisplayText": "TRESHER CRT, AJAX"
      }
    ]
  },
  {
    "postal": "L1T2H4",
    "result": [
      {
        "electoralDistricts": [
          {
            "election": null,
            "id": 1,
            "name": "Ajax"
          }
        ],
        "pollDivisionIds": [
          10136689,
          10136694
        ],
        "postalCode": "L1T2H4",
        "streetName": "CARNELLY",
        "streetDirectionId": null,
        "streetTypeId": "CRES",
        "placeName": "AJAX",
        "streetNameDisplayText": "CARNELLY CRES, AJAX"
      }
    ]
  },
  {
    "postal": "L1T5C8",
    "result": []
  },
  {
    "postal": "L1T8B0",
    "result": []
  },
  {
    "postal": "L1T1T4",
    "result": [
      {
        "electoralDistricts": [
          {
            "election": null,
            "id": 1,
            "name": "Ajax"
          }
        ],
        "pollDivisionIds": [
          10136691
        ],
        "postalCode": "L1T1T4",
        "streetName": "ROTHERGLEN",
        "streetDirectionId": "N",
        "streetTypeId": "RD",
        "placeName": "AJAX",
        "streetNameDisplayText": "ROTHERGLEN RD N, AJAX"
      }
    ]
  },
  {
    "postal": "L1T7N7",
    "result": []
  },
  {
    "postal": "L1T4L3",
    "result": [
      {
        "electoralDistricts": [
          {
            "election": null,
            "id": 1,
            "name": "Ajax"
          }
        ],
        "pollDivisionIds": [
          10136687
        ],
        "postalCode": "L1T4L3",
        "streetName": "CRANE",
        "streetDirectionId": null,
        "streetTypeId": "CRES",
        "placeName": "AJAX",
        "streetNameDisplayText": "CRANE CRES, AJAX"
      },
      {
        "electoralDistricts": [
          {
            "election": null,
            "id": 1,
            "name": "Ajax"
          }
        ],
        "pollDivisionIds": [
          10136687
        ],
        "postalCode": "L1T4L3",
        "streetName": "CRANES",
        "streetDirectionId": null,
        "streetTypeId": "CRES",
        "placeName": "AJAX",
        "streetNameDisplayText": "CRANES CRES, AJAX"
      },
      {
        "electoralDistricts": [
          {
            "election": null,
            "id": 1,
            "name": "Ajax"
          }
        ],
        "pollDivisionIds": [
          10136687
        ],
        "postalCode": "L1T4L3",
        "streetName": "PURDUE",
        "streetDirectionId": null,
        "streetTypeId": "AVE",
        "placeName": "AJAX",
        "streetNameDisplayText": "PURDUE AVE, AJAX"
      }
    ]
  },
  {
    "postal": "L1T2N2",
    "result": [
      {
        "electoralDistricts": [
          {
            "election": null,
            "id": 1,
            "name": "Ajax"
          }
        ],
        "pollDivisionIds": [
          10136690
        ],
        "postalCode": "L1T2N2",
        "streetName": "BROCKMAN",
        "streetDirectionId": null,
        "streetTypeId": "CRES",
        "placeName": "AJAX",
        "streetNameDisplayText": "BROCKMAN CRES, AJAX"
      },
      {
        "electoralDistricts": [
          {
            "election": null,
            "id": 1,
            "name": "Ajax"
          }
        ],
        "pollDivisionIds": [
          10136690
        ],
        "postalCode": "L1T2N2",
        "streetName": "TRESHER",
        "streetDirectionId": null,
        "streetTypeId": "CRT",
        "placeName": "AJAX",
        "streetNameDisplayText": "TRESHER CRT, AJAX"
      }
    ]
  },
  {
    "postal": "L1T4N8",
    "result": [
      {
        "electoralDistricts": [
          {
            "election": null,
            "id": 1,
            "name": "Ajax"
          }
        ],
        "pollDivisionIds": [
          10136682
        ],
        "postalCode": "L1T4N8",
        "streetName": "BEAN",
        "streetDirectionId": null,
        "streetTypeId": "CRES",
        "placeName": "AJAX",
        "streetNameDisplayText": "BEAN CRES, AJAX"
      },
      {
        "electoralDistricts": [
          {
            "election": null,
            "id": 1,
            "name": "Ajax"
          }
        ],
        "pollDivisionIds": [
          10136682
        ],
        "postalCode": "L1T4N8",
        "streetName": "CARTER-BENNETT",
        "streetDirectionId": null,
        "streetTypeId": "DR",
        "placeName": "AJAX",
        "streetNameDisplayText": "CARTER-BENNETT DR, AJAX"
      }
    ]
  },
  {
    "postal": "L1T3M5",
    "result": [
      {
        "electoralDistricts": [
          {
            "election": null,
            "id": 1,
            "name": "Ajax"
          }
        ],
        "pollDivisionIds": [
          10136689
        ],
        "postalCode": "L1T3M5",
        "streetName": "ABBS",
        "streetDirectionId": null,
        "streetTypeId": "CRT",
        "placeName": "AJAX",
        "streetNameDisplayText": "ABBS CRT, AJAX"
      },
      {
        "electoralDistricts": [
          {
            "election": null,
            "id": 1,
            "name": "Ajax"
          }
        ],
        "pollDivisionIds": [
          10136689
        ],
        "postalCode": "L1T3M5",
        "streetName": "SMITH",
        "streetDirectionId": null,
        "streetTypeId": "LANE",
        "placeName": "AJAX",
        "streetNameDisplayText": "SMITH LANE, AJAX"
      }
    ]
  },
  {
    "postal": "L1T6H7",
    "result": []
  },
  {
    "postal": "L1T8Y8",
    "result": []
  },
  {
    "postal": "L1T5R9",
    "result": []
  },
  {
    "postal": "L1T8G3",
    "result": []
  },
  {
    "postal": "L1T4N7",
    "result": [
      {
        "electoralDistricts": [
          {
            "election": null,
            "id": 1,
            "name": "Ajax"
          }
        ],
        "pollDivisionIds": [
          10136682
        ],
        "postalCode": "L1T4N7",
        "streetName": "CARTER-BENNETT",
        "streetDirectionId": null,
        "streetTypeId": "DR",
        "placeName": "AJAX",
        "streetNameDisplayText": "CARTER-BENNETT DR, AJAX"
      },
      {
        "electoralDistricts": [
          {
            "election": null,
            "id": 1,
            "name": "Ajax"
          }
        ],
        "pollDivisionIds": [
          10136682
        ],
        "postalCode": "L1T4N7",
        "streetName": "OXLADE",
        "streetDirectionId": null,
        "streetTypeId": "CRES",
        "placeName": "AJAX",
        "streetNameDisplayText": "OXLADE CRES, AJAX"
      }
    ]
  },
  {
    "postal": "L1T0B9",
    "result": [
      {
        "electoralDistricts": [
          {
            "election": null,
            "id": 1,
            "name": "Ajax"
          }
        ],
        "pollDivisionIds": [
          10136691
        ],
        "postalCode": "L1T0B9",
        "streetName": "DELANEY",
        "streetDirectionId": null,
        "streetTypeId": "DR",
        "placeName": "AJAX",
        "streetNameDisplayText": "DELANEY DR, AJAX"
      },
      {
        "electoralDistricts": [
          {
            "election": null,
            "id": 1,
            "name": "Ajax"
          }
        ],
        "pollDivisionIds": [
          10136691
        ],
        "postalCode": "L1T0B9",
        "streetName": "EDGLEY",
        "streetDirectionId": null,
        "streetTypeId": "CRT",
        "placeName": "AJAX",
        "streetNameDisplayText": "EDGLEY CRT, AJAX"
      }
    ]
  },
  {
    "postal": "L1T9K7",
    "result": []
  },
  {
    "postal": "L1T9K9",
    "result": []
  },
  {
    "postal": "L1T3Z2",
    "result": [
      {
        "electoralDistricts": [
          {
            "election": null,
            "id": 1,
            "name": "Ajax"
          }
        ],
        "pollDivisionIds": [
          10136692,
          10136700
        ],
        "postalCode": "L1T3Z2",
        "streetName": "OLD KINGSTON",
        "streetDirectionId": null,
        "streetTypeId": "RD",
        "placeName": "AJAX",
        "streetNameDisplayText": "OLD KINGSTON RD, AJAX"
      }
    ]
  },
  {
    "postal": "L1T6W7",
    "result": []
  },
  {
    "postal": "L1T0P1",
    "result": []
  },
  {
    "postal": "L1T3A0",
    "result": []
  },
  {
    "postal": "L1T8L9",
    "result": []
  },
  {
    "postal": "L1T6X0",
    "result": []
  },
  {
    "postal": "L1T3E9",
    "result": [
      {
        "electoralDistricts": [
          {
            "election": null,
            "id": 1,
            "name": "Ajax"
          }
        ],
        "pollDivisionIds": [
          10136695
        ],
        "postalCode": "L1T3E9",
        "streetName": "CORNWALL",
        "streetDirectionId": null,
        "streetTypeId": "DR",
        "placeName": "AJAX",
        "streetNameDisplayText": "CORNWALL DR, AJAX"
      }
    ]
  },
  {
    "postal": "L1T0S5",
    "result": []
  },
  {
    "postal": "L1T1A2",
    "result": []
  },
  {
    "postal": "L1T5V8",
    "result": []
  },
  {
    "postal": "L1T8C5",
    "result": []
  },
  {
    "postal": "L1T6N0",
    "result": []
  },
  {
    "postal": "L1T9E6",
    "result": []
  },
  {
    "postal": "L1T5J7",
    "result": []
  },
  {
    "postal": "L1T2R2",
    "result": [
      {
        "electoralDistricts": [
          {
            "election": null,
            "id": 1,
            "name": "Ajax"
          }
        ],
        "pollDivisionIds": [
          10136690
        ],
        "postalCode": "L1T2R2",
        "streetName": "LARGE",
        "streetDirectionId": null,
        "streetTypeId": "CRES",
        "placeName": "AJAX",
        "streetNameDisplayText": "LARGE CRES, AJAX"
      },
      {
        "electoralDistricts": [
          {
            "election": null,
            "id": 1,
            "name": "Ajax"
          }
        ],
        "pollDivisionIds": [
          10136690
        ],
        "postalCode": "L1T2R2",
        "streetName": "PEARCE",
        "streetDirectionId": null,
        "streetTypeId": "DR",
        "placeName": "AJAX",
        "streetNameDisplayText": "PEARCE DR, AJAX"
      }
    ]
  },
  {
    "postal": "L1T0P5",
    "result": []
  },
  {
    "postal": "L1T5A7",
    "result": []
  },
  {
    "postal": "L1T1G1",
    "result": []
  },
  {
    "postal": "L1T9R6",
    "result": []
  },
  {
    "postal": "L1T4Z9",
    "result": [
      {
        "electoralDistricts": [
          {
            "election": null,
            "id": 1,
            "name": "Ajax"
          }
        ],
        "pollDivisionIds": [
          10136682
        ],
        "postalCode": "L1T4Z9",
        "streetName": "TOZER",
        "streetDirectionId": null,
        "streetTypeId": "CRES",
        "placeName": "AJAX",
        "streetNameDisplayText": "TOZER CRES, AJAX"
      },
      {
        "electoralDistricts": [
          {
            "election": null,
            "id": 1,
            "name": "Ajax"
          }
        ],
        "pollDivisionIds": [
          10136682
        ],
        "postalCode": "L1T4Z9",
        "streetName": "WILLIAMSON",
        "streetDirectionId": "W",
        "streetTypeId": "DR",
        "placeName": "AJAX",
        "streetNameDisplayText": "WILLIAMSON DR W, AJAX"
      }
    ]
  },
  {
    "postal": "L1T1V5",
    "result": [
      {
        "electoralDistricts": [
          {
            "election": null,
            "id": 1,
            "name": "Ajax"
          }
        ],
        "pollDivisionIds": [
          10136694
        ],
        "postalCode": "L1T1V5",
        "streetName": "ADDLEY",
        "streetDirectionId": null,
        "streetTypeId": "CRES",
        "placeName": "AJAX",
        "streetNameDisplayText": "ADDLEY CRES, AJAX"
      }
    ]
  },
  {
    "postal": "L1T9Y5",
    "result": []
  },
  {
    "postal": "L1T1P2",
    "result": [
      {
        "electoralDistricts": [
          {
            "election": null,
            "id": 1,
            "name": "Ajax"
          }
        ],
        "pollDivisionIds": [
          10136694
        ],
        "postalCode": "L1T1P2",
        "streetName": "HETTERSLEY",
        "streetDirectionId": null,
        "streetTypeId": "DR",
        "placeName": "AJAX",
        "streetNameDisplayText": "HETTERSLEY DR, AJAX"
      }
    ]
  },
  {
    "postal": "L1T5X0",
    "result": []
  },
  {
    "postal": "L1T7B8",
    "result": []
  },
  {
    "postal": "L1T0C6",
    "result": [
      {
        "electoralDistricts": [
          {
            "election": null,
            "id": 1,
            "name": "Ajax"
          }
        ],
        "pollDivisionIds": [
          10136687
        ],
        "postalCode": "L1T0C6",
        "streetName": "HASKELL",
        "streetDirectionId": null,
        "streetTypeId": "AVE",
        "placeName": "AJAX",
        "streetNameDisplayText": "HASKELL AVE, AJAX"
      },
      {
        "electoralDistricts": [
          {
            "election": null,
            "id": 1,
            "name": "Ajax"
          }
        ],
        "pollDivisionIds": [
          10136687
        ],
        "postalCode": "L1T0C6",
        "streetName": "PEACOCK",
        "streetDirectionId": null,
        "streetTypeId": "CRES",
        "placeName": "AJAX",
        "streetNameDisplayText": "PEACOCK CRES, AJAX"
      }
    ]
  },
  {
    "postal": "L1T6G1",
    "result": []
  },
  {
    "postal": "L1T3K3",
    "result": [
      {
        "electoralDistricts": [
          {
            "election": null,
            "id": 1,
            "name": "Ajax"
          }
        ],
        "pollDivisionIds": [
          10136691
        ],
        "postalCode": "L1T3K3",
        "streetName": "WILCE",
        "streetDirectionId": null,
        "streetTypeId": "DR",
        "placeName": "AJAX",
        "streetNameDisplayText": "WILCE DR, AJAX"
      }
    ]
  },
  {
    "postal": "L1T9R0",
    "result": []
  },
  {
    "postal": "L1T4R8",
    "result": [
      {
        "electoralDistricts": [
          {
            "election": null,
            "id": 1,
            "name": "Ajax"
          }
        ],
        "pollDivisionIds": [
          10136681
        ],
        "postalCode": "L1T4R8",
        "streetName": "RAVENSCROFT",
        "streetDirectionId": null,
        "streetTypeId": "RD",
        "placeName": "AJAX",
        "streetNameDisplayText": "RAVENSCROFT RD, AJAX"
      }
    ]
  },
  {
    "postal": "L1T5P9",
    "result": []
  },
  {
    "postal": "L1T8N4",
    "result": []
  },
  {
    "postal": "L1T8H4",
    "result": []
  },
  {
    "postal": "L1T4V1",
    "result": []
  },
  {
    "postal": "L1T1K5",
    "result": []
  },
  {
    "postal": "L1T1Z5",
    "result": [
      {
        "electoralDistricts": [
          {
            "election": null,
            "id": 1,
            "name": "Ajax"
          }
        ],
        "pollDivisionIds": [
          10136691
        ],
        "postalCode": "L1T1Z5",
        "streetName": "DANIELS",
        "streetDirectionId": null,
        "streetTypeId": "CRES",
        "placeName": "AJAX",
        "streetNameDisplayText": "DANIELS CRES, AJAX"
      }
    ]
  },
  {
    "postal": "L1T9L9",
    "result": []
  },
  {
    "postal": "L1T5L2",
    "result": []
  },
  {
    "postal": "L1T0M2",
    "result": []
  },
  {
    "postal": "L1T1K8",
    "result": []
  },
  {
    "postal": "L1T3M7",
    "result": [
      {
        "electoralDistricts": [
          {
            "election": null,
            "id": 1,
            "name": "Ajax"
          }
        ],
        "pollDivisionIds": [
          10136693
        ],
        "postalCode": "L1T3M7",
        "streetName": "DAGWELL",
        "streetDirectionId": null,
        "streetTypeId": "CRES",
        "placeName": "AJAX",
        "streetNameDisplayText": "DAGWELL CRES, AJAX"
      },
      {
        "electoralDistricts": [
          {
            "election": null,
            "id": 1,
            "name": "Ajax"
          }
        ],
        "pollDivisionIds": [
          10136693
        ],
        "postalCode": "L1T3M7",
        "streetName": "WICKENS",
        "streetDirectionId": null,
        "streetTypeId": "CRES",
        "placeName": "AJAX",
        "streetNameDisplayText": "WICKENS CRES, AJAX"
      }
    ]
  },
  {
    "postal": "L1T1B2",
    "result": []
  },
  {
    "postal": "L1T0H9",
    "result": [
      {
        "electoralDistricts": [
          {
            "election": null,
            "id": 1,
            "name": "Ajax"
          }
        ],
        "pollDivisionIds": [
          10136682
        ],
        "postalCode": "L1T0H9",
        "streetName": "RAVENSCROFT",
        "streetDirectionId": null,
        "streetTypeId": "RD",
        "placeName": "AJAX",
        "streetNameDisplayText": "RAVENSCROFT RD, AJAX"
      },
      {
        "electoralDistricts": [
          {
            "election": null,
            "id": 1,
            "name": "Ajax"
          }
        ],
        "pollDivisionIds": [
          10136682
        ],
        "postalCode": "L1T0H9",
        "streetName": "STAMMERS",
        "streetDirectionId": null,
        "streetTypeId": "DR",
        "placeName": "AJAX",
        "streetNameDisplayText": "STAMMERS DR, AJAX"
      },
      {
        "electoralDistricts": [
          {
            "election": null,
            "id": 1,
            "name": "Ajax"
          }
        ],
        "pollDivisionIds": [
          10136682
        ],
        "postalCode": "L1T0H9",
        "streetName": "WILLIAMSON",
        "streetDirectionId": "W",
        "streetTypeId": "DR",
        "placeName": "AJAX",
        "streetNameDisplayText": "WILLIAMSON DR W, AJAX"
      }
    ]
  },
  {
    "postal": "L1T8M4",
    "result": []
  },
  {
    "postal": "L1T2M5",
    "result": [
      {
        "electoralDistricts": [
          {
            "election": null,
            "id": 1,
            "name": "Ajax"
          }
        ],
        "pollDivisionIds": [
          10136690
        ],
        "postalCode": "L1T2M5",
        "streetName": "PEARCE",
        "streetDirectionId": null,
        "streetTypeId": "DR",
        "placeName": "AJAX",
        "streetNameDisplayText": "PEARCE DR, AJAX"
      }
    ]
  },
  {
    "postal": "L1T0T9",
    "result": []
  },
  {
    "postal": "L1T3P1",
    "result": [
      {
        "electoralDistricts": [
          {
            "election": null,
            "id": 1,
            "name": "Ajax"
          }
        ],
        "pollDivisionIds": [
          10136689
        ],
        "postalCode": "L1T3P1",
        "streetName": "BENNETT",
        "streetDirectionId": null,
        "streetTypeId": "AVE",
        "placeName": "AJAX",
        "streetNameDisplayText": "BENNETT AVE, AJAX"
      },
      {
        "electoralDistricts": [
          {
            "election": null,
            "id": 1,
            "name": "Ajax"
          }
        ],
        "pollDivisionIds": [
          10136689
        ],
        "postalCode": "L1T3P1",
        "streetName": "SULLIVAN",
        "streetDirectionId": null,
        "streetTypeId": "DR",
        "placeName": "AJAX",
        "streetNameDisplayText": "SULLIVAN DR, AJAX"
      }
    ]
  },
  {
    "postal": "L1T1R6",
    "result": [
      {
        "electoralDistricts": [
          {
            "election": null,
            "id": 1,
            "name": "Ajax"
          }
        ],
        "pollDivisionIds": [
          10136694,
          10136689
        ],
        "postalCode": "L1T1R6",
        "streetName": "MILLINGTON",
        "streetDirectionId": null,
        "streetTypeId": "CRES",
        "placeName": "AJAX",
        "streetNameDisplayText": "MILLINGTON CRES, AJAX"
      }
    ]
  },
  {
    "postal": "L1T9V5",
    "result": []
  },
  {
    "postal": "L1T9T0",
    "result": []
  },
  {
    "postal": "L1T0A9",
    "result": [
      {
        "electoralDistricts": [
          {
            "election": null,
            "id": 1,
            "name": "Ajax"
          }
        ],
        "pollDivisionIds": [
          10136686
        ],
        "postalCode": "L1T0A9",
        "streetName": "MIDDLECOTE",
        "streetDirectionId": null,
        "streetTypeId": "DR",
        "placeName": "AJAX",
        "streetNameDisplayText": "MIDDLECOTE DR, AJAX"
      },
      {
        "electoralDistricts": [
          {
            "election": null,
            "id": 1,
            "name": "Ajax"
          }
        ],
        "pollDivisionIds": [
          10136686
        ],
        "postalCode": "L1T0A9",
        "streetName": "WILLIAMSON",
        "streetDirectionId": "E",
        "streetTypeId": "DR",
        "placeName": "AJAX",
        "streetNameDisplayText": "WILLIAMSON DR E, AJAX"
      }
    ]
  },
  {
    "postal": "L1T1M3",
    "result": []
  },
  {
    "postal": "L1T1W8",
    "result": [
      {
        "electoralDistricts": [
          {
            "election": null,
            "id": 1,
            "name": "Ajax"
          }
        ],
        "pollDivisionIds": [
          10136694
        ],
        "postalCode": "L1T1W8",
        "streetName": "DANIELS",
        "streetDirectionId": null,
        "streetTypeId": "CRES",
        "placeName": "AJAX",
        "streetNameDisplayText": "DANIELS CRES, AJAX"
      }
    ]
  },
  {
    "postal": "L1T9J1",
    "result": []
  },
  {
    "postal": "L1T8N5",
    "result": []
  },
  {
    "postal": "L1T5X1",
    "result": []
  },
  {
    "postal": "L1T6S2",
    "result": []
  },
  {
    "postal": "L1T2A2",
    "result": [
      {
        "electoralDistricts": [
          {
            "election": null,
            "id": 1,
            "name": "Ajax"
          }
        ],
        "pollDivisionIds": [
          10136690,
          10136691
        ],
        "postalCode": "L1T2A2",
        "streetName": "RAVENSCROFT",
        "streetDirectionId": null,
        "streetTypeId": "RD",
        "placeName": "AJAX",
        "streetNameDisplayText": "RAVENSCROFT RD, AJAX"
      }
    ]
  },
  {
    "postal": "L1T6A6",
    "result": []
  },
  {
    "postal": "L1T0S3",
    "result": []
  },
  {
    "postal": "L1T3E7",
    "result": [
      {
        "electoralDistricts": [
          {
            "election": null,
            "id": 1,
            "name": "Ajax"
          }
        ],
        "pollDivisionIds": [
          10136695
        ],
        "postalCode": "L1T3E7",
        "streetName": "CORNWALL",
        "streetDirectionId": null,
        "streetTypeId": "DR",
        "placeName": "AJAX",
        "streetNameDisplayText": "CORNWALL DR, AJAX"
      }
    ]
  },
  {
    "postal": "L1T5R7",
    "result": []
  },
  {
    "postal": "L1T3R6",
    "result": [
      {
        "electoralDistricts": [
          {
            "election": null,
            "id": 1,
            "name": "Ajax"
          }
        ],
        "pollDivisionIds": [
          10136689
        ],
        "postalCode": "L1T3R6",
        "streetName": "HOLMES",
        "streetDirectionId": null,
        "streetTypeId": "CRES",
        "placeName": "AJAX",
        "streetNameDisplayText": "HOLMES CRES, AJAX"
      },
      {
        "electoralDistricts": [
          {
            "election": null,
            "id": 1,
            "name": "Ajax"
          }
        ],
        "pollDivisionIds": [
          10136689
        ],
        "postalCode": "L1T3R6",
        "streetName": "KEEBLE",
        "streetDirectionId": null,
        "streetTypeId": "CRES",
        "placeName": "AJAX",
        "streetNameDisplayText": "KEEBLE CRES, AJAX"
      }
    ]
  },
  {
    "postal": "L1T6K4",
    "result": []
  },
  {
    "postal": "L1T2W5",
    "result": [
      {
        "electoralDistricts": [
          {
            "election": null,
            "id": 1,
            "name": "Ajax"
          }
        ],
        "pollDivisionIds": [
          10136692
        ],
        "postalCode": "L1T2W5",
        "streetName": "CHURCH",
        "streetDirectionId": "N",
        "streetTypeId": "ST",
        "placeName": "AJAX",
        "streetNameDisplayText": "CHURCH ST N, AJAX"
      }
    ]
  },
  {
    "postal": "L1T8W4",
    "result": []
  },
  {
    "postal": "L1T9C2",
    "result": []
  },
  {
    "postal": "L1T2C0",
    "result": []
  },
  {
    "postal": "L1T0E1",
    "result": [
      {
        "electoralDistricts": [
          {
            "election": null,
            "id": 1,
            "name": "Ajax"
          }
        ],
        "pollDivisionIds": [
          10136682
        ],
        "postalCode": "L1T0E1",
        "streetName": "NAPIERMEWS",
        "streetDirectionId": null,
        "streetTypeId": "DR",
        "placeName": "AJAX",
        "streetNameDisplayText": "NAPIERMEWS DR, AJAX"
      },
      {
        "electoralDistricts": [
          {
            "election": null,
            "id": 1,
            "name": "Ajax"
          }
        ],
        "pollDivisionIds": [
          10136682
        ],
        "postalCode": "L1T0E1",
        "streetName": "SEARELL",
        "streetDirectionId": null,
        "streetTypeId": "AVE",
        "placeName": "AJAX",
        "streetNameDisplayText": "SEARELL AVE, AJAX"
      }
    ]
  },
  {
    "postal": "L1T1K9",
    "result": []
  },
  {
    "postal": "L1T1G7",
    "result": []
  },
  {
    "postal": "L1T4E9",
    "result": [
      {
        "electoralDistricts": [
          {
            "election": null,
            "id": 1,
            "name": "Ajax"
          }
        ],
        "pollDivisionIds": [
          10136682
        ],
        "postalCode": "L1T4E9",
        "streetName": "DENT",
        "streetDirectionId": null,
        "streetTypeId": "ST",
        "placeName": "AJAX",
        "streetNameDisplayText": "DENT ST, AJAX"
      },
      {
        "electoralDistricts": [
          {
            "election": null,
            "id": 1,
            "name": "Ajax"
          }
        ],
        "pollDivisionIds": [
          10136682
        ],
        "postalCode": "L1T4E9",
        "streetName": "DOWN",
        "streetDirectionId": null,
        "streetTypeId": "CRES",
        "placeName": "AJAX",
        "streetNameDisplayText": "DOWN CRES, AJAX"
      }
    ]
  },
  {
    "postal": "L1T9P0",
    "result": []
  },
  {
    "postal": "L1T5H3",
    "result": []
  },
  {
    "postal": "L1T9X6",
    "result": []
  },
  {
    "postal": "L1T5N7",
    "result": []
  },
  {
    "postal": "L1T5A6",
    "result": []
  },
  {
    "postal": "L1T4M0",
    "result": []
  },
  {
    "postal": "L1T3V6",
    "result": [
      {
        "electoralDistricts": [
          {
            "election": null,
            "id": 1,
            "name": "Ajax"
          }
        ],
        "pollDivisionIds": [
          10136691
        ],
        "postalCode": "L1T3V6",
        "streetName": "HOWES",
        "streetDirectionId": null,
        "streetTypeId": "ST",
        "placeName": "AJAX",
        "streetNameDisplayText": "HOWES ST, AJAX"
      },
      {
        "electoralDistricts": [
          {
            "election": null,
            "id": 1,
            "name": "Ajax"
          }
        ],
        "pollDivisionIds": [
          10136691
        ],
        "postalCode": "L1T3V6",
        "streetName": "REESE",
        "streetDirectionId": null,
        "streetTypeId": "AVE",
        "placeName": "AJAX",
        "streetNameDisplayText": "REESE AVE, AJAX"
      }
    ]
  },
  {
    "postal": "L1T1L7",
    "result": []
  },
  {
    "postal": "L1T2P9",
    "result": [
      {
        "electoralDistricts": [
          {
            "election": null,
            "id": 1,
            "name": "Ajax"
          }
        ],
        "pollDivisionIds": [
          10136690
        ],
        "postalCode": "L1T2P9",
        "streetName": "MARSHALL",
        "streetDirectionId": null,
        "streetTypeId": "CRES",
        "placeName": "AJAX",
        "streetNameDisplayText": "MARSHALL CRES, AJAX"
      },
      {
        "electoralDistricts": [
          {
            "election": null,
            "id": 1,
            "name": "Ajax"
          }
        ],
        "pollDivisionIds": [
          10136690
        ],
        "postalCode": "L1T2P9",
        "streetName": "PEARCE",
        "streetDirectionId": null,
        "streetTypeId": "DR",
        "placeName": "AJAX",
        "streetNameDisplayText": "PEARCE DR, AJAX"
      }
    ]
  },
  {
    "postal": "L1T5T4",
    "result": []
  },
  {
    "postal": "L1T5Z1",
    "result": []
  },
  {
    "postal": "L1T2X0",
    "result": []
  },
  {
    "postal": "L1T6Z2",
    "result": []
  },
  {
    "postal": "L1T0E0",
    "result": []
  },
  {
    "postal": "L1T3Z5",
    "result": [
      {
        "electoralDistricts": [
          {
            "election": null,
            "id": 1,
            "name": "Ajax"
          }
        ],
        "pollDivisionIds": [
          10136681
        ],
        "postalCode": "L1T3Z5",
        "streetName": "ELIZABETH",
        "streetDirectionId": null,
        "streetTypeId": "ST",
        "placeName": "AJAX",
        "streetNameDisplayText": "ELIZABETH ST, AJAX"
      },
      {
        "electoralDistricts": [
          {
            "election": null,
            "id": 1,
            "name": "Ajax"
          }
        ],
        "pollDivisionIds": [
          10136681
        ],
        "postalCode": "L1T3Z5",
        "streetName": "MCNEILAGE",
        "streetDirectionId": null,
        "streetTypeId": "CRT",
        "placeName": "AJAX",
        "streetNameDisplayText": "MCNEILAGE CRT, AJAX"
      }
    ]
  },
  {
    "postal": "L1T8H3",
    "result": []
  },
  {
    "postal": "L1T7S6",
    "result": []
  },
  {
    "postal": "L1T4C1",
    "result": [
      {
        "electoralDistricts": [
          {
            "election": null,
            "id": 1,
            "name": "Ajax"
          }
        ],
        "pollDivisionIds": [
          10136681
        ],
        "postalCode": "L1T4C1",
        "streetName": "GILL",
        "streetDirectionId": null,
        "streetTypeId": "CRES",
        "placeName": "AJAX",
        "streetNameDisplayText": "GILL CRES, AJAX"
      }
    ]
  },
  {
    "postal": "L1T3K2",
    "result": [
      {
        "electoralDistricts": [
          {
            "election": null,
            "id": 1,
            "name": "Ajax"
          }
        ],
        "pollDivisionIds": [
          10136691
        ],
        "postalCode": "L1T3K2",
        "streetName": "SAYOR",
        "streetDirectionId": null,
        "streetTypeId": "DR",
        "placeName": "AJAX",
        "streetNameDisplayText": "SAYOR DR, AJAX"
      },
      {
        "electoralDistricts": [
          {
            "election": null,
            "id": 1,
            "name": "Ajax"
          }
        ],
        "pollDivisionIds": [
          10136691
        ],
        "postalCode": "L1T3K2",
        "streetName": "WILCE",
        "streetDirectionId": null,
        "streetTypeId": "DR",
        "placeName": "AJAX",
        "streetNameDisplayText": "WILCE DR, AJAX"
      }
    ]
  },
  {
    "postal": "L1T1Y5",
    "result": [
      {
        "electoralDistricts": [
          {
            "election": null,
            "id": 1,
            "name": "Ajax"
          }
        ],
        "pollDivisionIds": [
          10136691
        ],
        "postalCode": "L1T1Y5",
        "streetName": "DODSWORTH",
        "streetDirectionId": null,
        "streetTypeId": "DR",
        "placeName": "AJAX",
        "streetNameDisplayText": "DODSWORTH DR, AJAX"
      },
      {
        "electoralDistricts": [
          {
            "election": null,
            "id": 1,
            "name": "Ajax"
          }
        ],
        "pollDivisionIds": [
          10136691
        ],
        "postalCode": "L1T1Y5",
        "streetName": "MATHEWS",
        "streetDirectionId": null,
        "streetTypeId": "ST",
        "placeName": "AJAX",
        "streetNameDisplayText": "MATHEWS ST, AJAX"
      },
      {
        "electoralDistricts": [
          {
            "election": null,
            "id": 1,
            "name": "Ajax"
          }
        ],
        "pollDivisionIds": [
          10136691,
          10136694
        ],
        "postalCode": "L1T1Y5",
        "streetName": "MATTHEWS",
        "streetDirectionId": null,
        "streetTypeId": "ST",
        "placeName": "AJAX",
        "streetNameDisplayText": "MATTHEWS ST, AJAX"
      }
    ]
  },
  {
    "postal": "L1T6P6",
    "result": []
  },
  {
    "postal": "L1T3N9",
    "result": [
      {
        "electoralDistricts": [
          {
            "election": null,
            "id": 1,
            "name": "Ajax"
          }
        ],
        "pollDivisionIds": [
          10136693
        ],
        "postalCode": "L1T3N9",
        "streetName": "MEEKINGS",
        "streetDirectionId": null,
        "streetTypeId": "DR",
        "placeName": "AJAX",
        "streetNameDisplayText": "MEEKINGS DR, AJAX"
      },
      {
        "electoralDistricts": [
          {
            "election": null,
            "id": 1,
            "name": "Ajax"
          }
        ],
        "pollDivisionIds": [
          10136693
        ],
        "postalCode": "L1T3N9",
        "streetName": "POLLARD",
        "streetDirectionId": null,
        "streetTypeId": "CRES",
        "placeName": "AJAX",
        "streetNameDisplayText": "POLLARD CRES, AJAX"
      }
    ]
  },
  {
    "postal": "L1T3W2",
    "result": [
      {
        "electoralDistricts": [
          {
            "election": null,
            "id": 1,
            "name": "Ajax"
          }
        ],
        "pollDivisionIds": [
          10136689,
          10136682
        ],
        "postalCode": "L1T3W2",
        "streetName": "MARSH",
        "streetDirectionId": null,
        "streetTypeId": "LANE",
        "placeName": "AJAX",
        "streetNameDisplayText": "MARSH LANE, AJAX"
      }
    ]
  },
  {
    "postal": "L1T6H8",
    "result": []
  },
  {
    "postal": "L1T9T3",
    "result": []
  },
  {
    "postal": "L1T5L9",
    "result": []
  },
  {
    "postal": "L1T7X7",
    "result": []
  },
  {
    "postal": "L1T3J5",
    "result": [
      {
        "electoralDistricts": [
          {
            "election": null,
            "id": 1,
            "name": "Ajax"
          }
        ],
        "pollDivisionIds": [
          10136693
        ],
        "postalCode": "L1T3J5",
        "streetName": "GENNER",
        "streetDirectionId": null,
        "streetTypeId": "DR",
        "placeName": "AJAX",
        "streetNameDisplayText": "GENNER DR, AJAX"
      },
      {
        "electoralDistricts": [
          {
            "election": null,
            "id": 1,
            "name": "Ajax"
          }
        ],
        "pollDivisionIds": [
          10136691,
          10136693
        ],
        "postalCode": "L1T3J5",
        "streetName": "SIMMS",
        "streetDirectionId": null,
        "streetTypeId": "DR",
        "placeName": "AJAX",
        "streetNameDisplayText": "SIMMS DR, AJAX"
      },
      {
        "electoralDistricts": [
          {
            "election": null,
            "id": 1,
            "name": "Ajax"
          }
        ],
        "pollDivisionIds": [
          10136693
        ],
        "postalCode": "L1T3J5",
        "streetName": "SYKES",
        "streetDirectionId": null,
        "streetTypeId": "ST",
        "placeName": "AJAX",
        "streetNameDisplayText": "SYKES ST, AJAX"
      }
    ]
  },
  {
    "postal": "L1T4J5",
    "result": [
      {
        "electoralDistricts": [
          {
            "election": null,
            "id": 1,
            "name": "Ajax"
          }
        ],
        "pollDivisionIds": [
          10136685
        ],
        "postalCode": "L1T4J5",
        "streetName": "TEMPLE",
        "streetDirectionId": "W",
        "streetTypeId": "CRES",
        "placeName": "AJAX",
        "streetNameDisplayText": "TEMPLE CRES W, AJAX"
      },
      {
        "electoralDistricts": [
          {
            "election": null,
            "id": 1,
            "name": "Ajax"
          }
        ],
        "pollDivisionIds": [
          10136685
        ],
        "postalCode": "L1T4J5",
        "streetName": "WOODCOCK",
        "streetDirectionId": null,
        "streetTypeId": "AVE",
        "placeName": "AJAX",
        "streetNameDisplayText": "WOODCOCK AVE, AJAX"
      }
    ]
  },
  {
    "postal": "L1T6J2",
    "result": []
  },
  {
    "postal": "L1T5V6",
    "result": []
  },
  {
    "postal": "L1T3N2",
    "result": [
      {
        "electoralDistricts": [
          {
            "election": null,
            "id": 1,
            "name": "Ajax"
          }
        ],
        "pollDivisionIds": [
          10136691,
          10136693
        ],
        "postalCode": "L1T3N2",
        "streetName": "MAPSON",
        "streetDirectionId": null,
        "streetTypeId": "CRES",
        "placeName": "AJAX",
        "streetNameDisplayText": "MAPSON CRES, AJAX"
      },
      {
        "electoralDistricts": [
          {
            "election": null,
            "id": 1,
            "name": "Ajax"
          }
        ],
        "pollDivisionIds": [
          10136693
        ],
        "postalCode": "L1T3N2",
        "streetName": "MEEKINGS",
        "streetDirectionId": null,
        "streetTypeId": "DR",
        "placeName": "AJAX",
        "streetNameDisplayText": "MEEKINGS DR, AJAX"
      }
    ]
  },
  {
    "postal": "L1T3B1",
    "result": [
      {
        "electoralDistricts": [
          {
            "election": null,
            "id": 1,
            "name": "Ajax"
          }
        ],
        "pollDivisionIds": [
          10136695
        ],
        "postalCode": "L1T3B1",
        "streetName": "DUCATEL",
        "streetDirectionId": null,
        "streetTypeId": "CRES",
        "placeName": "AJAX",
        "streetNameDisplayText": "DUCATEL CRES, AJAX"
      }
    ]
  },
  {
    "postal": "L1T8B5",
    "result": []
  },
  {
    "postal": "L1T0K1",
    "result": [
      {
        "electoralDistricts": [
          {
            "election": null,
            "id": 1,
            "name": "Ajax"
          }
        ],
        "pollDivisionIds": [
          10136682
        ],
        "postalCode": "L1T0K1",
        "streetName": "TAVERNER",
        "streetDirectionId": null,
        "streetTypeId": "CRES",
        "placeName": "AJAX",
        "streetNameDisplayText": "TAVERNER CRES, AJAX"
      }
    ]
  },
  {
    "postal": "L1T7M7",
    "result": []
  },
  {
    "postal": "L1T2M2",
    "result": [
      {
        "electoralDistricts": [
          {
            "election": null,
            "id": 1,
            "name": "Ajax"
          }
        ],
        "pollDivisionIds": [
          10136694
        ],
        "postalCode": "L1T2M2",
        "streetName": "DELANEY",
        "streetDirectionId": null,
        "streetTypeId": "DR",
        "placeName": "AJAX",
        "streetNameDisplayText": "DELANEY DR, AJAX"
      }
    ]
  },
  {
    "postal": "L1T9N3",
    "result": []
  },
  {
    "postal": "L1T4Y8",
    "result": [
      {
        "electoralDistricts": [
          {
            "election": null,
            "id": 1,
            "name": "Ajax"
          }
        ],
        "pollDivisionIds": [
          10136687
        ],
        "postalCode": "L1T4Y8",
        "streetName": "GRAINGER",
        "streetDirectionId": null,
        "streetTypeId": "CRES",
        "placeName": "AJAX",
        "streetNameDisplayText": "GRAINGER CRES, AJAX"
      },
      {
        "electoralDistricts": [
          {
            "election": null,
            "id": 1,
            "name": "Ajax"
          }
        ],
        "pollDivisionIds": [
          10136687
        ],
        "postalCode": "L1T4Y8",
        "streetName": "HASKELL",
        "streetDirectionId": null,
        "streetTypeId": "AVE",
        "placeName": "AJAX",
        "streetNameDisplayText": "HASKELL AVE, AJAX"
      },
      {
        "electoralDistricts": [
          {
            "election": null,
            "id": 1,
            "name": "Ajax"
          }
        ],
        "pollDivisionIds": [
          10136687
        ],
        "postalCode": "L1T4Y8",
        "streetName": "MCQUEEN",
        "streetDirectionId": null,
        "streetTypeId": "CRES",
        "placeName": "AJAX",
        "streetNameDisplayText": "MCQUEEN CRES, AJAX"
      }
    ]
  },
  {
    "postal": "L1T3V7",
    "result": [
      {
        "electoralDistricts": [
          {
            "election": null,
            "id": 1,
            "name": "Ajax"
          }
        ],
        "pollDivisionIds": [
          10136691
        ],
        "postalCode": "L1T3V7",
        "streetName": "ILES",
        "streetDirectionId": null,
        "streetTypeId": "ST",
        "placeName": "AJAX",
        "streetNameDisplayText": "ILES ST, AJAX"
      },
      {
        "electoralDistricts": [
          {
            "election": null,
            "id": 1,
            "name": "Ajax"
          }
        ],
        "pollDivisionIds": [
          10136691
        ],
        "postalCode": "L1T3V7",
        "streetName": "REESE",
        "streetDirectionId": null,
        "streetTypeId": "AVE",
        "placeName": "AJAX",
        "streetNameDisplayText": "REESE AVE, AJAX"
      }
    ]
  },
  {
    "postal": "L1T8Z1",
    "result": []
  },
  {
    "postal": "L1T7B3",
    "result": []
  },
  {
    "postal": "L1T3A8",
    "result": [
      {
        "electoralDistricts": [
          {
            "election": null,
            "id": 1,
            "name": "Ajax"
          }
        ],
        "pollDivisionIds": [
          10136695
        ],
        "postalCode": "L1T3A8",
        "streetName": "CHAPMAN",
        "streetDirectionId": null,
        "streetTypeId": "DR",
        "placeName": "AJAX",
        "streetNameDisplayText": "CHAPMAN DR, AJAX"
      },
      {
        "electoralDistricts": [
          {
            "election": null,
            "id": 1,
            "name": "Ajax"
          }
        ],
        "pollDivisionIds": [
          10136695
        ],
        "postalCode": "L1T3A8",
        "streetName": "DUCATEL",
        "streetDirectionId": null,
        "streetTypeId": "CRES",
        "placeName": "AJAX",
        "streetNameDisplayText": "DUCATEL CRES, AJAX"
      }
    ]
  },
  {
    "postal": "L1T7V5",
    "result": []
  },
  {
    "postal": "L1T2T2",
    "result": [
      {
        "electoralDistricts": [
          {
            "election": null,
            "id": 1,
            "name": "Ajax"
          }
        ],
        "pollDivisionIds": [
          10136690
        ],
        "postalCode": "L1T2T2",
        "streetName": "LARGE",
        "streetDirectionId": null,
        "streetTypeId": "CRES",
        "placeName": "AJAX",
        "streetNameDisplayText": "LARGE CRES, AJAX"
      }
    ]
  },
  {
    "postal": "L1T6L3",
    "result": []
  },
  {
    "postal": "L1T0L2",
    "result": [
      {
        "electoralDistricts": [
          {
            "election": null,
            "id": 1,
            "name": "Ajax"
          }
        ],
        "pollDivisionIds": [
          10136682
        ],
        "postalCode": "L1T0L2",
        "streetName": "ATHERTON",
        "streetDirectionId": null,
        "streetTypeId": "AVE",
        "placeName": "AJAX",
        "streetNameDisplayText": "ATHERTON AVE, AJAX"
      },
      {
        "electoralDistricts": [
          {
            "election": null,
            "id": 1,
            "name": "Ajax"
          }
        ],
        "pollDivisionIds": [
          10136682
        ],
        "postalCode": "L1T0L2",
        "streetName": "STAMMERS",
        "streetDirectionId": null,
        "streetTypeId": "DR",
        "placeName": "AJAX",
        "streetNameDisplayText": "STAMMERS DR, AJAX"
      }
    ]
  },
  {
    "postal": "L1T5Y8",
    "result": []
  },
  {
    "postal": "L1T0B8",
    "result": []
  },
  {
    "postal": "L1T6R5",
    "result": []
  },
  {
    "postal": "L1T8W6",
    "result": []
  },
  {
    "postal": "L1T8G6",
    "result": []
  },
  {
    "postal": "L1T6X3",
    "result": []
  },
  {
    "postal": "L1T7R7",
    "result": []
  },
  {
    "postal": "L1T4B6",
    "result": [
      {
        "electoralDistricts": [
          {
            "election": null,
            "id": 1,
            "name": "Ajax"
          }
        ],
        "pollDivisionIds": [
          10136681,
          10136692
        ],
        "postalCode": "L1T4B6",
        "streetName": "BOWLES",
        "streetDirectionId": null,
        "streetTypeId": "DR",
        "placeName": "AJAX",
        "streetNameDisplayText": "BOWLES DR, AJAX"
      },
      {
        "electoralDistricts": [
          {
            "election": null,
            "id": 1,
            "name": "Ajax"
          }
        ],
        "pollDivisionIds": [
          10136681,
          10136692
        ],
        "postalCode": "L1T4B6",
        "streetName": "TODD",
        "streetDirectionId": null,
        "streetTypeId": "RD",
        "placeName": "AJAX",
        "streetNameDisplayText": "TODD RD, AJAX"
      }
    ]
  },
  {
    "postal": "L1T3P9",
    "result": [
      {
        "electoralDistricts": [
          {
            "election": null,
            "id": 1,
            "name": "Ajax"
          }
        ],
        "pollDivisionIds": [
          10136689
        ],
        "postalCode": "L1T3P9",
        "streetName": "HUGHES",
        "streetDirectionId": null,
        "streetTypeId": "CRES",
        "placeName": "AJAX",
        "streetNameDisplayText": "HUGHES CRES, AJAX"
      },
      {
        "electoralDistricts": [
          {
            "election": null,
            "id": 1,
            "name": "Ajax"
          }
        ],
        "pollDivisionIds": [
          10136689
        ],
        "postalCode": "L1T3P9",
        "streetName": "KEYS",
        "streetDirectionId": null,
        "streetTypeId": "DR",
        "placeName": "AJAX",
        "streetNameDisplayText": "KEYS DR, AJAX"
      }
    ]
  },
  {
    "postal": "L1T2T3",
    "result": [
      {
        "electoralDistricts": [
          {
            "election": null,
            "id": 1,
            "name": "Ajax"
          }
        ],
        "pollDivisionIds": [
          10136690
        ],
        "postalCode": "L1T2T3",
        "streetName": "RAVENSCROFT",
        "streetDirectionId": null,
        "streetTypeId": "RD",
        "placeName": "AJAX",
        "streetNameDisplayText": "RAVENSCROFT RD, AJAX"
      }
    ]
  },
  {
    "postal": "L1T1M4",
    "result": []
  },
  {
    "postal": "L1T0H1",
    "result": [
      {
        "electoralDistricts": [
          {
            "election": null,
            "id": 1,
            "name": "Ajax"
          }
        ],
        "pollDivisionIds": [
          10136685
        ],
        "postalCode": "L1T0H1",
        "streetName": "LAVAN",
        "streetDirectionId": null,
        "streetTypeId": "LANE",
        "placeName": "AJAX",
        "streetNameDisplayText": "LAVAN LANE, AJAX"
      },
      {
        "electoralDistricts": [
          {
            "election": null,
            "id": 1,
            "name": "Ajax"
          }
        ],
        "pollDivisionIds": [
          10136685
        ],
        "postalCode": "L1T0H1",
        "streetName": "OAKINS",
        "streetDirectionId": null,
        "streetTypeId": "LANE",
        "placeName": "AJAX",
        "streetNameDisplayText": "OAKINS LANE, AJAX"
      }
    ]
  },
  {
    "postal": "L1T9W3",
    "result": []
  },
  {
    "postal": "L1T6P1",
    "result": []
  },
  {
    "postal": "L1T7G2",
    "result": []
  },
  {
    "postal": "L1T4J9",
    "result": [
      {
        "electoralDistricts": [
          {
            "election": null,
            "id": 1,
            "name": "Ajax"
          }
        ],
        "pollDivisionIds": [
          10136685
        ],
        "postalCode": "L1T4J9",
        "streetName": "LONE",
        "streetDirectionId": null,
        "streetTypeId": "CRT",
        "placeName": "AJAX",
        "streetNameDisplayText": "LONE CRT, AJAX"
      },
      {
        "electoralDistricts": [
          {
            "election": null,
            "id": 1,
            "name": "Ajax"
          }
        ],
        "pollDivisionIds": [
          10136685
        ],
        "postalCode": "L1T4J9",
        "streetName": "TEMPLE",
        "streetDirectionId": "W",
        "streetTypeId": "CRES",
        "placeName": "AJAX",
        "streetNameDisplayText": "TEMPLE CRES W, AJAX"
      },
      {
        "electoralDistricts": [
          {
            "election": null,
            "id": 1,
            "name": "Ajax"
          }
        ],
        "pollDivisionIds": [
          10136685
        ],
        "postalCode": "L1T4J9",
        "streetName": "TEMPLE-WEST",
        "streetDirectionId": null,
        "streetTypeId": "CRES",
        "placeName": "AJAX",
        "streetNameDisplayText": "TEMPLE-WEST CRES, AJAX"
      }
    ]
  },
  {
    "postal": "L1T9E4",
    "result": []
  },
  {
    "postal": "L1T8H0",
    "result": []
  },
  {
    "postal": "L1T4M7",
    "result": [
      {
        "electoralDistricts": [
          {
            "election": null,
            "id": 1,
            "name": "Ajax"
          }
        ],
        "pollDivisionIds": [
          10136687
        ],
        "postalCode": "L1T4M7",
        "streetName": "MILLWARD",
        "streetDirectionId": null,
        "streetTypeId": "CRES",
        "placeName": "AJAX",
        "streetNameDisplayText": "MILLWARD CRES, AJAX"
      },
      {
        "electoralDistricts": [
          {
            "election": null,
            "id": 1,
            "name": "Ajax"
          }
        ],
        "pollDivisionIds": [
          10136687
        ],
        "postalCode": "L1T4M7",
        "streetName": "WILLIAMSON",
        "streetDirectionId": "W",
        "streetTypeId": "DR",
        "placeName": "AJAX",
        "streetNameDisplayText": "WILLIAMSON DR W, AJAX"
      }
    ]
  },
  {
    "postal": "L1T2G9",
    "result": [
      {
        "electoralDistricts": [
          {
            "election": null,
            "id": 1,
            "name": "Ajax"
          }
        ],
        "pollDivisionIds": [
          10136694
        ],
        "postalCode": "L1T2G9",
        "streetName": "CHATFIELD",
        "streetDirectionId": null,
        "streetTypeId": "DR",
        "placeName": "AJAX",
        "streetNameDisplayText": "CHATFIELD DR, AJAX"
      }
    ]
  },
  {
    "postal": "L1T8T2",
    "result": []
  },
  {
    "postal": "L1T7G7",
    "result": []
  },
  {
    "postal": "L1T4Z3",
    "result": [
      {
        "electoralDistricts": [
          {
            "election": null,
            "id": 1,
            "name": "Ajax"
          }
        ],
        "pollDivisionIds": [
          10136682
        ],
        "postalCode": "L1T4Z3",
        "streetName": "BALLGROVE",
        "streetDirectionId": null,
        "streetTypeId": "CRES",
        "placeName": "AJAX",
        "streetNameDisplayText": "BALLGROVE CRES, AJAX"
      },
      {
        "electoralDistricts": [
          {
            "election": null,
            "id": 1,
            "name": "Ajax"
          }
        ],
        "pollDivisionIds": [
          10136682
        ],
        "postalCode": "L1T4Z3",
        "streetName": "STEVENSGATE",
        "streetDirectionId": null,
        "streetTypeId": "DR",
        "placeName": "AJAX",
        "streetNameDisplayText": "STEVENSGATE DR, AJAX"
      }
    ]
  },
  {
    "postal": "L1T5B3",
    "result": []
  },
  {
    "postal": "L1T1S7",
    "result": [
      {
        "electoralDistricts": [
          {
            "election": null,
            "id": 1,
            "name": "Ajax"
          }
        ],
        "pollDivisionIds": [
          10136694
        ],
        "postalCode": "L1T1S7",
        "streetName": "DEVERILL",
        "streetDirectionId": null,
        "streetTypeId": "CRES",
        "placeName": "AJAX",
        "streetNameDisplayText": "DEVERILL CRES, AJAX"
      }
    ]
  },
  {
    "postal": "L1T2N7",
    "result": [
      {
        "electoralDistricts": [
          {
            "election": null,
            "id": 1,
            "name": "Ajax"
          }
        ],
        "pollDivisionIds": [
          10136690
        ],
        "postalCode": "L1T2N7",
        "streetName": "MARSHALL",
        "streetDirectionId": null,
        "streetTypeId": "CRES",
        "placeName": "AJAX",
        "streetNameDisplayText": "MARSHALL CRES, AJAX"
      }
    ]
  },
  {
    "postal": "L1T0H8",
    "result": [
      {
        "electoralDistricts": [
          {
            "election": null,
            "id": 1,
            "name": "Ajax"
          }
        ],
        "pollDivisionIds": [
          10136682
        ],
        "postalCode": "L1T0H8",
        "streetName": "ATHERTON",
        "streetDirectionId": null,
        "streetTypeId": "AVE",
        "placeName": "AJAX",
        "streetNameDisplayText": "ATHERTON AVE, AJAX"
      },
      {
        "electoralDistricts": [
          {
            "election": null,
            "id": 1,
            "name": "Ajax"
          }
        ],
        "pollDivisionIds": [
          10136682
        ],
        "postalCode": "L1T0H8",
        "streetName": "WILLIAMSON",
        "streetDirectionId": "W",
        "streetTypeId": "DR",
        "placeName": "AJAX",
        "streetNameDisplayText": "WILLIAMSON DR W, AJAX"
      }
    ]
  },
  {
    "postal": "L1T7Z4",
    "result": []
  },
  {
    "postal": "L1T7B1",
    "result": []
  },
  {
    "postal": "L1T7P8",
    "result": []
  },
  {
    "postal": "L1T7N0",
    "result": []
  },
  {
    "postal": "L1T3Y5",
    "result": [
      {
        "electoralDistricts": [
          {
            "election": null,
            "id": 1,
            "name": "Ajax"
          }
        ],
        "pollDivisionIds": [
          10136681
        ],
        "postalCode": "L1T3Y5",
        "streetName": "DELANEY",
        "streetDirectionId": null,
        "streetTypeId": "DR",
        "placeName": "AJAX",
        "streetNameDisplayText": "DELANEY DR, AJAX"
      },
      {
        "electoralDistricts": [
          {
            "election": null,
            "id": 1,
            "name": "Ajax"
          }
        ],
        "pollDivisionIds": [
          10136681
        ],
        "postalCode": "L1T3Y5",
        "streetName": "ELIZABETH",
        "streetDirectionId": null,
        "streetTypeId": "ST",
        "placeName": "AJAX",
        "streetNameDisplayText": "ELIZABETH ST, AJAX"
      }
    ]
  },
  {
    "postal": "L1T6K1",
    "result": []
  },
  {
    "postal": "L1T9X5",
    "result": []
  },
  {
    "postal": "L1T7S5",
    "result": []
  },
  {
    "postal": "L1T0A4",
    "result": [
      {
        "electoralDistricts": [
          {
            "election": null,
            "id": 1,
            "name": "Ajax"
          }
        ],
        "pollDivisionIds": [
          10136686
        ],
        "postalCode": "L1T0A4",
        "streetName": "HOWLETT",
        "streetDirectionId": null,
        "streetTypeId": "CRES",
        "placeName": "AJAX",
        "streetNameDisplayText": "HOWLETT CRES, AJAX"
      },
      {
        "electoralDistricts": [
          {
            "election": null,
            "id": 1,
            "name": "Ajax"
          }
        ],
        "pollDivisionIds": [
          10136686
        ],
        "postalCode": "L1T0A4",
        "streetName": "MIDDLECOTE",
        "streetDirectionId": null,
        "streetTypeId": "DR",
        "placeName": "AJAX",
        "streetNameDisplayText": "MIDDLECOTE DR, AJAX"
      },
      {
        "electoralDistricts": [
          {
            "election": null,
            "id": 1,
            "name": "Ajax"
          }
        ],
        "pollDivisionIds": [
          10136686
        ],
        "postalCode": "L1T0A4",
        "streetName": "WILLIAMSON",
        "streetDirectionId": "E",
        "streetTypeId": "DR",
        "placeName": "AJAX",
        "streetNameDisplayText": "WILLIAMSON DR E, AJAX"
      }
    ]
  },
  {
    "postal": "L1T4T5",
    "result": [
      {
        "electoralDistricts": [
          {
            "election": null,
            "id": 1,
            "name": "Ajax"
          }
        ],
        "pollDivisionIds": [
          10136690
        ],
        "postalCode": "L1T4T5",
        "streetName": "WESTNEY",
        "streetDirectionId": "N",
        "streetTypeId": "RD",
        "placeName": "AJAX",
        "streetNameDisplayText": "WESTNEY RD N, AJAX"
      }
    ]
  },
  {
    "postal": "L1T5K1",
    "result": []
  },
  {
    "postal": "L1T0Z9",
    "result": []
  },
  {
    "postal": "L1T7T2",
    "result": []
  },
  {
    "postal": "L1T1L5",
    "result": []
  },
  {
    "postal": "L1T3N5",
    "result": [
      {
        "electoralDistricts": [
          {
            "election": null,
            "id": 1,
            "name": "Ajax"
          }
        ],
        "pollDivisionIds": [
          10136691
        ],
        "postalCode": "L1T3N5",
        "streetName": "DELANEY",
        "streetDirectionId": null,
        "streetTypeId": "DR",
        "placeName": "AJAX",
        "streetNameDisplayText": "DELANEY DR, AJAX"
      },
      {
        "electoralDistricts": [
          {
            "election": null,
            "id": 1,
            "name": "Ajax"
          }
        ],
        "pollDivisionIds": [
          10136691
        ],
        "postalCode": "L1T3N5",
        "streetName": "GRIFFITHS",
        "streetDirectionId": null,
        "streetTypeId": "DR",
        "placeName": "AJAX",
        "streetNameDisplayText": "GRIFFITHS DR, AJAX"
      }
    ]
  },
  {
    "postal": "L1T6H4",
    "result": []
  },
  {
    "postal": "L1T5A5",
    "result": []
  },
  {
    "postal": "L1T3R9",
    "result": [
      {
        "electoralDistricts": [
          {
            "election": null,
            "id": 1,
            "name": "Ajax"
          }
        ],
        "pollDivisionIds": [
          10136681
        ],
        "postalCode": "L1T3R9",
        "streetName": "RIVERSIDE",
        "streetDirectionId": null,
        "streetTypeId": "DR",
        "placeName": "AJAX",
        "streetNameDisplayText": "RIVERSIDE DR, AJAX"
      }
    ]
  },
  {
    "postal": "L1T7L8",
    "result": []
  },
  {
    "postal": "L1T6T6",
    "result": []
  },
  {
    "postal": "L1T7Y7",
    "result": []
  },
  {
    "postal": "L1T3M8",
    "result": [
      {
        "electoralDistricts": [
          {
            "election": null,
            "id": 1,
            "name": "Ajax"
          }
        ],
        "pollDivisionIds": [
          10136693
        ],
        "postalCode": "L1T3M8",
        "streetName": "DAGWELL",
        "streetDirectionId": null,
        "streetTypeId": "CRES",
        "placeName": "AJAX",
        "streetNameDisplayText": "DAGWELL CRES, AJAX"
      },
      {
        "electoralDistricts": [
          {
            "election": null,
            "id": 1,
            "name": "Ajax"
          }
        ],
        "pollDivisionIds": [
          10136693,
          10136701
        ],
        "postalCode": "L1T3M8",
        "streetName": "WICKENS",
        "streetDirectionId": null,
        "streetTypeId": "CRES",
        "placeName": "AJAX",
        "streetNameDisplayText": "WICKENS CRES, AJAX"
      }
    ]
  },
  {
    "postal": "L1T2E0",
    "result": []
  },
  {
    "postal": "L1T4B5",
    "result": [
      {
        "electoralDistricts": [
          {
            "election": null,
            "id": 1,
            "name": "Ajax"
          }
        ],
        "pollDivisionIds": [
          10136690
        ],
        "postalCode": "L1T4B5",
        "streetName": "BROCKMAN",
        "streetDirectionId": null,
        "streetTypeId": "CRES",
        "placeName": "AJAX",
        "streetNameDisplayText": "BROCKMAN CRES, AJAX"
      }
    ]
  },
  {
    "postal": "L1T1J3",
    "result": []
  },
  {
    "postal": "L1T5S6",
    "result": []
  },
  {
    "postal": "L1T8P7",
    "result": []
  },
  {
    "postal": "L1T7S7",
    "result": []
  },
  {
    "postal": "L1T4C2",
    "result": [
      {
        "electoralDistricts": [
          {
            "election": null,
            "id": 1,
            "name": "Ajax"
          }
        ],
        "pollDivisionIds": [
          10136681
        ],
        "postalCode": "L1T4C2",
        "streetName": "BOWLES",
        "streetDirectionId": null,
        "streetTypeId": "DR",
        "placeName": "AJAX",
        "streetNameDisplayText": "BOWLES DR, AJAX"
      }
    ]
  },
  {
    "postal": "L1T5Y0",
    "result": []
  },
  {
    "postal": "L1T2V7",
    "result": [
      {
        "electoralDistricts": [
          {
            "election": null,
            "id": 1,
            "name": "Ajax"
          }
        ],
        "pollDivisionIds": [
          10136692
        ],
        "postalCode": "L1T2V7",
        "streetName": "KEARNEY",
        "streetDirectionId": null,
        "streetTypeId": "DR",
        "placeName": "AJAX",
        "streetNameDisplayText": "KEARNEY DR, AJAX"
      }
    ]
  },
  {
    "postal": "L1T8P5",
    "result": []
  },
  {
    "postal": "L1T5P5",
    "result": []
  },
  {
    "postal": "L1T5Z0",
    "result": []
  },
  {
    "postal": "L1T9B0",
    "result": []
  },
  {
    "postal": "L1T1L0",
    "result": []
  },
  {
    "postal": "L1T0B5",
    "result": [
      {
        "electoralDistricts": [
          {
            "election": null,
            "id": 1,
            "name": "Ajax"
          }
        ],
        "pollDivisionIds": [
          10136686
        ],
        "postalCode": "L1T0B5",
        "streetName": "HINSLEY",
        "streetDirectionId": null,
        "streetTypeId": "CRES",
        "placeName": "AJAX",
        "streetNameDisplayText": "HINSLEY CRES, AJAX"
      }
    ]
  },
  {
    "postal": "L1T3L2",
    "result": [
      {
        "electoralDistricts": [
          {
            "election": null,
            "id": 1,
            "name": "Ajax"
          }
        ],
        "pollDivisionIds": [
          10136689
        ],
        "postalCode": "L1T3L2",
        "streetName": "PARKINS",
        "streetDirectionId": null,
        "streetTypeId": "DR",
        "placeName": "AJAX",
        "streetNameDisplayText": "PARKINS DR, AJAX"
      },
      {
        "electoralDistricts": [
          {
            "election": null,
            "id": 1,
            "name": "Ajax"
          }
        ],
        "pollDivisionIds": [
          10136689
        ],
        "postalCode": "L1T3L2",
        "streetName": "SULLIVAN",
        "streetDirectionId": null,
        "streetTypeId": "DR",
        "placeName": "AJAX",
        "streetNameDisplayText": "SULLIVAN DR, AJAX"
      }
    ]
  },
  {
    "postal": "L1T3B7",
    "result": [
      {
        "electoralDistricts": [
          {
            "election": null,
            "id": 1,
            "name": "Ajax"
          }
        ],
        "pollDivisionIds": [
          10136695
        ],
        "postalCode": "L1T3B7",
        "streetName": "CHAPMAN",
        "streetDirectionId": null,
        "streetTypeId": "RD",
        "placeName": "AJAX",
        "streetNameDisplayText": "CHAPMAN RD, AJAX"
      },
      {
        "electoralDistricts": [
          {
            "election": null,
            "id": 1,
            "name": "Ajax"
          }
        ],
        "pollDivisionIds": [
          10136695
        ],
        "postalCode": "L1T3B7",
        "streetName": "COOMER",
        "streetDirectionId": null,
        "streetTypeId": "CRES",
        "placeName": "AJAX",
        "streetNameDisplayText": "COOMER CRES, AJAX"
      }
    ]
  },
  {
    "postal": "L1T8L1",
    "result": []
  },
  {
    "postal": "L1T5M4",
    "result": []
  },
  {
    "postal": "L1T4G9",
    "result": [
      {
        "electoralDistricts": [
          {
            "election": null,
            "id": 1,
            "name": "Ajax"
          }
        ],
        "pollDivisionIds": [
          10136689
        ],
        "postalCode": "L1T4G9",
        "streetName": "MCGONICAL",
        "streetDirectionId": null,
        "streetTypeId": "LANE",
        "placeName": "AJAX",
        "streetNameDisplayText": "MCGONICAL LANE, AJAX"
      },
      {
        "electoralDistricts": [
          {
            "election": null,
            "id": 1,
            "name": "Ajax"
          }
        ],
        "pollDivisionIds": [
          10136689
        ],
        "postalCode": "L1T4G9",
        "streetName": "MCGONIGAL",
        "streetDirectionId": null,
        "streetTypeId": "LANE",
        "placeName": "AJAX",
        "streetNameDisplayText": "MCGONIGAL LANE, AJAX"
      }
    ]
  },
  {
    "postal": "L1T0P0",
    "result": []
  },
  {
    "postal": "L1T8G2",
    "result": []
  },
  {
    "postal": "L1T1V9",
    "result": [
      {
        "electoralDistricts": [
          {
            "election": null,
            "id": 1,
            "name": "Ajax"
          }
        ],
        "pollDivisionIds": [
          10136694
        ],
        "postalCode": "L1T1V9",
        "streetName": "CARNELLY",
        "streetDirectionId": null,
        "streetTypeId": "CRES",
        "placeName": "AJAX",
        "streetNameDisplayText": "CARNELLY CRES, AJAX"
      },
      {
        "electoralDistricts": [
          {
            "election": null,
            "id": 1,
            "name": "Ajax"
          }
        ],
        "pollDivisionIds": [
          10136694
        ],
        "postalCode": "L1T1V9",
        "streetName": "RADFORD",
        "streetDirectionId": null,
        "streetTypeId": "DR",
        "placeName": "AJAX",
        "streetNameDisplayText": "RADFORD DR, AJAX"
      }
    ]
  },
  {
    "postal": "L1T8N8",
    "result": []
  },
  {
    "postal": "L1T6S8",
    "result": []
  },
  {
    "postal": "L1T8H2",
    "result": []
  },
  {
    "postal": "L1T5R8",
    "result": []
  },
  {
    "postal": "L1T5L4",
    "result": []
  },
  {
    "postal": "L1T9E1",
    "result": []
  },
  {
    "postal": "L1T1C4",
    "result": []
  },
  {
    "postal": "L1T8W5",
    "result": []
  },
  {
    "postal": "L1T1Y4",
    "result": [
      {
        "electoralDistricts": [
          {
            "election": null,
            "id": 1,
            "name": "Ajax"
          }
        ],
        "pollDivisionIds": [
          10136691
        ],
        "postalCode": "L1T1Y4",
        "streetName": "DODSWORTH",
        "streetDirectionId": null,
        "streetTypeId": "DR",
        "placeName": "AJAX",
        "streetNameDisplayText": "DODSWORTH DR, AJAX"
      }
    ]
  },
  {
    "postal": "L1T1C0",
    "result": []
  },
  {
    "postal": "L1T2J2",
    "result": [
      {
        "electoralDistricts": [
          {
            "election": null,
            "id": 1,
            "name": "Ajax"
          }
        ],
        "pollDivisionIds": [
          10136694
        ],
        "postalCode": "L1T2J2",
        "streetName": "CHATFIELD",
        "streetDirectionId": null,
        "streetTypeId": "DR",
        "placeName": "AJAX",
        "streetNameDisplayText": "CHATFIELD DR, AJAX"
      }
    ]
  },
  {
    "postal": "L1T2J0",
    "result": []
  },
  {
    "postal": "L1T7A3",
    "result": []
  },
  {
    "postal": "L1T8M1",
    "result": []
  },
  {
    "postal": "L1T7T9",
    "result": []
  },
  {
    "postal": "L1T6C0",
    "result": []
  },
  {
    "postal": "L1T7X1",
    "result": []
  },
  {
    "postal": "L1T0G1",
    "result": [
      {
        "electoralDistricts": [
          {
            "election": null,
            "id": 1,
            "name": "Ajax"
          }
        ],
        "pollDivisionIds": [
          10136682
        ],
        "postalCode": "L1T0G1",
        "streetName": "STEVENSGATE",
        "streetDirectionId": null,
        "streetTypeId": "DR",
        "placeName": "AJAX",
        "streetNameDisplayText": "STEVENSGATE DR, AJAX"
      }
    ]
  },
  {
    "postal": "L1T4X2",
    "result": [
      {
        "electoralDistricts": [
          {
            "election": null,
            "id": 1,
            "name": "Ajax"
          }
        ],
        "pollDivisionIds": [
          10136682
        ],
        "postalCode": "L1T4X2",
        "streetName": "ANTERTON",
        "streetDirectionId": null,
        "streetTypeId": "AVE",
        "placeName": "AJAX,ON",
        "streetNameDisplayText": "ANTERTON AVE, AJAX,ON"
      },
      {
        "electoralDistricts": [
          {
            "election": null,
            "id": 1,
            "name": "Ajax"
          }
        ],
        "pollDivisionIds": [
          10136682
        ],
        "postalCode": "L1T4X2",
        "streetName": "ATHERTON",
        "streetDirectionId": null,
        "streetTypeId": "AVE",
        "placeName": "AJAX",
        "streetNameDisplayText": "ATHERTON AVE, AJAX"
      },
      {
        "electoralDistricts": [
          {
            "election": null,
            "id": 1,
            "name": "Ajax"
          }
        ],
        "pollDivisionIds": [
          10136682
        ],
        "postalCode": "L1T4X2",
        "streetName": "SELWAY",
        "streetDirectionId": null,
        "streetTypeId": "RD",
        "placeName": "AJAX",
        "streetNameDisplayText": "SELWAY RD, AJAX"
      },
      {
        "electoralDistricts": [
          {
            "election": null,
            "id": 1,
            "name": "Ajax"
          }
        ],
        "pollDivisionIds": [
          10136682
        ],
        "postalCode": "L1T4X2",
        "streetName": "WALDRON",
        "streetDirectionId": null,
        "streetTypeId": "CRT",
        "placeName": "AJAX",
        "streetNameDisplayText": "WALDRON CRT, AJAX"
      }
    ]
  },
  {
    "postal": "L1T0N6",
    "result": [
      {
        "electoralDistricts": [
          {
            "election": null,
            "id": 1,
            "name": "Ajax"
          }
        ],
        "pollDivisionIds": [
          10136681
        ],
        "postalCode": "L1T0N6",
        "streetName": "CHURCH",
        "streetDirectionId": "N",
        "streetTypeId": "ST",
        "placeName": "AJAX",
        "streetNameDisplayText": "CHURCH ST N, AJAX"
      },
      {
        "electoralDistricts": [
          {
            "election": null,
            "id": 1,
            "name": "Ajax"
          }
        ],
        "pollDivisionIds": [
          10136681
        ],
        "postalCode": "L1T0N6",
        "streetName": "CLUTTERBUCK",
        "streetDirectionId": null,
        "streetTypeId": "LANE",
        "placeName": "AJAX",
        "streetNameDisplayText": "CLUTTERBUCK LANE, AJAX"
      },
      {
        "electoralDistricts": [
          {
            "election": null,
            "id": 1,
            "name": "Ajax"
          }
        ],
        "pollDivisionIds": [
          10136681
        ],
        "postalCode": "L1T0N6",
        "streetName": "MASTERSON",
        "streetDirectionId": null,
        "streetTypeId": "LANE",
        "placeName": "AJAX",
        "streetNameDisplayText": "MASTERSON LANE, AJAX"
      },
      {
        "electoralDistricts": [
          {
            "election": null,
            "id": 1,
            "name": "Ajax"
          }
        ],
        "pollDivisionIds": [
          10136681
        ],
        "postalCode": "L1T0N6",
        "streetName": "WORKMENS",
        "streetDirectionId": null,
        "streetTypeId": "CIR",
        "placeName": "AJAX",
        "streetNameDisplayText": "WORKMENS CIR, AJAX"
      }
    ]
  },
  {
    "postal": "L1T8E3",
    "result": []
  },
  {
    "postal": "L1T5S8",
    "result": []
  },
  {
    "postal": "L1T0R0",
    "result": []
  },
  {
    "postal": "L1T6J6",
    "result": []
  },
  {
    "postal": "L1T4B4",
    "result": [
      {
        "electoralDistricts": [
          {
            "election": null,
            "id": 1,
            "name": "Ajax"
          }
        ],
        "pollDivisionIds": [
          10136690
        ],
        "postalCode": "L1T4B4",
        "streetName": "TIPTON",
        "streetDirectionId": null,
        "streetTypeId": "CRES",
        "placeName": "AJAX",
        "streetNameDisplayText": "TIPTON CRES, AJAX"
      }
    ]
  },
  {
    "postal": "L1T7E3",
    "result": []
  },
  {
    "postal": "L1T3N6",
    "result": [
      {
        "electoralDistricts": [
          {
            "election": null,
            "id": 1,
            "name": "Ajax"
          }
        ],
        "pollDivisionIds": [
          10136693
        ],
        "postalCode": "L1T3N6",
        "streetName": "MANTELL",
        "streetDirectionId": null,
        "streetTypeId": "CRES",
        "placeName": "AJAX",
        "streetNameDisplayText": "MANTELL CRES, AJAX"
      },
      {
        "electoralDistricts": [
          {
            "election": null,
            "id": 1,
            "name": "Ajax"
          }
        ],
        "pollDivisionIds": [
          10136693
        ],
        "postalCode": "L1T3N6",
        "streetName": "MEEKINGS",
        "streetDirectionId": null,
        "streetTypeId": "DR",
        "placeName": "AJAX",
        "streetNameDisplayText": "MEEKINGS DR, AJAX"
      }
    ]
  },
  {
    "postal": "L1T3X6",
    "result": [
      {
        "electoralDistricts": [
          {
            "election": null,
            "id": 1,
            "name": "Ajax"
          }
        ],
        "pollDivisionIds": [
          10136681,
          10136692
        ],
        "postalCode": "L1T3X6",
        "streetName": "ANNIE",
        "streetDirectionId": null,
        "streetTypeId": "CRES",
        "placeName": "AJAX",
        "streetNameDisplayText": "ANNIE CRES, AJAX"
      },
      {
        "electoralDistricts": [
          {
            "election": null,
            "id": 1,
            "name": "Ajax"
          }
        ],
        "pollDivisionIds": [
          10136681,
          10136692
        ],
        "postalCode": "L1T3X6",
        "streetName": "BETTS",
        "streetDirectionId": null,
        "streetTypeId": "RD",
        "placeName": "AJAX",
        "streetNameDisplayText": "BETTS RD, AJAX"
      },
      {
        "electoralDistricts": [
          {
            "election": null,
            "id": 1,
            "name": "Ajax"
          }
        ],
        "pollDivisionIds": [
          10136692,
          10136681
        ],
        "postalCode": "L1T3X6",
        "streetName": "ELIZABETH",
        "streetDirectionId": null,
        "streetTypeId": "ST",
        "placeName": "AJAX",
        "streetNameDisplayText": "ELIZABETH ST, AJAX"
      }
    ]
  },
  {
    "postal": "L1T8L0",
    "result": []
  },
  {
    "postal": "L1T8N1",
    "result": []
  },
  {
    "postal": "L1T4J0",
    "result": []
  },
  {
    "postal": "L1T0X7",
    "result": []
  },
  {
    "postal": "L1T6S4",
    "result": []
  },
  {
    "postal": "L1T0Z0",
    "result": []
  },
  {
    "postal": "L1T9X8",
    "result": []
  },
  {
    "postal": "L1T3H3",
    "result": [
      {
        "electoralDistricts": [
          {
            "election": null,
            "id": 1,
            "name": "Ajax"
          }
        ],
        "pollDivisionIds": [
          10136694
        ],
        "postalCode": "L1T3H3",
        "streetName": "WESTNEY",
        "streetDirectionId": "N",
        "streetTypeId": "RD",
        "placeName": "AJAX",
        "streetNameDisplayText": "WESTNEY RD N, AJAX"
      },
      {
        "electoralDistricts": [
          {
            "election": null,
            "id": 1,
            "name": "Ajax"
          }
        ],
        "pollDivisionIds": [
          10136700
        ],
        "postalCode": "L1T3H3",
        "streetName": "WESTNEY",
        "streetDirectionId": "S",
        "streetTypeId": "RD",
        "placeName": "AJAX",
        "streetNameDisplayText": "WESTNEY RD S, AJAX"
      }
    ]
  },
  {
    "postal": "L1T7S2",
    "result": []
  },
  {
    "postal": "L1T3T3",
    "result": [
      {
        "electoralDistricts": [
          {
            "election": null,
            "id": 1,
            "name": "Ajax"
          }
        ],
        "pollDivisionIds": [
          10136691
        ],
        "postalCode": "L1T3T3",
        "streetName": "MACDERMOTT",
        "streetDirectionId": null,
        "streetTypeId": "DR",
        "placeName": "AJAX",
        "streetNameDisplayText": "MACDERMOTT DR, AJAX"
      },
      {
        "electoralDistricts": [
          {
            "election": null,
            "id": 1,
            "name": "Ajax"
          }
        ],
        "pollDivisionIds": [
          10136691
        ],
        "postalCode": "L1T3T3",
        "streetName": "WEEKES",
        "streetDirectionId": null,
        "streetTypeId": "DR",
        "placeName": "AJAX",
        "streetNameDisplayText": "WEEKES DR, AJAX"
      }
    ]
  },
  {
    "postal": "L1T9P3",
    "result": []
  },
  {
    "postal": "L1T4H8",
    "result": [
      {
        "electoralDistricts": [
          {
            "election": null,
            "id": 1,
            "name": "Ajax"
          }
        ],
        "pollDivisionIds": [
          10136687
        ],
        "postalCode": "L1T4H8",
        "streetName": "BALLANTYNE",
        "streetDirectionId": null,
        "streetTypeId": "DR",
        "placeName": "AJAX",
        "streetNameDisplayText": "BALLANTYNE DR, AJAX"
      },
      {
        "electoralDistricts": [
          {
            "election": null,
            "id": 1,
            "name": "Ajax"
          }
        ],
        "pollDivisionIds": [
          10136687
        ],
        "postalCode": "L1T4H8",
        "streetName": "WESTACOTT",
        "streetDirectionId": null,
        "streetTypeId": "CRES",
        "placeName": "AJAX",
        "streetNameDisplayText": "WESTACOTT CRES, AJAX"
      }
    ]
  },
  {
    "postal": "L1T6R1",
    "result": []
  },
  {
    "postal": "L1T1S0",
    "result": []
  },
  {
    "postal": "L1T3W8",
    "result": [
      {
        "electoralDistricts": [
          {
            "election": null,
            "id": 1,
            "name": "Ajax"
          }
        ],
        "pollDivisionIds": [
          10136682
        ],
        "postalCode": "L1T3W8",
        "streetName": "MCGREGOR",
        "streetDirectionId": null,
        "streetTypeId": "DR",
        "placeName": "AJAX",
        "streetNameDisplayText": "MCGREGOR DR, AJAX"
      },
      {
        "electoralDistricts": [
          {
            "election": null,
            "id": 1,
            "name": "Ajax"
          }
        ],
        "pollDivisionIds": [
          10136682
        ],
        "postalCode": "L1T3W8",
        "streetName": "RAVENSCROFT",
        "streetDirectionId": null,
        "streetTypeId": "RD",
        "placeName": "AJAX",
        "streetNameDisplayText": "RAVENSCROFT RD, AJAX"
      }
    ]
  },
  {
    "postal": "L1T4S3",
    "result": [
      {
        "electoralDistricts": [
          {
            "election": null,
            "id": 1,
            "name": "Ajax"
          }
        ],
        "pollDivisionIds": [
          10136682
        ],
        "postalCode": "L1T4S3",
        "streetName": "WESTNEY",
        "streetDirectionId": "N",
        "streetTypeId": "RD",
        "placeName": "AJAX",
        "streetNameDisplayText": "WESTNEY RD N, AJAX"
      }
    ]
  },
  {
    "postal": "L1T1B6",
    "result": [
      {
        "electoralDistricts": [
          {
            "election": null,
            "id": 1,
            "name": "Ajax"
          }
        ],
        "pollDivisionIds": [
          10136684
        ],
        "postalCode": "L1T1B6",
        "streetName": "ADDLEY",
        "streetDirectionId": null,
        "streetTypeId": "CRES",
        "placeName": "AJAX,ON",
        "streetNameDisplayText": "ADDLEY CRES, AJAX,ON"
      }
    ]
  },
  {
    "postal": "L1T8R3",
    "result": []
  },
  {
    "postal": "L1T4V9",
    "result": [
      {
        "electoralDistricts": [
          {
            "election": null,
            "id": 1,
            "name": "Ajax"
          }
        ],
        "pollDivisionIds": [
          10136683
        ],
        "postalCode": "L1T4V9",
        "streetName": "TAUNTON",
        "streetDirectionId": "E",
        "streetTypeId": "RD",
        "placeName": "AJAX",
        "streetNameDisplayText": "TAUNTON RD E, AJAX"
      },
      {
        "electoralDistricts": [
          {
            "election": null,
            "id": 1,
            "name": "Ajax"
          }
        ],
        "pollDivisionIds": [
          10136683
        ],
        "postalCode": "L1T4V9",
        "streetName": "TAUNTON",
        "streetDirectionId": "W",
        "streetTypeId": "RD",
        "placeName": "AJAX",
        "streetNameDisplayText": "TAUNTON RD W, AJAX"
      }
    ]
  },
  {
    "postal": "L1T9W4",
    "result": []
  },
  {
    "postal": "L1T3T4",
    "result": [
      {
        "electoralDistricts": [
          {
            "election": null,
            "id": 1,
            "name": "Ajax"
          }
        ],
        "pollDivisionIds": [
          10136691
        ],
        "postalCode": "L1T3T4",
        "streetName": "THORP",
        "streetDirectionId": null,
        "streetTypeId": "CRES",
        "placeName": "AJAX",
        "streetNameDisplayText": "THORP CRES, AJAX"
      }
    ]
  },
  {
    "postal": "L1T5C7",
    "result": []
  },
  {
    "postal": "L1T3Y1",
    "result": [
      {
        "electoralDistricts": [
          {
            "election": null,
            "id": 1,
            "name": "Ajax"
          }
        ],
        "pollDivisionIds": [
          10136692
        ],
        "postalCode": "L1T3Y1",
        "streetName": "DARLEY",
        "streetDirectionId": null,
        "streetTypeId": "ST",
        "placeName": "AJAX",
        "streetNameDisplayText": "DARLEY ST, AJAX"
      },
      {
        "electoralDistricts": [
          {
            "election": null,
            "id": 1,
            "name": "Ajax"
          }
        ],
        "pollDivisionIds": [
          10136692
        ],
        "postalCode": "L1T3Y1",
        "streetName": "MORTIMER",
        "streetDirectionId": null,
        "streetTypeId": "CRES",
        "placeName": "AJAX",
        "streetNameDisplayText": "MORTIMER CRES, AJAX"
      }
    ]
  },
  {
    "postal": "L1T5V0",
    "result": []
  },
  {
    "postal": "L1T8G8",
    "result": []
  },
  {
    "postal": "L1T8B1",
    "result": []
  },
  {
    "postal": "L1T4P5",
    "result": [
      {
        "electoralDistricts": [
          {
            "election": null,
            "id": 1,
            "name": "Ajax"
          }
        ],
        "pollDivisionIds": [
          10136687
        ],
        "postalCode": "L1T4P5",
        "streetName": "MORLAND",
        "streetDirectionId": null,
        "streetTypeId": "CRES",
        "placeName": "AJAX",
        "streetNameDisplayText": "MORLAND CRES, AJAX"
      }
    ]
  },
  {
    "postal": "L1T7B2",
    "result": []
  },
  {
    "postal": "L1T0R2",
    "result": []
  },
  {
    "postal": "L1T4M4",
    "result": []
  },
  {
    "postal": "L1T7M4",
    "result": []
  },
  {
    "postal": "L1T9S7",
    "result": []
  },
  {
    "postal": "L1T5Z7",
    "result": []
  },
  {
    "postal": "L1T7J7",
    "result": []
  },
  {
    "postal": "L1T8R8",
    "result": []
  },
  {
    "postal": "L1T9X1",
    "result": []
  },
  {
    "postal": "L1T5M9",
    "result": []
  },
  {
    "postal": "L1T9B4",
    "result": []
  },
  {
    "postal": "L1T0L9",
    "result": [
      {
        "electoralDistricts": [
          {
            "election": null,
            "id": 1,
            "name": "Ajax"
          }
        ],
        "pollDivisionIds": [
          10136689
        ],
        "postalCode": "L1T0L9",
        "streetName": "MAGILL",
        "streetDirectionId": null,
        "streetTypeId": "DR",
        "placeName": "AJAX",
        "streetNameDisplayText": "MAGILL DR, AJAX"
      },
      {
        "electoralDistricts": [
          {
            "election": null,
            "id": 1,
            "name": "Ajax"
          }
        ],
        "pollDivisionIds": [
          10136695
        ],
        "postalCode": "L1T0L9",
        "streetName": "OLD HARWOOD",
        "streetDirectionId": null,
        "streetTypeId": "AVE",
        "placeName": "AJAX",
        "streetNameDisplayText": "OLD HARWOOD AVE, AJAX"
      },
      {
        "electoralDistricts": [
          {
            "election": null,
            "id": 1,
            "name": "Ajax"
          }
        ],
        "pollDivisionIds": [
          10136695
        ],
        "postalCode": "L1T0L9",
        "streetName": "SHELDON",
        "streetDirectionId": null,
        "streetTypeId": "DR",
        "placeName": "AJAX",
        "streetNameDisplayText": "SHELDON DR, AJAX"
      }
    ]
  },
  {
    "postal": "L1T9G4",
    "result": []
  },
  {
    "postal": "L1T1J4",
    "result": []
  },
  {
    "postal": "L1T0W6",
    "result": []
  }
]
