[
  {
    "postal": "K9V9J6",
    "result": []
  },
  {
    "postal": "K9V9Z5",
    "result": []
  },
  {
    "postal": "K9V7H8",
    "result": []
  },
  {
    "postal": "K9V0P6",
    "result": []
  },
  {
    "postal": "K9V0S7",
    "result": []
  },
  {
    "postal": "K9V8B9",
    "result": []
  },
  {
    "postal": "K9V2A6",
    "result": [
      {
        "electoralDistricts": [
          {
            "election": null,
            "id": 35,
            "name": "Haliburton—Kawartha Lakes—Brock"
          }
        ],
        "pollDivisionIds": [
          10138556
        ],
        "postalCode": "K9V2A6",
        "streetName": "RUSSELL",
        "streetDirectionId": "E",
        "streetTypeId": "ST",
        "placeName": "LINDSAY",
        "streetNameDisplayText": "RUSSELL ST E, LINDSAY"
      },
      {
        "electoralDistricts": [
          {
            "election": null,
            "id": 35,
            "name": "Haliburton—Kawartha Lakes—Brock"
          }
        ],
        "pollDivisionIds": [
          10138555
        ],
        "postalCode": "K9V2A6",
        "streetName": "RUSSELL",
        "streetDirectionId": "W",
        "streetTypeId": "ST",
        "placeName": "LINDSAY",
        "streetNameDisplayText": "RUSSELL ST W, LINDSAY"
      }
    ]
  },
  {
    "postal": "K9V7V2",
    "result": []
  },
  {
    "postal": "K9V9P4",
    "result": []
  },
  {
    "postal": "K9V6G0",
    "result": []
  },
  {
    "postal": "K9V2K0",
    "result": []
  },
  {
    "postal": "K9V7N6",
    "result": []
  },
  {
    "postal": "K9V5R3",
    "result": [
      {
        "electoralDistricts": [
          {
            "election": null,
            "id": 35,
            "name": "Haliburton—Kawartha Lakes—Brock"
          }
        ],
        "pollDivisionIds": [
          10138552
        ],
        "postalCode": "K9V5R3",
        "streetName": "EGLINGTON",
        "streetDirectionId": null,
        "streetTypeId": "ST",
        "placeName": "LINDSAY",
        "streetNameDisplayText": "EGLINGTON ST, LINDSAY"
      }
    ]
  },
  {
    "postal": "K9V7K0",
    "result": []
  },
  {
    "postal": "K9V3R2",
    "result": [
      {
        "electoralDistricts": [
          {
            "election": null,
            "id": 35,
            "name": "Haliburton—Kawartha Lakes—Brock"
          }
        ],
        "pollDivisionIds": [
          10138555
        ],
        "postalCode": "K9V3R2",
        "streetName": "BOND",
        "streetDirectionId": "W",
        "streetTypeId": "ST",
        "placeName": "LINDSAY",
        "streetNameDisplayText": "BOND ST W, LINDSAY"
      }
    ]
  },
  {
    "postal": "K9V0J1",
    "result": [
      {
        "electoralDistricts": [
          {
            "election": null,
            "id": 35,
            "name": "Haliburton—Kawartha Lakes—Brock"
          }
        ],
        "pollDivisionIds": [
          10138552
        ],
        "postalCode": "K9V0J1",
        "streetName": "CHAMPLAIN",
        "streetDirectionId": null,
        "streetTypeId": "BLVD",
        "placeName": "LINDSAY",
        "streetNameDisplayText": "CHAMPLAIN BLVD, LINDSAY"
      },
      {
        "electoralDistricts": [
          {
            "election": null,
            "id": 35,
            "name": "Haliburton—Kawartha Lakes—Brock"
          }
        ],
        "pollDivisionIds": [
          10138552
        ],
        "postalCode": "K9V0J1",
        "streetName": "MOHAWK",
        "streetDirectionId": null,
        "streetTypeId": "DR",
        "placeName": "LINDSAY",
        "streetNameDisplayText": "MOHAWK DR, LINDSAY"
      }
    ]
  },
  {
    "postal": "K9V0B0",
    "result": []
  },
  {
    "postal": "K9V5Z2",
    "result": [
      {
        "electoralDistricts": [
          {
            "election": null,
            "id": 35,
            "name": "Haliburton—Kawartha Lakes—Brock"
          }
        ],
        "pollDivisionIds": [
          10138553
        ],
        "postalCode": "K9V5Z2",
        "streetName": "HERITAGE",
        "streetDirectionId": null,
        "streetTypeId": "WAY",
        "placeName": "LINDSAY",
        "streetNameDisplayText": "HERITAGE WAY, LINDSAY"
      }
    ]
  },
  {
    "postal": "K9V7P3",
    "result": []
  },
  {
    "postal": "K9V2K3",
    "result": [
      {
        "electoralDistricts": [
          {
            "election": null,
            "id": 35,
            "name": "Haliburton—Kawartha Lakes—Brock"
          }
        ],
        "pollDivisionIds": [
          10138556
        ],
        "postalCode": "K9V2K3",
        "streetName": "ST LAWRENCE",
        "streetDirectionId": null,
        "streetTypeId": "ST",
        "placeName": "LINDSAY",
        "streetNameDisplayText": "ST LAWRENCE ST, LINDSAY"
      }
    ]
  },
  {
    "postal": "K9V7Y6",
    "result": []
  },
  {
    "postal": "K9V1L9",
    "result": [
      {
        "electoralDistricts": [
          {
            "election": null,
            "id": 35,
            "name": "Haliburton—Kawartha Lakes—Brock"
          }
        ],
        "pollDivisionIds": [
          10138557
        ],
        "postalCode": "K9V1L9",
        "streetName": "ST JAMES",
        "streetDirectionId": null,
        "streetTypeId": "ST",
        "placeName": "LINDSAY",
        "streetNameDisplayText": "ST JAMES ST, LINDSAY"
      }
    ]
  },
  {
    "postal": "K9V8T0",
    "result": []
  },
  {
    "postal": "K9V3K8",
    "result": [
      {
        "electoralDistricts": [
          {
            "election": null,
            "id": 35,
            "name": "Haliburton—Kawartha Lakes—Brock"
          }
        ],
        "pollDivisionIds": [
          10138555
        ],
        "postalCode": "K9V3K8",
        "streetName": "ANGELINE",
        "streetDirectionId": "S",
        "streetTypeId": "ST",
        "placeName": "LINDSAY",
        "streetNameDisplayText": "ANGELINE ST S, LINDSAY"
      }
    ]
  },
  {
    "postal": "K9V5W9",
    "result": [
      {
        "electoralDistricts": [
          {
            "election": null,
            "id": 35,
            "name": "Haliburton—Kawartha Lakes—Brock"
          }
        ],
        "pollDivisionIds": [
          10138554
        ],
        "postalCode": "K9V5W9",
        "streetName": "MARY",
        "streetDirectionId": "W",
        "streetTypeId": "ST",
        "placeName": "LINDSAY",
        "streetNameDisplayText": "MARY ST W, LINDSAY"
      },
      {
        "electoralDistricts": [
          {
            "election": null,
            "id": 35,
            "name": "Haliburton—Kawartha Lakes—Brock"
          }
        ],
        "pollDivisionIds": [
          10138554
        ],
        "postalCode": "K9V5W9",
        "streetName": "WILSON",
        "streetDirectionId": "W",
        "streetTypeId": "AVE",
        "placeName": "LINDSAY",
        "streetNameDisplayText": "WILSON AVE W, LINDSAY"
      },
      {
        "electoralDistricts": [
          {
            "election": null,
            "id": 35,
            "name": "Haliburton—Kawartha Lakes—Brock"
          }
        ],
        "pollDivisionIds": [
          10138554
        ],
        "postalCode": "K9V5W9",
        "streetName": "WILSON",
        "streetDirectionId": null,
        "streetTypeId": "AVE",
        "placeName": "LINDSAY",
        "streetNameDisplayText": "WILSON AVE, LINDSAY"
      },
      {
        "electoralDistricts": [
          {
            "election": null,
            "id": 35,
            "name": "Haliburton—Kawartha Lakes—Brock"
          }
        ],
        "pollDivisionIds": [
          10138558
        ],
        "postalCode": "K9V5W9",
        "streetName": "WILSON",
        "streetDirectionId": null,
        "streetTypeId": "RD",
        "placeName": "LINDSAY",
        "streetNameDisplayText": "WILSON RD, LINDSAY"
      }
    ]
  },
  {
    "postal": "K9V6T9",
    "result": []
  },
  {
    "postal": "K9V4H1",
    "result": [
      {
        "electoralDistricts": [
          {
            "election": null,
            "id": 35,
            "name": "Haliburton—Kawartha Lakes—Brock"
          }
        ],
        "pollDivisionIds": [
          10138555,
          10138552
        ],
        "postalCode": "K9V4H1",
        "streetName": "SUSAN",
        "streetDirectionId": null,
        "streetTypeId": "CRT",
        "placeName": "LINDSAY",
        "streetNameDisplayText": "SUSAN CRT, LINDSAY"
      },
      {
        "electoralDistricts": [
          {
            "election": null,
            "id": 35,
            "name": "Haliburton—Kawartha Lakes—Brock"
          }
        ],
        "pollDivisionIds": [
          10138552
        ],
        "postalCode": "K9V4H1",
        "streetName": "VICTORIA",
        "streetDirectionId": "N",
        "streetTypeId": "AVE",
        "placeName": "LINDSAY",
        "streetNameDisplayText": "VICTORIA AVE N, LINDSAY"
      }
    ]
  },
  {
    "postal": "K9V7A2",
    "result": []
  },
  {
    "postal": "K9V5G0",
    "result": []
  },
  {
    "postal": "K9V8V5",
    "result": []
  },
  {
    "postal": "K9V2Y8",
    "result": [
      {
        "electoralDistricts": [
          {
            "election": null,
            "id": 35,
            "name": "Haliburton—Kawartha Lakes—Brock"
          }
        ],
        "pollDivisionIds": [
          10138555
        ],
        "postalCode": "K9V2Y8",
        "streetName": "KENT",
        "streetDirectionId": "W",
        "streetTypeId": "ST",
        "placeName": "LINDSAY",
        "streetNameDisplayText": "KENT ST W, LINDSAY"
      }
    ]
  },
  {
    "postal": "K9V2B6",
    "result": [
      {
        "electoralDistricts": [
          {
            "election": null,
            "id": 35,
            "name": "Haliburton—Kawartha Lakes—Brock"
          }
        ],
        "pollDivisionIds": [
          10138556
        ],
        "postalCode": "K9V2B6",
        "streetName": "RIDOUT",
        "streetDirectionId": null,
        "streetTypeId": "ST",
        "placeName": "LINDSAY",
        "streetNameDisplayText": "RIDOUT ST, LINDSAY"
      }
    ]
  },
  {
    "postal": "K9V4W8",
    "result": [
      {
        "electoralDistricts": [
          {
            "election": null,
            "id": 35,
            "name": "Haliburton—Kawartha Lakes—Brock"
          }
        ],
        "pollDivisionIds": [
          10138552
        ],
        "postalCode": "K9V4W8",
        "streetName": "APPLEWOOD",
        "streetDirectionId": null,
        "streetTypeId": "CRES",
        "placeName": "LINDSAY",
        "streetNameDisplayText": "APPLEWOOD CRES, LINDSAY"
      }
    ]
  },
  {
    "postal": "K9V8H7",
    "result": []
  },
  {
    "postal": "K9V5P1",
    "result": [
      {
        "electoralDistricts": [
          {
            "election": null,
            "id": 35,
            "name": "Haliburton—Kawartha Lakes—Brock"
          }
        ],
        "pollDivisionIds": [
          10138553
        ],
        "postalCode": "K9V5P1",
        "streetName": "ANGELINE",
        "streetDirectionId": "N",
        "streetTypeId": "ST",
        "placeName": "LINDSAY",
        "streetNameDisplayText": "ANGELINE ST N, LINDSAY"
      }
    ]
  },
  {
    "postal": "K9V2B8",
    "result": [
      {
        "electoralDistricts": [
          {
            "election": null,
            "id": 35,
            "name": "Haliburton—Kawartha Lakes—Brock"
          }
        ],
        "pollDivisionIds": [
          10138556
        ],
        "postalCode": "K9V2B8",
        "streetName": "RIDOUT",
        "streetDirectionId": null,
        "streetTypeId": "ST",
        "placeName": "LINDSAY",
        "streetNameDisplayText": "RIDOUT ST, LINDSAY"
      }
    ]
  },
  {
    "postal": "K9V0P2",
    "result": []
  },
  {
    "postal": "K9V9M1",
    "result": []
  },
  {
    "postal": "K9V3G0",
    "result": []
  },
  {
    "postal": "K9V9Z2",
    "result": []
  },
  {
    "postal": "K9V2A0",
    "result": []
  },
  {
    "postal": "K9V6Y0",
    "result": []
  },
  {
    "postal": "K9V2Z8",
    "result": [
      {
        "electoralDistricts": [
          {
            "election": null,
            "id": 35,
            "name": "Haliburton—Kawartha Lakes—Brock"
          }
        ],
        "pollDivisionIds": [
          10138553,
          10138555
        ],
        "postalCode": "K9V2Z8",
        "streetName": "KENT",
        "streetDirectionId": "W",
        "streetTypeId": "ST",
        "placeName": "LINDSAY",
        "streetNameDisplayText": "KENT ST W, LINDSAY"
      }
    ]
  },
  {
    "postal": "K9V7Y3",
    "result": []
  },
  {
    "postal": "K9V6Z5",
    "result": []
  },
  {
    "postal": "K9V6E0",
    "result": []
  },
  {
    "postal": "K9V9B7",
    "result": []
  },
  {
    "postal": "K9V9S5",
    "result": []
  },
  {
    "postal": "K9V3X3",
    "result": [
      {
        "electoralDistricts": [
          {
            "election": null,
            "id": 35,
            "name": "Haliburton—Kawartha Lakes—Brock"
          }
        ],
        "pollDivisionIds": [
          10138553
        ],
        "postalCode": "K9V3X3",
        "streetName": "POTTINGER",
        "streetDirectionId": null,
        "streetTypeId": "ST",
        "placeName": "LINDSAY",
        "streetNameDisplayText": "POTTINGER ST, LINDSAY"
      }
    ]
  },
  {
    "postal": "K9V7R5",
    "result": []
  },
  {
    "postal": "K9V2X3",
    "result": [
      {
        "electoralDistricts": [
          {
            "election": null,
            "id": 35,
            "name": "Haliburton—Kawartha Lakes—Brock"
          }
        ],
        "pollDivisionIds": [
          10138555
        ],
        "postalCode": "K9V2X3",
        "streetName": "RUSSELL",
        "streetDirectionId": "W",
        "streetTypeId": "ST",
        "placeName": "LINDSAY",
        "streetNameDisplayText": "RUSSELL ST W, LINDSAY"
      }
    ]
  },
  {
    "postal": "K9V8Z9",
    "result": []
  },
  {
    "postal": "K9V0N4",
    "result": []
  },
  {
    "postal": "K9V1K1",
    "result": [
      {
        "electoralDistricts": [
          {
            "election": null,
            "id": 35,
            "name": "Haliburton—Kawartha Lakes—Brock"
          }
        ],
        "pollDivisionIds": [
          10138557
        ],
        "postalCode": "K9V1K1",
        "streetName": "COLBORNE",
        "streetDirectionId": "E",
        "streetTypeId": "ST",
        "placeName": "LINDSAY",
        "streetNameDisplayText": "COLBORNE ST E, LINDSAY"
      },
      {
        "electoralDistricts": [
          {
            "election": null,
            "id": 35,
            "name": "Haliburton—Kawartha Lakes—Brock"
          }
        ],
        "pollDivisionIds": [
          10138553
        ],
        "postalCode": "K9V1K1",
        "streetName": "COLBORNE",
        "streetDirectionId": "W",
        "streetTypeId": "ST",
        "placeName": "LINDSAY",
        "streetNameDisplayText": "COLBORNE ST W, LINDSAY"
      }
    ]
  },
  {
    "postal": "K9V1S3",
    "result": [
      {
        "electoralDistricts": [
          {
            "election": null,
            "id": 35,
            "name": "Haliburton—Kawartha Lakes—Brock"
          }
        ],
        "pollDivisionIds": [
          10138557
        ],
        "postalCode": "K9V1S3",
        "streetName": "ST PAUL",
        "streetDirectionId": null,
        "streetTypeId": "ST",
        "placeName": "LINDSAY",
        "streetNameDisplayText": "ST PAUL ST, LINDSAY"
      }
    ]
  },
  {
    "postal": "K9V6M4",
    "result": []
  },
  {
    "postal": "K9V9A9",
    "result": []
  },
  {
    "postal": "K9V9Z9",
    "result": []
  },
  {
    "postal": "K9V6T4",
    "result": []
  },
  {
    "postal": "K9V0B2",
    "result": [
      {
        "electoralDistricts": [
          {
            "election": null,
            "id": 35,
            "name": "Haliburton—Kawartha Lakes—Brock"
          }
        ],
        "pollDivisionIds": [
          10138554
        ],
        "postalCode": "K9V0B2",
        "streetName": "BROAD",
        "streetDirectionId": null,
        "streetTypeId": "ST",
        "placeName": "LINDSAY",
        "streetNameDisplayText": "BROAD ST, LINDSAY"
      },
      {
        "electoralDistricts": [
          {
            "election": null,
            "id": 35,
            "name": "Haliburton—Kawartha Lakes—Brock"
          }
        ],
        "pollDivisionIds": [
          10138554
        ],
        "postalCode": "K9V0B2",
        "streetName": "FLYNN",
        "streetDirectionId": null,
        "streetTypeId": "AVE",
        "placeName": "LINDSAY",
        "streetNameDisplayText": "FLYNN AVE, LINDSAY"
      },
      {
        "electoralDistricts": [
          {
            "election": null,
            "id": 35,
            "name": "Haliburton—Kawartha Lakes—Brock"
          }
        ],
        "pollDivisionIds": [
          10138554
        ],
        "postalCode": "K9V0B2",
        "streetName": "PURPLEDUSK",
        "streetDirectionId": null,
        "streetTypeId": "DR",
        "placeName": "LINDSAY",
        "streetNameDisplayText": "PURPLEDUSK DR, LINDSAY"
      },
      {
        "electoralDistricts": [
          {
            "election": null,
            "id": 35,
            "name": "Haliburton—Kawartha Lakes—Brock"
          }
        ],
        "pollDivisionIds": [
          10138554
        ],
        "postalCode": "K9V0B2",
        "streetName": "THRUSHWOOD",
        "streetDirectionId": null,
        "streetTypeId": "TRAIL",
        "placeName": "LINDSAY",
        "streetNameDisplayText": "THRUSHWOOD TRAIL, LINDSAY"
      }
    ]
  },
  {
    "postal": "K9V2L9",
    "result": [
      {
        "electoralDistricts": [
          {
            "election": null,
            "id": 35,
            "name": "Haliburton—Kawartha Lakes—Brock"
          }
        ],
        "pollDivisionIds": [
          10138555
        ],
        "postalCode": "K9V2L9",
        "streetName": "LINDSAY",
        "streetDirectionId": "S",
        "streetTypeId": "ST",
        "placeName": "LINDSAY",
        "streetNameDisplayText": "LINDSAY ST S, LINDSAY"
      }
    ]
  },
  {
    "postal": "K9V8K9",
    "result": []
  },
  {
    "postal": "K9V2H9",
    "result": [
      {
        "electoralDistricts": [
          {
            "election": null,
            "id": 35,
            "name": "Haliburton—Kawartha Lakes—Brock"
          }
        ],
        "pollDivisionIds": [
          10138556
        ],
        "postalCode": "K9V2H9",
        "streetName": "WOLFE",
        "streetDirectionId": null,
        "streetTypeId": "ST",
        "placeName": "LINDSAY",
        "streetNameDisplayText": "WOLFE ST, LINDSAY"
      }
    ]
  },
  {
    "postal": "K9V3Z6",
    "result": [
      {
        "electoralDistricts": [
          {
            "election": null,
            "id": 35,
            "name": "Haliburton—Kawartha Lakes—Brock"
          }
        ],
        "pollDivisionIds": [
          10138555
        ],
        "postalCode": "K9V3Z6",
        "streetName": "YORK",
        "streetDirectionId": "N",
        "streetTypeId": "ST",
        "placeName": "LINDSAY",
        "streetNameDisplayText": "YORK ST N, LINDSAY"
      }
    ]
  },
  {
    "postal": "K9V3B0",
    "result": []
  },
  {
    "postal": "K9V2H8",
    "result": [
      {
        "electoralDistricts": [
          {
            "election": null,
            "id": 35,
            "name": "Haliburton—Kawartha Lakes—Brock"
          }
        ],
        "pollDivisionIds": [
          10138556
        ],
        "postalCode": "K9V2H8",
        "streetName": "HURON",
        "streetDirectionId": null,
        "streetTypeId": "ST",
        "placeName": "LINDSAY",
        "streetNameDisplayText": "HURON ST, LINDSAY"
      }
    ]
  },
  {
    "postal": "K9V3X2",
    "result": [
      {
        "electoralDistricts": [
          {
            "election": null,
            "id": 35,
            "name": "Haliburton—Kawartha Lakes—Brock"
          }
        ],
        "pollDivisionIds": [
          10138553
        ],
        "postalCode": "K9V3X2",
        "streetName": "POTTINGER",
        "streetDirectionId": null,
        "streetTypeId": "ST",
        "placeName": "LINDSAY",
        "streetNameDisplayText": "POTTINGER ST, LINDSAY"
      }
    ]
  },
  {
    "postal": "K9V2E9",
    "result": [
      {
        "electoralDistricts": [
          {
            "election": null,
            "id": 35,
            "name": "Haliburton—Kawartha Lakes—Brock"
          }
        ],
        "pollDivisionIds": [
          10138556
        ],
        "postalCode": "K9V2E9",
        "streetName": "SIMCOE",
        "streetDirectionId": null,
        "streetTypeId": "ST",
        "placeName": "LINDSAY",
        "streetNameDisplayText": "SIMCOE ST, LINDSAY"
      }
    ]
  },
  {
    "postal": "K9V9P6",
    "result": []
  },
  {
    "postal": "K9V9E2",
    "result": []
  },
  {
    "postal": "K9V9H2",
    "result": []
  },
  {
    "postal": "K9V1S8",
    "result": [
      {
        "electoralDistricts": [
          {
            "election": null,
            "id": 35,
            "name": "Haliburton—Kawartha Lakes—Brock"
          }
        ],
        "pollDivisionIds": [
          10138557
        ],
        "postalCode": "K9V1S8",
        "streetName": "ST PAUL",
        "streetDirectionId": null,
        "streetTypeId": "ST",
        "placeName": "LINDSAY",
        "streetNameDisplayText": "ST PAUL ST, LINDSAY"
      }
    ]
  },
  {
    "postal": "K9V3M6",
    "result": [
      {
        "electoralDistricts": [
          {
            "election": null,
            "id": 35,
            "name": "Haliburton—Kawartha Lakes—Brock"
          }
        ],
        "pollDivisionIds": [
          10138555
        ],
        "postalCode": "K9V3M6",
        "streetName": "PEEL",
        "streetDirectionId": null,
        "streetTypeId": "ST",
        "placeName": "LINDSAY",
        "streetNameDisplayText": "PEEL ST, LINDSAY"
      }
    ]
  },
  {
    "postal": "K9V6Z8",
    "result": []
  },
  {
    "postal": "K9V4J2",
    "result": [
      {
        "electoralDistricts": [
          {
            "election": null,
            "id": 35,
            "name": "Haliburton—Kawartha Lakes—Brock"
          }
        ],
        "pollDivisionIds": [
          10138555
        ],
        "postalCode": "K9V4J2",
        "streetName": "ALBERT",
        "streetDirectionId": "N",
        "streetTypeId": "ST",
        "placeName": "LINDSAY",
        "streetNameDisplayText": "ALBERT ST N, LINDSAY"
      }
    ]
  },
  {
    "postal": "K9V9Y1",
    "result": []
  },
  {
    "postal": "K9V8V6",
    "result": []
  },
  {
    "postal": "K9V6B2",
    "result": [
      {
        "electoralDistricts": [
          {
            "election": null,
            "id": 35,
            "name": "Haliburton—Kawartha Lakes—Brock"
          }
        ],
        "pollDivisionIds": [
          10138553
        ],
        "postalCode": "K9V6B2",
        "streetName": "ELGIN",
        "streetDirectionId": null,
        "streetTypeId": "ST",
        "placeName": "LINDSAY",
        "streetNameDisplayText": "ELGIN ST, LINDSAY"
      },
      {
        "electoralDistricts": [
          {
            "election": null,
            "id": 35,
            "name": "Haliburton—Kawartha Lakes—Brock"
          }
        ],
        "pollDivisionIds": [
          10138553
        ],
        "postalCode": "K9V6B2",
        "streetName": "ELM",
        "streetDirectionId": null,
        "streetTypeId": "CRT",
        "placeName": "LINDSAY",
        "streetNameDisplayText": "ELM CRT, LINDSAY"
      }
    ]
  },
  {
    "postal": "K9V1P8",
    "result": [
      {
        "electoralDistricts": [
          {
            "election": null,
            "id": 35,
            "name": "Haliburton—Kawartha Lakes—Brock"
          }
        ],
        "pollDivisionIds": [
          10138557
        ],
        "postalCode": "K9V1P8",
        "streetName": "ST PETER",
        "streetDirectionId": null,
        "streetTypeId": "ST",
        "placeName": "LINDSAY",
        "streetNameDisplayText": "ST PETER ST, LINDSAY"
      }
    ]
  },
  {
    "postal": "K9V0V8",
    "result": []
  },
  {
    "postal": "K9V4Y0",
    "result": []
  },
  {
    "postal": "K9V2T4",
    "result": [
      {
        "electoralDistricts": [
          {
            "election": null,
            "id": 35,
            "name": "Haliburton—Kawartha Lakes—Brock"
          }
        ],
        "pollDivisionIds": [
          10138555
        ],
        "postalCode": "K9V2T4",
        "streetName": "MELBOURNE",
        "streetDirectionId": "W",
        "streetTypeId": "ST",
        "placeName": "LINDSAY",
        "streetNameDisplayText": "MELBOURNE ST W, LINDSAY"
      }
    ]
  },
  {
    "postal": "K9V2S3",
    "result": [
      {
        "electoralDistricts": [
          {
            "election": null,
            "id": 35,
            "name": "Haliburton—Kawartha Lakes—Brock"
          }
        ],
        "pollDivisionIds": [
          10138555
        ],
        "postalCode": "K9V2S3",
        "streetName": "VIMY",
        "streetDirectionId": null,
        "streetTypeId": "RD",
        "placeName": "LINDSAY",
        "streetNameDisplayText": "VIMY RD, LINDSAY"
      }
    ]
  },
  {
    "postal": "K9V0K0",
    "result": []
  },
  {
    "postal": "K9V5N1",
    "result": []
  },
  {
    "postal": "K9V7T0",
    "result": []
  },
  {
    "postal": "K9V9N2",
    "result": []
  },
  {
    "postal": "K9V5L1",
    "result": [
      {
        "electoralDistricts": [
          {
            "election": null,
            "id": 35,
            "name": "Haliburton—Kawartha Lakes—Brock"
          }
        ],
        "pollDivisionIds": [
          10138552
        ],
        "postalCode": "K9V5L1",
        "streetName": "ROGERS",
        "streetDirectionId": null,
        "streetTypeId": "RD",
        "placeName": "LINDSAY",
        "streetNameDisplayText": "ROGERS RD, LINDSAY"
      }
    ]
  },
  {
    "postal": "K9V7G5",
    "result": []
  },
  {
    "postal": "K9V6K2",
    "result": [
      {
        "electoralDistricts": [
          {
            "election": null,
            "id": 35,
            "name": "Haliburton—Kawartha Lakes—Brock"
          }
        ],
        "pollDivisionIds": [
          10138553
        ],
        "postalCode": "K9V6K2",
        "streetName": "KENT",
        "streetDirectionId": "W",
        "streetTypeId": "ST",
        "placeName": "LINDSAY",
        "streetNameDisplayText": "KENT ST W, LINDSAY"
      }
    ]
  },
  {
    "postal": "K9V6P9",
    "result": []
  },
  {
    "postal": "K9V0E6",
    "result": [
      {
        "electoralDistricts": [
          {
            "election": null,
            "id": 35,
            "name": "Haliburton—Kawartha Lakes—Brock"
          }
        ],
        "pollDivisionIds": [
          10138554
        ],
        "postalCode": "K9V0E6",
        "streetName": "GREEN ARBOUR",
        "streetDirectionId": null,
        "streetTypeId": "WAY",
        "placeName": "LINDSAY",
        "streetNameDisplayText": "GREEN ARBOUR WAY, LINDSAY"
      }
    ]
  },
  {
    "postal": "K9V8R9",
    "result": []
  },
  {
    "postal": "K9V3G9",
    "result": [
      {
        "electoralDistricts": [
          {
            "election": null,
            "id": 35,
            "name": "Haliburton—Kawartha Lakes—Brock"
          }
        ],
        "pollDivisionIds": [
          10138555
        ],
        "postalCode": "K9V3G9",
        "streetName": "ALBERT",
        "streetDirectionId": "S",
        "streetTypeId": "ST",
        "placeName": "LINDSAY",
        "streetNameDisplayText": "ALBERT ST S, LINDSAY"
      }
    ]
  },
  {
    "postal": "K9V0V7",
    "result": []
  },
  {
    "postal": "K9V2Z1",
    "result": [
      {
        "electoralDistricts": [
          {
            "election": null,
            "id": 35,
            "name": "Haliburton—Kawartha Lakes—Brock"
          }
        ],
        "pollDivisionIds": [
          10138555
        ],
        "postalCode": "K9V2Z1",
        "streetName": "KENT",
        "streetDirectionId": "W",
        "streetTypeId": "ST",
        "placeName": "LINDSAY",
        "streetNameDisplayText": "KENT ST W, LINDSAY"
      }
    ]
  },
  {
    "postal": "K9V7N1",
    "result": []
  },
  {
    "postal": "K9V3C6",
    "result": [
      {
        "electoralDistricts": [
          {
            "election": null,
            "id": 35,
            "name": "Haliburton—Kawartha Lakes—Brock"
          }
        ],
        "pollDivisionIds": [
          10138556
        ],
        "postalCode": "K9V3C6",
        "streetName": "CAMBRIDGE",
        "streetDirectionId": "S",
        "streetTypeId": "ST",
        "placeName": "LINDSAY",
        "streetNameDisplayText": "CAMBRIDGE ST S, LINDSAY"
      }
    ]
  },
  {
    "postal": "K9V4M1",
    "result": [
      {
        "electoralDistricts": [
          {
            "election": null,
            "id": 35,
            "name": "Haliburton—Kawartha Lakes—Brock"
          }
        ],
        "pollDivisionIds": [
          10138552
        ],
        "postalCode": "K9V4M1",
        "streetName": "ADELAIDE",
        "streetDirectionId": "N",
        "streetTypeId": "ST",
        "placeName": "LINDSAY",
        "streetNameDisplayText": "ADELAIDE ST N, LINDSAY"
      }
    ]
  },
  {
    "postal": "K9V9K2",
    "result": []
  },
  {
    "postal": "K9V9S6",
    "result": []
  },
  {
    "postal": "K9V4X1",
    "result": [
      {
        "electoralDistricts": [
          {
            "election": null,
            "id": 35,
            "name": "Haliburton—Kawartha Lakes—Brock"
          }
        ],
        "pollDivisionIds": [
          10138552
        ],
        "postalCode": "K9V4X1",
        "streetName": "ORCHARD PARK",
        "streetDirectionId": null,
        "streetTypeId": "RD",
        "placeName": "LINDSAY",
        "streetNameDisplayText": "ORCHARD PARK RD, LINDSAY"
      }
    ]
  },
  {
    "postal": "K9V8W2",
    "result": []
  },
  {
    "postal": "K9V7N2",
    "result": []
  },
  {
    "postal": "K9V8S3",
    "result": []
  },
  {
    "postal": "K9V4V0",
    "result": []
  },
  {
    "postal": "K9V6W4",
    "result": []
  },
  {
    "postal": "K9V5M1",
    "result": [
      {
        "electoralDistricts": [
          {
            "election": null,
            "id": 35,
            "name": "Haliburton—Kawartha Lakes—Brock"
          }
        ],
        "pollDivisionIds": [
          10138554
        ],
        "postalCode": "K9V5M1",
        "streetName": "MARY",
        "streetDirectionId": "W",
        "streetTypeId": "ST",
        "placeName": "LINDSAY",
        "streetNameDisplayText": "MARY ST W, LINDSAY"
      }
    ]
  },
  {
    "postal": "K9V0S4",
    "result": []
  },
  {
    "postal": "K9V5X6",
    "result": [
      {
        "electoralDistricts": [
          {
            "election": null,
            "id": 35,
            "name": "Haliburton—Kawartha Lakes—Brock"
          }
        ],
        "pollDivisionIds": [
          10138552
        ],
        "postalCode": "K9V5X6",
        "streetName": "WILLIAM",
        "streetDirectionId": "N",
        "streetTypeId": "ST",
        "placeName": "LINDSAY",
        "streetNameDisplayText": "WILLIAM ST N, LINDSAY"
      }
    ]
  },
  {
    "postal": "K9V8L5",
    "result": []
  },
  {
    "postal": "K9V5M8",
    "result": [
      {
        "electoralDistricts": [
          {
            "election": null,
            "id": 35,
            "name": "Haliburton—Kawartha Lakes—Brock"
          }
        ],
        "pollDivisionIds": [
          10138552
        ],
        "postalCode": "K9V5M8",
        "streetName": "SANDERLING",
        "streetDirectionId": null,
        "streetTypeId": "CRES",
        "placeName": "LINDSAY",
        "streetNameDisplayText": "SANDERLING CRES, LINDSAY"
      }
    ]
  },
  {
    "postal": "K9V2G3",
    "result": [
      {
        "electoralDistricts": [
          {
            "election": null,
            "id": 35,
            "name": "Haliburton—Kawartha Lakes—Brock"
          }
        ],
        "pollDivisionIds": [
          10138556
        ],
        "postalCode": "K9V2G3",
        "streetName": "SIMCOE",
        "streetDirectionId": null,
        "streetTypeId": "ST",
        "placeName": "LINDSAY",
        "streetNameDisplayText": "SIMCOE ST, LINDSAY"
      }
    ]
  },
  {
    "postal": "K9V8E4",
    "result": []
  },
  {
    "postal": "K9V7S9",
    "result": []
  },
  {
    "postal": "K9V1K3",
    "result": [
      {
        "electoralDistricts": [
          {
            "election": null,
            "id": 35,
            "name": "Haliburton—Kawartha Lakes—Brock"
          }
        ],
        "pollDivisionIds": [
          10138557
        ],
        "postalCode": "K9V1K3",
        "streetName": "COLBORNE",
        "streetDirectionId": "E",
        "streetTypeId": "ST",
        "placeName": "LINDSAY",
        "streetNameDisplayText": "COLBORNE ST E, LINDSAY"
      }
    ]
  },
  {
    "postal": "K9V4E1",
    "result": [
      {
        "electoralDistricts": [
          {
            "election": null,
            "id": 35,
            "name": "Haliburton—Kawartha Lakes—Brock"
          }
        ],
        "pollDivisionIds": [
          10138555
        ],
        "postalCode": "K9V4E1",
        "streetName": "CAMBRIDGE",
        "streetDirectionId": "N",
        "streetTypeId": "ST",
        "placeName": "LINDSAY",
        "streetNameDisplayText": "CAMBRIDGE ST N, LINDSAY"
      }
    ]
  },
  {
    "postal": "K9V4R2",
    "result": [
      {
        "electoralDistricts": [
          {
            "election": null,
            "id": 35,
            "name": "Haliburton—Kawartha Lakes—Brock"
          }
        ],
        "pollDivisionIds": [
          10138552
        ],
        "postalCode": "K9V4R2",
        "streetName": "7",
        "streetDirectionId": null,
        "streetTypeId": "HWY",
        "placeName": "LINDSAY",
        "streetNameDisplayText": "7 HWY, LINDSAY"
      },
      {
        "electoralDistricts": [
          {
            "election": null,
            "id": 35,
            "name": "Haliburton—Kawartha Lakes—Brock"
          }
        ],
        "pollDivisionIds": [
          10138551,
          10138558
        ],
        "postalCode": "K9V4R2",
        "streetName": "BRIDLE",
        "streetDirectionId": null,
        "streetTypeId": "RD",
        "placeName": "LINDSAY",
        "streetNameDisplayText": "BRIDLE RD, LINDSAY"
      },
      {
        "electoralDistricts": [
          {
            "election": null,
            "id": 35,
            "name": "Haliburton—Kawartha Lakes—Brock"
          }
        ],
        "pollDivisionIds": [
          10138551
        ],
        "postalCode": "K9V4R2",
        "streetName": "CROSS CREEK",
        "streetDirectionId": null,
        "streetTypeId": "RD",
        "placeName": "LINDSAY",
        "streetNameDisplayText": "CROSS CREEK RD, LINDSAY"
      },
      {
        "electoralDistricts": [
          {
            "election": null,
            "id": 35,
            "name": "Haliburton—Kawartha Lakes—Brock"
          }
        ],
        "pollDivisionIds": [
          10138552,
          10138558
        ],
        "postalCode": "K9V4R2",
        "streetName": "DEW DROP INN",
        "streetDirectionId": null,
        "streetTypeId": "RD",
        "placeName": "LINDSAY",
        "streetNameDisplayText": "DEW DROP INN RD, LINDSAY"
      },
      {
        "electoralDistricts": [
          {
            "election": null,
            "id": 35,
            "name": "Haliburton—Kawartha Lakes—Brock"
          }
        ],
        "pollDivisionIds": [
          10138558,
          10138553
        ],
        "postalCode": "K9V4R2",
        "streetName": "ELM TREE",
        "streetDirectionId": null,
        "streetTypeId": "RD",
        "placeName": "LINDSAY",
        "streetNameDisplayText": "ELM TREE RD, LINDSAY"
      },
      {
        "electoralDistricts": [
          {
            "election": null,
            "id": 35,
            "name": "Haliburton—Kawartha Lakes—Brock"
          }
        ],
        "pollDivisionIds": [
          10138554
        ],
        "postalCode": "K9V4R2",
        "streetName": "GREENFIELD",
        "streetDirectionId": null,
        "streetTypeId": "RD",
        "placeName": "LINDSAY",
        "streetNameDisplayText": "GREENFIELD RD, LINDSAY"
      },
      {
        "electoralDistricts": [
          {
            "election": null,
            "id": 35,
            "name": "Haliburton—Kawartha Lakes—Brock"
          }
        ],
        "pollDivisionIds": [
          10138558
        ],
        "postalCode": "K9V4R2",
        "streetName": "LITTLE BRITAIN",
        "streetDirectionId": null,
        "streetTypeId": "RD",
        "placeName": "LINDSAY",
        "streetNameDisplayText": "LITTLE BRITAIN RD, LINDSAY"
      },
      {
        "electoralDistricts": [
          {
            "election": null,
            "id": 35,
            "name": "Haliburton—Kawartha Lakes—Brock"
          }
        ],
        "pollDivisionIds": [
          10138558,
          10138552
        ],
        "postalCode": "K9V4R2",
        "streetName": "MONARCH",
        "streetDirectionId": null,
        "streetTypeId": "RD",
        "placeName": "LINDSAY",
        "streetNameDisplayText": "MONARCH RD, LINDSAY"
      },
      {
        "electoralDistricts": [
          {
            "election": null,
            "id": 35,
            "name": "Haliburton—Kawartha Lakes—Brock"
          }
        ],
        "pollDivisionIds": [
          10138558
        ],
        "postalCode": "K9V4R2",
        "streetName": "RIDGEWOOD",
        "streetDirectionId": null,
        "streetTypeId": "RD",
        "placeName": "LINDSAY",
        "streetNameDisplayText": "RIDGEWOOD RD, LINDSAY"
      },
      {
        "electoralDistricts": [
          {
            "election": null,
            "id": 35,
            "name": "Haliburton—Kawartha Lakes—Brock"
          }
        ],
        "pollDivisionIds": [
          10138558
        ],
        "postalCode": "K9V4R2",
        "streetName": "ROUND TREE",
        "streetDirectionId": null,
        "streetTypeId": "RD",
        "placeName": "LINDSAY",
        "streetNameDisplayText": "ROUND TREE RD, LINDSAY"
      },
      {
        "electoralDistricts": [
          {
            "election": null,
            "id": 35,
            "name": "Haliburton—Kawartha Lakes—Brock"
          }
        ],
        "pollDivisionIds": [
          10138558
        ],
        "postalCode": "K9V4R2",
        "streetName": "ROUNDTREE",
        "streetDirectionId": null,
        "streetTypeId": "RD",
        "placeName": "LINDSAY",
        "streetNameDisplayText": "ROUNDTREE RD, LINDSAY"
      }
    ]
  },
  {
    "postal": "K9V6T0",
    "result": []
  },
  {
    "postal": "K9V3K5",
    "result": [
      {
        "electoralDistricts": [
          {
            "election": null,
            "id": 35,
            "name": "Haliburton—Kawartha Lakes—Brock"
          }
        ],
        "pollDivisionIds": [
          10138556
        ],
        "postalCode": "K9V3K5",
        "streetName": "ADELAIDE",
        "streetDirectionId": "S",
        "streetTypeId": "ST",
        "placeName": "LINDSAY",
        "streetNameDisplayText": "ADELAIDE ST S, LINDSAY"
      }
    ]
  },
  {
    "postal": "K9V3S3",
    "result": [
      {
        "electoralDistricts": [
          {
            "election": null,
            "id": 35,
            "name": "Haliburton—Kawartha Lakes—Brock"
          }
        ],
        "pollDivisionIds": [
          10138555
        ],
        "postalCode": "K9V3S3",
        "streetName": "FRANCIS",
        "streetDirectionId": null,
        "streetTypeId": "ST",
        "placeName": "LINDSAY",
        "streetNameDisplayText": "FRANCIS ST, LINDSAY"
      }
    ]
  },
  {
    "postal": "K9V3L4",
    "result": [
      {
        "electoralDistricts": [
          {
            "election": null,
            "id": 35,
            "name": "Haliburton—Kawartha Lakes—Brock"
          }
        ],
        "pollDivisionIds": [
          10138554
        ],
        "postalCode": "K9V3L4",
        "streetName": "ANGELINE",
        "streetDirectionId": "S",
        "streetTypeId": "ST",
        "placeName": "LINDSAY",
        "streetNameDisplayText": "ANGELINE ST S, LINDSAY"
      }
    ]
  },
  {
    "postal": "K9V9Y2",
    "result": []
  },
  {
    "postal": "K9V1E0",
    "result": []
  },
  {
    "postal": "K9V9A4",
    "result": []
  },
  {
    "postal": "K9V1L3",
    "result": [
      {
        "electoralDistricts": [
          {
            "election": null,
            "id": 35,
            "name": "Haliburton—Kawartha Lakes—Brock"
          }
        ],
        "pollDivisionIds": [
          10138557
        ],
        "postalCode": "K9V1L3",
        "streetName": "DENNISTON",
        "streetDirectionId": null,
        "streetTypeId": "ST",
        "placeName": "LINDSAY",
        "streetNameDisplayText": "DENNISTON ST, LINDSAY"
      }
    ]
  },
  {
    "postal": "K9V6N1",
    "result": []
  },
  {
    "postal": "K9V6G7",
    "result": [
      {
        "electoralDistricts": [
          {
            "election": null,
            "id": 35,
            "name": "Haliburton—Kawartha Lakes—Brock"
          }
        ],
        "pollDivisionIds": [
          10138555
        ],
        "postalCode": "K9V6G7",
        "streetName": "YORK",
        "streetDirectionId": "S",
        "streetTypeId": "ST",
        "placeName": "LINDSAY",
        "streetNameDisplayText": "YORK ST S, LINDSAY"
      }
    ]
  },
  {
    "postal": "K9V7W1",
    "result": []
  },
  {
    "postal": "K9V4M6",
    "result": [
      {
        "electoralDistricts": [
          {
            "election": null,
            "id": 35,
            "name": "Haliburton—Kawartha Lakes—Brock"
          }
        ],
        "pollDivisionIds": [
          10138553
        ],
        "postalCode": "K9V4M6",
        "streetName": "ADELAIDE",
        "streetDirectionId": "N",
        "streetTypeId": "ST",
        "placeName": "LINDSAY",
        "streetNameDisplayText": "ADELAIDE ST N, LINDSAY"
      }
    ]
  },
  {
    "postal": "K9V1K0",
    "result": []
  },
  {
    "postal": "K9V3E2",
    "result": [
      {
        "electoralDistricts": [
          {
            "election": null,
            "id": 35,
            "name": "Haliburton—Kawartha Lakes—Brock"
          }
        ],
        "pollDivisionIds": [
          10138556
        ],
        "postalCode": "K9V3E2",
        "streetName": "HAMILTON",
        "streetDirectionId": null,
        "streetTypeId": "ST",
        "placeName": "LINDSAY",
        "streetNameDisplayText": "HAMILTON ST, LINDSAY"
      }
    ]
  },
  {
    "postal": "K9V5H4",
    "result": [
      {
        "electoralDistricts": [
          {
            "election": null,
            "id": 35,
            "name": "Haliburton—Kawartha Lakes—Brock"
          }
        ],
        "pollDivisionIds": [
          10138553
        ],
        "postalCode": "K9V5H4",
        "streetName": "RICHARD",
        "streetDirectionId": null,
        "streetTypeId": "AVE",
        "placeName": "LINDSAY",
        "streetNameDisplayText": "RICHARD AVE, LINDSAY"
      }
    ]
  },
  {
    "postal": "K9V1K7",
    "result": []
  },
  {
    "postal": "K9V0H0",
    "result": []
  },
  {
    "postal": "K9V0J3",
    "result": [
      {
        "electoralDistricts": [
          {
            "election": null,
            "id": 35,
            "name": "Haliburton—Kawartha Lakes—Brock"
          }
        ],
        "pollDivisionIds": [
          10138552
        ],
        "postalCode": "K9V0J3",
        "streetName": "LAMB",
        "streetDirectionId": null,
        "streetTypeId": "AVE",
        "placeName": "LINDSAY",
        "streetNameDisplayText": "LAMB AVE, LINDSAY"
      },
      {
        "electoralDistricts": [
          {
            "election": null,
            "id": 35,
            "name": "Haliburton—Kawartha Lakes—Brock"
          }
        ],
        "pollDivisionIds": [
          10138552
        ],
        "postalCode": "K9V0J3",
        "streetName": "LIAM",
        "streetDirectionId": null,
        "streetTypeId": "ST",
        "placeName": "LINDSAY",
        "streetNameDisplayText": "LIAM ST, LINDSAY"
      },
      {
        "electoralDistricts": [
          {
            "election": null,
            "id": 35,
            "name": "Haliburton—Kawartha Lakes—Brock"
          }
        ],
        "pollDivisionIds": [
          10138552
        ],
        "postalCode": "K9V0J3",
        "streetName": "SPRINGDALE",
        "streetDirectionId": null,
        "streetTypeId": "DR",
        "placeName": "LINDSAY",
        "streetNameDisplayText": "SPRINGDALE DR, LINDSAY"
      }
    ]
  },
  {
    "postal": "K9V1X6",
    "result": [
      {
        "electoralDistricts": [
          {
            "election": null,
            "id": 35,
            "name": "Haliburton—Kawartha Lakes—Brock"
          }
        ],
        "pollDivisionIds": [
          10138556
        ],
        "postalCode": "K9V1X6",
        "streetName": "MELBOURNE",
        "streetDirectionId": "E",
        "streetTypeId": "ST",
        "placeName": "LINDSAY",
        "streetNameDisplayText": "MELBOURNE ST E, LINDSAY"
      }
    ]
  },
  {
    "postal": "K9V2Z6",
    "result": [
      {
        "electoralDistricts": [
          {
            "election": null,
            "id": 35,
            "name": "Haliburton—Kawartha Lakes—Brock"
          }
        ],
        "pollDivisionIds": [
          10138555
        ],
        "postalCode": "K9V2Z6",
        "streetName": "KENT",
        "streetDirectionId": "W",
        "streetTypeId": "ST",
        "placeName": "LINDSAY",
        "streetNameDisplayText": "KENT ST W, LINDSAY"
      }
    ]
  },
  {
    "postal": "K9V4R9",
    "result": []
  },
  {
    "postal": "K9V0W8",
    "result": []
  },
  {
    "postal": "K9V1L4",
    "result": [
      {
        "electoralDistricts": [
          {
            "election": null,
            "id": 35,
            "name": "Haliburton—Kawartha Lakes—Brock"
          }
        ],
        "pollDivisionIds": [
          10138557
        ],
        "postalCode": "K9V1L4",
        "streetName": "DENNISTON",
        "streetDirectionId": null,
        "streetTypeId": "ST",
        "placeName": "LINDSAY",
        "streetNameDisplayText": "DENNISTON ST, LINDSAY"
      }
    ]
  },
  {
    "postal": "K9V0C8",
    "result": [
      {
        "electoralDistricts": [
          {
            "election": null,
            "id": 35,
            "name": "Haliburton—Kawartha Lakes—Brock"
          }
        ],
        "pollDivisionIds": [
          10138556
        ],
        "postalCode": "K9V0C8",
        "streetName": "TINA",
        "streetDirectionId": null,
        "streetTypeId": "CRT",
        "placeName": "LINDSAY",
        "streetNameDisplayText": "TINA CRT, LINDSAY"
      }
    ]
  },
  {
    "postal": "K9V9X7",
    "result": []
  },
  {
    "postal": "K9V4T1",
    "result": [
      {
        "electoralDistricts": [
          {
            "election": null,
            "id": 35,
            "name": "Haliburton—Kawartha Lakes—Brock"
          }
        ],
        "pollDivisionIds": [
          10138553
        ],
        "postalCode": "K9V4T1",
        "streetName": "ROSEMARY",
        "streetDirectionId": null,
        "streetTypeId": "DR",
        "placeName": "LINDSAY",
        "streetNameDisplayText": "ROSEMARY DR, LINDSAY"
      }
    ]
  },
  {
    "postal": "K9V0M0",
    "result": []
  },
  {
    "postal": "K9V6A2",
    "result": [
      {
        "electoralDistricts": [
          {
            "election": null,
            "id": 35,
            "name": "Haliburton—Kawartha Lakes—Brock"
          }
        ],
        "pollDivisionIds": [
          10138552
        ],
        "postalCode": "K9V6A2",
        "streetName": "LINDWAY",
        "streetDirectionId": null,
        "streetTypeId": "PL",
        "placeName": "LINDSAY",
        "streetNameDisplayText": "LINDWAY PL, LINDSAY"
      }
    ]
  },
  {
    "postal": "K9V9S8",
    "result": []
  },
  {
    "postal": "K9V9T4",
    "result": []
  },
  {
    "postal": "K9V9Y4",
    "result": []
  },
  {
    "postal": "K9V6G5",
    "result": [
      {
        "electoralDistricts": [
          {
            "election": null,
            "id": 35,
            "name": "Haliburton—Kawartha Lakes—Brock"
          }
        ],
        "pollDivisionIds": [
          10138553,
          10138554
        ],
        "postalCode": "K9V6G5",
        "streetName": "MCGIBBON",
        "streetDirectionId": null,
        "streetTypeId": "BLVD",
        "placeName": "LINDSAY",
        "streetNameDisplayText": "MCGIBBON BLVD, LINDSAY"
      }
    ]
  },
  {
    "postal": "K9V6H9",
    "result": []
  },
  {
    "postal": "K9V2P3",
    "result": [
      {
        "electoralDistricts": [
          {
            "election": null,
            "id": 35,
            "name": "Haliburton—Kawartha Lakes—Brock"
          }
        ],
        "pollDivisionIds": [
          10138556
        ],
        "postalCode": "K9V2P3",
        "streetName": "DURHAM",
        "streetDirectionId": "W",
        "streetTypeId": "ST",
        "placeName": "LINDSAY",
        "streetNameDisplayText": "DURHAM ST W, LINDSAY"
      }
    ]
  },
  {
    "postal": "K9V1T6",
    "result": [
      {
        "electoralDistricts": [
          {
            "election": null,
            "id": 35,
            "name": "Haliburton—Kawartha Lakes—Brock"
          }
        ],
        "pollDivisionIds": [
          10138557
        ],
        "postalCode": "K9V1T6",
        "streetName": "LINDSAY",
        "streetDirectionId": "N",
        "streetTypeId": "ST",
        "placeName": "LINDSAY",
        "streetNameDisplayText": "LINDSAY ST N, LINDSAY"
      }
    ]
  },
  {
    "postal": "K9V4P6",
    "result": [
      {
        "electoralDistricts": [
          {
            "election": null,
            "id": 35,
            "name": "Haliburton—Kawartha Lakes—Brock"
          }
        ],
        "pollDivisionIds": [
          10138553
        ],
        "postalCode": "K9V4P6",
        "streetName": "WESTWOOD",
        "streetDirectionId": null,
        "streetTypeId": "CRT",
        "placeName": "LINDSAY",
        "streetNameDisplayText": "WESTWOOD CRT, LINDSAY"
      }
    ]
  },
  {
    "postal": "K9V3K1",
    "result": [
      {
        "electoralDistricts": [
          {
            "election": null,
            "id": 35,
            "name": "Haliburton—Kawartha Lakes—Brock"
          }
        ],
        "pollDivisionIds": [
          10138554
        ],
        "postalCode": "K9V3K1",
        "streetName": "ADELAIDE",
        "streetDirectionId": "S",
        "streetTypeId": "ST",
        "placeName": "LINDSAY",
        "streetNameDisplayText": "ADELAIDE ST S, LINDSAY"
      }
    ]
  },
  {
    "postal": "K9V6X4",
    "result": []
  },
  {
    "postal": "K9V4M8",
    "result": [
      {
        "electoralDistricts": [
          {
            "election": null,
            "id": 35,
            "name": "Haliburton—Kawartha Lakes—Brock"
          }
        ],
        "pollDivisionIds": [
          57079
        ],
        "postalCode": "K9V4M8",
        "streetName": "ANGELINE",
        "streetDirectionId": "N",
        "streetTypeId": "ST",
        "placeName": "LINDSAY",
        "streetNameDisplayText": "ANGELINE ST N, LINDSAY"
      }
    ]
  },
  {
    "postal": "K9V2Y1",
    "result": [
      {
        "electoralDistricts": [
          {
            "election": null,
            "id": 35,
            "name": "Haliburton—Kawartha Lakes—Brock"
          }
        ],
        "pollDivisionIds": [
          10138556
        ],
        "postalCode": "K9V2Y1",
        "streetName": "KENT",
        "streetDirectionId": "E",
        "streetTypeId": "ST",
        "placeName": "LINDSAY",
        "streetNameDisplayText": "KENT ST E, LINDSAY"
      },
      {
        "electoralDistricts": [
          {
            "election": null,
            "id": 35,
            "name": "Haliburton—Kawartha Lakes—Brock"
          }
        ],
        "pollDivisionIds": [
          10138555
        ],
        "postalCode": "K9V2Y1",
        "streetName": "KENT",
        "streetDirectionId": "W",
        "streetTypeId": "ST",
        "placeName": "LINDSAY",
        "streetNameDisplayText": "KENT ST W, LINDSAY"
      }
    ]
  },
  {
    "postal": "K9V6M1",
    "result": []
  },
  {
    "postal": "K9V5L8",
    "result": [
      {
        "electoralDistricts": [
          {
            "election": null,
            "id": 35,
            "name": "Haliburton—Kawartha Lakes—Brock"
          }
        ],
        "pollDivisionIds": [
          10138553
        ],
        "postalCode": "K9V5L8",
        "streetName": "OAK",
        "streetDirectionId": null,
        "streetTypeId": "ST",
        "placeName": "LINDSAY",
        "streetNameDisplayText": "OAK ST, LINDSAY"
      }
    ]
  },
  {
    "postal": "K9V3P6",
    "result": [
      {
        "electoralDistricts": [
          {
            "election": null,
            "id": 35,
            "name": "Haliburton—Kawartha Lakes—Brock"
          }
        ],
        "pollDivisionIds": [
          10138557,
          10138555
        ],
        "postalCode": "K9V3P6",
        "streetName": "BOND",
        "streetDirectionId": "W",
        "streetTypeId": "ST",
        "placeName": "LINDSAY",
        "streetNameDisplayText": "BOND ST W, LINDSAY"
      }
    ]
  },
  {
    "postal": "K9V9A5",
    "result": []
  },
  {
    "postal": "K9V7K1",
    "result": []
  },
  {
    "postal": "K9V3J4",
    "result": [
      {
        "electoralDistricts": [
          {
            "election": null,
            "id": 35,
            "name": "Haliburton—Kawartha Lakes—Brock"
          }
        ],
        "pollDivisionIds": [
          10138555
        ],
        "postalCode": "K9V3J4",
        "streetName": "ADELAIDE",
        "streetDirectionId": "S",
        "streetTypeId": "ST",
        "placeName": "LINDSAY",
        "streetNameDisplayText": "ADELAIDE ST S, LINDSAY"
      }
    ]
  },
  {
    "postal": "K9V5E7",
    "result": [
      {
        "electoralDistricts": [
          {
            "election": null,
            "id": 35,
            "name": "Haliburton—Kawartha Lakes—Brock"
          }
        ],
        "pollDivisionIds": [
          10138557
        ],
        "postalCode": "K9V5E7",
        "streetName": "NEEDHAM",
        "streetDirectionId": null,
        "streetTypeId": "ST",
        "placeName": "LINDSAY",
        "streetNameDisplayText": "NEEDHAM ST, LINDSAY"
      }
    ]
  },
  {
    "postal": "K9V3A7",
    "result": [
      {
        "electoralDistricts": [
          {
            "election": null,
            "id": 35,
            "name": "Haliburton—Kawartha Lakes—Brock"
          }
        ],
        "pollDivisionIds": [
          10138555
        ],
        "postalCode": "K9V3A7",
        "streetName": "WILLIAM",
        "streetDirectionId": "S",
        "streetTypeId": "ST",
        "placeName": "LINDSAY",
        "streetNameDisplayText": "WILLIAM ST S, LINDSAY"
      }
    ]
  },
  {
    "postal": "K9V1B9",
    "result": [
      {
        "electoralDistricts": [
          {
            "election": null,
            "id": 35,
            "name": "Haliburton—Kawartha Lakes—Brock"
          }
        ],
        "pollDivisionIds": [
          10138557
        ],
        "postalCode": "K9V1B9",
        "streetName": "LOGIE",
        "streetDirectionId": null,
        "streetTypeId": "ST",
        "placeName": "LINDSAY",
        "streetNameDisplayText": "LOGIE ST, LINDSAY"
      }
    ]
  },
  {
    "postal": "K9V9E8",
    "result": []
  },
  {
    "postal": "K9V1C9",
    "result": [
      {
        "electoralDistricts": [
          {
            "election": null,
            "id": 35,
            "name": "Haliburton—Kawartha Lakes—Brock"
          }
        ],
        "pollDivisionIds": [
          10138557
        ],
        "postalCode": "K9V1C9",
        "streetName": "KING",
        "streetDirectionId": null,
        "streetTypeId": "ST",
        "placeName": "LINDSAY",
        "streetNameDisplayText": "KING ST, LINDSAY"
      }
    ]
  },
  {
    "postal": "K9V3B5",
    "result": []
  },
  {
    "postal": "K9V8R0",
    "result": []
  },
  {
    "postal": "K9V3P2",
    "result": [
      {
        "electoralDistricts": [
          {
            "election": null,
            "id": 35,
            "name": "Haliburton—Kawartha Lakes—Brock"
          }
        ],
        "pollDivisionIds": [
          10138555
        ],
        "postalCode": "K9V3P2",
        "streetName": "FAIR",
        "streetDirectionId": null,
        "streetTypeId": "AVE",
        "placeName": "LINDSAY",
        "streetNameDisplayText": "FAIR AVE, LINDSAY"
      }
    ]
  },
  {
    "postal": "K9V5V4",
    "result": [
      {
        "electoralDistricts": [
          {
            "election": null,
            "id": 35,
            "name": "Haliburton—Kawartha Lakes—Brock"
          }
        ],
        "pollDivisionIds": [
          10138552
        ],
        "postalCode": "K9V5V4",
        "streetName": "WILLIAM",
        "streetDirectionId": "N",
        "streetTypeId": "ST",
        "placeName": "LINDSAY",
        "streetNameDisplayText": "WILLIAM ST N, LINDSAY"
      }
    ]
  },
  {
    "postal": "K9V4H0",
    "result": []
  },
  {
    "postal": "K9V4S7",
    "result": []
  },
  {
    "postal": "K9V6C2",
    "result": [
      {
        "electoralDistricts": [
          {
            "election": null,
            "id": 35,
            "name": "Haliburton—Kawartha Lakes—Brock"
          }
        ],
        "pollDivisionIds": [
          10138553
        ],
        "postalCode": "K9V6C2",
        "streetName": "CHARLES",
        "streetDirectionId": null,
        "streetTypeId": "ST",
        "placeName": "LINDSAY",
        "streetNameDisplayText": "CHARLES ST, LINDSAY"
      },
      {
        "electoralDistricts": [
          {
            "election": null,
            "id": 35,
            "name": "Haliburton—Kawartha Lakes—Brock"
          }
        ],
        "pollDivisionIds": [
          10138553
        ],
        "postalCode": "K9V6C2",
        "streetName": "WALKER",
        "streetDirectionId": null,
        "streetTypeId": "ST",
        "placeName": "LINDSAY",
        "streetNameDisplayText": "WALKER ST, LINDSAY"
      }
    ]
  },
  {
    "postal": "K9V8W3",
    "result": []
  },
  {
    "postal": "K9V4M5",
    "result": [
      {
        "electoralDistricts": [
          {
            "election": null,
            "id": 35,
            "name": "Haliburton—Kawartha Lakes—Brock"
          }
        ],
        "pollDivisionIds": [
          10138553
        ],
        "postalCode": "K9V4M5",
        "streetName": "ADELAIDE",
        "streetDirectionId": "N",
        "streetTypeId": "ST",
        "placeName": "LINDSAY",
        "streetNameDisplayText": "ADELAIDE ST N, LINDSAY"
      }
    ]
  },
  {
    "postal": "K9V5T1",
    "result": [
      {
        "electoralDistricts": [
          {
            "election": null,
            "id": 35,
            "name": "Haliburton—Kawartha Lakes—Brock"
          }
        ],
        "pollDivisionIds": [
          10138552
        ],
        "postalCode": "K9V5T1",
        "streetName": "ALBERT",
        "streetDirectionId": "N",
        "streetTypeId": "ST",
        "placeName": "LINDSAY",
        "streetNameDisplayText": "ALBERT ST N, LINDSAY"
      },
      {
        "electoralDistricts": [
          {
            "election": null,
            "id": 35,
            "name": "Haliburton—Kawartha Lakes—Brock"
          }
        ],
        "pollDivisionIds": [
          10138552
        ],
        "postalCode": "K9V5T1",
        "streetName": "DON",
        "streetDirectionId": null,
        "streetTypeId": "CRT",
        "placeName": "LINDSAY",
        "streetNameDisplayText": "DON CRT, LINDSAY"
      }
    ]
  },
  {
    "postal": "K9V3B3",
    "result": [
      {
        "electoralDistricts": [
          {
            "election": null,
            "id": 35,
            "name": "Haliburton—Kawartha Lakes—Brock"
          }
        ],
        "pollDivisionIds": [
          10138556
        ],
        "postalCode": "K9V3B3",
        "streetName": "JAMES",
        "streetDirectionId": null,
        "streetTypeId": "ST",
        "placeName": "LINDSAY",
        "streetNameDisplayText": "JAMES ST, LINDSAY"
      },
      {
        "electoralDistricts": [
          {
            "election": null,
            "id": 35,
            "name": "Haliburton—Kawartha Lakes—Brock"
          }
        ],
        "pollDivisionIds": [
          10138556
        ],
        "postalCode": "K9V3B3",
        "streetName": "TRAILWAY",
        "streetDirectionId": null,
        "streetTypeId": "LANE",
        "placeName": "LINDSAY",
        "streetNameDisplayText": "TRAILWAY LANE, LINDSAY"
      }
    ]
  },
  {
    "postal": "K9V6C6",
    "result": [
      {
        "electoralDistricts": [
          {
            "election": null,
            "id": 35,
            "name": "Haliburton—Kawartha Lakes—Brock"
          }
        ],
        "pollDivisionIds": [
          10138557
        ],
        "postalCode": "K9V6C6",
        "streetName": "FLEETWOOD",
        "streetDirectionId": null,
        "streetTypeId": "RD",
        "placeName": "LINDSAY",
        "streetNameDisplayText": "FLEETWOOD RD, LINDSAY"
      }
    ]
  },
  {
    "postal": "K9V7N8",
    "result": []
  },
  {
    "postal": "K9V2Y3",
    "result": [
      {
        "electoralDistricts": [
          {
            "election": null,
            "id": 35,
            "name": "Haliburton—Kawartha Lakes—Brock"
          }
        ],
        "pollDivisionIds": [
          10138555
        ],
        "postalCode": "K9V2Y3",
        "streetName": "KENT",
        "streetDirectionId": "W",
        "streetTypeId": "ST",
        "placeName": "LINDSAY",
        "streetNameDisplayText": "KENT ST W, LINDSAY"
      }
    ]
  },
  {
    "postal": "K9V2R6",
    "result": [
      {
        "electoralDistricts": [
          {
            "election": null,
            "id": 35,
            "name": "Haliburton—Kawartha Lakes—Brock"
          }
        ],
        "pollDivisionIds": [
          10138554
        ],
        "postalCode": "K9V2R6",
        "streetName": "DURHAM",
        "streetDirectionId": "W",
        "streetTypeId": "ST",
        "placeName": "LINDSAY",
        "streetNameDisplayText": "DURHAM ST W, LINDSAY"
      }
    ]
  },
  {
    "postal": "K9V7N3",
    "result": []
  },
  {
    "postal": "K9V8J2",
    "result": []
  },
  {
    "postal": "K9V6A9",
    "result": [
      {
        "electoralDistricts": [
          {
            "election": null,
            "id": 35,
            "name": "Haliburton—Kawartha Lakes—Brock"
          }
        ],
        "pollDivisionIds": [
          10138568
        ],
        "postalCode": "K9V6A9",
        "streetName": "CEDAR",
        "streetDirectionId": null,
        "streetTypeId": "CRES",
        "placeName": "LINDSAY",
        "streetNameDisplayText": "CEDAR CRES, LINDSAY"
      },
      {
        "electoralDistricts": [
          {
            "election": null,
            "id": 35,
            "name": "Haliburton—Kawartha Lakes—Brock"
          }
        ],
        "pollDivisionIds": [
          10138553,
          10138552
        ],
        "postalCode": "K9V6A9",
        "streetName": "CEDAR",
        "streetDirectionId": null,
        "streetTypeId": "CRT",
        "placeName": "LINDSAY",
        "streetNameDisplayText": "CEDAR CRT, LINDSAY"
      },
      {
        "electoralDistricts": [
          {
            "election": null,
            "id": 35,
            "name": "Haliburton—Kawartha Lakes—Brock"
          }
        ],
        "pollDivisionIds": [
          10138553
        ],
        "postalCode": "K9V6A9",
        "streetName": "ELGIN",
        "streetDirectionId": null,
        "streetTypeId": "ST",
        "placeName": "LINDSAY",
        "streetNameDisplayText": "ELGIN ST, LINDSAY"
      }
    ]
  },
  {
    "postal": "K9V3V2",
    "result": [
      {
        "electoralDistricts": [
          {
            "election": null,
            "id": 35,
            "name": "Haliburton—Kawartha Lakes—Brock"
          }
        ],
        "pollDivisionIds": [
          10138553
        ],
        "postalCode": "K9V3V2",
        "streetName": "REGENT",
        "streetDirectionId": null,
        "streetTypeId": "ST",
        "placeName": "LINDSAY",
        "streetNameDisplayText": "REGENT ST, LINDSAY"
      }
    ]
  },
  {
    "postal": "K9V2N3",
    "result": [
      {
        "electoralDistricts": [
          {
            "election": null,
            "id": 35,
            "name": "Haliburton—Kawartha Lakes—Brock"
          }
        ],
        "pollDivisionIds": [
          10138556
        ],
        "postalCode": "K9V2N3",
        "streetName": "LINDSAY",
        "streetDirectionId": "S",
        "streetTypeId": "ST",
        "placeName": "LINDSAY",
        "streetNameDisplayText": "LINDSAY ST S, LINDSAY"
      }
    ]
  },
  {
    "postal": "K9V1S5",
    "result": [
      {
        "electoralDistricts": [
          {
            "election": null,
            "id": 35,
            "name": "Haliburton—Kawartha Lakes—Brock"
          }
        ],
        "pollDivisionIds": [
          10138557
        ],
        "postalCode": "K9V1S5",
        "streetName": "ST PAUL",
        "streetDirectionId": null,
        "streetTypeId": "ST",
        "placeName": "LINDSAY",
        "streetNameDisplayText": "ST PAUL ST, LINDSAY"
      }
    ]
  },
  {
    "postal": "K9V4T7",
    "result": [
      {
        "electoralDistricts": [
          {
            "election": null,
            "id": 35,
            "name": "Haliburton—Kawartha Lakes—Brock"
          }
        ],
        "pollDivisionIds": [
          10138553
        ],
        "postalCode": "K9V4T7",
        "streetName": "KENT",
        "streetDirectionId": "W",
        "streetTypeId": "ST",
        "placeName": "LINDSAY",
        "streetNameDisplayText": "KENT ST W, LINDSAY"
      }
    ]
  },
  {
    "postal": "K9V6Y7",
    "result": []
  },
  {
    "postal": "K9V0W7",
    "result": []
  },
  {
    "postal": "K9V2W9",
    "result": [
      {
        "electoralDistricts": [
          {
            "election": null,
            "id": 35,
            "name": "Haliburton—Kawartha Lakes—Brock"
          }
        ],
        "pollDivisionIds": [
          10138555
        ],
        "postalCode": "K9V2W9",
        "streetName": "RUSSELL",
        "streetDirectionId": "W",
        "streetTypeId": "ST",
        "placeName": "LINDSAY",
        "streetNameDisplayText": "RUSSELL ST W, LINDSAY"
      }
    ]
  },
  {
    "postal": "K9V8V0",
    "result": []
  },
  {
    "postal": "K9V0H4",
    "result": [
      {
        "electoralDistricts": [
          {
            "election": null,
            "id": 35,
            "name": "Haliburton—Kawartha Lakes—Brock"
          }
        ],
        "pollDivisionIds": [
          10138552
        ],
        "postalCode": "K9V0H4",
        "streetName": "ANGELINE",
        "streetDirectionId": "N",
        "streetTypeId": "ST",
        "placeName": "LINDSAY",
        "streetNameDisplayText": "ANGELINE ST N, LINDSAY"
      }
    ]
  },
  {
    "postal": "K9V2T1",
    "result": [
      {
        "electoralDistricts": [
          {
            "election": null,
            "id": 35,
            "name": "Haliburton—Kawartha Lakes—Brock"
          }
        ],
        "pollDivisionIds": [
          10138555
        ],
        "postalCode": "K9V2T1",
        "streetName": "MELBOURNE",
        "streetDirectionId": "W",
        "streetTypeId": "ST",
        "placeName": "LINDSAY",
        "streetNameDisplayText": "MELBOURNE ST W, LINDSAY"
      }
    ]
  },
  {
    "postal": "K9V1B1",
    "result": [
      {
        "electoralDistricts": [
          {
            "election": null,
            "id": 35,
            "name": "Haliburton—Kawartha Lakes—Brock"
          }
        ],
        "pollDivisionIds": [
          10138557
        ],
        "postalCode": "K9V1B1",
        "streetName": "RIVERVIEW",
        "streetDirectionId": null,
        "streetTypeId": "RD",
        "placeName": "LINDSAY",
        "streetNameDisplayText": "RIVERVIEW RD, LINDSAY"
      }
    ]
  },
  {
    "postal": "K9V8B6",
    "result": []
  },
  {
    "postal": "K9V6H1",
    "result": [
      {
        "electoralDistricts": [
          {
            "election": null,
            "id": 35,
            "name": "Haliburton—Kawartha Lakes—Brock"
          }
        ],
        "pollDivisionIds": [
          10138556
        ],
        "postalCode": "K9V6H1",
        "streetName": "DUKE",
        "streetDirectionId": null,
        "streetTypeId": "ST",
        "placeName": "LINDSAY",
        "streetNameDisplayText": "DUKE ST, LINDSAY"
      }
    ]
  },
  {
    "postal": "K9V8T8",
    "result": []
  },
  {
    "postal": "K9V0T4",
    "result": []
  },
  {
    "postal": "K9V2C4",
    "result": [
      {
        "electoralDistricts": [
          {
            "election": null,
            "id": 35,
            "name": "Haliburton—Kawartha Lakes—Brock"
          }
        ],
        "pollDivisionIds": [
          10138556
        ],
        "postalCode": "K9V2C4",
        "streetName": "KENT",
        "streetDirectionId": "E",
        "streetTypeId": "ST",
        "placeName": "LINDSAY",
        "streetNameDisplayText": "KENT ST E, LINDSAY"
      }
    ]
  },
  {
    "postal": "K9V8N3",
    "result": []
  },
  {
    "postal": "K9V4L8",
    "result": [
      {
        "electoralDistricts": [
          {
            "election": null,
            "id": 35,
            "name": "Haliburton—Kawartha Lakes—Brock"
          }
        ],
        "pollDivisionIds": [
          10138553
        ],
        "postalCode": "K9V4L8",
        "streetName": "ADELAIDE",
        "streetDirectionId": "N",
        "streetTypeId": "ST",
        "placeName": "LINDSAY",
        "streetNameDisplayText": "ADELAIDE ST N, LINDSAY"
      }
    ]
  },
  {
    "postal": "K9V2B5",
    "result": [
      {
        "electoralDistricts": [
          {
            "election": null,
            "id": 35,
            "name": "Haliburton—Kawartha Lakes—Brock"
          }
        ],
        "pollDivisionIds": [
          10138556
        ],
        "postalCode": "K9V2B5",
        "streetName": "RIDOUT",
        "streetDirectionId": null,
        "streetTypeId": "ST",
        "placeName": "LINDSAY",
        "streetNameDisplayText": "RIDOUT ST, LINDSAY"
      }
    ]
  },
  {
    "postal": "K9V3H1",
    "result": [
      {
        "electoralDistricts": [
          {
            "election": null,
            "id": 35,
            "name": "Haliburton—Kawartha Lakes—Brock"
          }
        ],
        "pollDivisionIds": [
          10138555
        ],
        "postalCode": "K9V3H1",
        "streetName": "ALBERT",
        "streetDirectionId": "S",
        "streetTypeId": "ST",
        "placeName": "LINDSAY",
        "streetNameDisplayText": "ALBERT ST S, LINDSAY"
      }
    ]
  },
  {
    "postal": "K9V4Y1",
    "result": []
  },
  {
    "postal": "K9V7E2",
    "result": []
  },
  {
    "postal": "K9V2P5",
    "result": [
      {
        "electoralDistricts": [
          {
            "election": null,
            "id": 35,
            "name": "Haliburton—Kawartha Lakes—Brock"
          }
        ],
        "pollDivisionIds": [
          10138555
        ],
        "postalCode": "K9V2P5",
        "streetName": "DURHAM",
        "streetDirectionId": "W",
        "streetTypeId": "ST",
        "placeName": "LINDSAY",
        "streetNameDisplayText": "DURHAM ST W, LINDSAY"
      }
    ]
  },
  {
    "postal": "K9V8R7",
    "result": []
  },
  {
    "postal": "K9V9P1",
    "result": []
  },
  {
    "postal": "K9V3B8",
    "result": [
      {
        "electoralDistricts": [
          {
            "election": null,
            "id": 35,
            "name": "Haliburton—Kawartha Lakes—Brock"
          }
        ],
        "pollDivisionIds": [
          10138555
        ],
        "postalCode": "K9V3B8",
        "streetName": "CAMBRIDGE",
        "streetDirectionId": "S",
        "streetTypeId": "ST",
        "placeName": "LINDSAY",
        "streetNameDisplayText": "CAMBRIDGE ST S, LINDSAY"
      },
      {
        "electoralDistricts": [
          {
            "election": null,
            "id": 35,
            "name": "Haliburton—Kawartha Lakes—Brock"
          }
        ],
        "pollDivisionIds": [
          10138555
        ],
        "postalCode": "K9V3B8",
        "streetName": "MELBOURNE",
        "streetDirectionId": "W",
        "streetTypeId": "ST",
        "placeName": "LINDSAY",
        "streetNameDisplayText": "MELBOURNE ST W, LINDSAY"
      }
    ]
  },
  {
    "postal": "K9V3P7",
    "result": [
      {
        "electoralDistricts": [
          {
            "election": null,
            "id": 35,
            "name": "Haliburton—Kawartha Lakes—Brock"
          }
        ],
        "pollDivisionIds": [
          10138555
        ],
        "postalCode": "K9V3P7",
        "streetName": "BOND",
        "streetDirectionId": "W",
        "streetTypeId": "ST",
        "placeName": "LINDSAY",
        "streetNameDisplayText": "BOND ST W, LINDSAY"
      }
    ]
  },
  {
    "postal": "K9V9B2",
    "result": []
  },
  {
    "postal": "K9V6Z3",
    "result": []
  },
  {
    "postal": "K9V4N5",
    "result": [
      {
        "electoralDistricts": [
          {
            "election": null,
            "id": 35,
            "name": "Haliburton—Kawartha Lakes—Brock"
          }
        ],
        "pollDivisionIds": [
          10138552
        ],
        "postalCode": "K9V4N5",
        "streetName": "SANDERLING",
        "streetDirectionId": null,
        "streetTypeId": "CRES",
        "placeName": "LINDSAY",
        "streetNameDisplayText": "SANDERLING CRES, LINDSAY"
      }
    ]
  },
  {
    "postal": "K9V8T3",
    "result": []
  },
  {
    "postal": "K9V1V2",
    "result": [
      {
        "electoralDistricts": [
          {
            "election": null,
            "id": 35,
            "name": "Haliburton—Kawartha Lakes—Brock"
          }
        ],
        "pollDivisionIds": [
          10138556,
          10138564
        ],
        "postalCode": "K9V1V2",
        "streetName": "MARY",
        "streetDirectionId": "E",
        "streetTypeId": "ST",
        "placeName": "LINDSAY",
        "streetNameDisplayText": "MARY ST E, LINDSAY"
      }
    ]
  },
  {
    "postal": "K9V1Y0",
    "result": []
  },
  {
    "postal": "K9V3G6",
    "result": [
      {
        "electoralDistricts": [
          {
            "election": null,
            "id": 35,
            "name": "Haliburton—Kawartha Lakes—Brock"
          }
        ],
        "pollDivisionIds": [
          10138555
        ],
        "postalCode": "K9V3G6",
        "streetName": "ALBERT",
        "streetDirectionId": "S",
        "streetTypeId": "ST",
        "placeName": "LINDSAY",
        "streetNameDisplayText": "ALBERT ST S, LINDSAY"
      }
    ]
  },
  {
    "postal": "K9V3H7",
    "result": [
      {
        "electoralDistricts": [
          {
            "election": null,
            "id": 35,
            "name": "Haliburton—Kawartha Lakes—Brock"
          }
        ],
        "pollDivisionIds": [
          10138556
        ],
        "postalCode": "K9V3H7",
        "streetName": "ALBERT",
        "streetDirectionId": "S",
        "streetTypeId": "ST",
        "placeName": "LINDSAY",
        "streetNameDisplayText": "ALBERT ST S, LINDSAY"
      }
    ]
  },
  {
    "postal": "K9V7X8",
    "result": []
  },
  {
    "postal": "K9V0C7",
    "result": [
      {
        "electoralDistricts": [
          {
            "election": null,
            "id": 35,
            "name": "Haliburton—Kawartha Lakes—Brock"
          }
        ],
        "pollDivisionIds": [
          10138554
        ],
        "postalCode": "K9V0C7",
        "streetName": "COOK",
        "streetDirectionId": null,
        "streetTypeId": "ST",
        "placeName": "LINDSAY",
        "streetNameDisplayText": "COOK ST, LINDSAY"
      },
      {
        "electoralDistricts": [
          {
            "election": null,
            "id": 35,
            "name": "Haliburton—Kawartha Lakes—Brock"
          }
        ],
        "pollDivisionIds": [
          10138554
        ],
        "postalCode": "K9V0C7",
        "streetName": "MCQUARRIE",
        "streetDirectionId": null,
        "streetTypeId": "RD",
        "placeName": "LINDSAY",
        "streetNameDisplayText": "MCQUARRIE RD, LINDSAY"
      }
    ]
  },
  {
    "postal": "K9V0W9",
    "result": []
  },
  {
    "postal": "K9V8E6",
    "result": []
  },
  {
    "postal": "K9V9Z8",
    "result": []
  },
  {
    "postal": "K9V3P4",
    "result": [
      {
        "electoralDistricts": [
          {
            "election": null,
            "id": 35,
            "name": "Haliburton—Kawartha Lakes—Brock"
          }
        ],
        "pollDivisionIds": [
          10138557
        ],
        "postalCode": "K9V3P4",
        "streetName": "BOND",
        "streetDirectionId": "E",
        "streetTypeId": "ST",
        "placeName": "LINDSAY",
        "streetNameDisplayText": "BOND ST E, LINDSAY"
      }
    ]
  },
  {
    "postal": "K9V6L8",
    "result": [
      {
        "electoralDistricts": [
          {
            "election": null,
            "id": 35,
            "name": "Haliburton—Kawartha Lakes—Brock"
          }
        ],
        "pollDivisionIds": [
          10138554
        ],
        "postalCode": "K9V6L8",
        "streetName": "MCLAUGHLIN",
        "streetDirectionId": null,
        "streetTypeId": "RD",
        "placeName": "LINDSAY",
        "streetNameDisplayText": "MCLAUGHLIN RD, LINDSAY"
      }
    ]
  },
  {
    "postal": "K9V2R4",
    "result": [
      {
        "electoralDistricts": [
          {
            "election": null,
            "id": 35,
            "name": "Haliburton—Kawartha Lakes—Brock"
          }
        ],
        "pollDivisionIds": [
          10138555
        ],
        "postalCode": "K9V2R4",
        "streetName": "DURHAM",
        "streetDirectionId": "W",
        "streetTypeId": "ST",
        "placeName": "LINDSAY",
        "streetNameDisplayText": "DURHAM ST W, LINDSAY"
      }
    ]
  },
  {
    "postal": "K9V2W1",
    "result": [
      {
        "electoralDistricts": [
          {
            "election": null,
            "id": 35,
            "name": "Haliburton—Kawartha Lakes—Brock"
          }
        ],
        "pollDivisionIds": [
          10138555
        ],
        "postalCode": "K9V2W1",
        "streetName": "HOWARD",
        "streetDirectionId": null,
        "streetTypeId": "AVE",
        "placeName": "LINDSAY",
        "streetNameDisplayText": "HOWARD AVE, LINDSAY"
      }
    ]
  },
  {
    "postal": "K9V9H8",
    "result": []
  },
  {
    "postal": "K9V8X9",
    "result": []
  },
  {
    "postal": "K9V7H4",
    "result": []
  },
  {
    "postal": "K9V3J1",
    "result": [
      {
        "electoralDistricts": [
          {
            "election": null,
            "id": 35,
            "name": "Haliburton—Kawartha Lakes—Brock"
          }
        ],
        "pollDivisionIds": [
          10138555
        ],
        "postalCode": "K9V3J1",
        "streetName": "BAY",
        "streetDirectionId": null,
        "streetTypeId": "ST",
        "placeName": "LINDSAY",
        "streetNameDisplayText": "BAY ST, LINDSAY"
      }
    ]
  },
  {
    "postal": "K9V1P4",
    "result": [
      {
        "electoralDistricts": [
          {
            "election": null,
            "id": 35,
            "name": "Haliburton—Kawartha Lakes—Brock"
          }
        ],
        "pollDivisionIds": [
          10138557
        ],
        "postalCode": "K9V1P4",
        "streetName": "ST PETER",
        "streetDirectionId": null,
        "streetTypeId": "ST",
        "placeName": "LINDSAY",
        "streetNameDisplayText": "ST PETER ST, LINDSAY"
      },
      {
        "electoralDistricts": [
          {
            "election": null,
            "id": 35,
            "name": "Haliburton—Kawartha Lakes—Brock"
          }
        ],
        "pollDivisionIds": [
          10138557
        ],
        "postalCode": "K9V1P4",
        "streetName": "ST. PETER",
        "streetDirectionId": null,
        "streetTypeId": "ST",
        "placeName": "LINDSAY",
        "streetNameDisplayText": "ST. PETER ST, LINDSAY"
      }
    ]
  },
  {
    "postal": "K9V2A3",
    "result": [
      {
        "electoralDistricts": [
          {
            "election": null,
            "id": 35,
            "name": "Haliburton—Kawartha Lakes—Brock"
          }
        ],
        "pollDivisionIds": [
          10138556
        ],
        "postalCode": "K9V2A3",
        "streetName": "RUSSELL",
        "streetDirectionId": "E",
        "streetTypeId": "ST",
        "placeName": "LINDSAY",
        "streetNameDisplayText": "RUSSELL ST E, LINDSAY"
      }
    ]
  },
  {
    "postal": "K9V0Z1",
    "result": []
  },
  {
    "postal": "K9V1C1",
    "result": [
      {
        "electoralDistricts": [
          {
            "election": null,
            "id": 35,
            "name": "Haliburton—Kawartha Lakes—Brock"
          }
        ],
        "pollDivisionIds": [
          10138557
        ],
        "postalCode": "K9V1C1",
        "streetName": "LOGIE",
        "streetDirectionId": null,
        "streetTypeId": "ST",
        "placeName": "LINDSAY",
        "streetNameDisplayText": "LOGIE ST, LINDSAY"
      }
    ]
  },
  {
    "postal": "K9V0H3",
    "result": [
      {
        "electoralDistricts": [
          {
            "election": null,
            "id": 35,
            "name": "Haliburton—Kawartha Lakes—Brock"
          }
        ],
        "pollDivisionIds": [
          10138552
        ],
        "postalCode": "K9V0H3",
        "streetName": "ANGELINE",
        "streetDirectionId": "N",
        "streetTypeId": "ST",
        "placeName": "LINDSAY",
        "streetNameDisplayText": "ANGELINE ST N, LINDSAY"
      }
    ]
  },
  {
    "postal": "K9V7B0",
    "result": []
  },
  {
    "postal": "K9V5K2",
    "result": [
      {
        "electoralDistricts": [
          {
            "election": null,
            "id": 35,
            "name": "Haliburton—Kawartha Lakes—Brock"
          }
        ],
        "pollDivisionIds": [
          10138557
        ],
        "postalCode": "K9V5K2",
        "streetName": "ST DAVID",
        "streetDirectionId": null,
        "streetTypeId": "ST",
        "placeName": "LINDSAY",
        "streetNameDisplayText": "ST DAVID ST, LINDSAY"
      }
    ]
  },
  {
    "postal": "K9V1E9",
    "result": [
      {
        "electoralDistricts": [
          {
            "election": null,
            "id": 35,
            "name": "Haliburton—Kawartha Lakes—Brock"
          }
        ],
        "pollDivisionIds": [
          10138534,
          10138557
        ],
        "postalCode": "K9V1E9",
        "streetName": "QUEEN",
        "streetDirectionId": null,
        "streetTypeId": "ST",
        "placeName": "LINDSAY",
        "streetNameDisplayText": "QUEEN ST, LINDSAY"
      }
    ]
  },
  {
    "postal": "K9V9W7",
    "result": []
  },
  {
    "postal": "K9V5W6",
    "result": [
      {
        "electoralDistricts": [
          {
            "election": null,
            "id": 35,
            "name": "Haliburton—Kawartha Lakes—Brock"
          }
        ],
        "pollDivisionIds": [
          10138554
        ],
        "postalCode": "K9V5W6",
        "streetName": "ANDREW",
        "streetDirectionId": null,
        "streetTypeId": "DR",
        "placeName": "LINDSAY",
        "streetNameDisplayText": "ANDREW DR, LINDSAY"
      }
    ]
  },
  {
    "postal": "K9V6S6",
    "result": []
  },
  {
    "postal": "K9V2P8",
    "result": [
      {
        "electoralDistricts": [
          {
            "election": null,
            "id": 35,
            "name": "Haliburton—Kawartha Lakes—Brock"
          }
        ],
        "pollDivisionIds": [
          10138556
        ],
        "postalCode": "K9V2P8",
        "streetName": "DURHAM",
        "streetDirectionId": "W",
        "streetTypeId": "ST",
        "placeName": "LINDSAY",
        "streetNameDisplayText": "DURHAM ST W, LINDSAY"
      }
    ]
  },
  {
    "postal": "K9V4P8",
    "result": [
      {
        "electoralDistricts": [
          {
            "election": null,
            "id": 35,
            "name": "Haliburton—Kawartha Lakes—Brock"
          }
        ],
        "pollDivisionIds": [
          10138553
        ],
        "postalCode": "K9V4P8",
        "streetName": "ROSEMARY",
        "streetDirectionId": null,
        "streetTypeId": "DR",
        "placeName": "LINDSAY",
        "streetNameDisplayText": "ROSEMARY DR, LINDSAY"
      }
    ]
  },
  {
    "postal": "K9V0V9",
    "result": []
  },
  {
    "postal": "K9V5Y2",
    "result": [
      {
        "electoralDistricts": [
          {
            "election": null,
            "id": 35,
            "name": "Haliburton—Kawartha Lakes—Brock"
          }
        ],
        "pollDivisionIds": [
          10138557
        ],
        "postalCode": "K9V5Y2",
        "streetName": "LOGIE",
        "streetDirectionId": null,
        "streetTypeId": "ST",
        "placeName": "LINDSAY",
        "streetNameDisplayText": "LOGIE ST, LINDSAY"
      }
    ]
  },
  {
    "postal": "K9V7Z7",
    "result": []
  },
  {
    "postal": "K9V6Y8",
    "result": []
  },
  {
    "postal": "K9V2G7",
    "result": [
      {
        "electoralDistricts": [
          {
            "election": null,
            "id": 35,
            "name": "Haliburton—Kawartha Lakes—Brock"
          }
        ],
        "pollDivisionIds": [
          10138556
        ],
        "postalCode": "K9V2G7",
        "streetName": "SIMCOE",
        "streetDirectionId": null,
        "streetTypeId": "ST",
        "placeName": "LINDSAY",
        "streetNameDisplayText": "SIMCOE ST, LINDSAY"
      }
    ]
  },
  {
    "postal": "K9V8C1",
    "result": []
  },
  {
    "postal": "K9V5C5",
    "result": []
  },
  {
    "postal": "K9V2X8",
    "result": [
      {
        "electoralDistricts": [
          {
            "election": null,
            "id": 35,
            "name": "Haliburton—Kawartha Lakes—Brock"
          }
        ],
        "pollDivisionIds": [
          10138554
        ],
        "postalCode": "K9V2X8",
        "streetName": "PEELS",
        "streetDirectionId": null,
        "streetTypeId": "LANE",
        "placeName": "LINDSAY",
        "streetNameDisplayText": "PEELS LANE, LINDSAY"
      }
    ]
  },
  {
    "postal": "K9V1W5",
    "result": [
      {
        "electoralDistricts": [
          {
            "election": null,
            "id": 35,
            "name": "Haliburton—Kawartha Lakes—Brock"
          }
        ],
        "pollDivisionIds": [
          10138556
        ],
        "postalCode": "K9V1W5",
        "streetName": "GEORGE",
        "streetDirectionId": "E",
        "streetTypeId": "ST",
        "placeName": "LINDSAY",
        "streetNameDisplayText": "GEORGE ST E, LINDSAY"
      },
      {
        "electoralDistricts": [
          {
            "election": null,
            "id": 35,
            "name": "Haliburton—Kawartha Lakes—Brock"
          }
        ],
        "pollDivisionIds": [
          10138558
        ],
        "postalCode": "K9V1W5",
        "streetName": "GEORGE",
        "streetDirectionId": null,
        "streetTypeId": "ST",
        "placeName": "LINDSAY",
        "streetNameDisplayText": "GEORGE ST, LINDSAY"
      }
    ]
  },
  {
    "postal": "K9V7G0",
    "result": []
  },
  {
    "postal": "K9V8J8",
    "result": []
  },
  {
    "postal": "K9V3Y0",
    "result": []
  },
  {
    "postal": "K9V9T7",
    "result": []
  },
  {
    "postal": "K9V5P4",
    "result": []
  },
  {
    "postal": "K9V4B0",
    "result": []
  },
  {
    "postal": "K9V9N8",
    "result": []
  },
  {
    "postal": "K9V4A7",
    "result": [
      {
        "electoralDistricts": [
          {
            "election": null,
            "id": 35,
            "name": "Haliburton—Kawartha Lakes—Brock"
          }
        ],
        "pollDivisionIds": [
          10138555
        ],
        "postalCode": "K9V4A7",
        "streetName": "WILLIAM",
        "streetDirectionId": "N",
        "streetTypeId": "ST",
        "placeName": "LINDSAY",
        "streetNameDisplayText": "WILLIAM ST N, LINDSAY"
      }
    ]
  },
  {
    "postal": "K9V4H9",
    "result": [
      {
        "electoralDistricts": [
          {
            "election": null,
            "id": 35,
            "name": "Haliburton—Kawartha Lakes—Brock"
          }
        ],
        "pollDivisionIds": [
          10138555
        ],
        "postalCode": "K9V4H9",
        "streetName": "SUSSEX",
        "streetDirectionId": "N",
        "streetTypeId": "ST",
        "placeName": "LINDSAY",
        "streetNameDisplayText": "SUSSEX ST N, LINDSAY"
      }
    ]
  },
  {
    "postal": "K9V6X1",
    "result": []
  },
  {
    "postal": "K9V9Y7",
    "result": []
  },
  {
    "postal": "K9V2Y5",
    "result": [
      {
        "electoralDistricts": [
          {
            "election": null,
            "id": 35,
            "name": "Haliburton—Kawartha Lakes—Brock"
          }
        ],
        "pollDivisionIds": [
          10138555
        ],
        "postalCode": "K9V2Y5",
        "streetName": "KENT",
        "streetDirectionId": "W",
        "streetTypeId": "ST",
        "placeName": "LINDSAY",
        "streetNameDisplayText": "KENT ST W, LINDSAY"
      }
    ]
  },
  {
    "postal": "K9V8L7",
    "result": []
  },
  {
    "postal": "K9V2A8",
    "result": [
      {
        "electoralDistricts": [
          {
            "election": null,
            "id": 35,
            "name": "Haliburton—Kawartha Lakes—Brock"
          }
        ],
        "pollDivisionIds": [
          10138556
        ],
        "postalCode": "K9V2A8",
        "streetName": "RUSSELL",
        "streetDirectionId": "E",
        "streetTypeId": "ST",
        "placeName": "LINDSAY",
        "streetNameDisplayText": "RUSSELL ST E, LINDSAY"
      }
    ]
  },
  {
    "postal": "K9V2K9",
    "result": [
      {
        "electoralDistricts": [
          {
            "election": null,
            "id": 35,
            "name": "Haliburton—Kawartha Lakes—Brock"
          }
        ],
        "pollDivisionIds": [
          10138556
        ],
        "postalCode": "K9V2K9",
        "streetName": "MILL",
        "streetDirectionId": null,
        "streetTypeId": "ST",
        "placeName": "LINDSAY",
        "streetNameDisplayText": "MILL ST, LINDSAY"
      }
    ]
  },
  {
    "postal": "K9V3E5",
    "result": []
  },
  {
    "postal": "K9V8N6",
    "result": []
  },
  {
    "postal": "K9V8J4",
    "result": []
  },
  {
    "postal": "K9V4R7",
    "result": []
  },
  {
    "postal": "K9V9K1",
    "result": []
  },
  {
    "postal": "K9V8E1",
    "result": []
  },
  {
    "postal": "K9V0R1",
    "result": []
  },
  {
    "postal": "K9V4J3",
    "result": [
      {
        "electoralDistricts": [
          {
            "election": null,
            "id": 35,
            "name": "Haliburton—Kawartha Lakes—Brock"
          }
        ],
        "pollDivisionIds": [
          10138555
        ],
        "postalCode": "K9V4J3",
        "streetName": "ALBERT",
        "streetDirectionId": "N",
        "streetTypeId": "ST",
        "placeName": "LINDSAY",
        "streetNameDisplayText": "ALBERT ST N, LINDSAY"
      }
    ]
  },
  {
    "postal": "K9V7E7",
    "result": []
  },
  {
    "postal": "K9V0J0",
    "result": []
  },
  {
    "postal": "K9V7R8",
    "result": []
  },
  {
    "postal": "K9V9X0",
    "result": []
  },
  {
    "postal": "K9V7P6",
    "result": []
  },
  {
    "postal": "K9V0R7",
    "result": []
  },
  {
    "postal": "K9V5W1",
    "result": [
      {
        "electoralDistricts": [
          {
            "election": null,
            "id": 35,
            "name": "Haliburton—Kawartha Lakes—Brock"
          }
        ],
        "pollDivisionIds": [
          10138557
        ],
        "postalCode": "K9V5W1",
        "streetName": "BRENDA",
        "streetDirectionId": null,
        "streetTypeId": "CRT",
        "placeName": "LINDSAY",
        "streetNameDisplayText": "BRENDA CRT, LINDSAY"
      }
    ]
  },
  {
    "postal": "K9V0K4",
    "result": [
      {
        "electoralDistricts": [
          {
            "election": null,
            "id": 35,
            "name": "Haliburton—Kawartha Lakes—Brock"
          }
        ],
        "pollDivisionIds": [
          10138562
        ],
        "postalCode": "K9V0K4",
        "streetName": "OSPREY",
        "streetDirectionId": null,
        "streetTypeId": "RD",
        "placeName": "LINDSAY",
        "streetNameDisplayText": "OSPREY RD, LINDSAY"
      },
      {
        "electoralDistricts": [
          {
            "election": null,
            "id": 35,
            "name": "Haliburton—Kawartha Lakes—Brock"
          }
        ],
        "pollDivisionIds": [
          10138562
        ],
        "postalCode": "K9V0K4",
        "streetName": "RAVEN",
        "streetDirectionId": null,
        "streetTypeId": "ST",
        "placeName": "LINDSAY",
        "streetNameDisplayText": "RAVEN ST, LINDSAY"
      },
      {
        "electoralDistricts": [
          {
            "election": null,
            "id": 35,
            "name": "Haliburton—Kawartha Lakes—Brock"
          }
        ],
        "pollDivisionIds": [
          10138562
        ],
        "postalCode": "K9V0K4",
        "streetName": "WISPI SHORE",
        "streetDirectionId": null,
        "streetTypeId": "RD",
        "placeName": "LINDSAY",
        "streetNameDisplayText": "WISPI SHORE RD, LINDSAY"
      }
    ]
  },
  {
    "postal": "K9V7N9",
    "result": []
  },
  {
    "postal": "K9V1N0",
    "result": []
  },
  {
    "postal": "K9V6P3",
    "result": []
  },
  {
    "postal": "K9V5A1",
    "result": []
  },
  {
    "postal": "K9V9M9",
    "result": []
  },
  {
    "postal": "K9V7T6",
    "result": []
  },
  {
    "postal": "K9V3X0",
    "result": []
  },
  {
    "postal": "K9V2T0",
    "result": []
  },
  {
    "postal": "K9V5X9",
    "result": [
      {
        "electoralDistricts": [
          {
            "election": null,
            "id": 35,
            "name": "Haliburton—Kawartha Lakes—Brock"
          }
        ],
        "pollDivisionIds": [
          10138557,
          10138558
        ],
        "postalCode": "K9V5X9",
        "streetName": "PARKSIDE",
        "streetDirectionId": null,
        "streetTypeId": "DR",
        "placeName": "LINDSAY",
        "streetNameDisplayText": "PARKSIDE DR, LINDSAY"
      }
    ]
  },
  {
    "postal": "K9V2R3",
    "result": [
      {
        "electoralDistricts": [
          {
            "election": null,
            "id": 35,
            "name": "Haliburton—Kawartha Lakes—Brock"
          }
        ],
        "pollDivisionIds": [
          10138554
        ],
        "postalCode": "K9V2R3",
        "streetName": "DURHAM",
        "streetDirectionId": "W",
        "streetTypeId": "ST",
        "placeName": "LINDSAY",
        "streetNameDisplayText": "DURHAM ST W, LINDSAY"
      }
    ]
  },
  {
    "postal": "K9V5N2",
    "result": [
      {
        "electoralDistricts": [
          {
            "election": null,
            "id": 35,
            "name": "Haliburton—Kawartha Lakes—Brock"
          }
        ],
        "pollDivisionIds": [
          10138556
        ],
        "postalCode": "K9V5N2",
        "streetName": "MARY",
        "streetDirectionId": "W",
        "streetTypeId": "ST",
        "placeName": "LINDSAY",
        "streetNameDisplayText": "MARY ST W, LINDSAY"
      }
    ]
  },
  {
    "postal": "K9V4Y7",
    "result": [
      {
        "electoralDistricts": [
          {
            "election": null,
            "id": 35,
            "name": "Haliburton—Kawartha Lakes—Brock"
          }
        ],
        "pollDivisionIds": [
          10138557
        ],
        "postalCode": "K9V4Y7",
        "streetName": "BEVERLEY",
        "streetDirectionId": null,
        "streetTypeId": "ST",
        "placeName": "LINDSAY",
        "streetNameDisplayText": "BEVERLEY ST, LINDSAY"
      }
    ]
  },
  {
    "postal": "K9V7M0",
    "result": []
  },
  {
    "postal": "K9V8P3",
    "result": []
  },
  {
    "postal": "K9V3N3",
    "result": [
      {
        "electoralDistricts": [
          {
            "election": null,
            "id": 35,
            "name": "Haliburton—Kawartha Lakes—Brock"
          }
        ],
        "pollDivisionIds": [
          10138555
        ],
        "postalCode": "K9V3N3",
        "streetName": "WELLINGTON",
        "streetDirectionId": null,
        "streetTypeId": "ST",
        "placeName": "LINDSAY",
        "streetNameDisplayText": "WELLINGTON ST, LINDSAY"
      }
    ]
  },
  {
    "postal": "K9V7S3",
    "result": []
  },
  {
    "postal": "K9V3V9",
    "result": [
      {
        "electoralDistricts": [
          {
            "election": null,
            "id": 35,
            "name": "Haliburton—Kawartha Lakes—Brock"
          }
        ],
        "pollDivisionIds": [
          10138553,
          10138552
        ],
        "postalCode": "K9V3V9",
        "streetName": "ELGIN",
        "streetDirectionId": null,
        "streetTypeId": "ST",
        "placeName": "LINDSAY",
        "streetNameDisplayText": "ELGIN ST, LINDSAY"
      }
    ]
  },
  {
    "postal": "K9V9N7",
    "result": []
  },
  {
    "postal": "K9V0G4",
    "result": [
      {
        "electoralDistricts": [
          {
            "election": null,
            "id": 35,
            "name": "Haliburton—Kawartha Lakes—Brock"
          }
        ],
        "pollDivisionIds": [
          10138555
        ],
        "postalCode": "K9V0G4",
        "streetName": "MELBOURNE",
        "streetDirectionId": "W",
        "streetTypeId": "ST",
        "placeName": "LINDSAY",
        "streetNameDisplayText": "MELBOURNE ST W, LINDSAY"
      }
    ]
  },
  {
    "postal": "K9V2E2",
    "result": [
      {
        "electoralDistricts": [
          {
            "election": null,
            "id": 35,
            "name": "Haliburton—Kawartha Lakes—Brock"
          }
        ],
        "pollDivisionIds": [
          10138556
        ],
        "postalCode": "K9V2E2",
        "streetName": "GEORGIAN",
        "streetDirectionId": null,
        "streetTypeId": "ST",
        "placeName": "LINDSAY",
        "streetNameDisplayText": "GEORGIAN ST, LINDSAY"
      }
    ]
  },
  {
    "postal": "K9V7W8",
    "result": []
  },
  {
    "postal": "K9V7M5",
    "result": []
  },
  {
    "postal": "K9V5W8",
    "result": [
      {
        "electoralDistricts": [
          {
            "election": null,
            "id": 35,
            "name": "Haliburton—Kawartha Lakes—Brock"
          }
        ],
        "pollDivisionIds": [
          10138554
        ],
        "postalCode": "K9V5W8",
        "streetName": "MADILL",
        "streetDirectionId": null,
        "streetTypeId": "CRES",
        "placeName": "LINDSAY",
        "streetNameDisplayText": "MADILL CRES, LINDSAY"
      }
    ]
  },
  {
    "postal": "K9V5E5",
    "result": []
  },
  {
    "postal": "K9V1P9",
    "result": [
      {
        "electoralDistricts": [
          {
            "election": null,
            "id": 35,
            "name": "Haliburton—Kawartha Lakes—Brock"
          }
        ],
        "pollDivisionIds": [
          10138557
        ],
        "postalCode": "K9V1P9",
        "streetName": "ST PETER",
        "streetDirectionId": null,
        "streetTypeId": "ST",
        "placeName": "LINDSAY",
        "streetNameDisplayText": "ST PETER ST, LINDSAY"
      }
    ]
  },
  {
    "postal": "K9V8V8",
    "result": []
  },
  {
    "postal": "K9V9G8",
    "result": []
  },
  {
    "postal": "K9V8H9",
    "result": []
  },
  {
    "postal": "K9V1Z1",
    "result": [
      {
        "electoralDistricts": [
          {
            "election": null,
            "id": 35,
            "name": "Haliburton—Kawartha Lakes—Brock"
          }
        ],
        "pollDivisionIds": [
          10138556
        ],
        "postalCode": "K9V1Z1",
        "streetName": "GLENELG",
        "streetDirectionId": "E",
        "streetTypeId": "ST",
        "placeName": "LINDSAY",
        "streetNameDisplayText": "GLENELG ST E, LINDSAY"
      }
    ]
  },
  {
    "postal": "K9V8M3",
    "result": []
  },
  {
    "postal": "K9V5H6",
    "result": [
      {
        "electoralDistricts": [
          {
            "election": null,
            "id": 35,
            "name": "Haliburton—Kawartha Lakes—Brock"
          }
        ],
        "pollDivisionIds": [
          10138556
        ],
        "postalCode": "K9V5H6",
        "streetName": "DURHAM",
        "streetDirectionId": "E",
        "streetTypeId": "ST",
        "placeName": "LINDSAY",
        "streetNameDisplayText": "DURHAM ST E, LINDSAY"
      }
    ]
  },
  {
    "postal": "K9V7W7",
    "result": []
  },
  {
    "postal": "K9V4L0",
    "result": []
  },
  {
    "postal": "K9V2N1",
    "result": [
      {
        "electoralDistricts": [
          {
            "election": null,
            "id": 35,
            "name": "Haliburton—Kawartha Lakes—Brock"
          }
        ],
        "pollDivisionIds": [
          10138556
        ],
        "postalCode": "K9V2N1",
        "streetName": "LINDSAY",
        "streetDirectionId": "S",
        "streetTypeId": "ST",
        "placeName": "LINDSAY",
        "streetNameDisplayText": "LINDSAY ST S, LINDSAY"
      }
    ]
  },
  {
    "postal": "K9V2H4",
    "result": [
      {
        "electoralDistricts": [
          {
            "election": null,
            "id": 35,
            "name": "Haliburton—Kawartha Lakes—Brock"
          }
        ],
        "pollDivisionIds": [
          10138556
        ],
        "postalCode": "K9V2H4",
        "streetName": "HURON",
        "streetDirectionId": null,
        "streetTypeId": "ST",
        "placeName": "LINDSAY",
        "streetNameDisplayText": "HURON ST, LINDSAY"
      }
    ]
  },
  {
    "postal": "K9V5C8",
    "result": []
  },
  {
    "postal": "K9V8B0",
    "result": []
  },
  {
    "postal": "K9V1T4",
    "result": [
      {
        "electoralDistricts": [
          {
            "election": null,
            "id": 35,
            "name": "Haliburton—Kawartha Lakes—Brock"
          }
        ],
        "pollDivisionIds": [
          10138556
        ],
        "postalCode": "K9V1T4",
        "streetName": "LINDSAY",
        "streetDirectionId": "N",
        "streetTypeId": "ST",
        "placeName": "LINDSAY",
        "streetNameDisplayText": "LINDSAY ST N, LINDSAY"
      }
    ]
  },
  {
    "postal": "K9V7N7",
    "result": []
  },
  {
    "postal": "K9V4L3",
    "result": [
      {
        "electoralDistricts": [
          {
            "election": null,
            "id": 35,
            "name": "Haliburton—Kawartha Lakes—Brock"
          }
        ],
        "pollDivisionIds": [
          10138555
        ],
        "postalCode": "K9V4L3",
        "streetName": "ADELAIDE",
        "streetDirectionId": "N",
        "streetTypeId": "ST",
        "placeName": "LINDSAY",
        "streetNameDisplayText": "ADELAIDE ST N, LINDSAY"
      }
    ]
  },
  {
    "postal": "K9V2N2",
    "result": [
      {
        "electoralDistricts": [
          {
            "election": null,
            "id": 35,
            "name": "Haliburton—Kawartha Lakes—Brock"
          }
        ],
        "pollDivisionIds": [
          10138556,
          10138558
        ],
        "postalCode": "K9V2N2",
        "streetName": "LINDSAY",
        "streetDirectionId": "S",
        "streetTypeId": "ST",
        "placeName": "LINDSAY",
        "streetNameDisplayText": "LINDSAY ST S, LINDSAY"
      }
    ]
  },
  {
    "postal": "K9V4N8",
    "result": [
      {
        "electoralDistricts": [
          {
            "election": null,
            "id": 35,
            "name": "Haliburton—Kawartha Lakes—Brock"
          }
        ],
        "pollDivisionIds": [
          10138553
        ],
        "postalCode": "K9V4N8",
        "streetName": "WELDON",
        "streetDirectionId": null,
        "streetTypeId": "CRT",
        "placeName": "LINDSAY",
        "streetNameDisplayText": "WELDON CRT, LINDSAY"
      }
    ]
  },
  {
    "postal": "K9V3M5",
    "result": [
      {
        "electoralDistricts": [
          {
            "election": null,
            "id": 35,
            "name": "Haliburton—Kawartha Lakes—Brock"
          }
        ],
        "pollDivisionIds": [
          10138555
        ],
        "postalCode": "K9V3M5",
        "streetName": "PEEL",
        "streetDirectionId": null,
        "streetTypeId": "ST",
        "placeName": "LINDSAY",
        "streetNameDisplayText": "PEEL ST, LINDSAY"
      }
    ]
  },
  {
    "postal": "K9V6H7",
    "result": [
      {
        "electoralDistricts": [
          {
            "election": null,
            "id": 35,
            "name": "Haliburton—Kawartha Lakes—Brock"
          }
        ],
        "pollDivisionIds": [
          10138555
        ],
        "postalCode": "K9V6H7",
        "streetName": "FRANCIS",
        "streetDirectionId": null,
        "streetTypeId": "ST",
        "placeName": "LINDSAY",
        "streetNameDisplayText": "FRANCIS ST, LINDSAY"
      }
    ]
  },
  {
    "postal": "K9V8Y8",
    "result": []
  },
  {
    "postal": "K9V5R9",
    "result": [
      {
        "electoralDistricts": [
          {
            "election": null,
            "id": 35,
            "name": "Haliburton—Kawartha Lakes—Brock"
          }
        ],
        "pollDivisionIds": [
          10138554
        ],
        "postalCode": "K9V5R9",
        "streetName": "WILSON",
        "streetDirectionId": null,
        "streetTypeId": "AVE",
        "placeName": "LINDSAY",
        "streetNameDisplayText": "WILSON AVE, LINDSAY"
      }
    ]
  },
  {
    "postal": "K9V8G3",
    "result": []
  },
  {
    "postal": "K9V4N7",
    "result": [
      {
        "electoralDistricts": [
          {
            "election": null,
            "id": 35,
            "name": "Haliburton—Kawartha Lakes—Brock"
          }
        ],
        "pollDivisionIds": [
          10138553
        ],
        "postalCode": "K9V4N7",
        "streetName": "WELDON",
        "streetDirectionId": null,
        "streetTypeId": "CRT",
        "placeName": "LINDSAY",
        "streetNameDisplayText": "WELDON CRT, LINDSAY"
      }
    ]
  },
  {
    "postal": "K9V0B9",
    "result": [
      {
        "electoralDistricts": [
          {
            "election": null,
            "id": 35,
            "name": "Haliburton—Kawartha Lakes—Brock"
          }
        ],
        "pollDivisionIds": [
          10138558,
          10138557
        ],
        "postalCode": "K9V0B9",
        "streetName": "BROCK",
        "streetDirectionId": null,
        "streetTypeId": "ST",
        "placeName": "LINDSAY",
        "streetNameDisplayText": "BROCK ST, LINDSAY"
      }
    ]
  },
  {
    "postal": "K9V9K7",
    "result": []
  },
  {
    "postal": "K9V9K9",
    "result": []
  },
  {
    "postal": "K9V3Z2",
    "result": []
  },
  {
    "postal": "K9V6W7",
    "result": []
  },
  {
    "postal": "K9V0P1",
    "result": []
  },
  {
    "postal": "K9V3A0",
    "result": []
  },
  {
    "postal": "K9V8L9",
    "result": []
  },
  {
    "postal": "K9V6X0",
    "result": []
  },
  {
    "postal": "K9V3E9",
    "result": [
      {
        "electoralDistricts": [
          {
            "election": null,
            "id": 35,
            "name": "Haliburton—Kawartha Lakes—Brock"
          }
        ],
        "pollDivisionIds": [
          10138555
        ],
        "postalCode": "K9V3E9",
        "streetName": "SUSSEX",
        "streetDirectionId": "S",
        "streetTypeId": "ST",
        "placeName": "LINDSAY",
        "streetNameDisplayText": "SUSSEX ST S, LINDSAY"
      }
    ]
  },
  {
    "postal": "K9V0S5",
    "result": []
  },
  {
    "postal": "K9V1A2",
    "result": []
  },
  {
    "postal": "K9V5V8",
    "result": [
      {
        "electoralDistricts": [
          {
            "election": null,
            "id": 35,
            "name": "Haliburton—Kawartha Lakes—Brock"
          }
        ],
        "pollDivisionIds": [
          10138552
        ],
        "postalCode": "K9V5V8",
        "streetName": "FOUND",
        "streetDirectionId": null,
        "streetTypeId": "AVE",
        "placeName": "LINDSAY",
        "streetNameDisplayText": "FOUND AVE, LINDSAY"
      },
      {
        "electoralDistricts": [
          {
            "election": null,
            "id": 35,
            "name": "Haliburton—Kawartha Lakes—Brock"
          }
        ],
        "pollDivisionIds": [
          10138552
        ],
        "postalCode": "K9V5V8",
        "streetName": "WILLIAM",
        "streetDirectionId": "N",
        "streetTypeId": "ST",
        "placeName": "LINDSAY",
        "streetNameDisplayText": "WILLIAM ST N, LINDSAY"
      }
    ]
  },
  {
    "postal": "K9V8C5",
    "result": []
  },
  {
    "postal": "K9V6N0",
    "result": []
  },
  {
    "postal": "K9V9E6",
    "result": []
  },
  {
    "postal": "K9V5J7",
    "result": [
      {
        "electoralDistricts": [
          {
            "election": null,
            "id": 35,
            "name": "Haliburton—Kawartha Lakes—Brock"
          }
        ],
        "pollDivisionIds": [
          10138552
        ],
        "postalCode": "K9V5J7",
        "streetName": "PARKWAY",
        "streetDirectionId": null,
        "streetTypeId": "AVE",
        "placeName": "LINDSAY",
        "streetNameDisplayText": "PARKWAY AVE, LINDSAY"
      }
    ]
  },
  {
    "postal": "K9V2R2",
    "result": [
      {
        "electoralDistricts": [
          {
            "election": null,
            "id": 35,
            "name": "Haliburton—Kawartha Lakes—Brock"
          }
        ],
        "pollDivisionIds": [
          10138555
        ],
        "postalCode": "K9V2R2",
        "streetName": "DURHAM",
        "streetDirectionId": "W",
        "streetTypeId": "ST",
        "placeName": "LINDSAY",
        "streetNameDisplayText": "DURHAM ST W, LINDSAY"
      }
    ]
  },
  {
    "postal": "K9V0P5",
    "result": []
  },
  {
    "postal": "K9V5A7",
    "result": [
      {
        "electoralDistricts": [
          {
            "election": null,
            "id": 35,
            "name": "Haliburton—Kawartha Lakes—Brock"
          }
        ],
        "pollDivisionIds": [
          10138557
        ],
        "postalCode": "K9V5A7",
        "streetName": "ST PETER",
        "streetDirectionId": null,
        "streetTypeId": "ST",
        "placeName": "LINDSAY",
        "streetNameDisplayText": "ST PETER ST, LINDSAY"
      }
    ]
  },
  {
    "postal": "K9V1G1",
    "result": [
      {
        "electoralDistricts": [
          {
            "election": null,
            "id": 35,
            "name": "Haliburton—Kawartha Lakes—Brock"
          }
        ],
        "pollDivisionIds": [
          10138557
        ],
        "postalCode": "K9V1G1",
        "streetName": "QUEEN",
        "streetDirectionId": null,
        "streetTypeId": "ST",
        "placeName": "LINDSAY",
        "streetNameDisplayText": "QUEEN ST, LINDSAY"
      }
    ]
  },
  {
    "postal": "K9V9R6",
    "result": []
  },
  {
    "postal": "K9V4Z9",
    "result": [
      {
        "electoralDistricts": [
          {
            "election": null,
            "id": 35,
            "name": "Haliburton—Kawartha Lakes—Brock"
          }
        ],
        "pollDivisionIds": [
          10138552
        ],
        "postalCode": "K9V4Z9",
        "streetName": "DANIEL",
        "streetDirectionId": null,
        "streetTypeId": "CRT",
        "placeName": "LINDSAY",
        "streetNameDisplayText": "DANIEL CRT, LINDSAY"
      }
    ]
  },
  {
    "postal": "K9V1V5",
    "result": [
      {
        "electoralDistricts": [
          {
            "election": null,
            "id": 35,
            "name": "Haliburton—Kawartha Lakes—Brock"
          }
        ],
        "pollDivisionIds": [
          10138556
        ],
        "postalCode": "K9V1V5",
        "streetName": "DIVISION",
        "streetDirectionId": "S",
        "streetTypeId": "ST",
        "placeName": "LINDSAY",
        "streetNameDisplayText": "DIVISION ST S, LINDSAY"
      },
      {
        "electoralDistricts": [
          {
            "election": null,
            "id": 35,
            "name": "Haliburton—Kawartha Lakes—Brock"
          }
        ],
        "pollDivisionIds": [
          10138556
        ],
        "postalCode": "K9V1V5",
        "streetName": "DIVISION",
        "streetDirectionId": null,
        "streetTypeId": "ST",
        "placeName": "LINDSAY",
        "streetNameDisplayText": "DIVISION ST, LINDSAY"
      },
      {
        "electoralDistricts": [
          {
            "election": null,
            "id": 35,
            "name": "Haliburton—Kawartha Lakes—Brock"
          }
        ],
        "pollDivisionIds": [
          10138557
        ],
        "postalCode": "K9V1V5",
        "streetName": "SHORT",
        "streetDirectionId": null,
        "streetTypeId": "AVE",
        "placeName": "LINDSAY",
        "streetNameDisplayText": "SHORT AVE, LINDSAY"
      }
    ]
  },
  {
    "postal": "K9V9Y5",
    "result": []
  },
  {
    "postal": "K9V1P2",
    "result": [
      {
        "electoralDistricts": [
          {
            "election": null,
            "id": 35,
            "name": "Haliburton—Kawartha Lakes—Brock"
          }
        ],
        "pollDivisionIds": [
          10138557
        ],
        "postalCode": "K9V1P2",
        "streetName": "PRINCESS ELIZABETH",
        "streetDirectionId": null,
        "streetTypeId": "CRES",
        "placeName": "LINDSAY",
        "streetNameDisplayText": "PRINCESS ELIZABETH CRES, LINDSAY"
      }
    ]
  },
  {
    "postal": "K9V5X0",
    "result": []
  },
  {
    "postal": "K9V7B8",
    "result": []
  },
  {
    "postal": "K9V0C6",
    "result": [
      {
        "electoralDistricts": [
          {
            "election": null,
            "id": 35,
            "name": "Haliburton—Kawartha Lakes—Brock"
          }
        ],
        "pollDivisionIds": [
          10138554
        ],
        "postalCode": "K9V0C6",
        "streetName": "COOK",
        "streetDirectionId": null,
        "streetTypeId": "ST",
        "placeName": "LINDSAY",
        "streetNameDisplayText": "COOK ST, LINDSAY"
      },
      {
        "electoralDistricts": [
          {
            "election": null,
            "id": 35,
            "name": "Haliburton—Kawartha Lakes—Brock"
          }
        ],
        "pollDivisionIds": [
          10138554
        ],
        "postalCode": "K9V0C6",
        "streetName": "LUCAS",
        "streetDirectionId": null,
        "streetTypeId": "CRES",
        "placeName": "LINDSAY",
        "streetNameDisplayText": "LUCAS CRES, LINDSAY"
      },
      {
        "electoralDistricts": [
          {
            "election": null,
            "id": 35,
            "name": "Haliburton—Kawartha Lakes—Brock"
          }
        ],
        "pollDivisionIds": [
          10138554
        ],
        "postalCode": "K9V0C6",
        "streetName": "POWER",
        "streetDirectionId": null,
        "streetTypeId": "CRT",
        "placeName": "LINDSAY",
        "streetNameDisplayText": "POWER CRT, LINDSAY"
      }
    ]
  },
  {
    "postal": "K9V6G1",
    "result": [
      {
        "electoralDistricts": [
          {
            "election": null,
            "id": 35,
            "name": "Haliburton—Kawartha Lakes—Brock"
          }
        ],
        "pollDivisionIds": [
          10138556
        ],
        "postalCode": "K9V6G1",
        "streetName": "ALBERT",
        "streetDirectionId": "S",
        "streetTypeId": "ST",
        "placeName": "LINDSAY",
        "streetNameDisplayText": "ALBERT ST S, LINDSAY"
      },
      {
        "electoralDistricts": [
          {
            "election": null,
            "id": 35,
            "name": "Haliburton—Kawartha Lakes—Brock"
          }
        ],
        "pollDivisionIds": [
          10138556
        ],
        "postalCode": "K9V6G1",
        "streetName": "AUK",
        "streetDirectionId": null,
        "streetTypeId": "TRAIL",
        "placeName": "LINDSAY",
        "streetNameDisplayText": "AUK TRAIL, LINDSAY"
      }
    ]
  },
  {
    "postal": "K9V3K3",
    "result": [
      {
        "electoralDistricts": [
          {
            "election": null,
            "id": 35,
            "name": "Haliburton—Kawartha Lakes—Brock"
          }
        ],
        "pollDivisionIds": [
          10138556
        ],
        "postalCode": "K9V3K3",
        "streetName": "ADELAIDE",
        "streetDirectionId": "S",
        "streetTypeId": "ST",
        "placeName": "LINDSAY",
        "streetNameDisplayText": "ADELAIDE ST S, LINDSAY"
      }
    ]
  },
  {
    "postal": "K9V9R0",
    "result": []
  },
  {
    "postal": "K9V4R8",
    "result": [
      {
        "electoralDistricts": [
          {
            "election": null,
            "id": 35,
            "name": "Haliburton—Kawartha Lakes—Brock"
          }
        ],
        "pollDivisionIds": [
          10138552
        ],
        "postalCode": "K9V4R8",
        "streetName": "7",
        "streetDirectionId": null,
        "streetTypeId": "HWY",
        "placeName": "LINDSAY",
        "streetNameDisplayText": "7 HWY, LINDSAY"
      }
    ]
  },
  {
    "postal": "K9V5P9",
    "result": [
      {
        "electoralDistricts": [
          {
            "election": null,
            "id": 35,
            "name": "Haliburton—Kawartha Lakes—Brock"
          }
        ],
        "pollDivisionIds": [
          10138553
        ],
        "postalCode": "K9V5P9",
        "streetName": "HERITAGE",
        "streetDirectionId": null,
        "streetTypeId": "WAY",
        "placeName": "LINDSAY",
        "streetNameDisplayText": "HERITAGE WAY, LINDSAY"
      }
    ]
  },
  {
    "postal": "K9V8N4",
    "result": []
  },
  {
    "postal": "K9V8H4",
    "result": []
  },
  {
    "postal": "K9V4V1",
    "result": [
      {
        "electoralDistricts": [
          {
            "election": null,
            "id": 35,
            "name": "Haliburton—Kawartha Lakes—Brock"
          }
        ],
        "pollDivisionIds": [
          10138553
        ],
        "postalCode": "K9V4V1",
        "streetName": "ALBERT",
        "streetDirectionId": "N",
        "streetTypeId": "ST",
        "placeName": "LINDSAY",
        "streetNameDisplayText": "ALBERT ST N, LINDSAY"
      }
    ]
  },
  {
    "postal": "K9V1K5",
    "result": [
      {
        "electoralDistricts": [
          {
            "election": null,
            "id": 35,
            "name": "Haliburton—Kawartha Lakes—Brock"
          }
        ],
        "pollDivisionIds": [
          10138557
        ],
        "postalCode": "K9V1K5",
        "streetName": "COLBORNE",
        "streetDirectionId": "E",
        "streetTypeId": "ST",
        "placeName": "LINDSAY",
        "streetNameDisplayText": "COLBORNE ST E, LINDSAY"
      }
    ]
  },
  {
    "postal": "K9V1Z5",
    "result": [
      {
        "electoralDistricts": [
          {
            "election": null,
            "id": 35,
            "name": "Haliburton—Kawartha Lakes—Brock"
          }
        ],
        "pollDivisionIds": [
          10138556
        ],
        "postalCode": "K9V1Z5",
        "streetName": "GLENELG",
        "streetDirectionId": "E",
        "streetTypeId": "ST",
        "placeName": "LINDSAY",
        "streetNameDisplayText": "GLENELG ST E, LINDSAY"
      }
    ]
  },
  {
    "postal": "K9V9L9",
    "result": []
  },
  {
    "postal": "K9V5L2",
    "result": [
      {
        "electoralDistricts": [
          {
            "election": null,
            "id": 35,
            "name": "Haliburton—Kawartha Lakes—Brock"
          }
        ],
        "pollDivisionIds": [
          10138552
        ],
        "postalCode": "K9V5L2",
        "streetName": "SANDERLING",
        "streetDirectionId": null,
        "streetTypeId": "CRES",
        "placeName": "LINDSAY",
        "streetNameDisplayText": "SANDERLING CRES, LINDSAY"
      }
    ]
  },
  {
    "postal": "K9V0M2",
    "result": [
      {
        "electoralDistricts": [
          {
            "election": null,
            "id": 35,
            "name": "Haliburton—Kawartha Lakes—Brock"
          }
        ],
        "pollDivisionIds": [
          10138554
        ],
        "postalCode": "K9V0M2",
        "streetName": "BLUEBERRY",
        "streetDirectionId": null,
        "streetTypeId": "LANE",
        "placeName": "LINDSAY",
        "streetNameDisplayText": "BLUEBERRY LANE, LINDSAY"
      },
      {
        "electoralDistricts": [
          {
            "election": null,
            "id": 35,
            "name": "Haliburton—Kawartha Lakes—Brock"
          }
        ],
        "pollDivisionIds": [
          10138554
        ],
        "postalCode": "K9V0M2",
        "streetName": "BRACKENDALE",
        "streetDirectionId": null,
        "streetTypeId": "TRAIL",
        "placeName": "LINDSAY",
        "streetNameDisplayText": "BRACKENDALE TRAIL, LINDSAY"
      },
      {
        "electoralDistricts": [
          {
            "election": null,
            "id": 35,
            "name": "Haliburton—Kawartha Lakes—Brock"
          }
        ],
        "pollDivisionIds": [
          10138556,
          10138554
        ],
        "postalCode": "K9V0M2",
        "streetName": "BROAD",
        "streetDirectionId": null,
        "streetTypeId": "ST",
        "placeName": "LINDSAY",
        "streetNameDisplayText": "BROAD ST, LINDSAY"
      }
    ]
  },
  {
    "postal": "K9V1K8",
    "result": [
      {
        "electoralDistricts": [
          {
            "election": null,
            "id": 35,
            "name": "Haliburton—Kawartha Lakes—Brock"
          }
        ],
        "pollDivisionIds": [
          10138557
        ],
        "postalCode": "K9V1K8",
        "streetName": "COLBORNE",
        "streetDirectionId": "E",
        "streetTypeId": "ST",
        "placeName": "LINDSAY",
        "streetNameDisplayText": "COLBORNE ST E, LINDSAY"
      }
    ]
  },
  {
    "postal": "K9V3M7",
    "result": [
      {
        "electoralDistricts": [
          {
            "election": null,
            "id": 35,
            "name": "Haliburton—Kawartha Lakes—Brock"
          }
        ],
        "pollDivisionIds": [
          10138555
        ],
        "postalCode": "K9V3M7",
        "streetName": "HENRY",
        "streetDirectionId": null,
        "streetTypeId": "ST",
        "placeName": "LINDSAY",
        "streetNameDisplayText": "HENRY ST, LINDSAY"
      }
    ]
  },
  {
    "postal": "K9V1B2",
    "result": [
      {
        "electoralDistricts": [
          {
            "election": null,
            "id": 35,
            "name": "Haliburton—Kawartha Lakes—Brock"
          }
        ],
        "pollDivisionIds": [
          10138557
        ],
        "postalCode": "K9V1B2",
        "streetName": "RIVERVIEW",
        "streetDirectionId": null,
        "streetTypeId": "RD",
        "placeName": "LINDSAY",
        "streetNameDisplayText": "RIVERVIEW RD, LINDSAY"
      }
    ]
  },
  {
    "postal": "K9V0H9",
    "result": [
      {
        "electoralDistricts": [
          {
            "election": null,
            "id": 35,
            "name": "Haliburton—Kawartha Lakes—Brock"
          }
        ],
        "pollDivisionIds": [
          10138552
        ],
        "postalCode": "K9V0H9",
        "streetName": "CHAMPLAIN",
        "streetDirectionId": null,
        "streetTypeId": "BLVD",
        "placeName": "LINDSAY",
        "streetNameDisplayText": "CHAMPLAIN BLVD, LINDSAY"
      },
      {
        "electoralDistricts": [
          {
            "election": null,
            "id": 35,
            "name": "Haliburton—Kawartha Lakes—Brock"
          }
        ],
        "pollDivisionIds": [
          10138552
        ],
        "postalCode": "K9V0H9",
        "streetName": "ORCHARD",
        "streetDirectionId": null,
        "streetTypeId": "DR",
        "placeName": "LINDSAY",
        "streetNameDisplayText": "ORCHARD DR, LINDSAY"
      },
      {
        "electoralDistricts": [
          {
            "election": null,
            "id": 35,
            "name": "Haliburton—Kawartha Lakes—Brock"
          }
        ],
        "pollDivisionIds": [
          10138552
        ],
        "postalCode": "K9V0H9",
        "streetName": "SPRINGDALE",
        "streetDirectionId": null,
        "streetTypeId": "DR",
        "placeName": "LINDSAY",
        "streetNameDisplayText": "SPRINGDALE DR, LINDSAY"
      }
    ]
  },
  {
    "postal": "K9V8M4",
    "result": []
  },
  {
    "postal": "K9V2M5",
    "result": [
      {
        "electoralDistricts": [
          {
            "election": null,
            "id": 35,
            "name": "Haliburton—Kawartha Lakes—Brock"
          }
        ],
        "pollDivisionIds": [
          10138557
        ],
        "postalCode": "K9V2M5",
        "streetName": "LINDSAY",
        "streetDirectionId": "N",
        "streetTypeId": "ST",
        "placeName": "LINDSAY",
        "streetNameDisplayText": "LINDSAY ST N, LINDSAY"
      },
      {
        "electoralDistricts": [
          {
            "election": null,
            "id": 35,
            "name": "Haliburton—Kawartha Lakes—Brock"
          }
        ],
        "pollDivisionIds": [
          10138556
        ],
        "postalCode": "K9V2M5",
        "streetName": "LINDSAY",
        "streetDirectionId": "S",
        "streetTypeId": "ST",
        "placeName": "LINDSAY",
        "streetNameDisplayText": "LINDSAY ST S, LINDSAY"
      }
    ]
  },
  {
    "postal": "K9V0T9",
    "result": []
  },
  {
    "postal": "K9V3P1",
    "result": [
      {
        "electoralDistricts": [
          {
            "election": null,
            "id": 35,
            "name": "Haliburton—Kawartha Lakes—Brock"
          }
        ],
        "pollDivisionIds": [
          10138555
        ],
        "postalCode": "K9V3P1",
        "streetName": "FAIR",
        "streetDirectionId": null,
        "streetTypeId": "AVE",
        "placeName": "LINDSAY",
        "streetNameDisplayText": "FAIR AVE, LINDSAY"
      }
    ]
  },
  {
    "postal": "K9V1R6",
    "result": [
      {
        "electoralDistricts": [
          {
            "election": null,
            "id": 35,
            "name": "Haliburton—Kawartha Lakes—Brock"
          }
        ],
        "pollDivisionIds": [
          10138557
        ],
        "postalCode": "K9V1R6",
        "streetName": "ST PATRICK",
        "streetDirectionId": null,
        "streetTypeId": "ST",
        "placeName": "LINDSAY",
        "streetNameDisplayText": "ST PATRICK ST, LINDSAY"
      }
    ]
  },
  {
    "postal": "K9V9V5",
    "result": []
  },
  {
    "postal": "K9V9T0",
    "result": []
  },
  {
    "postal": "K9V0A9",
    "result": [
      {
        "electoralDistricts": [
          {
            "election": null,
            "id": 35,
            "name": "Haliburton—Kawartha Lakes—Brock"
          }
        ],
        "pollDivisionIds": [
          10138568
        ],
        "postalCode": "K9V0A9",
        "streetName": "MEADOW",
        "streetDirectionId": null,
        "streetTypeId": "DR",
        "placeName": "LINDSAY",
        "streetNameDisplayText": "MEADOW DR, LINDSAY"
      },
      {
        "electoralDistricts": [
          {
            "election": null,
            "id": 35,
            "name": "Haliburton—Kawartha Lakes—Brock"
          }
        ],
        "pollDivisionIds": [
          10138568,
          10138558
        ],
        "postalCode": "K9V0A9",
        "streetName": "SONGBIRD",
        "streetDirectionId": null,
        "streetTypeId": "CRES",
        "placeName": "LINDSAY",
        "streetNameDisplayText": "SONGBIRD CRES, LINDSAY"
      }
    ]
  },
  {
    "postal": "K9V1M3",
    "result": [
      {
        "electoralDistricts": [
          {
            "election": null,
            "id": 35,
            "name": "Haliburton—Kawartha Lakes—Brock"
          }
        ],
        "pollDivisionIds": [
          10138557
        ],
        "postalCode": "K9V1M3",
        "streetName": "JEFFERSON",
        "streetDirectionId": null,
        "streetTypeId": "BLVD",
        "placeName": "LINDSAY",
        "streetNameDisplayText": "JEFFERSON BLVD, LINDSAY"
      }
    ]
  },
  {
    "postal": "K9V1W8",
    "result": [
      {
        "electoralDistricts": [
          {
            "election": null,
            "id": 35,
            "name": "Haliburton—Kawartha Lakes—Brock"
          }
        ],
        "pollDivisionIds": [
          10138556
        ],
        "postalCode": "K9V1W8",
        "streetName": "DURHAM",
        "streetDirectionId": "E",
        "streetTypeId": "ST",
        "placeName": "LINDSAY",
        "streetNameDisplayText": "DURHAM ST E, LINDSAY"
      }
    ]
  },
  {
    "postal": "K9V9J1",
    "result": []
  },
  {
    "postal": "K9V8N5",
    "result": []
  },
  {
    "postal": "K9V5X1",
    "result": [
      {
        "electoralDistricts": [
          {
            "election": null,
            "id": 35,
            "name": "Haliburton—Kawartha Lakes—Brock"
          }
        ],
        "pollDivisionIds": [
          10138554
        ],
        "postalCode": "K9V5X1",
        "streetName": "MADILL",
        "streetDirectionId": null,
        "streetTypeId": "CRES",
        "placeName": "LINDSAY",
        "streetNameDisplayText": "MADILL CRES, LINDSAY"
      }
    ]
  },
  {
    "postal": "K9V6S2",
    "result": []
  },
  {
    "postal": "K9V2A2",
    "result": []
  },
  {
    "postal": "K9V6A6",
    "result": [
      {
        "electoralDistricts": [
          {
            "election": null,
            "id": 35,
            "name": "Haliburton—Kawartha Lakes—Brock"
          }
        ],
        "pollDivisionIds": [
          10138552
        ],
        "postalCode": "K9V6A6",
        "streetName": "CRESTWOOD",
        "streetDirectionId": null,
        "streetTypeId": "AVE",
        "placeName": "LINDSAY",
        "streetNameDisplayText": "CRESTWOOD AVE, LINDSAY"
      },
      {
        "electoralDistricts": [
          {
            "election": null,
            "id": 35,
            "name": "Haliburton—Kawartha Lakes—Brock"
          }
        ],
        "pollDivisionIds": [
          10138552
        ],
        "postalCode": "K9V6A6",
        "streetName": "MIDLAND",
        "streetDirectionId": null,
        "streetTypeId": "DR",
        "placeName": "LINDSAY",
        "streetNameDisplayText": "MIDLAND DR, LINDSAY"
      },
      {
        "electoralDistricts": [
          {
            "election": null,
            "id": 35,
            "name": "Haliburton—Kawartha Lakes—Brock"
          }
        ],
        "pollDivisionIds": [
          10138552
        ],
        "postalCode": "K9V6A6",
        "streetName": "ORCHARD PARK",
        "streetDirectionId": null,
        "streetTypeId": "RD",
        "placeName": "LINDSAY",
        "streetNameDisplayText": "ORCHARD PARK RD, LINDSAY"
      },
      {
        "electoralDistricts": [
          {
            "election": null,
            "id": 35,
            "name": "Haliburton—Kawartha Lakes—Brock"
          }
        ],
        "pollDivisionIds": [
          10138552
        ],
        "postalCode": "K9V6A6",
        "streetName": "WILLIAM",
        "streetDirectionId": "N",
        "streetTypeId": "ST",
        "placeName": "LINDSAY",
        "streetNameDisplayText": "WILLIAM ST N, LINDSAY"
      }
    ]
  },
  {
    "postal": "K9V0S3",
    "result": []
  },
  {
    "postal": "K9V3E7",
    "result": [
      {
        "electoralDistricts": [
          {
            "election": null,
            "id": 35,
            "name": "Haliburton—Kawartha Lakes—Brock"
          }
        ],
        "pollDivisionIds": [
          10138555
        ],
        "postalCode": "K9V3E7",
        "streetName": "SUSSEX",
        "streetDirectionId": "S",
        "streetTypeId": "ST",
        "placeName": "LINDSAY",
        "streetNameDisplayText": "SUSSEX ST S, LINDSAY"
      }
    ]
  },
  {
    "postal": "K9V5R7",
    "result": [
      {
        "electoralDistricts": [
          {
            "election": null,
            "id": 35,
            "name": "Haliburton—Kawartha Lakes—Brock"
          }
        ],
        "pollDivisionIds": [
          10138557
        ],
        "postalCode": "K9V5R7",
        "streetName": "NEEDHAM",
        "streetDirectionId": null,
        "streetTypeId": "ST",
        "placeName": "LINDSAY",
        "streetNameDisplayText": "NEEDHAM ST, LINDSAY"
      }
    ]
  },
  {
    "postal": "K9V3R6",
    "result": [
      {
        "electoralDistricts": [
          {
            "election": null,
            "id": 35,
            "name": "Haliburton—Kawartha Lakes—Brock"
          }
        ],
        "pollDivisionIds": [
          10138555
        ],
        "postalCode": "K9V3R6",
        "streetName": "FRANCIS",
        "streetDirectionId": null,
        "streetTypeId": "ST",
        "placeName": "LINDSAY",
        "streetNameDisplayText": "FRANCIS ST, LINDSAY"
      }
    ]
  },
  {
    "postal": "K9V6K4",
    "result": [
      {
        "electoralDistricts": [
          {
            "election": null,
            "id": 35,
            "name": "Haliburton—Kawartha Lakes—Brock"
          }
        ],
        "pollDivisionIds": [
          10138557
        ],
        "postalCode": "K9V6K4",
        "streetName": "COLBORNE",
        "streetDirectionId": "E",
        "streetTypeId": "ST",
        "placeName": "LINDSAY",
        "streetNameDisplayText": "COLBORNE ST E, LINDSAY"
      }
    ]
  },
  {
    "postal": "K9V2W5",
    "result": [
      {
        "electoralDistricts": [
          {
            "election": null,
            "id": 35,
            "name": "Haliburton—Kawartha Lakes—Brock"
          }
        ],
        "pollDivisionIds": [
          10138555
        ],
        "postalCode": "K9V2W5",
        "streetName": "RUSSELL",
        "streetDirectionId": "W",
        "streetTypeId": "ST",
        "placeName": "LINDSAY",
        "streetNameDisplayText": "RUSSELL ST W, LINDSAY"
      }
    ]
  },
  {
    "postal": "K9V8W4",
    "result": []
  },
  {
    "postal": "K9V9C2",
    "result": []
  },
  {
    "postal": "K9V2C0",
    "result": []
  },
  {
    "postal": "K9V0E1",
    "result": [
      {
        "electoralDistricts": [
          {
            "election": null,
            "id": 35,
            "name": "Haliburton—Kawartha Lakes—Brock"
          }
        ],
        "pollDivisionIds": [
          10138556,
          10138555,
          10138554
        ],
        "postalCode": "K9V0E1",
        "streetName": "DEVAN",
        "streetDirectionId": null,
        "streetTypeId": "CRT",
        "placeName": "LINDSAY",
        "streetNameDisplayText": "DEVAN CRT, LINDSAY"
      }
    ]
  },
  {
    "postal": "K9V1K9",
    "result": []
  },
  {
    "postal": "K9V1G7",
    "result": [
      {
        "electoralDistricts": [
          {
            "election": null,
            "id": 35,
            "name": "Haliburton—Kawartha Lakes—Brock"
          }
        ],
        "pollDivisionIds": [
          10138557
        ],
        "postalCode": "K9V1G7",
        "streetName": "QUEEN",
        "streetDirectionId": null,
        "streetTypeId": "ST",
        "placeName": "LINDSAY",
        "streetNameDisplayText": "QUEEN ST, LINDSAY"
      }
    ]
  },
  {
    "postal": "K9V4E9",
    "result": [
      {
        "electoralDistricts": [
          {
            "election": null,
            "id": 35,
            "name": "Haliburton—Kawartha Lakes—Brock"
          }
        ],
        "pollDivisionIds": [
          10138555
        ],
        "postalCode": "K9V4E9",
        "streetName": "VICTORIA",
        "streetDirectionId": "N",
        "streetTypeId": "AVE",
        "placeName": "LINDSAY",
        "streetNameDisplayText": "VICTORIA AVE N, LINDSAY"
      }
    ]
  },
  {
    "postal": "K9V9P0",
    "result": []
  },
  {
    "postal": "K9V5H3",
    "result": [
      {
        "electoralDistricts": [
          {
            "election": null,
            "id": 35,
            "name": "Haliburton—Kawartha Lakes—Brock"
          }
        ],
        "pollDivisionIds": [
          10138553
        ],
        "postalCode": "K9V5H3",
        "streetName": "LINWOOD",
        "streetDirectionId": null,
        "streetTypeId": "RD",
        "placeName": "LINDSAY",
        "streetNameDisplayText": "LINWOOD RD, LINDSAY"
      }
    ]
  },
  {
    "postal": "K9V9X6",
    "result": []
  },
  {
    "postal": "K9V5N7",
    "result": [
      {
        "electoralDistricts": [
          {
            "election": null,
            "id": 35,
            "name": "Haliburton—Kawartha Lakes—Brock"
          }
        ],
        "pollDivisionIds": [
          10138553
        ],
        "postalCode": "K9V5N7",
        "streetName": "ANGELINE",
        "streetDirectionId": "N",
        "streetTypeId": "ST",
        "placeName": "LINDSAY",
        "streetNameDisplayText": "ANGELINE ST N, LINDSAY"
      }
    ]
  },
  {
    "postal": "K9V5A6",
    "result": [
      {
        "electoralDistricts": [
          {
            "election": null,
            "id": 35,
            "name": "Haliburton—Kawartha Lakes—Brock"
          }
        ],
        "pollDivisionIds": [
          10138554
        ],
        "postalCode": "K9V5A6",
        "streetName": "ANGELINE",
        "streetDirectionId": "S",
        "streetTypeId": "ST",
        "placeName": "LINDSAY",
        "streetNameDisplayText": "ANGELINE ST S, LINDSAY"
      }
    ]
  },
  {
    "postal": "K9V4M0",
    "result": []
  },
  {
    "postal": "K9V3V6",
    "result": [
      {
        "electoralDistricts": [
          {
            "election": null,
            "id": 35,
            "name": "Haliburton—Kawartha Lakes—Brock"
          }
        ],
        "pollDivisionIds": [
          10138555
        ],
        "postalCode": "K9V3V6",
        "streetName": "REGENT",
        "streetDirectionId": null,
        "streetTypeId": "ST",
        "placeName": "LINDSAY",
        "streetNameDisplayText": "REGENT ST, LINDSAY"
      }
    ]
  },
  {
    "postal": "K9V1L7",
    "result": []
  },
  {
    "postal": "K9V2P9",
    "result": [
      {
        "electoralDistricts": [
          {
            "election": null,
            "id": 35,
            "name": "Haliburton—Kawartha Lakes—Brock"
          }
        ],
        "pollDivisionIds": [
          10138555,
          10138556
        ],
        "postalCode": "K9V2P9",
        "streetName": "DURHAM",
        "streetDirectionId": "W",
        "streetTypeId": "ST",
        "placeName": "LINDSAY",
        "streetNameDisplayText": "DURHAM ST W, LINDSAY"
      }
    ]
  },
  {
    "postal": "K9V5T4",
    "result": [
      {
        "electoralDistricts": [
          {
            "election": null,
            "id": 35,
            "name": "Haliburton—Kawartha Lakes—Brock"
          }
        ],
        "pollDivisionIds": [
          10138552
        ],
        "postalCode": "K9V5T4",
        "streetName": "CORNEIL",
        "streetDirectionId": null,
        "streetTypeId": "ST",
        "placeName": "LINDSAY",
        "streetNameDisplayText": "CORNEIL ST, LINDSAY"
      }
    ]
  },
  {
    "postal": "K9V5Z1",
    "result": [
      {
        "electoralDistricts": [
          {
            "election": null,
            "id": 35,
            "name": "Haliburton—Kawartha Lakes—Brock"
          }
        ],
        "pollDivisionIds": [
          10138553
        ],
        "postalCode": "K9V5Z1",
        "streetName": "HERITAGE",
        "streetDirectionId": null,
        "streetTypeId": "WAY",
        "placeName": "LINDSAY",
        "streetNameDisplayText": "HERITAGE WAY, LINDSAY"
      }
    ]
  },
  {
    "postal": "K9V2X0",
    "result": []
  },
  {
    "postal": "K9V6Z2",
    "result": []
  },
  {
    "postal": "K9V0E0",
    "result": []
  },
  {
    "postal": "K9V3Z5",
    "result": [
      {
        "electoralDistricts": [
          {
            "election": null,
            "id": 35,
            "name": "Haliburton—Kawartha Lakes—Brock"
          }
        ],
        "pollDivisionIds": [
          10138552
        ],
        "postalCode": "K9V3Z5",
        "streetName": "EGLINGTON",
        "streetDirectionId": null,
        "streetTypeId": "ST",
        "placeName": "LINDSAY",
        "streetNameDisplayText": "EGLINGTON ST, LINDSAY"
      }
    ]
  },
  {
    "postal": "K9V8H3",
    "result": []
  },
  {
    "postal": "K9V7S6",
    "result": []
  },
  {
    "postal": "K9V4C1",
    "result": [
      {
        "electoralDistricts": [
          {
            "election": null,
            "id": 35,
            "name": "Haliburton—Kawartha Lakes—Brock"
          }
        ],
        "pollDivisionIds": [
          10138552
        ],
        "postalCode": "K9V4C1",
        "streetName": "WILLIAM",
        "streetDirectionId": "N",
        "streetTypeId": "ST",
        "placeName": "LINDSAY",
        "streetNameDisplayText": "WILLIAM ST N, LINDSAY"
      }
    ]
  },
  {
    "postal": "K9V3K2",
    "result": [
      {
        "electoralDistricts": [
          {
            "election": null,
            "id": 35,
            "name": "Haliburton—Kawartha Lakes—Brock"
          }
        ],
        "pollDivisionIds": [
          10138555,
          10138556,
          10138554
        ],
        "postalCode": "K9V3K2",
        "streetName": "ADELAIDE",
        "streetDirectionId": "S",
        "streetTypeId": "ST",
        "placeName": "LINDSAY",
        "streetNameDisplayText": "ADELAIDE ST S, LINDSAY"
      }
    ]
  },
  {
    "postal": "K9V1Y5",
    "result": [
      {
        "electoralDistricts": [
          {
            "election": null,
            "id": 35,
            "name": "Haliburton—Kawartha Lakes—Brock"
          }
        ],
        "pollDivisionIds": [
          10138556
        ],
        "postalCode": "K9V1Y5",
        "streetName": "GLENELG",
        "streetDirectionId": "E",
        "streetTypeId": "ST",
        "placeName": "LINDSAY",
        "streetNameDisplayText": "GLENELG ST E, LINDSAY"
      }
    ]
  },
  {
    "postal": "K9V6P6",
    "result": []
  },
  {
    "postal": "K9V3N9",
    "result": [
      {
        "electoralDistricts": [
          {
            "election": null,
            "id": 35,
            "name": "Haliburton—Kawartha Lakes—Brock"
          }
        ],
        "pollDivisionIds": [
          10138555
        ],
        "postalCode": "K9V3N9",
        "streetName": "WELLINGTON",
        "streetDirectionId": null,
        "streetTypeId": "ST",
        "placeName": "LINDSAY",
        "streetNameDisplayText": "WELLINGTON ST, LINDSAY"
      }
    ]
  },
  {
    "postal": "K9V3W2",
    "result": [
      {
        "electoralDistricts": [
          {
            "election": null,
            "id": 35,
            "name": "Haliburton—Kawartha Lakes—Brock"
          }
        ],
        "pollDivisionIds": [
          10138548,
          10138553
        ],
        "postalCode": "K9V3W2",
        "streetName": "ELGIN",
        "streetDirectionId": null,
        "streetTypeId": "ST",
        "placeName": "LINDSAY",
        "streetNameDisplayText": "ELGIN ST, LINDSAY"
      }
    ]
  },
  {
    "postal": "K9V6H8",
    "result": [
      {
        "electoralDistricts": [
          {
            "election": null,
            "id": 35,
            "name": "Haliburton—Kawartha Lakes—Brock"
          }
        ],
        "pollDivisionIds": [
          10138554
        ],
        "postalCode": "K9V6H8",
        "streetName": "DORMER",
        "streetDirectionId": null,
        "streetTypeId": "RD",
        "placeName": "LINDSAY",
        "streetNameDisplayText": "DORMER RD, LINDSAY"
      },
      {
        "electoralDistricts": [
          {
            "election": null,
            "id": 35,
            "name": "Haliburton—Kawartha Lakes—Brock"
          }
        ],
        "pollDivisionIds": [
          10138554
        ],
        "postalCode": "K9V6H8",
        "streetName": "EAKINS",
        "streetDirectionId": null,
        "streetTypeId": "CRES",
        "placeName": "LINDSAY",
        "streetNameDisplayText": "EAKINS CRES, LINDSAY"
      }
    ]
  },
  {
    "postal": "K9V9T3",
    "result": []
  },
  {
    "postal": "K9V5L9",
    "result": [
      {
        "electoralDistricts": [
          {
            "election": null,
            "id": 35,
            "name": "Haliburton—Kawartha Lakes—Brock"
          }
        ],
        "pollDivisionIds": [
          10138553
        ],
        "postalCode": "K9V5L9",
        "streetName": "OAK",
        "streetDirectionId": null,
        "streetTypeId": "ST",
        "placeName": "LINDSAY",
        "streetNameDisplayText": "OAK ST, LINDSAY"
      }
    ]
  },
  {
    "postal": "K9V7X7",
    "result": []
  },
  {
    "postal": "K9V3J5",
    "result": [
      {
        "electoralDistricts": [
          {
            "election": null,
            "id": 35,
            "name": "Haliburton—Kawartha Lakes—Brock"
          }
        ],
        "pollDivisionIds": [
          10138555
        ],
        "postalCode": "K9V3J5",
        "streetName": "ADELAIDE",
        "streetDirectionId": "S",
        "streetTypeId": "ST",
        "placeName": "LINDSAY",
        "streetNameDisplayText": "ADELAIDE ST S, LINDSAY"
      }
    ]
  },
  {
    "postal": "K9V4J5",
    "result": [
      {
        "electoralDistricts": [
          {
            "election": null,
            "id": 35,
            "name": "Haliburton—Kawartha Lakes—Brock"
          }
        ],
        "pollDivisionIds": [
          10138555
        ],
        "postalCode": "K9V4J5",
        "streetName": "ALBERT",
        "streetDirectionId": "N",
        "streetTypeId": "ST",
        "placeName": "LINDSAY",
        "streetNameDisplayText": "ALBERT ST N, LINDSAY"
      }
    ]
  },
  {
    "postal": "K9V6J2",
    "result": [
      {
        "electoralDistricts": [
          {
            "election": null,
            "id": 35,
            "name": "Haliburton—Kawartha Lakes—Brock"
          }
        ],
        "pollDivisionIds": [
          10138582
        ],
        "postalCode": "K9V6J2",
        "streetName": "COLBORNE",
        "streetDirectionId": "E",
        "streetTypeId": "ST",
        "placeName": "LINDSAY",
        "streetNameDisplayText": "COLBORNE ST E, LINDSAY"
      }
    ]
  },
  {
    "postal": "K9V5V6",
    "result": [
      {
        "electoralDistricts": [
          {
            "election": null,
            "id": 35,
            "name": "Haliburton—Kawartha Lakes—Brock"
          }
        ],
        "pollDivisionIds": [
          10138552
        ],
        "postalCode": "K9V5V6",
        "streetName": "KAREN",
        "streetDirectionId": null,
        "streetTypeId": "DR",
        "placeName": "LINDSAY",
        "streetNameDisplayText": "KAREN DR, LINDSAY"
      }
    ]
  },
  {
    "postal": "K9V3N2",
    "result": [
      {
        "electoralDistricts": [
          {
            "election": null,
            "id": 35,
            "name": "Haliburton—Kawartha Lakes—Brock"
          }
        ],
        "pollDivisionIds": [
          10138555
        ],
        "postalCode": "K9V3N2",
        "streetName": "WELLINGTON",
        "streetDirectionId": null,
        "streetTypeId": "ST",
        "placeName": "LINDSAY",
        "streetNameDisplayText": "WELLINGTON ST, LINDSAY"
      }
    ]
  },
  {
    "postal": "K9V3B1",
    "result": [
      {
        "electoralDistricts": [
          {
            "election": null,
            "id": 35,
            "name": "Haliburton—Kawartha Lakes—Brock"
          }
        ],
        "pollDivisionIds": [
          10138555
        ],
        "postalCode": "K9V3B1",
        "streetName": "WILLIAM",
        "streetDirectionId": "S",
        "streetTypeId": "ST",
        "placeName": "LINDSAY",
        "streetNameDisplayText": "WILLIAM ST S, LINDSAY"
      }
    ]
  },
  {
    "postal": "K9V8B5",
    "result": []
  },
  {
    "postal": "K9V0K1",
    "result": [
      {
        "electoralDistricts": [
          {
            "election": null,
            "id": 35,
            "name": "Haliburton—Kawartha Lakes—Brock"
          }
        ],
        "pollDivisionIds": [
          10138558
        ],
        "postalCode": "K9V0K1",
        "streetName": "ASH",
        "streetDirectionId": null,
        "streetTypeId": "LOOP",
        "placeName": "LINDSAY",
        "streetNameDisplayText": "ASH LOOP, LINDSAY"
      },
      {
        "electoralDistricts": [
          {
            "election": null,
            "id": 35,
            "name": "Haliburton—Kawartha Lakes—Brock"
          }
        ],
        "pollDivisionIds": [
          10138558
        ],
        "postalCode": "K9V0K1",
        "streetName": "DRIFTWOOD",
        "streetDirectionId": null,
        "streetTypeId": "CRES",
        "placeName": "LINDSAY",
        "streetNameDisplayText": "DRIFTWOOD CRES, LINDSAY"
      },
      {
        "electoralDistricts": [
          {
            "election": null,
            "id": 35,
            "name": "Haliburton—Kawartha Lakes—Brock"
          }
        ],
        "pollDivisionIds": [
          10138558
        ],
        "postalCode": "K9V0K1",
        "streetName": "FRONT",
        "streetDirectionId": null,
        "streetTypeId": "DR",
        "placeName": "LINDSAY",
        "streetNameDisplayText": "FRONT DR, LINDSAY"
      },
      {
        "electoralDistricts": [
          {
            "election": null,
            "id": 35,
            "name": "Haliburton—Kawartha Lakes—Brock"
          }
        ],
        "pollDivisionIds": [
          10138558
        ],
        "postalCode": "K9V0K1",
        "streetName": "OTTER",
        "streetDirectionId": null,
        "streetTypeId": "LINE",
        "placeName": "LINDSAY",
        "streetNameDisplayText": "OTTER LINE, LINDSAY"
      },
      {
        "electoralDistricts": [
          {
            "election": null,
            "id": 35,
            "name": "Haliburton—Kawartha Lakes—Brock"
          }
        ],
        "pollDivisionIds": [
          10138558
        ],
        "postalCode": "K9V0K1",
        "streetName": "STONEY CREEK",
        "streetDirectionId": null,
        "streetTypeId": "RD",
        "placeName": "LINDSAY",
        "streetNameDisplayText": "STONEY CREEK RD, LINDSAY"
      }
    ]
  },
  {
    "postal": "K9V7M7",
    "result": []
  },
  {
    "postal": "K9V2M2",
    "result": [
      {
        "electoralDistricts": [
          {
            "election": null,
            "id": 35,
            "name": "Haliburton—Kawartha Lakes—Brock"
          }
        ],
        "pollDivisionIds": [
          10138555
        ],
        "postalCode": "K9V2M2",
        "streetName": "LINDSAY",
        "streetDirectionId": "S",
        "streetTypeId": "ST",
        "placeName": "LINDSAY",
        "streetNameDisplayText": "LINDSAY ST S, LINDSAY"
      }
    ]
  },
  {
    "postal": "K9V9N3",
    "result": []
  },
  {
    "postal": "K9V4Y8",
    "result": [
      {
        "electoralDistricts": [
          {
            "election": null,
            "id": 35,
            "name": "Haliburton—Kawartha Lakes—Brock"
          }
        ],
        "pollDivisionIds": [
          10138557
        ],
        "postalCode": "K9V4Y8",
        "streetName": "BEVERLEY",
        "streetDirectionId": null,
        "streetTypeId": "ST",
        "placeName": "LINDSAY",
        "streetNameDisplayText": "BEVERLEY ST, LINDSAY"
      }
    ]
  },
  {
    "postal": "K9V3V7",
    "result": [
      {
        "electoralDistricts": [
          {
            "election": null,
            "id": 35,
            "name": "Haliburton—Kawartha Lakes—Brock"
          }
        ],
        "pollDivisionIds": [
          10138555
        ],
        "postalCode": "K9V3V7",
        "streetName": "REGENT",
        "streetDirectionId": null,
        "streetTypeId": "ST",
        "placeName": "LINDSAY",
        "streetNameDisplayText": "REGENT ST, LINDSAY"
      }
    ]
  },
  {
    "postal": "K9V8Z1",
    "result": []
  },
  {
    "postal": "K9V7B3",
    "result": []
  },
  {
    "postal": "K9V3A8",
    "result": [
      {
        "electoralDistricts": [
          {
            "election": null,
            "id": 35,
            "name": "Haliburton—Kawartha Lakes—Brock"
          }
        ],
        "pollDivisionIds": [
          10138555
        ],
        "postalCode": "K9V3A8",
        "streetName": "WILLIAM",
        "streetDirectionId": "S",
        "streetTypeId": "ST",
        "placeName": "LINDSAY",
        "streetNameDisplayText": "WILLIAM ST S, LINDSAY"
      }
    ]
  },
  {
    "postal": "K9V7V5",
    "result": []
  },
  {
    "postal": "K9V2T2",
    "result": []
  },
  {
    "postal": "K9V6L3",
    "result": [
      {
        "electoralDistricts": [
          {
            "election": null,
            "id": 35,
            "name": "Haliburton—Kawartha Lakes—Brock"
          }
        ],
        "pollDivisionIds": [
          10138556
        ],
        "postalCode": "K9V6L3",
        "streetName": "TRAILWAY",
        "streetDirectionId": null,
        "streetTypeId": "LANE",
        "placeName": "LINDSAY",
        "streetNameDisplayText": "TRAILWAY LANE, LINDSAY"
      }
    ]
  },
  {
    "postal": "K9V0L2",
    "result": [
      {
        "electoralDistricts": [
          {
            "election": null,
            "id": 35,
            "name": "Haliburton—Kawartha Lakes—Brock"
          }
        ],
        "pollDivisionIds": [
          10138557,
          10138540
        ],
        "postalCode": "K9V0L2",
        "streetName": "HOLTOM",
        "streetDirectionId": null,
        "streetTypeId": "ST",
        "placeName": "LINDSAY",
        "streetNameDisplayText": "HOLTOM ST, LINDSAY"
      },
      {
        "electoralDistricts": [
          {
            "election": null,
            "id": 35,
            "name": "Haliburton—Kawartha Lakes—Brock"
          }
        ],
        "pollDivisionIds": [
          10138557,
          10138558
        ],
        "postalCode": "K9V0L2",
        "streetName": "MILNER",
        "streetDirectionId": null,
        "streetTypeId": "CRT",
        "placeName": "LINDSAY",
        "streetNameDisplayText": "MILNER CRT, LINDSAY"
      },
      {
        "electoralDistricts": [
          {
            "election": null,
            "id": 35,
            "name": "Haliburton—Kawartha Lakes—Brock"
          }
        ],
        "pollDivisionIds": [
          10138557
        ],
        "postalCode": "K9V0L2",
        "streetName": "MOYNES",
        "streetDirectionId": null,
        "streetTypeId": "CRT",
        "placeName": "LINDSAY",
        "streetNameDisplayText": "MOYNES CRT, LINDSAY"
      }
    ]
  },
  {
    "postal": "K9V5Y8",
    "result": [
      {
        "electoralDistricts": [
          {
            "election": null,
            "id": 35,
            "name": "Haliburton—Kawartha Lakes—Brock"
          }
        ],
        "pollDivisionIds": [
          10138553
        ],
        "postalCode": "K9V5Y8",
        "streetName": "HERITAGE",
        "streetDirectionId": null,
        "streetTypeId": "WAY",
        "placeName": "LINDSAY",
        "streetNameDisplayText": "HERITAGE WAY, LINDSAY"
      }
    ]
  },
  {
    "postal": "K9V0B8",
    "result": [
      {
        "electoralDistricts": [
          {
            "election": null,
            "id": 35,
            "name": "Haliburton—Kawartha Lakes—Brock"
          }
        ],
        "pollDivisionIds": [
          10138556
        ],
        "postalCode": "K9V0B8",
        "streetName": "MARY",
        "streetDirectionId": "W",
        "streetTypeId": "ST",
        "placeName": "LINDSAY",
        "streetNameDisplayText": "MARY ST W, LINDSAY"
      }
    ]
  },
  {
    "postal": "K9V6R5",
    "result": []
  },
  {
    "postal": "K9V8W6",
    "result": []
  },
  {
    "postal": "K9V8G6",
    "result": []
  },
  {
    "postal": "K9V6X3",
    "result": []
  },
  {
    "postal": "K9V7R7",
    "result": []
  },
  {
    "postal": "K9V4B6",
    "result": [
      {
        "electoralDistricts": [
          {
            "election": null,
            "id": 35,
            "name": "Haliburton—Kawartha Lakes—Brock"
          }
        ],
        "pollDivisionIds": [
          10138553
        ],
        "postalCode": "K9V4B6",
        "streetName": "WILLIAM",
        "streetDirectionId": "N",
        "streetTypeId": "ST",
        "placeName": "LINDSAY",
        "streetNameDisplayText": "WILLIAM ST N, LINDSAY"
      }
    ]
  },
  {
    "postal": "K9V3P9",
    "result": [
      {
        "electoralDistricts": [
          {
            "election": null,
            "id": 35,
            "name": "Haliburton—Kawartha Lakes—Brock"
          }
        ],
        "pollDivisionIds": [
          10138555
        ],
        "postalCode": "K9V3P9",
        "streetName": "BOND",
        "streetDirectionId": "E",
        "streetTypeId": "ST",
        "placeName": "LINDSAY",
        "streetNameDisplayText": "BOND ST E, LINDSAY"
      },
      {
        "electoralDistricts": [
          {
            "election": null,
            "id": 35,
            "name": "Haliburton—Kawartha Lakes—Brock"
          }
        ],
        "pollDivisionIds": [
          10138555
        ],
        "postalCode": "K9V3P9",
        "streetName": "BOND",
        "streetDirectionId": "W",
        "streetTypeId": "ST",
        "placeName": "LINDSAY",
        "streetNameDisplayText": "BOND ST W, LINDSAY"
      }
    ]
  },
  {
    "postal": "K9V2T3",
    "result": [
      {
        "electoralDistricts": [
          {
            "election": null,
            "id": 35,
            "name": "Haliburton—Kawartha Lakes—Brock"
          }
        ],
        "pollDivisionIds": [
          10138555
        ],
        "postalCode": "K9V2T3",
        "streetName": "MELBOURNE",
        "streetDirectionId": "W",
        "streetTypeId": "ST",
        "placeName": "LINDSAY",
        "streetNameDisplayText": "MELBOURNE ST W, LINDSAY"
      }
    ]
  },
  {
    "postal": "K9V1M4",
    "result": [
      {
        "electoralDistricts": [
          {
            "election": null,
            "id": 35,
            "name": "Haliburton—Kawartha Lakes—Brock"
          }
        ],
        "pollDivisionIds": [
          10138557
        ],
        "postalCode": "K9V1M4",
        "streetName": "ST GEORGE",
        "streetDirectionId": null,
        "streetTypeId": "ST",
        "placeName": "LINDSAY",
        "streetNameDisplayText": "ST GEORGE ST, LINDSAY"
      }
    ]
  },
  {
    "postal": "K9V0H1",
    "result": [
      {
        "electoralDistricts": [
          {
            "election": null,
            "id": 35,
            "name": "Haliburton—Kawartha Lakes—Brock"
          }
        ],
        "pollDivisionIds": [
          10138554
        ],
        "postalCode": "K9V0H1",
        "streetName": "GEE",
        "streetDirectionId": null,
        "streetTypeId": "CRES",
        "placeName": "LINDSAY",
        "streetNameDisplayText": "GEE CRES, LINDSAY"
      },
      {
        "electoralDistricts": [
          {
            "election": null,
            "id": 35,
            "name": "Haliburton—Kawartha Lakes—Brock"
          }
        ],
        "pollDivisionIds": [
          10138554
        ],
        "postalCode": "K9V0H1",
        "streetName": "LAURENT",
        "streetDirectionId": null,
        "streetTypeId": "BLVD",
        "placeName": "LINDSAY",
        "streetNameDisplayText": "LAURENT BLVD, LINDSAY"
      }
    ]
  },
  {
    "postal": "K9V9W3",
    "result": []
  },
  {
    "postal": "K9V6P1",
    "result": []
  },
  {
    "postal": "K9V7G2",
    "result": []
  },
  {
    "postal": "K9V4J9",
    "result": [
      {
        "electoralDistricts": [
          {
            "election": null,
            "id": 35,
            "name": "Haliburton—Kawartha Lakes—Brock"
          }
        ],
        "pollDivisionIds": [
          10138555
        ],
        "postalCode": "K9V4J9",
        "streetName": "ALBERT",
        "streetDirectionId": "N",
        "streetTypeId": "ST",
        "placeName": "LINDSAY",
        "streetNameDisplayText": "ALBERT ST N, LINDSAY"
      }
    ]
  },
  {
    "postal": "K9V9E4",
    "result": []
  },
  {
    "postal": "K9V8H0",
    "result": []
  },
  {
    "postal": "K9V4M7",
    "result": [
      {
        "electoralDistricts": [
          {
            "election": null,
            "id": 35,
            "name": "Haliburton—Kawartha Lakes—Brock"
          }
        ],
        "pollDivisionIds": [
          10138555
        ],
        "postalCode": "K9V4M7",
        "streetName": "JANE",
        "streetDirectionId": null,
        "streetTypeId": "ST",
        "placeName": "LINDSAY",
        "streetNameDisplayText": "JANE ST, LINDSAY"
      }
    ]
  },
  {
    "postal": "K9V2G9",
    "result": [
      {
        "electoralDistricts": [
          {
            "election": null,
            "id": 35,
            "name": "Haliburton—Kawartha Lakes—Brock"
          }
        ],
        "pollDivisionIds": [
          10138556
        ],
        "postalCode": "K9V2G9",
        "streetName": "SIMCOE",
        "streetDirectionId": null,
        "streetTypeId": "ST",
        "placeName": "LINDSAY",
        "streetNameDisplayText": "SIMCOE ST, LINDSAY"
      }
    ]
  },
  {
    "postal": "K9V8T2",
    "result": []
  },
  {
    "postal": "K9V7G7",
    "result": []
  },
  {
    "postal": "K9V4Z3",
    "result": [
      {
        "electoralDistricts": [
          {
            "election": null,
            "id": 35,
            "name": "Haliburton—Kawartha Lakes—Brock"
          }
        ],
        "pollDivisionIds": [
          10138552
        ],
        "postalCode": "K9V4Z3",
        "streetName": "ORCHARD PARK",
        "streetDirectionId": null,
        "streetTypeId": "RD",
        "placeName": "LINDSAY",
        "streetNameDisplayText": "ORCHARD PARK RD, LINDSAY"
      }
    ]
  },
  {
    "postal": "K9V5B3",
    "result": []
  },
  {
    "postal": "K9V1S7",
    "result": [
      {
        "electoralDistricts": [
          {
            "election": null,
            "id": 35,
            "name": "Haliburton—Kawartha Lakes—Brock"
          }
        ],
        "pollDivisionIds": [
          10138557
        ],
        "postalCode": "K9V1S7",
        "streetName": "ST PAUL",
        "streetDirectionId": null,
        "streetTypeId": "ST",
        "placeName": "LINDSAY",
        "streetNameDisplayText": "ST PAUL ST, LINDSAY"
      }
    ]
  },
  {
    "postal": "K9V2N7",
    "result": [
      {
        "electoralDistricts": [
          {
            "election": null,
            "id": 35,
            "name": "Haliburton—Kawartha Lakes—Brock"
          }
        ],
        "pollDivisionIds": [
          10138556,
          10138553
        ],
        "postalCode": "K9V2N7",
        "streetName": "MARY",
        "streetDirectionId": "W",
        "streetTypeId": "ST",
        "placeName": "LINDSAY",
        "streetNameDisplayText": "MARY ST W, LINDSAY"
      }
    ]
  },
  {
    "postal": "K9V0H8",
    "result": [
      {
        "electoralDistricts": [
          {
            "election": null,
            "id": 35,
            "name": "Haliburton—Kawartha Lakes—Brock"
          }
        ],
        "pollDivisionIds": [
          10138552
        ],
        "postalCode": "K9V0H8",
        "streetName": "ORCHARD",
        "streetDirectionId": null,
        "streetTypeId": "DR",
        "placeName": "LINDSAY",
        "streetNameDisplayText": "ORCHARD DR, LINDSAY"
      }
    ]
  },
  {
    "postal": "K9V7Z4",
    "result": []
  },
  {
    "postal": "K9V7B1",
    "result": []
  },
  {
    "postal": "K9V7P8",
    "result": []
  },
  {
    "postal": "K9V7N0",
    "result": []
  },
  {
    "postal": "K9V3Y5",
    "result": [
      {
        "electoralDistricts": [
          {
            "election": null,
            "id": 35,
            "name": "Haliburton—Kawartha Lakes—Brock"
          }
        ],
        "pollDivisionIds": [
          10138553
        ],
        "postalCode": "K9V3Y5",
        "streetName": "POTTINGER",
        "streetDirectionId": null,
        "streetTypeId": "ST",
        "placeName": "LINDSAY",
        "streetNameDisplayText": "POTTINGER ST, LINDSAY"
      }
    ]
  },
  {
    "postal": "K9V6K1",
    "result": []
  },
  {
    "postal": "K9V9X5",
    "result": []
  },
  {
    "postal": "K9V7S5",
    "result": []
  },
  {
    "postal": "K9V0A4",
    "result": [
      {
        "electoralDistricts": [
          {
            "election": null,
            "id": 35,
            "name": "Haliburton—Kawartha Lakes—Brock"
          }
        ],
        "pollDivisionIds": [
          10138558
        ],
        "postalCode": "K9V0A4",
        "streetName": "ELLIS",
        "streetDirectionId": null,
        "streetTypeId": "CRES",
        "placeName": "LINDSAY",
        "streetNameDisplayText": "ELLIS CRES, LINDSAY"
      }
    ]
  },
  {
    "postal": "K9V4T5",
    "result": [
      {
        "electoralDistricts": [
          {
            "election": null,
            "id": 35,
            "name": "Haliburton—Kawartha Lakes—Brock"
          }
        ],
        "pollDivisionIds": [
          10138553
        ],
        "postalCode": "K9V4T5",
        "streetName": "ROSELYN",
        "streetDirectionId": null,
        "streetTypeId": "CRT",
        "placeName": "LINDSAY",
        "streetNameDisplayText": "ROSELYN CRT, LINDSAY"
      }
    ]
  },
  {
    "postal": "K9V5K1",
    "result": [
      {
        "electoralDistricts": [
          {
            "election": null,
            "id": 35,
            "name": "Haliburton—Kawartha Lakes—Brock"
          }
        ],
        "pollDivisionIds": [
          10138552
        ],
        "postalCode": "K9V5K1",
        "streetName": "ORCHARD PARK",
        "streetDirectionId": null,
        "streetTypeId": "RD",
        "placeName": "LINDSAY",
        "streetNameDisplayText": "ORCHARD PARK RD, LINDSAY"
      }
    ]
  },
  {
    "postal": "K9V0Z9",
    "result": []
  },
  {
    "postal": "K9V7T2",
    "result": []
  },
  {
    "postal": "K9V1L5",
    "result": [
      {
        "electoralDistricts": [
          {
            "election": null,
            "id": 35,
            "name": "Haliburton—Kawartha Lakes—Brock"
          }
        ],
        "pollDivisionIds": [
          10138557
        ],
        "postalCode": "K9V1L5",
        "streetName": "NEEDHAM",
        "streetDirectionId": null,
        "streetTypeId": "ST",
        "placeName": "LINDSAY",
        "streetNameDisplayText": "NEEDHAM ST, LINDSAY"
      }
    ]
  },
  {
    "postal": "K9V3N5",
    "result": [
      {
        "electoralDistricts": [
          {
            "election": null,
            "id": 35,
            "name": "Haliburton—Kawartha Lakes—Brock"
          }
        ],
        "pollDivisionIds": [
          10138555
        ],
        "postalCode": "K9V3N5",
        "streetName": "WELLINGTON",
        "streetDirectionId": null,
        "streetTypeId": "ST",
        "placeName": "LINDSAY",
        "streetNameDisplayText": "WELLINGTON ST, LINDSAY"
      }
    ]
  },
  {
    "postal": "K9V6H4",
    "result": [
      {
        "electoralDistricts": [
          {
            "election": null,
            "id": 35,
            "name": "Haliburton—Kawartha Lakes—Brock"
          }
        ],
        "pollDivisionIds": [
          10138557
        ],
        "postalCode": "K9V6H4",
        "streetName": "FLEETWOOD",
        "streetDirectionId": null,
        "streetTypeId": "RD",
        "placeName": "LINDSAY",
        "streetNameDisplayText": "FLEETWOOD RD, LINDSAY"
      }
    ]
  },
  {
    "postal": "K9V5A5",
    "result": [
      {
        "electoralDistricts": [
          {
            "election": null,
            "id": 35,
            "name": "Haliburton—Kawartha Lakes—Brock"
          }
        ],
        "pollDivisionIds": [
          10138558,
          10138555,
          10138553
        ],
        "postalCode": "K9V5A5",
        "streetName": "WESTWOOD",
        "streetDirectionId": null,
        "streetTypeId": "CRT",
        "placeName": "LINDSAY",
        "streetNameDisplayText": "WESTWOOD CRT, LINDSAY"
      }
    ]
  },
  {
    "postal": "K9V3R9",
    "result": []
  },
  {
    "postal": "K9V7L8",
    "result": []
  },
  {
    "postal": "K9V6T6",
    "result": []
  },
  {
    "postal": "K9V7Y7",
    "result": []
  },
  {
    "postal": "K9V3M8",
    "result": [
      {
        "electoralDistricts": [
          {
            "election": null,
            "id": 35,
            "name": "Haliburton—Kawartha Lakes—Brock"
          }
        ],
        "pollDivisionIds": [
          10138555
        ],
        "postalCode": "K9V3M8",
        "streetName": "HENRY",
        "streetDirectionId": null,
        "streetTypeId": "ST",
        "placeName": "LINDSAY",
        "streetNameDisplayText": "HENRY ST, LINDSAY"
      }
    ]
  },
  {
    "postal": "K9V2E0",
    "result": []
  },
  {
    "postal": "K9V4B5",
    "result": [
      {
        "electoralDistricts": [
          {
            "election": null,
            "id": 35,
            "name": "Haliburton—Kawartha Lakes—Brock"
          }
        ],
        "pollDivisionIds": [
          10138553
        ],
        "postalCode": "K9V4B5",
        "streetName": "WILLIAM",
        "streetDirectionId": "N",
        "streetTypeId": "ST",
        "placeName": "LINDSAY",
        "streetNameDisplayText": "WILLIAM ST N, LINDSAY"
      }
    ]
  },
  {
    "postal": "K9V1J3",
    "result": [
      {
        "electoralDistricts": [
          {
            "election": null,
            "id": 35,
            "name": "Haliburton—Kawartha Lakes—Brock"
          }
        ],
        "pollDivisionIds": [
          10138557
        ],
        "postalCode": "K9V1J3",
        "streetName": "JOHN",
        "streetDirectionId": null,
        "streetTypeId": "ST",
        "placeName": "LINDSAY",
        "streetNameDisplayText": "JOHN ST, LINDSAY"
      }
    ]
  },
  {
    "postal": "K9V5S6",
    "result": [
      {
        "electoralDistricts": [
          {
            "election": null,
            "id": 35,
            "name": "Haliburton—Kawartha Lakes—Brock"
          }
        ],
        "pollDivisionIds": [
          10138554
        ],
        "postalCode": "K9V5S6",
        "streetName": "HUGHES",
        "streetDirectionId": null,
        "streetTypeId": "CRT",
        "placeName": "LINDSAY",
        "streetNameDisplayText": "HUGHES CRT, LINDSAY"
      },
      {
        "electoralDistricts": [
          {
            "election": null,
            "id": 35,
            "name": "Haliburton—Kawartha Lakes—Brock"
          }
        ],
        "pollDivisionIds": [
          10138554
        ],
        "postalCode": "K9V5S6",
        "streetName": "MARY",
        "streetDirectionId": "W",
        "streetTypeId": "ST",
        "placeName": "LINDSAY",
        "streetNameDisplayText": "MARY ST W, LINDSAY"
      }
    ]
  },
  {
    "postal": "K9V8P7",
    "result": []
  },
  {
    "postal": "K9V7S7",
    "result": []
  },
  {
    "postal": "K9V4C2",
    "result": [
      {
        "electoralDistricts": [
          {
            "election": null,
            "id": 35,
            "name": "Haliburton—Kawartha Lakes—Brock"
          }
        ],
        "pollDivisionIds": [
          10138552
        ],
        "postalCode": "K9V4C2",
        "streetName": "WILLIAM",
        "streetDirectionId": "N",
        "streetTypeId": "ST",
        "placeName": "LINDSAY",
        "streetNameDisplayText": "WILLIAM ST N, LINDSAY"
      }
    ]
  },
  {
    "postal": "K9V5Y0",
    "result": []
  },
  {
    "postal": "K9V2V7",
    "result": [
      {
        "electoralDistricts": [
          {
            "election": null,
            "id": 35,
            "name": "Haliburton—Kawartha Lakes—Brock"
          }
        ],
        "pollDivisionIds": [
          10138555
        ],
        "postalCode": "K9V2V7",
        "streetName": "GLENELG",
        "streetDirectionId": "W",
        "streetTypeId": "ST",
        "placeName": "LINDSAY",
        "streetNameDisplayText": "GLENELG ST W, LINDSAY"
      }
    ]
  },
  {
    "postal": "K9V8P5",
    "result": []
  },
  {
    "postal": "K9V5P5",
    "result": [
      {
        "electoralDistricts": [
          {
            "election": null,
            "id": 35,
            "name": "Haliburton—Kawartha Lakes—Brock"
          }
        ],
        "pollDivisionIds": [
          10138553
        ],
        "postalCode": "K9V5P5",
        "streetName": "HERITAGE",
        "streetDirectionId": null,
        "streetTypeId": "WAY",
        "placeName": "LINDSAY",
        "streetNameDisplayText": "HERITAGE WAY, LINDSAY"
      }
    ]
  },
  {
    "postal": "K9V5Z0",
    "result": []
  },
  {
    "postal": "K9V9B0",
    "result": []
  },
  {
    "postal": "K9V1L0",
    "result": []
  },
  {
    "postal": "K9V0B5",
    "result": [
      {
        "electoralDistricts": [
          {
            "election": null,
            "id": 35,
            "name": "Haliburton—Kawartha Lakes—Brock"
          }
        ],
        "pollDivisionIds": [
          10138554
        ],
        "postalCode": "K9V0B5",
        "streetName": "DENFIELD",
        "streetDirectionId": null,
        "streetTypeId": "RD",
        "placeName": "LINDSAY",
        "streetNameDisplayText": "DENFIELD RD, LINDSAY"
      },
      {
        "electoralDistricts": [
          {
            "election": null,
            "id": 35,
            "name": "Haliburton—Kawartha Lakes—Brock"
          }
        ],
        "pollDivisionIds": [
          10138554
        ],
        "postalCode": "K9V0B5",
        "streetName": "SELENA",
        "streetDirectionId": null,
        "streetTypeId": "ST",
        "placeName": "LINDSAY",
        "streetNameDisplayText": "SELENA ST, LINDSAY"
      }
    ]
  },
  {
    "postal": "K9V3L2",
    "result": [
      {
        "electoralDistricts": [
          {
            "election": null,
            "id": 35,
            "name": "Haliburton—Kawartha Lakes—Brock"
          }
        ],
        "pollDivisionIds": [
          10138555
        ],
        "postalCode": "K9V3L2",
        "streetName": "ANGELINE",
        "streetDirectionId": "S",
        "streetTypeId": "ST",
        "placeName": "LINDSAY",
        "streetNameDisplayText": "ANGELINE ST S, LINDSAY"
      }
    ]
  },
  {
    "postal": "K9V3B7",
    "result": [
      {
        "electoralDistricts": [
          {
            "election": null,
            "id": 35,
            "name": "Haliburton—Kawartha Lakes—Brock"
          }
        ],
        "pollDivisionIds": [
          10138555
        ],
        "postalCode": "K9V3B7",
        "streetName": "CAMBRIDGE",
        "streetDirectionId": "S",
        "streetTypeId": "ST",
        "placeName": "LINDSAY",
        "streetNameDisplayText": "CAMBRIDGE ST S, LINDSAY"
      }
    ]
  },
  {
    "postal": "K9V8L1",
    "result": []
  },
  {
    "postal": "K9V5M4",
    "result": []
  },
  {
    "postal": "K9V4G9",
    "result": [
      {
        "electoralDistricts": [
          {
            "election": null,
            "id": 35,
            "name": "Haliburton—Kawartha Lakes—Brock"
          }
        ],
        "pollDivisionIds": [
          10138553
        ],
        "postalCode": "K9V4G9",
        "streetName": "VICTORIA",
        "streetDirectionId": "N",
        "streetTypeId": "AVE",
        "placeName": "LINDSAY",
        "streetNameDisplayText": "VICTORIA AVE N, LINDSAY"
      }
    ]
  },
  {
    "postal": "K9V0P0",
    "result": []
  },
  {
    "postal": "K9V8G2",
    "result": []
  },
  {
    "postal": "K9V1V9",
    "result": [
      {
        "electoralDistricts": [
          {
            "election": null,
            "id": 35,
            "name": "Haliburton—Kawartha Lakes—Brock"
          }
        ],
        "pollDivisionIds": [
          10138556
        ],
        "postalCode": "K9V1V9",
        "streetName": "DIVISION",
        "streetDirectionId": null,
        "streetTypeId": "ST",
        "placeName": "LINDSAY",
        "streetNameDisplayText": "DIVISION ST, LINDSAY"
      }
    ]
  },
  {
    "postal": "K9V8N8",
    "result": []
  },
  {
    "postal": "K9V6S8",
    "result": []
  },
  {
    "postal": "K9V8H2",
    "result": []
  },
  {
    "postal": "K9V5R8",
    "result": []
  },
  {
    "postal": "K9V5L4",
    "result": [
      {
        "electoralDistricts": [
          {
            "election": null,
            "id": 35,
            "name": "Haliburton—Kawartha Lakes—Brock"
          }
        ],
        "pollDivisionIds": [
          10138552
        ],
        "postalCode": "K9V5L4",
        "streetName": "SANDERLING",
        "streetDirectionId": null,
        "streetTypeId": "CRES",
        "placeName": "LINDSAY",
        "streetNameDisplayText": "SANDERLING CRES, LINDSAY"
      }
    ]
  },
  {
    "postal": "K9V9E1",
    "result": []
  },
  {
    "postal": "K9V1C4",
    "result": [
      {
        "electoralDistricts": [
          {
            "election": null,
            "id": 35,
            "name": "Haliburton—Kawartha Lakes—Brock"
          }
        ],
        "pollDivisionIds": [
          10138557
        ],
        "postalCode": "K9V1C4",
        "streetName": "KING",
        "streetDirectionId": null,
        "streetTypeId": "ST",
        "placeName": "LINDSAY",
        "streetNameDisplayText": "KING ST, LINDSAY"
      }
    ]
  },
  {
    "postal": "K9V8W5",
    "result": []
  },
  {
    "postal": "K9V1Y4",
    "result": [
      {
        "electoralDistricts": [
          {
            "election": null,
            "id": 35,
            "name": "Haliburton—Kawartha Lakes—Brock"
          }
        ],
        "pollDivisionIds": [
          10138556
        ],
        "postalCode": "K9V1Y4",
        "streetName": "GLENELG",
        "streetDirectionId": "E",
        "streetTypeId": "ST",
        "placeName": "LINDSAY",
        "streetNameDisplayText": "GLENELG ST E, LINDSAY"
      }
    ]
  },
  {
    "postal": "K9V1C0",
    "result": []
  },
  {
    "postal": "K9V2J2",
    "result": [
      {
        "electoralDistricts": [
          {
            "election": null,
            "id": 35,
            "name": "Haliburton—Kawartha Lakes—Brock"
          }
        ],
        "pollDivisionIds": [
          10138556,
          10138558
        ],
        "postalCode": "K9V2J2",
        "streetName": "WOLFE",
        "streetDirectionId": null,
        "streetTypeId": "ST",
        "placeName": "LINDSAY",
        "streetNameDisplayText": "WOLFE ST, LINDSAY"
      }
    ]
  },
  {
    "postal": "K9V2J0",
    "result": []
  },
  {
    "postal": "K9V7A3",
    "result": []
  },
  {
    "postal": "K9V8M1",
    "result": []
  },
  {
    "postal": "K9V7T9",
    "result": []
  },
  {
    "postal": "K9V6C0",
    "result": []
  },
  {
    "postal": "K9V7X1",
    "result": []
  },
  {
    "postal": "K9V0G1",
    "result": []
  },
  {
    "postal": "K9V4X2",
    "result": [
      {
        "electoralDistricts": [
          {
            "election": null,
            "id": 35,
            "name": "Haliburton—Kawartha Lakes—Brock"
          }
        ],
        "pollDivisionIds": [
          10138553,
          10138552
        ],
        "postalCode": "K9V4X2",
        "streetName": "ANGELINE",
        "streetDirectionId": "N",
        "streetTypeId": "ST",
        "placeName": "LINDSAY",
        "streetNameDisplayText": "ANGELINE ST N, LINDSAY"
      }
    ]
  },
  {
    "postal": "K9V0N6",
    "result": []
  },
  {
    "postal": "K9V8E3",
    "result": []
  },
  {
    "postal": "K9V5S8",
    "result": [
      {
        "electoralDistricts": [
          {
            "election": null,
            "id": 35,
            "name": "Haliburton—Kawartha Lakes—Brock"
          }
        ],
        "pollDivisionIds": [
          10138552
        ],
        "postalCode": "K9V5S8",
        "streetName": "LINDWAY",
        "streetDirectionId": null,
        "streetTypeId": "PL",
        "placeName": "LINDSAY",
        "streetNameDisplayText": "LINDWAY PL, LINDSAY"
      }
    ]
  },
  {
    "postal": "K9V0R0",
    "result": []
  },
  {
    "postal": "K9V6J6",
    "result": [
      {
        "electoralDistricts": [
          {
            "election": null,
            "id": 35,
            "name": "Haliburton—Kawartha Lakes—Brock"
          }
        ],
        "pollDivisionIds": [
          10138554
        ],
        "postalCode": "K9V6J6",
        "streetName": "BEALL",
        "streetDirectionId": null,
        "streetTypeId": "ST",
        "placeName": "LINDSAY",
        "streetNameDisplayText": "BEALL ST, LINDSAY"
      },
      {
        "electoralDistricts": [
          {
            "election": null,
            "id": 35,
            "name": "Haliburton—Kawartha Lakes—Brock"
          }
        ],
        "pollDivisionIds": [
          10138554
        ],
        "postalCode": "K9V6J6",
        "streetName": "MARSH",
        "streetDirectionId": null,
        "streetTypeId": "CRT",
        "placeName": "LINDSAY",
        "streetNameDisplayText": "MARSH CRT, LINDSAY"
      }
    ]
  },
  {
    "postal": "K9V4B4",
    "result": [
      {
        "electoralDistricts": [
          {
            "election": null,
            "id": 35,
            "name": "Haliburton—Kawartha Lakes—Brock"
          }
        ],
        "pollDivisionIds": [
          10138553
        ],
        "postalCode": "K9V4B4",
        "streetName": "WILLIAM",
        "streetDirectionId": "N",
        "streetTypeId": "ST",
        "placeName": "LINDSAY",
        "streetNameDisplayText": "WILLIAM ST N, LINDSAY"
      }
    ]
  },
  {
    "postal": "K9V7E3",
    "result": []
  },
  {
    "postal": "K9V3N6",
    "result": [
      {
        "electoralDistricts": [
          {
            "election": null,
            "id": 35,
            "name": "Haliburton—Kawartha Lakes—Brock"
          }
        ],
        "pollDivisionIds": [
          10138555
        ],
        "postalCode": "K9V3N6",
        "streetName": "WELLINGTON",
        "streetDirectionId": null,
        "streetTypeId": "ST",
        "placeName": "LINDSAY",
        "streetNameDisplayText": "WELLINGTON ST, LINDSAY"
      }
    ]
  },
  {
    "postal": "K9V3X6",
    "result": [
      {
        "electoralDistricts": [
          {
            "election": null,
            "id": 35,
            "name": "Haliburton—Kawartha Lakes—Brock"
          }
        ],
        "pollDivisionIds": [
          10138553
        ],
        "postalCode": "K9V3X6",
        "streetName": "POTTINGER",
        "streetDirectionId": null,
        "streetTypeId": "ST",
        "placeName": "LINDSAY",
        "streetNameDisplayText": "POTTINGER ST, LINDSAY"
      }
    ]
  },
  {
    "postal": "K9V8L0",
    "result": []
  },
  {
    "postal": "K9V8N1",
    "result": []
  },
  {
    "postal": "K9V4J0",
    "result": []
  },
  {
    "postal": "K9V0X7",
    "result": []
  },
  {
    "postal": "K9V6S4",
    "result": []
  },
  {
    "postal": "K9V0Z0",
    "result": []
  },
  {
    "postal": "K9V9X8",
    "result": []
  },
  {
    "postal": "K9V3H3",
    "result": [
      {
        "electoralDistricts": [
          {
            "election": null,
            "id": 35,
            "name": "Haliburton—Kawartha Lakes—Brock"
          }
        ],
        "pollDivisionIds": [
          10138555
        ],
        "postalCode": "K9V3H3",
        "streetName": "ALBERT",
        "streetDirectionId": "S",
        "streetTypeId": "ST",
        "placeName": "LINDSAY",
        "streetNameDisplayText": "ALBERT ST S, LINDSAY"
      }
    ]
  },
  {
    "postal": "K9V7S2",
    "result": []
  },
  {
    "postal": "K9V3T3",
    "result": [
      {
        "electoralDistricts": [
          {
            "election": null,
            "id": 35,
            "name": "Haliburton—Kawartha Lakes—Brock"
          }
        ],
        "pollDivisionIds": [
          10138553
        ],
        "postalCode": "K9V3T3",
        "streetName": "COLBORNE",
        "streetDirectionId": "W",
        "streetTypeId": "ST",
        "placeName": "LINDSAY",
        "streetNameDisplayText": "COLBORNE ST W, LINDSAY"
      }
    ]
  },
  {
    "postal": "K9V9P3",
    "result": []
  },
  {
    "postal": "K9V4H8",
    "result": [
      {
        "electoralDistricts": [
          {
            "election": null,
            "id": 35,
            "name": "Haliburton—Kawartha Lakes—Brock"
          }
        ],
        "pollDivisionIds": [
          10138555
        ],
        "postalCode": "K9V4H8",
        "streetName": "SUSSEX",
        "streetDirectionId": "N",
        "streetTypeId": "ST",
        "placeName": "LINDSAY",
        "streetNameDisplayText": "SUSSEX ST N, LINDSAY"
      }
    ]
  },
  {
    "postal": "K9V6R1",
    "result": []
  },
  {
    "postal": "K9V1S0",
    "result": []
  },
  {
    "postal": "K9V3W8",
    "result": [
      {
        "electoralDistricts": [
          {
            "election": null,
            "id": 35,
            "name": "Haliburton—Kawartha Lakes—Brock"
          }
        ],
        "pollDivisionIds": [
          10138553
        ],
        "postalCode": "K9V3W8",
        "streetName": "ELGIN",
        "streetDirectionId": null,
        "streetTypeId": "ST",
        "placeName": "LINDSAY",
        "streetNameDisplayText": "ELGIN ST, LINDSAY"
      }
    ]
  },
  {
    "postal": "K9V4S3",
    "result": [
      {
        "electoralDistricts": [
          {
            "election": null,
            "id": 35,
            "name": "Haliburton—Kawartha Lakes—Brock"
          }
        ],
        "pollDivisionIds": [
          10138539
        ],
        "postalCode": "K9V4S3",
        "streetName": "35",
        "streetDirectionId": null,
        "streetTypeId": "HWY",
        "placeName": "LINDSAY",
        "streetNameDisplayText": "35 HWY, LINDSAY"
      },
      {
        "electoralDistricts": [
          {
            "election": null,
            "id": 35,
            "name": "Haliburton—Kawartha Lakes—Brock"
          }
        ],
        "pollDivisionIds": [
          10138552
        ],
        "postalCode": "K9V4S3",
        "streetName": "LOGWOOD",
        "streetDirectionId": null,
        "streetTypeId": "ST",
        "placeName": "LINDSAY",
        "streetNameDisplayText": "LOGWOOD ST, LINDSAY"
      }
    ]
  },
  {
    "postal": "K9V1B6",
    "result": []
  },
  {
    "postal": "K9V8R3",
    "result": []
  },
  {
    "postal": "K9V4V9",
    "result": [
      {
        "electoralDistricts": [
          {
            "election": null,
            "id": 35,
            "name": "Haliburton—Kawartha Lakes—Brock"
          }
        ],
        "pollDivisionIds": [
          10138552
        ],
        "postalCode": "K9V4V9",
        "streetName": "ORCHARD PARK",
        "streetDirectionId": null,
        "streetTypeId": "RD",
        "placeName": "LINDSAY",
        "streetNameDisplayText": "ORCHARD PARK RD, LINDSAY"
      }
    ]
  },
  {
    "postal": "K9V9W4",
    "result": []
  },
  {
    "postal": "K9V3T4",
    "result": [
      {
        "electoralDistricts": [
          {
            "election": null,
            "id": 35,
            "name": "Haliburton—Kawartha Lakes—Brock"
          }
        ],
        "pollDivisionIds": [
          10138553
        ],
        "postalCode": "K9V3T4",
        "streetName": "COLBORNE",
        "streetDirectionId": "W",
        "streetTypeId": "ST",
        "placeName": "LINDSAY",
        "streetNameDisplayText": "COLBORNE ST W, LINDSAY"
      }
    ]
  },
  {
    "postal": "K9V5C7",
    "result": []
  },
  {
    "postal": "K9V3Y1",
    "result": [
      {
        "electoralDistricts": [
          {
            "election": null,
            "id": 35,
            "name": "Haliburton—Kawartha Lakes—Brock"
          }
        ],
        "pollDivisionIds": [
          10138552
        ],
        "postalCode": "K9V3Y1",
        "streetName": "POTTINGER",
        "streetDirectionId": null,
        "streetTypeId": "ST",
        "placeName": "LINDSAY",
        "streetNameDisplayText": "POTTINGER ST, LINDSAY"
      }
    ]
  },
  {
    "postal": "K9V5V0",
    "result": []
  },
  {
    "postal": "K9V8G8",
    "result": []
  },
  {
    "postal": "K9V8B1",
    "result": []
  },
  {
    "postal": "K9V4P5",
    "result": [
      {
        "electoralDistricts": [
          {
            "election": null,
            "id": 35,
            "name": "Haliburton—Kawartha Lakes—Brock"
          }
        ],
        "pollDivisionIds": [
          10138553
        ],
        "postalCode": "K9V4P5",
        "streetName": "NORTHLIN PARK",
        "streetDirectionId": null,
        "streetTypeId": "RD",
        "placeName": "LINDSAY",
        "streetNameDisplayText": "NORTHLIN PARK RD, LINDSAY"
      }
    ]
  },
  {
    "postal": "K9V7B2",
    "result": []
  },
  {
    "postal": "K9V0R2",
    "result": []
  },
  {
    "postal": "K9V4M4",
    "result": [
      {
        "electoralDistricts": [
          {
            "election": null,
            "id": 35,
            "name": "Haliburton—Kawartha Lakes—Brock"
          }
        ],
        "pollDivisionIds": [
          10138553
        ],
        "postalCode": "K9V4M4",
        "streetName": "ADELAIDE",
        "streetDirectionId": "N",
        "streetTypeId": "ST",
        "placeName": "LINDSAY",
        "streetNameDisplayText": "ADELAIDE ST N, LINDSAY"
      }
    ]
  },
  {
    "postal": "K9V7M4",
    "result": []
  },
  {
    "postal": "K9V9S7",
    "result": []
  },
  {
    "postal": "K9V5Z7",
    "result": [
      {
        "electoralDistricts": [
          {
            "election": null,
            "id": 35,
            "name": "Haliburton—Kawartha Lakes—Brock"
          }
        ],
        "pollDivisionIds": [
          10138553
        ],
        "postalCode": "K9V5Z7",
        "streetName": "VICTORIA",
        "streetDirectionId": "N",
        "streetTypeId": "AVE",
        "placeName": "LINDSAY",
        "streetNameDisplayText": "VICTORIA AVE N, LINDSAY"
      }
    ]
  },
  {
    "postal": "K9V7J7",
    "result": []
  },
  {
    "postal": "K9V8R8",
    "result": []
  },
  {
    "postal": "K9V9X1",
    "result": []
  },
  {
    "postal": "K9V5M9",
    "result": []
  },
  {
    "postal": "K9V9B4",
    "result": []
  },
  {
    "postal": "K9V0L9",
    "result": [
      {
        "electoralDistricts": [
          {
            "election": null,
            "id": 35,
            "name": "Haliburton—Kawartha Lakes—Brock"
          }
        ],
        "pollDivisionIds": [
          10138554
        ],
        "postalCode": "K9V0L9",
        "streetName": "BROAD",
        "streetDirectionId": null,
        "streetTypeId": "ST",
        "placeName": "LINDSAY",
        "streetNameDisplayText": "BROAD ST, LINDSAY"
      },
      {
        "electoralDistricts": [
          {
            "election": null,
            "id": 35,
            "name": "Haliburton—Kawartha Lakes—Brock"
          }
        ],
        "pollDivisionIds": [
          10138554
        ],
        "postalCode": "K9V0L9",
        "streetName": "SILVERBROOK",
        "streetDirectionId": null,
        "streetTypeId": "AVE",
        "placeName": "LINDSAY",
        "streetNameDisplayText": "SILVERBROOK AVE, LINDSAY"
      }
    ]
  },
  {
    "postal": "K9V9G4",
    "result": []
  },
  {
    "postal": "K9V1J4",
    "result": [
      {
        "electoralDistricts": [
          {
            "election": null,
            "id": 35,
            "name": "Haliburton—Kawartha Lakes—Brock"
          }
        ],
        "pollDivisionIds": [
          10138557
        ],
        "postalCode": "K9V1J4",
        "streetName": "JOHN",
        "streetDirectionId": null,
        "streetTypeId": "ST",
        "placeName": "LINDSAY",
        "streetNameDisplayText": "JOHN ST, LINDSAY"
      }
    ]
  },
  {
    "postal": "K9V0W6",
    "result": []
  }
]
