[
  {
    "postal": "N5V9J6",
    "result": []
  },
  {
    "postal": "N5V9Z5",
    "result": []
  },
  {
    "postal": "N5V7H8",
    "result": []
  },
  {
    "postal": "N5V0P6",
    "result": []
  },
  {
    "postal": "N5V0S7",
    "result": []
  },
  {
    "postal": "N5V8B9",
    "result": []
  },
  {
    "postal": "N5V2A6",
    "result": [
      {
        "electoralDistricts": [
          {
            "election": null,
            "id": 53,
            "name": "London—Fanshawe"
          }
        ],
        "pollDivisionIds": [
          10139559
        ],
        "postalCode": "N5V2A6",
        "streetName": "ROEHAMPTON",
        "streetDirectionId": null,
        "streetTypeId": "AVE",
        "placeName": "LONDON",
        "streetNameDisplayText": "ROEHAMPTON AVE, LONDON"
      }
    ]
  },
  {
    "postal": "N5V7V2",
    "result": []
  },
  {
    "postal": "N5V9P4",
    "result": []
  },
  {
    "postal": "N5V6G0",
    "result": []
  },
  {
    "postal": "N5V2K0",
    "result": []
  },
  {
    "postal": "N5V7N6",
    "result": []
  },
  {
    "postal": "N5V5R3",
    "result": []
  },
  {
    "postal": "N5V7K0",
    "result": []
  },
  {
    "postal": "N5V3R2",
    "result": [
      {
        "electoralDistricts": [
          {
            "election": null,
            "id": 53,
            "name": "London—Fanshawe"
          }
        ],
        "pollDivisionIds": [
          10139563
        ],
        "postalCode": "N5V3R2",
        "streetName": "CARLYLE",
        "streetDirectionId": null,
        "streetTypeId": "DR",
        "placeName": "LONDON",
        "streetNameDisplayText": "CARLYLE DR, LONDON"
      }
    ]
  },
  {
    "postal": "N5V0J1",
    "result": []
  },
  {
    "postal": "N5V0B0",
    "result": []
  },
  {
    "postal": "N5V5Z2",
    "result": []
  },
  {
    "postal": "N5V7P3",
    "result": []
  },
  {
    "postal": "N5V2K3",
    "result": [
      {
        "electoralDistricts": [
          {
            "election": null,
            "id": 53,
            "name": "London—Fanshawe"
          }
        ],
        "pollDivisionIds": [
          10139558
        ],
        "postalCode": "N5V2K3",
        "streetName": "BECKWORTH",
        "streetDirectionId": null,
        "streetTypeId": "AVE",
        "placeName": "LONDON",
        "streetNameDisplayText": "BECKWORTH AVE, LONDON"
      }
    ]
  },
  {
    "postal": "N5V7Y6",
    "result": []
  },
  {
    "postal": "N5V1L9",
    "result": [
      {
        "electoralDistricts": [
          {
            "election": null,
            "id": 53,
            "name": "London—Fanshawe"
          }
        ],
        "pollDivisionIds": [
          10139563
        ],
        "postalCode": "N5V1L9",
        "streetName": "WEXFORD",
        "streetDirectionId": null,
        "streetTypeId": "AVE",
        "placeName": "LONDON",
        "streetNameDisplayText": "WEXFORD AVE, LONDON"
      }
    ]
  },
  {
    "postal": "N5V8T0",
    "result": []
  },
  {
    "postal": "N5V3K8",
    "result": [
      {
        "electoralDistricts": [
          {
            "election": null,
            "id": 53,
            "name": "London—Fanshawe"
          }
        ],
        "pollDivisionIds": [
          10139563
        ],
        "postalCode": "N5V3K8",
        "streetName": "GARLAND",
        "streetDirectionId": null,
        "streetTypeId": "LANE",
        "placeName": "LONDON",
        "streetNameDisplayText": "GARLAND LANE, LONDON"
      }
    ]
  },
  {
    "postal": "N5V5W9",
    "result": []
  },
  {
    "postal": "N5V6T9",
    "result": []
  },
  {
    "postal": "N5V4H1",
    "result": [
      {
        "electoralDistricts": [
          {
            "election": null,
            "id": 53,
            "name": "London—Fanshawe"
          }
        ],
        "pollDivisionIds": [
          10139558
        ],
        "postalCode": "N5V4H1",
        "streetName": "CHIPPEWA",
        "streetDirectionId": null,
        "streetTypeId": "DR",
        "placeName": "LONDON",
        "streetNameDisplayText": "CHIPPEWA DR, LONDON"
      }
    ]
  },
  {
    "postal": "N5V7A2",
    "result": []
  },
  {
    "postal": "N5V5G0",
    "result": []
  },
  {
    "postal": "N5V8V5",
    "result": []
  },
  {
    "postal": "N5V2Y8",
    "result": []
  },
  {
    "postal": "N5V2B6",
    "result": [
      {
        "electoralDistricts": [
          {
            "election": null,
            "id": 53,
            "name": "London—Fanshawe"
          }
        ],
        "pollDivisionIds": [
          10139561
        ],
        "postalCode": "N5V2B6",
        "streetName": "SECOND",
        "streetDirectionId": null,
        "streetTypeId": "ST",
        "placeName": "LONDON",
        "streetNameDisplayText": "SECOND ST, LONDON"
      }
    ]
  },
  {
    "postal": "N5V4W8",
    "result": [
      {
        "electoralDistricts": [
          {
            "election": null,
            "id": 53,
            "name": "London—Fanshawe"
          }
        ],
        "pollDivisionIds": [
          10139565
        ],
        "postalCode": "N5V4W8",
        "streetName": "BOWCOTT",
        "streetDirectionId": null,
        "streetTypeId": "CRES",
        "placeName": "LONDON",
        "streetNameDisplayText": "BOWCOTT CRES, LONDON"
      }
    ]
  },
  {
    "postal": "N5V8H7",
    "result": []
  },
  {
    "postal": "N5V5P1",
    "result": []
  },
  {
    "postal": "N5V2B8",
    "result": [
      {
        "electoralDistricts": [
          {
            "election": null,
            "id": 53,
            "name": "London—Fanshawe"
          }
        ],
        "pollDivisionIds": [
          10139559
        ],
        "postalCode": "N5V2B8",
        "streetName": "SECOND",
        "streetDirectionId": null,
        "streetTypeId": "ST",
        "placeName": "LONDON",
        "streetNameDisplayText": "SECOND ST, LONDON"
      }
    ]
  },
  {
    "postal": "N5V0P2",
    "result": []
  },
  {
    "postal": "N5V9M1",
    "result": []
  },
  {
    "postal": "N5V3G0",
    "result": []
  },
  {
    "postal": "N5V9Z2",
    "result": []
  },
  {
    "postal": "N5V2A0",
    "result": []
  },
  {
    "postal": "N5V6Y0",
    "result": []
  },
  {
    "postal": "N5V2Z8",
    "result": [
      {
        "electoralDistricts": [
          {
            "election": null,
            "id": 53,
            "name": "London—Fanshawe"
          }
        ],
        "pollDivisionIds": [
          10139557
        ],
        "postalCode": "N5V2Z8",
        "streetName": "OXFORD",
        "streetDirectionId": "E",
        "streetTypeId": "ST",
        "placeName": "LONDON",
        "streetNameDisplayText": "OXFORD ST E, LONDON"
      }
    ]
  },
  {
    "postal": "N5V7Y3",
    "result": []
  },
  {
    "postal": "N5V6Z5",
    "result": []
  },
  {
    "postal": "N5V6E0",
    "result": []
  },
  {
    "postal": "N5V9B7",
    "result": []
  },
  {
    "postal": "N5V9S5",
    "result": []
  },
  {
    "postal": "N5V3X3",
    "result": [
      {
        "electoralDistricts": [
          {
            "election": null,
            "id": 53,
            "name": "London—Fanshawe"
          }
        ],
        "pollDivisionIds": [
          10139561
        ],
        "postalCode": "N5V3X3",
        "streetName": "SECOND",
        "streetDirectionId": null,
        "streetTypeId": "ST",
        "placeName": "LONDON",
        "streetNameDisplayText": "SECOND ST, LONDON"
      }
    ]
  },
  {
    "postal": "N5V7R5",
    "result": []
  },
  {
    "postal": "N5V2X3",
    "result": [
      {
        "electoralDistricts": [
          {
            "election": null,
            "id": 53,
            "name": "London—Fanshawe"
          }
        ],
        "pollDivisionIds": [
          10139558
        ],
        "postalCode": "N5V2X3",
        "streetName": "TILIPE",
        "streetDirectionId": null,
        "streetTypeId": "RD",
        "placeName": "LONDON",
        "streetNameDisplayText": "TILIPE RD, LONDON"
      }
    ]
  },
  {
    "postal": "N5V8Z9",
    "result": []
  },
  {
    "postal": "N5V0N4",
    "result": []
  },
  {
    "postal": "N5V1K1",
    "result": [
      {
        "electoralDistricts": [
          {
            "election": null,
            "id": 53,
            "name": "London—Fanshawe"
          }
        ],
        "pollDivisionIds": [
          10139563
        ],
        "postalCode": "N5V1K1",
        "streetName": "KIPLING",
        "streetDirectionId": null,
        "streetTypeId": "AVE",
        "placeName": "LONDON",
        "streetNameDisplayText": "KIPLING AVE, LONDON"
      }
    ]
  },
  {
    "postal": "N5V1S3",
    "result": [
      {
        "electoralDistricts": [
          {
            "election": null,
            "id": 53,
            "name": "London—Fanshawe"
          }
        ],
        "pollDivisionIds": [
          10139557
        ],
        "postalCode": "N5V1S3",
        "streetName": "KELLERTON",
        "streetDirectionId": null,
        "streetTypeId": "RD",
        "placeName": "LONDON",
        "streetNameDisplayText": "KELLERTON RD, LONDON"
      }
    ]
  },
  {
    "postal": "N5V6M4",
    "result": []
  },
  {
    "postal": "N5V9A9",
    "result": []
  },
  {
    "postal": "N5V9Z9",
    "result": []
  },
  {
    "postal": "N5V6T4",
    "result": []
  },
  {
    "postal": "N5V0B2",
    "result": [
      {
        "electoralDistricts": [
          {
            "election": null,
            "id": 53,
            "name": "London—Fanshawe"
          }
        ],
        "pollDivisionIds": [
          10139557
        ],
        "postalCode": "N5V0B2",
        "streetName": "ADMIRAL",
        "streetDirectionId": null,
        "streetTypeId": "DR",
        "placeName": "LONDON",
        "streetNameDisplayText": "ADMIRAL DR, LONDON"
      }
    ]
  },
  {
    "postal": "N5V2L9",
    "result": [
      {
        "electoralDistricts": [
          {
            "election": null,
            "id": 53,
            "name": "London—Fanshawe"
          }
        ],
        "pollDivisionIds": [
          10139559
        ],
        "postalCode": "N5V2L9",
        "streetName": "LANGTON",
        "streetDirectionId": null,
        "streetTypeId": "RD",
        "placeName": "LONDON",
        "streetNameDisplayText": "LANGTON RD, LONDON"
      }
    ]
  },
  {
    "postal": "N5V8K9",
    "result": []
  },
  {
    "postal": "N5V2H9",
    "result": [
      {
        "electoralDistricts": [
          {
            "election": null,
            "id": 53,
            "name": "London—Fanshawe"
          }
        ],
        "pollDivisionIds": [
          10139558
        ],
        "postalCode": "N5V2H9",
        "streetName": "IRVING",
        "streetDirectionId": null,
        "streetTypeId": "PL",
        "placeName": "LONDON",
        "streetNameDisplayText": "IRVING PL, LONDON"
      }
    ]
  },
  {
    "postal": "N5V3Z6",
    "result": [
      {
        "electoralDistricts": [
          {
            "election": null,
            "id": 53,
            "name": "London—Fanshawe"
          }
        ],
        "pollDivisionIds": [
          10139563
        ],
        "postalCode": "N5V3Z6",
        "streetName": "BONAVENTURE",
        "streetDirectionId": null,
        "streetTypeId": "DR",
        "placeName": "LONDON",
        "streetNameDisplayText": "BONAVENTURE DR, LONDON"
      }
    ]
  },
  {
    "postal": "N5V3B0",
    "result": []
  },
  {
    "postal": "N5V2H8",
    "result": [
      {
        "electoralDistricts": [
          {
            "election": null,
            "id": 53,
            "name": "London—Fanshawe"
          }
        ],
        "pollDivisionIds": [
          10139559
        ],
        "postalCode": "N5V2H8",
        "streetName": "IRVING",
        "streetDirectionId": null,
        "streetTypeId": "PL",
        "placeName": "LONDON",
        "streetNameDisplayText": "IRVING PL, LONDON"
      }
    ]
  },
  {
    "postal": "N5V3X2",
    "result": [
      {
        "electoralDistricts": [
          {
            "election": null,
            "id": 53,
            "name": "London—Fanshawe"
          }
        ],
        "pollDivisionIds": [
          10139561
        ],
        "postalCode": "N5V3X2",
        "streetName": "SECOND",
        "streetDirectionId": null,
        "streetTypeId": "ST",
        "placeName": "LONDON",
        "streetNameDisplayText": "SECOND ST, LONDON"
      }
    ]
  },
  {
    "postal": "N5V2E9",
    "result": [
      {
        "electoralDistricts": [
          {
            "election": null,
            "id": 53,
            "name": "London—Fanshawe"
          }
        ],
        "pollDivisionIds": [
          10139559
        ],
        "postalCode": "N5V2E9",
        "streetName": "GODFREY",
        "streetDirectionId": null,
        "streetTypeId": "DR",
        "placeName": "LONDON",
        "streetNameDisplayText": "GODFREY DR, LONDON"
      }
    ]
  },
  {
    "postal": "N5V9P6",
    "result": []
  },
  {
    "postal": "N5V9E2",
    "result": []
  },
  {
    "postal": "N5V9H2",
    "result": []
  },
  {
    "postal": "N5V1S8",
    "result": [
      {
        "electoralDistricts": [
          {
            "election": null,
            "id": 53,
            "name": "London—Fanshawe"
          }
        ],
        "pollDivisionIds": [
          10139557
        ],
        "postalCode": "N5V1S8",
        "streetName": "ARVILLA",
        "streetDirectionId": null,
        "streetTypeId": "BLVD",
        "placeName": "LONDON",
        "streetNameDisplayText": "ARVILLA BLVD, LONDON"
      }
    ]
  },
  {
    "postal": "N5V3M6",
    "result": []
  },
  {
    "postal": "N5V6Z8",
    "result": []
  },
  {
    "postal": "N5V4J2",
    "result": [
      {
        "electoralDistricts": [
          {
            "election": null,
            "id": 53,
            "name": "London—Fanshawe"
          }
        ],
        "pollDivisionIds": [
          10139557
        ],
        "postalCode": "N5V4J2",
        "streetName": "MOUNTBATTEN",
        "streetDirectionId": null,
        "streetTypeId": "PL",
        "placeName": "LONDON",
        "streetNameDisplayText": "MOUNTBATTEN PL, LONDON"
      }
    ]
  },
  {
    "postal": "N5V9Y1",
    "result": []
  },
  {
    "postal": "N5V8V6",
    "result": []
  },
  {
    "postal": "N5V6B2",
    "result": []
  },
  {
    "postal": "N5V1P8",
    "result": []
  },
  {
    "postal": "N5V0V8",
    "result": []
  },
  {
    "postal": "N5V4Y0",
    "result": []
  },
  {
    "postal": "N5V2T4",
    "result": [
      {
        "electoralDistricts": [
          {
            "election": null,
            "id": 53,
            "name": "London—Fanshawe"
          }
        ],
        "pollDivisionIds": [
          10139558
        ],
        "postalCode": "N5V2T4",
        "streetName": "CHIPPEWA",
        "streetDirectionId": null,
        "streetTypeId": "DR",
        "placeName": "LONDON",
        "streetNameDisplayText": "CHIPPEWA DR, LONDON"
      }
    ]
  },
  {
    "postal": "N5V2S3",
    "result": [
      {
        "electoralDistricts": [
          {
            "election": null,
            "id": 53,
            "name": "London—Fanshawe"
          }
        ],
        "pollDivisionIds": [
          10139558
        ],
        "postalCode": "N5V2S3",
        "streetName": "OAKVILLE",
        "streetDirectionId": null,
        "streetTypeId": "AVE",
        "placeName": "LONDON",
        "streetNameDisplayText": "OAKVILLE AVE, LONDON"
      }
    ]
  },
  {
    "postal": "N5V0K0",
    "result": []
  },
  {
    "postal": "N5V5N1",
    "result": []
  },
  {
    "postal": "N5V7T0",
    "result": []
  },
  {
    "postal": "N5V9N2",
    "result": []
  },
  {
    "postal": "N5V5L1",
    "result": []
  },
  {
    "postal": "N5V7G5",
    "result": []
  },
  {
    "postal": "N5V6K2",
    "result": []
  },
  {
    "postal": "N5V6P9",
    "result": []
  },
  {
    "postal": "N5V0E6",
    "result": []
  },
  {
    "postal": "N5V8R9",
    "result": []
  },
  {
    "postal": "N5V3G9",
    "result": [
      {
        "electoralDistricts": [
          {
            "election": null,
            "id": 53,
            "name": "London—Fanshawe"
          }
        ],
        "pollDivisionIds": [
          10139560
        ],
        "postalCode": "N5V3G9",
        "streetName": "CULVER",
        "streetDirectionId": null,
        "streetTypeId": "DR",
        "placeName": "LONDON",
        "streetNameDisplayText": "CULVER DR, LONDON"
      }
    ]
  },
  {
    "postal": "N5V0V7",
    "result": []
  },
  {
    "postal": "N5V2Z1",
    "result": []
  },
  {
    "postal": "N5V7N1",
    "result": []
  },
  {
    "postal": "N5V3C6",
    "result": [
      {
        "electoralDistricts": [
          {
            "election": null,
            "id": 53,
            "name": "London—Fanshawe"
          }
        ],
        "pollDivisionIds": [
          10139561
        ],
        "postalCode": "N5V3C6",
        "streetName": "FIRST",
        "streetDirectionId": null,
        "streetTypeId": "ST",
        "placeName": "LONDON",
        "streetNameDisplayText": "FIRST ST, LONDON"
      }
    ]
  },
  {
    "postal": "N5V4M1",
    "result": [
      {
        "electoralDistricts": [
          {
            "election": null,
            "id": 53,
            "name": "London—Fanshawe"
          }
        ],
        "pollDivisionIds": [
          10139557
        ],
        "postalCode": "N5V4M1",
        "streetName": "BONAVENTURE",
        "streetDirectionId": null,
        "streetTypeId": "DR",
        "placeName": "LONDON",
        "streetNameDisplayText": "BONAVENTURE DR, LONDON"
      }
    ]
  },
  {
    "postal": "N5V9K2",
    "result": []
  },
  {
    "postal": "N5V9S6",
    "result": []
  },
  {
    "postal": "N5V4X1",
    "result": [
      {
        "electoralDistricts": [
          {
            "election": null,
            "id": 53,
            "name": "London—Fanshawe"
          }
        ],
        "pollDivisionIds": [
          10139565
        ],
        "postalCode": "N5V4X1",
        "streetName": "JULIA",
        "streetDirectionId": null,
        "streetTypeId": "CRT",
        "placeName": "LONDON",
        "streetNameDisplayText": "JULIA CRT, LONDON"
      }
    ]
  },
  {
    "postal": "N5V8W2",
    "result": []
  },
  {
    "postal": "N5V7N2",
    "result": []
  },
  {
    "postal": "N5V8S3",
    "result": []
  },
  {
    "postal": "N5V4V0",
    "result": []
  },
  {
    "postal": "N5V6W4",
    "result": []
  },
  {
    "postal": "N5V5M1",
    "result": []
  },
  {
    "postal": "N5V0S4",
    "result": []
  },
  {
    "postal": "N5V5X6",
    "result": []
  },
  {
    "postal": "N5V8L5",
    "result": []
  },
  {
    "postal": "N5V5M8",
    "result": []
  },
  {
    "postal": "N5V2G3",
    "result": [
      {
        "electoralDistricts": [
          {
            "election": null,
            "id": 53,
            "name": "London—Fanshawe"
          }
        ],
        "pollDivisionIds": [
          10139559
        ],
        "postalCode": "N5V2G3",
        "streetName": "SUSAN",
        "streetDirectionId": null,
        "streetTypeId": "AVE",
        "placeName": "LONDON",
        "streetNameDisplayText": "SUSAN AVE, LONDON"
      }
    ]
  },
  {
    "postal": "N5V8E4",
    "result": []
  },
  {
    "postal": "N5V7S9",
    "result": []
  },
  {
    "postal": "N5V1K3",
    "result": [
      {
        "electoralDistricts": [
          {
            "election": null,
            "id": 53,
            "name": "London—Fanshawe"
          }
        ],
        "pollDivisionIds": [
          10139563
        ],
        "postalCode": "N5V1K3",
        "streetName": "KIPLING",
        "streetDirectionId": null,
        "streetTypeId": "AVE",
        "placeName": "LONDON",
        "streetNameDisplayText": "KIPLING AVE, LONDON"
      }
    ]
  },
  {
    "postal": "N5V4E1",
    "result": [
      {
        "electoralDistricts": [
          {
            "election": null,
            "id": 53,
            "name": "London—Fanshawe"
          }
        ],
        "pollDivisionIds": [
          10139557
        ],
        "postalCode": "N5V4E1",
        "streetName": "CRUMLIN SIDEROAD",
        "streetDirectionId": null,
        "streetTypeId": null,
        "placeName": "LONDON",
        "streetNameDisplayText": "CRUMLIN SIDEROAD, LONDON"
      },
      {
        "electoralDistricts": [
          {
            "election": null,
            "id": 53,
            "name": "London—Fanshawe"
          }
        ],
        "pollDivisionIds": [
          10139565
        ],
        "postalCode": "N5V4E1",
        "streetName": "PORTSMOUTH",
        "streetDirectionId": "E",
        "streetTypeId": "CRES",
        "placeName": "LONDON",
        "streetNameDisplayText": "PORTSMOUTH CRES E, LONDON"
      },
      {
        "electoralDistricts": [
          {
            "election": null,
            "id": 53,
            "name": "London—Fanshawe"
          }
        ],
        "pollDivisionIds": [
          10139565
        ],
        "postalCode": "N5V4E1",
        "streetName": "RAILTON",
        "streetDirectionId": null,
        "streetTypeId": "AVE",
        "placeName": "LONDON",
        "streetNameDisplayText": "RAILTON AVE, LONDON"
      }
    ]
  },
  {
    "postal": "N5V4R2",
    "result": [
      {
        "electoralDistricts": [
          {
            "election": null,
            "id": 53,
            "name": "London—Fanshawe"
          }
        ],
        "pollDivisionIds": [
          10139558
        ],
        "postalCode": "N5V4R2",
        "streetName": "CHIPPEWA",
        "streetDirectionId": null,
        "streetTypeId": "DR",
        "placeName": "LONDON",
        "streetNameDisplayText": "CHIPPEWA DR, LONDON"
      }
    ]
  },
  {
    "postal": "N5V6T0",
    "result": []
  },
  {
    "postal": "N5V3K5",
    "result": [
      {
        "electoralDistricts": [
          {
            "election": null,
            "id": 53,
            "name": "London—Fanshawe"
          }
        ],
        "pollDivisionIds": [
          10139557
        ],
        "postalCode": "N5V3K5",
        "streetName": "CLARKE",
        "streetDirectionId": null,
        "streetTypeId": "RD",
        "placeName": "LONDON",
        "streetNameDisplayText": "CLARKE RD, LONDON"
      }
    ]
  },
  {
    "postal": "N5V3S3",
    "result": [
      {
        "electoralDistricts": [
          {
            "election": null,
            "id": 53,
            "name": "London—Fanshawe"
          }
        ],
        "pollDivisionIds": [
          10139559
        ],
        "postalCode": "N5V3S3",
        "streetName": "SECOND",
        "streetDirectionId": null,
        "streetTypeId": "ST",
        "placeName": "LONDON",
        "streetNameDisplayText": "SECOND ST, LONDON"
      }
    ]
  },
  {
    "postal": "N5V3L4",
    "result": [
      {
        "electoralDistricts": [
          {
            "election": null,
            "id": 53,
            "name": "London—Fanshawe"
          }
        ],
        "pollDivisionIds": [
          10139557
        ],
        "postalCode": "N5V3L4",
        "streetName": "CAMELOT",
        "streetDirectionId": null,
        "streetTypeId": "CRES",
        "placeName": "LONDON",
        "streetNameDisplayText": "CAMELOT CRES, LONDON"
      }
    ]
  },
  {
    "postal": "N5V9Y2",
    "result": []
  },
  {
    "postal": "N5V1E0",
    "result": []
  },
  {
    "postal": "N5V9A4",
    "result": []
  },
  {
    "postal": "N5V1L3",
    "result": [
      {
        "electoralDistricts": [
          {
            "election": null,
            "id": 53,
            "name": "London—Fanshawe"
          }
        ],
        "pollDivisionIds": [
          10139563
        ],
        "postalCode": "N5V1L3",
        "streetName": "JENA",
        "streetDirectionId": null,
        "streetTypeId": "CRES",
        "placeName": "LONDON",
        "streetNameDisplayText": "JENA CRES, LONDON"
      }
    ]
  },
  {
    "postal": "N5V6N1",
    "result": []
  },
  {
    "postal": "N5V6G7",
    "result": []
  },
  {
    "postal": "N5V7W1",
    "result": []
  },
  {
    "postal": "N5V4M6",
    "result": [
      {
        "electoralDistricts": [
          {
            "election": null,
            "id": 53,
            "name": "London—Fanshawe"
          }
        ],
        "pollDivisionIds": [
          10139558
        ],
        "postalCode": "N5V4M6",
        "streetName": "BELLROCK",
        "streetDirectionId": null,
        "streetTypeId": "CRES",
        "placeName": "LONDON",
        "streetNameDisplayText": "BELLROCK CRES, LONDON"
      },
      {
        "electoralDistricts": [
          {
            "election": null,
            "id": 53,
            "name": "London—Fanshawe"
          }
        ],
        "pollDivisionIds": [
          10139558
        ],
        "postalCode": "N5V4M6",
        "streetName": "STONEHENGE",
        "streetDirectionId": null,
        "streetTypeId": "CRT",
        "placeName": "LONDON",
        "streetNameDisplayText": "STONEHENGE CRT, LONDON"
      },
      {
        "electoralDistricts": [
          {
            "election": null,
            "id": 53,
            "name": "London—Fanshawe"
          }
        ],
        "pollDivisionIds": [
          10139558
        ],
        "postalCode": "N5V4M6",
        "streetName": "STONEHENGE",
        "streetDirectionId": null,
        "streetTypeId": "RD",
        "placeName": "LONDON",
        "streetNameDisplayText": "STONEHENGE RD, LONDON"
      }
    ]
  },
  {
    "postal": "N5V1K0",
    "result": []
  },
  {
    "postal": "N5V3E2",
    "result": [
      {
        "electoralDistricts": [
          {
            "election": null,
            "id": 53,
            "name": "London—Fanshawe"
          }
        ],
        "pollDivisionIds": [
          10139557
        ],
        "postalCode": "N5V3E2",
        "streetName": "KOSTIS",
        "streetDirectionId": null,
        "streetTypeId": "AVE",
        "placeName": "LONDON",
        "streetNameDisplayText": "KOSTIS AVE, LONDON"
      }
    ]
  },
  {
    "postal": "N5V5H4",
    "result": [
      {
        "electoralDistricts": [
          {
            "election": null,
            "id": 53,
            "name": "London—Fanshawe"
          }
        ],
        "pollDivisionIds": [
          10139557
        ],
        "postalCode": "N5V5H4",
        "streetName": "SOVEREIGN",
        "streetDirectionId": null,
        "streetTypeId": "RD",
        "placeName": "LONDON",
        "streetNameDisplayText": "SOVEREIGN RD, LONDON"
      }
    ]
  },
  {
    "postal": "N5V1K7",
    "result": [
      {
        "electoralDistricts": [
          {
            "election": null,
            "id": 53,
            "name": "London—Fanshawe"
          }
        ],
        "pollDivisionIds": [
          10139563
        ],
        "postalCode": "N5V1K7",
        "streetName": "TALAVERA",
        "streetDirectionId": null,
        "streetTypeId": "CRES",
        "placeName": "LONDON",
        "streetNameDisplayText": "TALAVERA CRES, LONDON"
      }
    ]
  },
  {
    "postal": "N5V0H0",
    "result": []
  },
  {
    "postal": "N5V0J3",
    "result": []
  },
  {
    "postal": "N5V1X6",
    "result": [
      {
        "electoralDistricts": [
          {
            "election": null,
            "id": 54,
            "name": "London North Centre"
          }
        ],
        "pollDivisionIds": [
          10135378
        ],
        "postalCode": "N5V1X6",
        "streetName": "RUSHLAND AVE",
        "streetDirectionId": null,
        "streetTypeId": "AVE",
        "placeName": "LONDON",
        "streetNameDisplayText": "RUSHLAND AVE AVE, LONDON"
      },
      {
        "electoralDistricts": [
          {
            "election": null,
            "id": 53,
            "name": "London—Fanshawe"
          }
        ],
        "pollDivisionIds": [
          10139561
        ],
        "postalCode": "N5V1X6",
        "streetName": "RUSHLAND",
        "streetDirectionId": null,
        "streetTypeId": "AVE",
        "placeName": "LONDON",
        "streetNameDisplayText": "RUSHLAND AVE, LONDON"
      }
    ]
  },
  {
    "postal": "N5V2Z6",
    "result": [
      {
        "electoralDistricts": [
          {
            "election": null,
            "id": 53,
            "name": "London—Fanshawe"
          }
        ],
        "pollDivisionIds": [
          10139559,
          10139560
        ],
        "postalCode": "N5V2Z6",
        "streetName": "OXFORD",
        "streetDirectionId": "E",
        "streetTypeId": "ST",
        "placeName": "LONDON",
        "streetNameDisplayText": "OXFORD ST E, LONDON"
      }
    ]
  },
  {
    "postal": "N5V4R9",
    "result": [
      {
        "electoralDistricts": [
          {
            "election": null,
            "id": 53,
            "name": "London—Fanshawe"
          }
        ],
        "pollDivisionIds": [
          10139565
        ],
        "postalCode": "N5V4R9",
        "streetName": "RAILTON",
        "streetDirectionId": null,
        "streetTypeId": "AVE",
        "placeName": "LONDON",
        "streetNameDisplayText": "RAILTON AVE, LONDON"
      }
    ]
  },
  {
    "postal": "N5V0W8",
    "result": []
  },
  {
    "postal": "N5V1L4",
    "result": [
      {
        "electoralDistricts": [
          {
            "election": null,
            "id": 53,
            "name": "London—Fanshawe"
          }
        ],
        "pollDivisionIds": [
          10139563
        ],
        "postalCode": "N5V1L4",
        "streetName": "JENA",
        "streetDirectionId": null,
        "streetTypeId": "CRES",
        "placeName": "LONDON",
        "streetNameDisplayText": "JENA CRES, LONDON"
      }
    ]
  },
  {
    "postal": "N5V0C8",
    "result": []
  },
  {
    "postal": "N5V9X7",
    "result": []
  },
  {
    "postal": "N5V4T1",
    "result": [
      {
        "electoralDistricts": [
          {
            "election": null,
            "id": 53,
            "name": "London—Fanshawe"
          }
        ],
        "pollDivisionIds": [
          10139565
        ],
        "postalCode": "N5V4T1",
        "streetName": "BOURNEMOUTH",
        "streetDirectionId": null,
        "streetTypeId": "DR",
        "placeName": "LONDON",
        "streetNameDisplayText": "BOURNEMOUTH DR, LONDON"
      }
    ]
  },
  {
    "postal": "N5V0M0",
    "result": []
  },
  {
    "postal": "N5V6A2",
    "result": []
  },
  {
    "postal": "N5V9S8",
    "result": []
  },
  {
    "postal": "N5V9T4",
    "result": []
  },
  {
    "postal": "N5V9Y4",
    "result": []
  },
  {
    "postal": "N5V6G5",
    "result": []
  },
  {
    "postal": "N5V6H9",
    "result": []
  },
  {
    "postal": "N5V2P3",
    "result": [
      {
        "electoralDistricts": [
          {
            "election": null,
            "id": 53,
            "name": "London—Fanshawe"
          }
        ],
        "pollDivisionIds": [
          10139559
        ],
        "postalCode": "N5V2P3",
        "streetName": "NAIRN",
        "streetDirectionId": null,
        "streetTypeId": "AVE",
        "placeName": "LONDON",
        "streetNameDisplayText": "NAIRN AVE, LONDON"
      }
    ]
  },
  {
    "postal": "N5V1T6",
    "result": [
      {
        "electoralDistricts": [
          {
            "election": null,
            "id": 53,
            "name": "London—Fanshawe"
          }
        ],
        "pollDivisionIds": [
          10139557
        ],
        "postalCode": "N5V1T6",
        "streetName": "INDUSTRIAL",
        "streetDirectionId": null,
        "streetTypeId": "RD",
        "placeName": "LONDON",
        "streetNameDisplayText": "INDUSTRIAL RD, LONDON"
      }
    ]
  },
  {
    "postal": "N5V4P6",
    "result": [
      {
        "electoralDistricts": [
          {
            "election": null,
            "id": 53,
            "name": "London—Fanshawe"
          }
        ],
        "pollDivisionIds": [
          10139557
        ],
        "postalCode": "N5V4P6",
        "streetName": "PAGE",
        "streetDirectionId": null,
        "streetTypeId": "ST",
        "placeName": "LONDON",
        "streetNameDisplayText": "PAGE ST, LONDON"
      }
    ]
  },
  {
    "postal": "N5V3K1",
    "result": [
      {
        "electoralDistricts": [
          {
            "election": null,
            "id": 53,
            "name": "London—Fanshawe"
          }
        ],
        "pollDivisionIds": [
          10139560
        ],
        "postalCode": "N5V3K1",
        "streetName": "CULVER",
        "streetDirectionId": null,
        "streetTypeId": "DR",
        "placeName": "LONDON",
        "streetNameDisplayText": "CULVER DR, LONDON"
      }
    ]
  },
  {
    "postal": "N5V6X4",
    "result": []
  },
  {
    "postal": "N5V4M8",
    "result": [
      {
        "electoralDistricts": [
          {
            "election": null,
            "id": 53,
            "name": "London—Fanshawe"
          }
        ],
        "pollDivisionIds": [
          10139557
        ],
        "postalCode": "N5V4M8",
        "streetName": "WAVELL",
        "streetDirectionId": null,
        "streetTypeId": "ST",
        "placeName": "LONDON",
        "streetNameDisplayText": "WAVELL ST, LONDON"
      }
    ]
  },
  {
    "postal": "N5V2Y1",
    "result": [
      {
        "electoralDistricts": [
          {
            "election": null,
            "id": 53,
            "name": "London—Fanshawe"
          }
        ],
        "pollDivisionIds": [
          10139563
        ],
        "postalCode": "N5V2Y1",
        "streetName": "DICKENS",
        "streetDirectionId": null,
        "streetTypeId": "AVE",
        "placeName": "LONDON",
        "streetNameDisplayText": "DICKENS AVE, LONDON"
      }
    ]
  },
  {
    "postal": "N5V6M1",
    "result": []
  },
  {
    "postal": "N5V5L8",
    "result": []
  },
  {
    "postal": "N5V3P6",
    "result": [
      {
        "electoralDistricts": [
          {
            "election": null,
            "id": 53,
            "name": "London—Fanshawe"
          }
        ],
        "pollDivisionIds": [
          10139557
        ],
        "postalCode": "N5V3P6",
        "streetName": "JETSTREAM",
        "streetDirectionId": null,
        "streetTypeId": "RD",
        "placeName": "LONDON",
        "streetNameDisplayText": "JETSTREAM RD, LONDON"
      }
    ]
  },
  {
    "postal": "N5V9A5",
    "result": []
  },
  {
    "postal": "N5V7K1",
    "result": []
  },
  {
    "postal": "N5V3J4",
    "result": [
      {
        "electoralDistricts": [
          {
            "election": null,
            "id": 53,
            "name": "London—Fanshawe"
          }
        ],
        "pollDivisionIds": [
          10139557
        ],
        "postalCode": "N5V3J4",
        "streetName": "SPEIGHT",
        "streetDirectionId": null,
        "streetTypeId": "BLVD",
        "placeName": "LONDON",
        "streetNameDisplayText": "SPEIGHT BLVD, LONDON"
      }
    ]
  },
  {
    "postal": "N5V5E7",
    "result": [
      {
        "electoralDistricts": [
          {
            "election": null,
            "id": 53,
            "name": "London—Fanshawe"
          }
        ],
        "pollDivisionIds": [
          10139565
        ],
        "postalCode": "N5V5E7",
        "streetName": "FIELDGATE",
        "streetDirectionId": null,
        "streetTypeId": "CIR",
        "placeName": "LONDON",
        "streetNameDisplayText": "FIELDGATE CIR, LONDON"
      },
      {
        "electoralDistricts": [
          {
            "election": null,
            "id": 53,
            "name": "London—Fanshawe"
          }
        ],
        "pollDivisionIds": [
          10139565
        ],
        "postalCode": "N5V5E7",
        "streetName": "MARCONI",
        "streetDirectionId": null,
        "streetTypeId": "BLVD",
        "placeName": "LONDON",
        "streetNameDisplayText": "MARCONI BLVD, LONDON"
      }
    ]
  },
  {
    "postal": "N5V3A7",
    "result": [
      {
        "electoralDistricts": [
          {
            "election": null,
            "id": 53,
            "name": "London—Fanshawe"
          }
        ],
        "pollDivisionIds": [
          10139557
        ],
        "postalCode": "N5V3A7",
        "streetName": "HURON",
        "streetDirectionId": null,
        "streetTypeId": "ST",
        "placeName": "LONDON",
        "streetNameDisplayText": "HURON ST, LONDON"
      }
    ]
  },
  {
    "postal": "N5V1B9",
    "result": [
      {
        "electoralDistricts": [
          {
            "election": null,
            "id": 53,
            "name": "London—Fanshawe"
          }
        ],
        "pollDivisionIds": [
          10139565
        ],
        "postalCode": "N5V1B9",
        "streetName": "BURNSIDE",
        "streetDirectionId": null,
        "streetTypeId": "DR",
        "placeName": "LONDON",
        "streetNameDisplayText": "BURNSIDE DR, LONDON"
      }
    ]
  },
  {
    "postal": "N5V9E8",
    "result": []
  },
  {
    "postal": "N5V1C9",
    "result": [
      {
        "electoralDistricts": [
          {
            "election": null,
            "id": 53,
            "name": "London—Fanshawe"
          }
        ],
        "pollDivisionIds": [
          10139565
        ],
        "postalCode": "N5V1C9",
        "streetName": "BANCROFT",
        "streetDirectionId": null,
        "streetTypeId": "RD",
        "placeName": "LONDON",
        "streetNameDisplayText": "BANCROFT RD, LONDON"
      }
    ]
  },
  {
    "postal": "N5V3B5",
    "result": [
      {
        "electoralDistricts": [
          {
            "election": null,
            "id": 53,
            "name": "London—Fanshawe"
          }
        ],
        "pollDivisionIds": [
          10139557
        ],
        "postalCode": "N5V3B5",
        "streetName": "CLARKE",
        "streetDirectionId": null,
        "streetTypeId": "RD",
        "placeName": "LONDON",
        "streetNameDisplayText": "CLARKE RD, LONDON"
      }
    ]
  },
  {
    "postal": "N5V8R0",
    "result": []
  },
  {
    "postal": "N5V3P2",
    "result": [
      {
        "electoralDistricts": [
          {
            "election": null,
            "id": 53,
            "name": "London—Fanshawe"
          }
        ],
        "pollDivisionIds": [
          10139558
        ],
        "postalCode": "N5V3P2",
        "streetName": "WEBSTER",
        "streetDirectionId": null,
        "streetTypeId": "ST",
        "placeName": "LONDON",
        "streetNameDisplayText": "WEBSTER ST, LONDON"
      }
    ]
  },
  {
    "postal": "N5V5V4",
    "result": []
  },
  {
    "postal": "N5V4H0",
    "result": []
  },
  {
    "postal": "N5V4S7",
    "result": [
      {
        "electoralDistricts": [
          {
            "election": null,
            "id": 53,
            "name": "London—Fanshawe"
          }
        ],
        "pollDivisionIds": [
          10139557
        ],
        "postalCode": "N5V4S7",
        "streetName": "BONAVENTURE",
        "streetDirectionId": null,
        "streetTypeId": "DR",
        "placeName": "LONDON",
        "streetNameDisplayText": "BONAVENTURE DR, LONDON"
      },
      {
        "electoralDistricts": [
          {
            "election": null,
            "id": 53,
            "name": "London—Fanshawe"
          }
        ],
        "pollDivisionIds": [
          10139557
        ],
        "postalCode": "N5V4S7",
        "streetName": "MOREAU",
        "streetDirectionId": null,
        "streetTypeId": "CRES",
        "placeName": "LONDON",
        "streetNameDisplayText": "MOREAU CRES, LONDON"
      }
    ]
  },
  {
    "postal": "N5V6C2",
    "result": []
  },
  {
    "postal": "N5V8W3",
    "result": []
  },
  {
    "postal": "N5V4M5",
    "result": [
      {
        "electoralDistricts": [
          {
            "election": null,
            "id": 53,
            "name": "London—Fanshawe"
          }
        ],
        "pollDivisionIds": [
          10139558
        ],
        "postalCode": "N5V4M5",
        "streetName": "BENTLEY",
        "streetDirectionId": null,
        "streetTypeId": "DR",
        "placeName": "LONDON",
        "streetNameDisplayText": "BENTLEY DR, LONDON"
      },
      {
        "electoralDistricts": [
          {
            "election": null,
            "id": 53,
            "name": "London—Fanshawe"
          }
        ],
        "pollDivisionIds": [
          10139558
        ],
        "postalCode": "N5V4M5",
        "streetName": "STONEHENGE",
        "streetDirectionId": null,
        "streetTypeId": "RD",
        "placeName": "LONDON",
        "streetNameDisplayText": "STONEHENGE RD, LONDON"
      }
    ]
  },
  {
    "postal": "N5V5T1",
    "result": []
  },
  {
    "postal": "N5V3B3",
    "result": [
      {
        "electoralDistricts": [
          {
            "election": null,
            "id": 53,
            "name": "London—Fanshawe"
          }
        ],
        "pollDivisionIds": [
          10139559
        ],
        "postalCode": "N5V3B3",
        "streetName": "CLARKE",
        "streetDirectionId": null,
        "streetTypeId": "RD",
        "placeName": "LONDON",
        "streetNameDisplayText": "CLARKE RD, LONDON"
      }
    ]
  },
  {
    "postal": "N5V6C6",
    "result": []
  },
  {
    "postal": "N5V7N8",
    "result": []
  },
  {
    "postal": "N5V2Y3",
    "result": []
  },
  {
    "postal": "N5V2R6",
    "result": [
      {
        "electoralDistricts": [
          {
            "election": null,
            "id": 53,
            "name": "London—Fanshawe"
          }
        ],
        "pollDivisionIds": [
          10139559
        ],
        "postalCode": "N5V2R6",
        "streetName": "KALADAR",
        "streetDirectionId": null,
        "streetTypeId": "DR",
        "placeName": "LONDON",
        "streetNameDisplayText": "KALADAR DR, LONDON"
      }
    ]
  },
  {
    "postal": "N5V7N3",
    "result": []
  },
  {
    "postal": "N5V8J2",
    "result": []
  },
  {
    "postal": "N5V6A9",
    "result": []
  },
  {
    "postal": "N5V3V2",
    "result": [
      {
        "electoralDistricts": [
          {
            "election": null,
            "id": 53,
            "name": "London—Fanshawe"
          }
        ],
        "pollDivisionIds": [
          10139558
        ],
        "postalCode": "N5V3V2",
        "streetName": "IDYLWOOD",
        "streetDirectionId": null,
        "streetTypeId": "RD",
        "placeName": "LONDON",
        "streetNameDisplayText": "IDYLWOOD RD, LONDON"
      }
    ]
  },
  {
    "postal": "N5V2N3",
    "result": [
      {
        "electoralDistricts": [
          {
            "election": null,
            "id": 53,
            "name": "London—Fanshawe"
          }
        ],
        "pollDivisionIds": [
          10139559
        ],
        "postalCode": "N5V2N3",
        "streetName": "SORREL",
        "streetDirectionId": null,
        "streetTypeId": "RD",
        "placeName": "LONDON",
        "streetNameDisplayText": "SORREL RD, LONDON"
      }
    ]
  },
  {
    "postal": "N5V1S5",
    "result": [
      {
        "electoralDistricts": [
          {
            "election": null,
            "id": 53,
            "name": "London—Fanshawe"
          }
        ],
        "pollDivisionIds": [
          10139557
        ],
        "postalCode": "N5V1S5",
        "streetName": "VAUGHAN",
        "streetDirectionId": null,
        "streetTypeId": "RD",
        "placeName": "LONDON",
        "streetNameDisplayText": "VAUGHAN RD, LONDON"
      }
    ]
  },
  {
    "postal": "N5V4T7",
    "result": [
      {
        "electoralDistricts": [
          {
            "election": null,
            "id": 53,
            "name": "London—Fanshawe"
          }
        ],
        "pollDivisionIds": [
          10139565
        ],
        "postalCode": "N5V4T7",
        "streetName": "GORE",
        "streetDirectionId": null,
        "streetTypeId": "RD",
        "placeName": "LONDON",
        "streetNameDisplayText": "GORE RD, LONDON"
      }
    ]
  },
  {
    "postal": "N5V6Y7",
    "result": []
  },
  {
    "postal": "N5V0W7",
    "result": []
  },
  {
    "postal": "N5V2W9",
    "result": [
      {
        "electoralDistricts": [
          {
            "election": null,
            "id": 53,
            "name": "London—Fanshawe"
          }
        ],
        "pollDivisionIds": [
          10139558
        ],
        "postalCode": "N5V2W9",
        "streetName": "CAYUGA",
        "streetDirectionId": null,
        "streetTypeId": "CRT",
        "placeName": "LONDON",
        "streetNameDisplayText": "CAYUGA CRT, LONDON"
      }
    ]
  },
  {
    "postal": "N5V8V0",
    "result": []
  },
  {
    "postal": "N5V0H4",
    "result": []
  },
  {
    "postal": "N5V2T1",
    "result": [
      {
        "electoralDistricts": [
          {
            "election": null,
            "id": 53,
            "name": "London—Fanshawe"
          }
        ],
        "pollDivisionIds": [
          10139558
        ],
        "postalCode": "N5V2T1",
        "streetName": "PAWNEE",
        "streetDirectionId": null,
        "streetTypeId": "RD",
        "placeName": "LONDON",
        "streetNameDisplayText": "PAWNEE RD, LONDON"
      }
    ]
  },
  {
    "postal": "N5V1B1",
    "result": [
      {
        "electoralDistricts": [
          {
            "election": null,
            "id": 53,
            "name": "London—Fanshawe"
          }
        ],
        "pollDivisionIds": [
          10139565
        ],
        "postalCode": "N5V1B1",
        "streetName": "BOW",
        "streetDirectionId": null,
        "streetTypeId": "ST",
        "placeName": "LONDON",
        "streetNameDisplayText": "BOW ST, LONDON"
      }
    ]
  },
  {
    "postal": "N5V8B6",
    "result": []
  },
  {
    "postal": "N5V6H1",
    "result": []
  },
  {
    "postal": "N5V8T8",
    "result": []
  },
  {
    "postal": "N5V0T4",
    "result": []
  },
  {
    "postal": "N5V2C4",
    "result": [
      {
        "electoralDistricts": [
          {
            "election": null,
            "id": 53,
            "name": "London—Fanshawe"
          }
        ],
        "pollDivisionIds": [
          10139560
        ],
        "postalCode": "N5V2C4",
        "streetName": "PARKHURST",
        "streetDirectionId": null,
        "streetTypeId": "AVE",
        "placeName": "LONDON",
        "streetNameDisplayText": "PARKHURST AVE, LONDON"
      }
    ]
  },
  {
    "postal": "N5V8N3",
    "result": []
  },
  {
    "postal": "N5V4L8",
    "result": [
      {
        "electoralDistricts": [
          {
            "election": null,
            "id": 53,
            "name": "London—Fanshawe"
          }
        ],
        "pollDivisionIds": [
          10139557
        ],
        "postalCode": "N5V4L8",
        "streetName": "OXFORD",
        "streetDirectionId": "E",
        "streetTypeId": "ST",
        "placeName": "LONDON",
        "streetNameDisplayText": "OXFORD ST E, LONDON"
      }
    ]
  },
  {
    "postal": "N5V2B5",
    "result": [
      {
        "electoralDistricts": [
          {
            "election": null,
            "id": 53,
            "name": "London—Fanshawe"
          }
        ],
        "pollDivisionIds": [
          10139561
        ],
        "postalCode": "N5V2B5",
        "streetName": "SECOND",
        "streetDirectionId": null,
        "streetTypeId": "ST",
        "placeName": "LONDON",
        "streetNameDisplayText": "SECOND ST, LONDON"
      }
    ]
  },
  {
    "postal": "N5V3H1",
    "result": [
      {
        "electoralDistricts": [
          {
            "election": null,
            "id": 53,
            "name": "London—Fanshawe"
          }
        ],
        "pollDivisionIds": [
          10139560
        ],
        "postalCode": "N5V3H1",
        "streetName": "CULVER",
        "streetDirectionId": null,
        "streetTypeId": "DR",
        "placeName": "LONDON",
        "streetNameDisplayText": "CULVER DR, LONDON"
      }
    ]
  },
  {
    "postal": "N5V4Y1",
    "result": [
      {
        "electoralDistricts": [
          {
            "election": null,
            "id": 53,
            "name": "London—Fanshawe"
          }
        ],
        "pollDivisionIds": [
          10139565
        ],
        "postalCode": "N5V4Y1",
        "streetName": "MARCONI",
        "streetDirectionId": null,
        "streetTypeId": "BLVD",
        "placeName": "LONDON",
        "streetNameDisplayText": "MARCONI BLVD, LONDON"
      },
      {
        "electoralDistricts": [
          {
            "election": null,
            "id": 53,
            "name": "London—Fanshawe"
          }
        ],
        "pollDivisionIds": [
          10139565
        ],
        "postalCode": "N5V4Y1",
        "streetName": "RAILTON",
        "streetDirectionId": null,
        "streetTypeId": "AVE",
        "placeName": "LONDON",
        "streetNameDisplayText": "RAILTON AVE, LONDON"
      }
    ]
  },
  {
    "postal": "N5V7E2",
    "result": []
  },
  {
    "postal": "N5V2P5",
    "result": [
      {
        "electoralDistricts": [
          {
            "election": null,
            "id": 53,
            "name": "London—Fanshawe"
          }
        ],
        "pollDivisionIds": [
          10139559
        ],
        "postalCode": "N5V2P5",
        "streetName": "NAIRN",
        "streetDirectionId": null,
        "streetTypeId": "AVE",
        "placeName": "LONDON",
        "streetNameDisplayText": "NAIRN AVE, LONDON"
      }
    ]
  },
  {
    "postal": "N5V8R7",
    "result": []
  },
  {
    "postal": "N5V9P1",
    "result": []
  },
  {
    "postal": "N5V3B8",
    "result": [
      {
        "electoralDistricts": [
          {
            "election": null,
            "id": 53,
            "name": "London—Fanshawe"
          }
        ],
        "pollDivisionIds": [
          10139557
        ],
        "postalCode": "N5V3B8",
        "streetName": "CRUMLIN SIDEROAD",
        "streetDirectionId": null,
        "streetTypeId": "SIDERD",
        "placeName": "LONDON",
        "streetNameDisplayText": "CRUMLIN SIDEROAD SIDERD, LONDON"
      }
    ]
  },
  {
    "postal": "N5V3P7",
    "result": [
      {
        "electoralDistricts": [
          {
            "election": null,
            "id": 53,
            "name": "London—Fanshawe"
          }
        ],
        "pollDivisionIds": [
          10139558
        ],
        "postalCode": "N5V3P7",
        "streetName": "WEBSTER",
        "streetDirectionId": null,
        "streetTypeId": "ST",
        "placeName": "LONDON",
        "streetNameDisplayText": "WEBSTER ST, LONDON"
      }
    ]
  },
  {
    "postal": "N5V9B2",
    "result": []
  },
  {
    "postal": "N5V6Z3",
    "result": []
  },
  {
    "postal": "N5V4N5",
    "result": [
      {
        "electoralDistricts": [
          {
            "election": null,
            "id": 53,
            "name": "London—Fanshawe"
          }
        ],
        "pollDivisionIds": [
          10139563
        ],
        "postalCode": "N5V4N5",
        "streetName": "WAVELL",
        "streetDirectionId": null,
        "streetTypeId": "ST",
        "placeName": "LONDON",
        "streetNameDisplayText": "WAVELL ST, LONDON"
      }
    ]
  },
  {
    "postal": "N5V8T3",
    "result": []
  },
  {
    "postal": "N5V1V2",
    "result": [
      {
        "electoralDistricts": [
          {
            "election": null,
            "id": 53,
            "name": "London—Fanshawe"
          }
        ],
        "pollDivisionIds": [
          10139557
        ],
        "postalCode": "N5V1V2",
        "streetName": "INDUSTRIAL",
        "streetDirectionId": null,
        "streetTypeId": "RD",
        "placeName": "LONDON",
        "streetNameDisplayText": "INDUSTRIAL RD, LONDON"
      }
    ]
  },
  {
    "postal": "N5V1Y0",
    "result": []
  },
  {
    "postal": "N5V3G6",
    "result": [
      {
        "electoralDistricts": [
          {
            "election": null,
            "id": 53,
            "name": "London—Fanshawe"
          }
        ],
        "pollDivisionIds": [
          10139560
        ],
        "postalCode": "N5V3G6",
        "streetName": "CULVER",
        "streetDirectionId": null,
        "streetTypeId": "CRES",
        "placeName": "LONDON",
        "streetNameDisplayText": "CULVER CRES, LONDON"
      }
    ]
  },
  {
    "postal": "N5V3H7",
    "result": [
      {
        "electoralDistricts": [
          {
            "election": null,
            "id": 53,
            "name": "London—Fanshawe"
          }
        ],
        "pollDivisionIds": [
          10139557
        ],
        "postalCode": "N5V3H7",
        "streetName": "CARLYLE",
        "streetDirectionId": null,
        "streetTypeId": "DR",
        "placeName": "LONDON",
        "streetNameDisplayText": "CARLYLE DR, LONDON"
      }
    ]
  },
  {
    "postal": "N5V7X8",
    "result": []
  },
  {
    "postal": "N5V0C7",
    "result": []
  },
  {
    "postal": "N5V0W9",
    "result": []
  },
  {
    "postal": "N5V8E6",
    "result": []
  },
  {
    "postal": "N5V9Z8",
    "result": []
  },
  {
    "postal": "N5V3P4",
    "result": [
      {
        "electoralDistricts": [
          {
            "election": null,
            "id": 53,
            "name": "London—Fanshawe"
          }
        ],
        "pollDivisionIds": [
          10139558
        ],
        "postalCode": "N5V3P4",
        "streetName": "WEBSTER",
        "streetDirectionId": null,
        "streetTypeId": "ST",
        "placeName": "LONDON",
        "streetNameDisplayText": "WEBSTER ST, LONDON"
      }
    ]
  },
  {
    "postal": "N5V6L8",
    "result": []
  },
  {
    "postal": "N5V2R4",
    "result": [
      {
        "electoralDistricts": [
          {
            "election": null,
            "id": 53,
            "name": "London—Fanshawe"
          }
        ],
        "pollDivisionIds": [
          10139559
        ],
        "postalCode": "N5V2R4",
        "streetName": "KALADAR",
        "streetDirectionId": null,
        "streetTypeId": "PL",
        "placeName": "LONDON",
        "streetNameDisplayText": "KALADAR PL, LONDON"
      }
    ]
  },
  {
    "postal": "N5V2W1",
    "result": [
      {
        "electoralDistricts": [
          {
            "election": null,
            "id": 53,
            "name": "London—Fanshawe"
          }
        ],
        "pollDivisionIds": [
          10139558
        ],
        "postalCode": "N5V2W1",
        "streetName": "APACHE",
        "streetDirectionId": null,
        "streetTypeId": "RD",
        "placeName": "LONDON",
        "streetNameDisplayText": "APACHE RD, LONDON"
      }
    ]
  },
  {
    "postal": "N5V9H8",
    "result": []
  },
  {
    "postal": "N5V8X9",
    "result": []
  },
  {
    "postal": "N5V7H4",
    "result": []
  },
  {
    "postal": "N5V3J1",
    "result": [
      {
        "electoralDistricts": [
          {
            "election": null,
            "id": 53,
            "name": "London—Fanshawe"
          }
        ],
        "pollDivisionIds": [
          10139557
        ],
        "postalCode": "N5V3J1",
        "streetName": "CARLYLE",
        "streetDirectionId": null,
        "streetTypeId": "DR",
        "placeName": "LONDON",
        "streetNameDisplayText": "CARLYLE DR, LONDON"
      }
    ]
  },
  {
    "postal": "N5V1P4",
    "result": [
      {
        "electoralDistricts": [
          {
            "election": null,
            "id": 53,
            "name": "London—Fanshawe"
          }
        ],
        "pollDivisionIds": [
          10139563
        ],
        "postalCode": "N5V1P4",
        "streetName": "CASTLE",
        "streetDirectionId": null,
        "streetTypeId": "DR",
        "placeName": "LONDON",
        "streetNameDisplayText": "CASTLE DR, LONDON"
      }
    ]
  },
  {
    "postal": "N5V2A3",
    "result": [
      {
        "electoralDistricts": [
          {
            "election": null,
            "id": 53,
            "name": "London—Fanshawe"
          }
        ],
        "pollDivisionIds": [
          10139559
        ],
        "postalCode": "N5V2A3",
        "streetName": "FIRST",
        "streetDirectionId": null,
        "streetTypeId": "ST",
        "placeName": "LONDON",
        "streetNameDisplayText": "FIRST ST, LONDON"
      }
    ]
  },
  {
    "postal": "N5V0Z1",
    "result": []
  },
  {
    "postal": "N5V1C1",
    "result": [
      {
        "electoralDistricts": [
          {
            "election": null,
            "id": 53,
            "name": "London—Fanshawe"
          }
        ],
        "pollDivisionIds": [
          10139565
        ],
        "postalCode": "N5V1C1",
        "streetName": "HOLGATE",
        "streetDirectionId": null,
        "streetTypeId": "RD",
        "placeName": "LONDON",
        "streetNameDisplayText": "HOLGATE RD, LONDON"
      }
    ]
  },
  {
    "postal": "N5V0H3",
    "result": []
  },
  {
    "postal": "N5V7B0",
    "result": []
  },
  {
    "postal": "N5V5K2",
    "result": []
  },
  {
    "postal": "N5V1E9",
    "result": [
      {
        "electoralDistricts": [
          {
            "election": null,
            "id": 53,
            "name": "London—Fanshawe"
          }
        ],
        "pollDivisionIds": [
          10139565
        ],
        "postalCode": "N5V1E9",
        "streetName": "BAFFIN",
        "streetDirectionId": null,
        "streetTypeId": "RD",
        "placeName": "LONDON",
        "streetNameDisplayText": "BAFFIN RD, LONDON"
      }
    ]
  },
  {
    "postal": "N5V9W7",
    "result": []
  },
  {
    "postal": "N5V5W6",
    "result": []
  },
  {
    "postal": "N5V6S6",
    "result": []
  },
  {
    "postal": "N5V2P8",
    "result": [
      {
        "electoralDistricts": [
          {
            "election": null,
            "id": 53,
            "name": "London—Fanshawe"
          }
        ],
        "pollDivisionIds": [
          10139559
        ],
        "postalCode": "N5V2P8",
        "streetName": "PICKWICK",
        "streetDirectionId": null,
        "streetTypeId": "CRES",
        "placeName": "LONDON",
        "streetNameDisplayText": "PICKWICK CRES, LONDON"
      }
    ]
  },
  {
    "postal": "N5V4P8",
    "result": [
      {
        "electoralDistricts": [
          {
            "election": null,
            "id": 53,
            "name": "London—Fanshawe"
          }
        ],
        "pollDivisionIds": [
          10139557
        ],
        "postalCode": "N5V4P8",
        "streetName": "WAVELL",
        "streetDirectionId": null,
        "streetTypeId": "ST",
        "placeName": "LONDON",
        "streetNameDisplayText": "WAVELL ST, LONDON"
      }
    ]
  },
  {
    "postal": "N5V0V9",
    "result": []
  },
  {
    "postal": "N5V5Y2",
    "result": []
  },
  {
    "postal": "N5V7Z7",
    "result": []
  },
  {
    "postal": "N5V6Y8",
    "result": []
  },
  {
    "postal": "N5V2G7",
    "result": [
      {
        "electoralDistricts": [
          {
            "election": null,
            "id": 53,
            "name": "London—Fanshawe"
          }
        ],
        "pollDivisionIds": [
          10139559
        ],
        "postalCode": "N5V2G7",
        "streetName": "MARK",
        "streetDirectionId": null,
        "streetTypeId": "ST",
        "placeName": "LONDON",
        "streetNameDisplayText": "MARK ST, LONDON"
      }
    ]
  },
  {
    "postal": "N5V8C1",
    "result": []
  },
  {
    "postal": "N5V5C5",
    "result": [
      {
        "electoralDistricts": [
          {
            "election": null,
            "id": 53,
            "name": "London—Fanshawe"
          }
        ],
        "pollDivisionIds": [
          10139557
        ],
        "postalCode": "N5V5C5",
        "streetName": "REBECCA",
        "streetDirectionId": null,
        "streetTypeId": "RD",
        "placeName": "LONDON",
        "streetNameDisplayText": "REBECCA RD, LONDON"
      }
    ]
  },
  {
    "postal": "N5V2X8",
    "result": [
      {
        "electoralDistricts": [
          {
            "election": null,
            "id": 53,
            "name": "London—Fanshawe"
          }
        ],
        "pollDivisionIds": [
          10139558
        ],
        "postalCode": "N5V2X8",
        "streetName": "TOUKAY",
        "streetDirectionId": null,
        "streetTypeId": "CRES",
        "placeName": "LONDON",
        "streetNameDisplayText": "TOUKAY CRES, LONDON"
      }
    ]
  },
  {
    "postal": "N5V1W5",
    "result": [
      {
        "electoralDistricts": [
          {
            "election": null,
            "id": 53,
            "name": "London—Fanshawe"
          }
        ],
        "pollDivisionIds": [
          10139559
        ],
        "postalCode": "N5V1W5",
        "streetName": "OXFORD",
        "streetDirectionId": "E",
        "streetTypeId": "ST",
        "placeName": "LONDON",
        "streetNameDisplayText": "OXFORD ST E, LONDON"
      }
    ]
  },
  {
    "postal": "N5V7G0",
    "result": []
  },
  {
    "postal": "N5V8J8",
    "result": []
  },
  {
    "postal": "N5V3Y0",
    "result": []
  },
  {
    "postal": "N5V9T7",
    "result": []
  },
  {
    "postal": "N5V5P4",
    "result": []
  },
  {
    "postal": "N5V4B0",
    "result": []
  },
  {
    "postal": "N5V9N8",
    "result": []
  },
  {
    "postal": "N5V4A7",
    "result": [
      {
        "electoralDistricts": [
          {
            "election": null,
            "id": 53,
            "name": "London—Fanshawe"
          }
        ],
        "pollDivisionIds": [
          10139557
        ],
        "postalCode": "N5V4A7",
        "streetName": "BONAVENTURE",
        "streetDirectionId": null,
        "streetTypeId": "DR",
        "placeName": "LONDON",
        "streetNameDisplayText": "BONAVENTURE DR, LONDON"
      },
      {
        "electoralDistricts": [
          {
            "election": null,
            "id": 53,
            "name": "London—Fanshawe"
          }
        ],
        "pollDivisionIds": [
          10139557
        ],
        "postalCode": "N5V4A7",
        "streetName": "MARTINET",
        "streetDirectionId": null,
        "streetTypeId": "AVE",
        "placeName": "LONDON",
        "streetNameDisplayText": "MARTINET AVE, LONDON"
      }
    ]
  },
  {
    "postal": "N5V4H9",
    "result": [
      {
        "electoralDistricts": [
          {
            "election": null,
            "id": 53,
            "name": "London—Fanshawe"
          }
        ],
        "pollDivisionIds": [
          10139557
        ],
        "postalCode": "N5V4H9",
        "streetName": "ADMIRAL",
        "streetDirectionId": null,
        "streetTypeId": "DR",
        "placeName": "LONDON",
        "streetNameDisplayText": "ADMIRAL DR, LONDON"
      }
    ]
  },
  {
    "postal": "N5V6X1",
    "result": []
  },
  {
    "postal": "N5V9Y7",
    "result": []
  },
  {
    "postal": "N5V2Y5",
    "result": []
  },
  {
    "postal": "N5V8L7",
    "result": []
  },
  {
    "postal": "N5V2A8",
    "result": [
      {
        "electoralDistricts": [
          {
            "election": null,
            "id": 53,
            "name": "London—Fanshawe"
          }
        ],
        "pollDivisionIds": [
          10139559
        ],
        "postalCode": "N5V2A8",
        "streetName": "AYRESWOOD",
        "streetDirectionId": null,
        "streetTypeId": "AVE",
        "placeName": "LONDON",
        "streetNameDisplayText": "AYRESWOOD AVE, LONDON"
      }
    ]
  },
  {
    "postal": "N5V2K9",
    "result": [
      {
        "electoralDistricts": [
          {
            "election": null,
            "id": 53,
            "name": "London—Fanshawe"
          }
        ],
        "pollDivisionIds": [
          10139558
        ],
        "postalCode": "N5V2K9",
        "streetName": "GOLDWICK",
        "streetDirectionId": null,
        "streetTypeId": "CRES",
        "placeName": "LONDON",
        "streetNameDisplayText": "GOLDWICK CRES, LONDON"
      }
    ]
  },
  {
    "postal": "N5V3E5",
    "result": [
      {
        "electoralDistricts": [
          {
            "election": null,
            "id": 53,
            "name": "London—Fanshawe"
          }
        ],
        "pollDivisionIds": [
          10139557
        ],
        "postalCode": "N5V3E5",
        "streetName": "INDUSTRIAL",
        "streetDirectionId": null,
        "streetTypeId": "RD",
        "placeName": "LONDON",
        "streetNameDisplayText": "INDUSTRIAL RD, LONDON"
      }
    ]
  },
  {
    "postal": "N5V8N6",
    "result": []
  },
  {
    "postal": "N5V8J4",
    "result": []
  },
  {
    "postal": "N5V4R7",
    "result": [
      {
        "electoralDistricts": [
          {
            "election": null,
            "id": 53,
            "name": "London—Fanshawe"
          }
        ],
        "pollDivisionIds": [
          10139557
        ],
        "postalCode": "N5V4R7",
        "streetName": "WAVELL",
        "streetDirectionId": null,
        "streetTypeId": "ST",
        "placeName": "LONDON",
        "streetNameDisplayText": "WAVELL ST, LONDON"
      }
    ]
  },
  {
    "postal": "N5V9K1",
    "result": []
  },
  {
    "postal": "N5V8E1",
    "result": []
  },
  {
    "postal": "N5V0R1",
    "result": []
  },
  {
    "postal": "N5V4J3",
    "result": [
      {
        "electoralDistricts": [
          {
            "election": null,
            "id": 53,
            "name": "London—Fanshawe"
          }
        ],
        "pollDivisionIds": [
          10139557
        ],
        "postalCode": "N5V4J3",
        "streetName": "PAGE",
        "streetDirectionId": null,
        "streetTypeId": "ST",
        "placeName": "LONDON",
        "streetNameDisplayText": "PAGE ST, LONDON"
      }
    ]
  },
  {
    "postal": "N5V7E7",
    "result": []
  },
  {
    "postal": "N5V0J0",
    "result": []
  },
  {
    "postal": "N5V7R8",
    "result": []
  },
  {
    "postal": "N5V9X0",
    "result": []
  },
  {
    "postal": "N5V7P6",
    "result": []
  },
  {
    "postal": "N5V0R7",
    "result": []
  },
  {
    "postal": "N5V5W1",
    "result": []
  },
  {
    "postal": "N5V0K4",
    "result": []
  },
  {
    "postal": "N5V7N9",
    "result": []
  },
  {
    "postal": "N5V1N0",
    "result": []
  },
  {
    "postal": "N5V6P3",
    "result": []
  },
  {
    "postal": "N5V5A1",
    "result": []
  },
  {
    "postal": "N5V9M9",
    "result": []
  },
  {
    "postal": "N5V7T6",
    "result": []
  },
  {
    "postal": "N5V3X0",
    "result": []
  },
  {
    "postal": "N5V2T0",
    "result": []
  },
  {
    "postal": "N5V5X9",
    "result": []
  },
  {
    "postal": "N5V2R3",
    "result": [
      {
        "electoralDistricts": [
          {
            "election": null,
            "id": 53,
            "name": "London—Fanshawe"
          }
        ],
        "pollDivisionIds": [
          10139559
        ],
        "postalCode": "N5V2R3",
        "streetName": "KALADAR",
        "streetDirectionId": null,
        "streetTypeId": "PL",
        "placeName": "LONDON",
        "streetNameDisplayText": "KALADAR PL, LONDON"
      }
    ]
  },
  {
    "postal": "N5V5N2",
    "result": []
  },
  {
    "postal": "N5V4Y7",
    "result": [
      {
        "electoralDistricts": [
          {
            "election": null,
            "id": 53,
            "name": "London—Fanshawe"
          }
        ],
        "pollDivisionIds": [
          10139559
        ],
        "postalCode": "N5V4Y7",
        "streetName": "FLEMING",
        "streetDirectionId": null,
        "streetTypeId": "DR",
        "placeName": "LONDON",
        "streetNameDisplayText": "FLEMING DR, LONDON"
      }
    ]
  },
  {
    "postal": "N5V7M0",
    "result": []
  },
  {
    "postal": "N5V8P3",
    "result": []
  },
  {
    "postal": "N5V3N3",
    "result": [
      {
        "electoralDistricts": [
          {
            "election": null,
            "id": 53,
            "name": "London—Fanshawe"
          }
        ],
        "pollDivisionIds": [
          10139557
        ],
        "postalCode": "N5V3N3",
        "streetName": "TIFFANY",
        "streetDirectionId": null,
        "streetTypeId": "DR",
        "placeName": "LONDON",
        "streetNameDisplayText": "TIFFANY DR, LONDON"
      }
    ]
  },
  {
    "postal": "N5V7S3",
    "result": []
  },
  {
    "postal": "N5V3V9",
    "result": [
      {
        "electoralDistricts": [
          {
            "election": null,
            "id": 53,
            "name": "London—Fanshawe"
          }
        ],
        "pollDivisionIds": [
          10139565
        ],
        "postalCode": "N5V3V9",
        "streetName": "SADDY",
        "streetDirectionId": null,
        "streetTypeId": "AVE",
        "placeName": "LONDON",
        "streetNameDisplayText": "SADDY AVE, LONDON"
      },
      {
        "electoralDistricts": [
          {
            "election": null,
            "id": 53,
            "name": "London—Fanshawe"
          }
        ],
        "pollDivisionIds": [
          10139565
        ],
        "postalCode": "N5V3V9",
        "streetName": "SADDY",
        "streetDirectionId": null,
        "streetTypeId": "CRES",
        "placeName": "LONDON",
        "streetNameDisplayText": "SADDY CRES, LONDON"
      }
    ]
  },
  {
    "postal": "N5V9N7",
    "result": []
  },
  {
    "postal": "N5V0G4",
    "result": []
  },
  {
    "postal": "N5V2E2",
    "result": [
      {
        "electoralDistricts": [
          {
            "election": null,
            "id": 53,
            "name": "London—Fanshawe"
          }
        ],
        "pollDivisionIds": [
          10139558
        ],
        "postalCode": "N5V2E2",
        "streetName": "HURON",
        "streetDirectionId": null,
        "streetTypeId": "ST",
        "placeName": "LONDON",
        "streetNameDisplayText": "HURON ST, LONDON"
      }
    ]
  },
  {
    "postal": "N5V7W8",
    "result": []
  },
  {
    "postal": "N5V7M5",
    "result": []
  },
  {
    "postal": "N5V5W8",
    "result": []
  },
  {
    "postal": "N5V5E5",
    "result": [
      {
        "electoralDistricts": [
          {
            "election": null,
            "id": 53,
            "name": "London—Fanshawe"
          }
        ],
        "pollDivisionIds": [
          10139565
        ],
        "postalCode": "N5V5E5",
        "streetName": "TALLTREE",
        "streetDirectionId": null,
        "streetTypeId": "CRES",
        "placeName": "LONDON",
        "streetNameDisplayText": "TALLTREE CRES, LONDON"
      }
    ]
  },
  {
    "postal": "N5V1P9",
    "result": []
  },
  {
    "postal": "N5V8V8",
    "result": []
  },
  {
    "postal": "N5V9G8",
    "result": []
  },
  {
    "postal": "N5V8H9",
    "result": []
  },
  {
    "postal": "N5V1Z1",
    "result": [
      {
        "electoralDistricts": [
          {
            "election": null,
            "id": 53,
            "name": "London—Fanshawe"
          }
        ],
        "pollDivisionIds": [
          10139561
        ],
        "postalCode": "N5V1Z1",
        "streetName": "SPANNER",
        "streetDirectionId": null,
        "streetTypeId": "ST",
        "placeName": "LONDON",
        "streetNameDisplayText": "SPANNER ST, LONDON"
      }
    ]
  },
  {
    "postal": "N5V8M3",
    "result": []
  },
  {
    "postal": "N5V5H6",
    "result": []
  },
  {
    "postal": "N5V7W7",
    "result": []
  },
  {
    "postal": "N5V4L0",
    "result": []
  },
  {
    "postal": "N5V2N1",
    "result": [
      {
        "electoralDistricts": [
          {
            "election": null,
            "id": 53,
            "name": "London—Fanshawe"
          }
        ],
        "pollDivisionIds": [
          10139559
        ],
        "postalCode": "N5V2N1",
        "streetName": "SORREL",
        "streetDirectionId": null,
        "streetTypeId": "RD",
        "placeName": "LONDON",
        "streetNameDisplayText": "SORREL RD, LONDON"
      }
    ]
  },
  {
    "postal": "N5V2H4",
    "result": [
      {
        "electoralDistricts": [
          {
            "election": null,
            "id": 53,
            "name": "London—Fanshawe"
          }
        ],
        "pollDivisionIds": [
          10139558
        ],
        "postalCode": "N5V2H4",
        "streetName": "MICHAEL",
        "streetDirectionId": null,
        "streetTypeId": "ST",
        "placeName": "LONDON",
        "streetNameDisplayText": "MICHAEL ST, LONDON"
      }
    ]
  },
  {
    "postal": "N5V5C8",
    "result": []
  },
  {
    "postal": "N5V8B0",
    "result": []
  },
  {
    "postal": "N5V1T4",
    "result": [
      {
        "electoralDistricts": [
          {
            "election": null,
            "id": 53,
            "name": "London—Fanshawe"
          }
        ],
        "pollDivisionIds": [
          10139557
        ],
        "postalCode": "N5V1T4",
        "streetName": "MOUNTBATTEN",
        "streetDirectionId": null,
        "streetTypeId": "ST",
        "placeName": "LONDON",
        "streetNameDisplayText": "MOUNTBATTEN ST, LONDON"
      }
    ]
  },
  {
    "postal": "N5V7N7",
    "result": []
  },
  {
    "postal": "N5V4L3",
    "result": [
      {
        "electoralDistricts": [
          {
            "election": null,
            "id": 53,
            "name": "London—Fanshawe"
          }
        ],
        "pollDivisionIds": [
          10139557
        ],
        "postalCode": "N5V4L3",
        "streetName": "ADMIRAL",
        "streetDirectionId": null,
        "streetTypeId": "CRT",
        "placeName": "LONDON",
        "streetNameDisplayText": "ADMIRAL CRT, LONDON"
      }
    ]
  },
  {
    "postal": "N5V2N2",
    "result": [
      {
        "electoralDistricts": [
          {
            "election": null,
            "id": 53,
            "name": "London—Fanshawe"
          }
        ],
        "pollDivisionIds": [
          10139559
        ],
        "postalCode": "N5V2N2",
        "streetName": "SORREL",
        "streetDirectionId": null,
        "streetTypeId": "RD",
        "placeName": "LONDON",
        "streetNameDisplayText": "SORREL RD, LONDON"
      }
    ]
  },
  {
    "postal": "N5V4N8",
    "result": [
      {
        "electoralDistricts": [
          {
            "election": null,
            "id": 53,
            "name": "London—Fanshawe"
          }
        ],
        "pollDivisionIds": [
          10139557
        ],
        "postalCode": "N5V4N8",
        "streetName": "INTREPID",
        "streetDirectionId": null,
        "streetTypeId": "CRT",
        "placeName": "LONDON",
        "streetNameDisplayText": "INTREPID CRT, LONDON"
      }
    ]
  },
  {
    "postal": "N5V3M5",
    "result": []
  },
  {
    "postal": "N5V6H7",
    "result": []
  },
  {
    "postal": "N5V8Y8",
    "result": []
  },
  {
    "postal": "N5V5R9",
    "result": []
  },
  {
    "postal": "N5V8G3",
    "result": []
  },
  {
    "postal": "N5V4N7",
    "result": [
      {
        "electoralDistricts": [
          {
            "election": null,
            "id": 53,
            "name": "London—Fanshawe"
          }
        ],
        "pollDivisionIds": [
          10139565
        ],
        "postalCode": "N5V4N7",
        "streetName": "BOW",
        "streetDirectionId": null,
        "streetTypeId": "ST",
        "placeName": "LONDON",
        "streetNameDisplayText": "BOW ST, LONDON"
      }
    ]
  },
  {
    "postal": "N5V0B9",
    "result": []
  },
  {
    "postal": "N5V9K7",
    "result": []
  },
  {
    "postal": "N5V9K9",
    "result": []
  },
  {
    "postal": "N5V3Z2",
    "result": [
      {
        "electoralDistricts": [
          {
            "election": null,
            "id": 53,
            "name": "London—Fanshawe"
          }
        ],
        "pollDivisionIds": [
          10139563
        ],
        "postalCode": "N5V3Z2",
        "streetName": "BONAVENTURE",
        "streetDirectionId": null,
        "streetTypeId": "DR",
        "placeName": "LONDON",
        "streetNameDisplayText": "BONAVENTURE DR, LONDON"
      }
    ]
  },
  {
    "postal": "N5V6W7",
    "result": []
  },
  {
    "postal": "N5V0P1",
    "result": []
  },
  {
    "postal": "N5V3A0",
    "result": []
  },
  {
    "postal": "N5V8L9",
    "result": []
  },
  {
    "postal": "N5V6X0",
    "result": []
  },
  {
    "postal": "N5V3E9",
    "result": [
      {
        "electoralDistricts": [
          {
            "election": null,
            "id": 53,
            "name": "London—Fanshawe"
          }
        ],
        "pollDivisionIds": [
          10139560
        ],
        "postalCode": "N5V3E9",
        "streetName": "CULVER",
        "streetDirectionId": null,
        "streetTypeId": "DR",
        "placeName": "LONDON",
        "streetNameDisplayText": "CULVER DR, LONDON"
      }
    ]
  },
  {
    "postal": "N5V0S5",
    "result": []
  },
  {
    "postal": "N5V1A2",
    "result": [
      {
        "electoralDistricts": [
          {
            "election": null,
            "id": 53,
            "name": "London—Fanshawe"
          }
        ],
        "pollDivisionIds": [
          10139563
        ],
        "postalCode": "N5V1A2",
        "streetName": "TRAFALGAR",
        "streetDirectionId": null,
        "streetTypeId": "ST",
        "placeName": "LONDON",
        "streetNameDisplayText": "TRAFALGAR ST, LONDON"
      }
    ]
  },
  {
    "postal": "N5V5V8",
    "result": []
  },
  {
    "postal": "N5V8C5",
    "result": []
  },
  {
    "postal": "N5V6N0",
    "result": []
  },
  {
    "postal": "N5V9E6",
    "result": []
  },
  {
    "postal": "N5V5J7",
    "result": [
      {
        "electoralDistricts": [
          {
            "election": null,
            "id": 53,
            "name": "London—Fanshawe"
          }
        ],
        "pollDivisionIds": [
          10139559
        ],
        "postalCode": "N5V5J7",
        "streetName": "THIRD",
        "streetDirectionId": null,
        "streetTypeId": "ST",
        "placeName": "LONDON",
        "streetNameDisplayText": "THIRD ST, LONDON"
      }
    ]
  },
  {
    "postal": "N5V2R2",
    "result": [
      {
        "electoralDistricts": [
          {
            "election": null,
            "id": 53,
            "name": "London—Fanshawe"
          }
        ],
        "pollDivisionIds": [
          10139559
        ],
        "postalCode": "N5V2R2",
        "streetName": "WADSWORTH",
        "streetDirectionId": null,
        "streetTypeId": "ST",
        "placeName": "LONDON",
        "streetNameDisplayText": "WADSWORTH ST, LONDON"
      }
    ]
  },
  {
    "postal": "N5V0P5",
    "result": []
  },
  {
    "postal": "N5V5A7",
    "result": [
      {
        "electoralDistricts": [
          {
            "election": null,
            "id": 53,
            "name": "London—Fanshawe"
          }
        ],
        "pollDivisionIds": [
          10139557
        ],
        "postalCode": "N5V5A7",
        "streetName": "HURON",
        "streetDirectionId": null,
        "streetTypeId": "ST",
        "placeName": "LONDON",
        "streetNameDisplayText": "HURON ST, LONDON"
      }
    ]
  },
  {
    "postal": "N5V1G1",
    "result": [
      {
        "electoralDistricts": [
          {
            "election": null,
            "id": 53,
            "name": "London—Fanshawe"
          }
        ],
        "pollDivisionIds": [
          10139565
        ],
        "postalCode": "N5V1G1",
        "streetName": "BAFFIN",
        "streetDirectionId": null,
        "streetTypeId": "RD",
        "placeName": "LONDON",
        "streetNameDisplayText": "BAFFIN RD, LONDON"
      }
    ]
  },
  {
    "postal": "N5V9R6",
    "result": []
  },
  {
    "postal": "N5V4Z9",
    "result": [
      {
        "electoralDistricts": [
          {
            "election": null,
            "id": 53,
            "name": "London—Fanshawe"
          }
        ],
        "pollDivisionIds": [
          10139563
        ],
        "postalCode": "N5V4Z9",
        "streetName": "LEM",
        "streetDirectionId": null,
        "streetTypeId": "GDNS",
        "placeName": "LONDON",
        "streetNameDisplayText": "LEM GDNS, LONDON"
      }
    ]
  },
  {
    "postal": "N5V1V5",
    "result": [
      {
        "electoralDistricts": [
          {
            "election": null,
            "id": 53,
            "name": "London—Fanshawe"
          }
        ],
        "pollDivisionIds": [
          10139563
        ],
        "postalCode": "N5V1V5",
        "streetName": "TRAFALGAR",
        "streetDirectionId": null,
        "streetTypeId": "ST",
        "placeName": "LONDON",
        "streetNameDisplayText": "TRAFALGAR ST, LONDON"
      }
    ]
  },
  {
    "postal": "N5V9Y5",
    "result": []
  },
  {
    "postal": "N5V1P2",
    "result": [
      {
        "electoralDistricts": [
          {
            "election": null,
            "id": 53,
            "name": "London—Fanshawe"
          }
        ],
        "pollDivisionIds": [
          10139563
        ],
        "postalCode": "N5V1P2",
        "streetName": "WAVELL",
        "streetDirectionId": null,
        "streetTypeId": "ST",
        "placeName": "LONDON",
        "streetNameDisplayText": "WAVELL ST, LONDON"
      }
    ]
  },
  {
    "postal": "N5V5X0",
    "result": []
  },
  {
    "postal": "N5V7B8",
    "result": []
  },
  {
    "postal": "N5V0C6",
    "result": []
  },
  {
    "postal": "N5V6G1",
    "result": []
  },
  {
    "postal": "N5V3K3",
    "result": [
      {
        "electoralDistricts": [
          {
            "election": null,
            "id": 53,
            "name": "London—Fanshawe"
          }
        ],
        "pollDivisionIds": [
          10139563
        ],
        "postalCode": "N5V3K3",
        "streetName": "WAVELL",
        "streetDirectionId": null,
        "streetTypeId": "ST",
        "placeName": "LONDON",
        "streetNameDisplayText": "WAVELL ST, LONDON"
      }
    ]
  },
  {
    "postal": "N5V9R0",
    "result": []
  },
  {
    "postal": "N5V4R8",
    "result": [
      {
        "electoralDistricts": [
          {
            "election": null,
            "id": 53,
            "name": "London—Fanshawe"
          }
        ],
        "pollDivisionIds": [
          10139558
        ],
        "postalCode": "N5V4R8",
        "streetName": "JENSEN",
        "streetDirectionId": null,
        "streetTypeId": "RD",
        "placeName": "LONDON",
        "streetNameDisplayText": "JENSEN RD, LONDON"
      }
    ]
  },
  {
    "postal": "N5V5P9",
    "result": []
  },
  {
    "postal": "N5V8N4",
    "result": []
  },
  {
    "postal": "N5V8H4",
    "result": []
  },
  {
    "postal": "N5V4V1",
    "result": [
      {
        "electoralDistricts": [
          {
            "election": null,
            "id": 53,
            "name": "London—Fanshawe"
          }
        ],
        "pollDivisionIds": [
          10139565
        ],
        "postalCode": "N5V4V1",
        "streetName": "EXMOUTH",
        "streetDirectionId": null,
        "streetTypeId": "DR",
        "placeName": "LONDON",
        "streetNameDisplayText": "EXMOUTH DR, LONDON"
      },
      {
        "electoralDistricts": [
          {
            "election": null,
            "id": 53,
            "name": "London—Fanshawe"
          }
        ],
        "pollDivisionIds": [
          10139565
        ],
        "postalCode": "N5V4V1",
        "streetName": "MARCONI",
        "streetDirectionId": null,
        "streetTypeId": "BLVD",
        "placeName": "LONDON",
        "streetNameDisplayText": "MARCONI BLVD, LONDON"
      }
    ]
  },
  {
    "postal": "N5V1K5",
    "result": [
      {
        "electoralDistricts": [
          {
            "election": null,
            "id": 53,
            "name": "London—Fanshawe"
          }
        ],
        "pollDivisionIds": [
          10139563
        ],
        "postalCode": "N5V1K5",
        "streetName": "KIPLING",
        "streetDirectionId": null,
        "streetTypeId": "AVE",
        "placeName": "LONDON",
        "streetNameDisplayText": "KIPLING AVE, LONDON"
      }
    ]
  },
  {
    "postal": "N5V1Z5",
    "result": [
      {
        "electoralDistricts": [
          {
            "election": null,
            "id": 53,
            "name": "London—Fanshawe"
          }
        ],
        "pollDivisionIds": [
          10139561
        ],
        "postalCode": "N5V1Z5",
        "streetName": "FIRST",
        "streetDirectionId": null,
        "streetTypeId": "ST",
        "placeName": "LONDON",
        "streetNameDisplayText": "FIRST ST, LONDON"
      }
    ]
  },
  {
    "postal": "N5V9L9",
    "result": []
  },
  {
    "postal": "N5V5L2",
    "result": []
  },
  {
    "postal": "N5V0M2",
    "result": []
  },
  {
    "postal": "N5V1K8",
    "result": [
      {
        "electoralDistricts": [
          {
            "election": null,
            "id": 53,
            "name": "London—Fanshawe"
          }
        ],
        "pollDivisionIds": [
          10139563
        ],
        "postalCode": "N5V1K8",
        "streetName": "TALAVERA",
        "streetDirectionId": null,
        "streetTypeId": "CRES",
        "placeName": "LONDON",
        "streetNameDisplayText": "TALAVERA CRES, LONDON"
      }
    ]
  },
  {
    "postal": "N5V3M7",
    "result": []
  },
  {
    "postal": "N5V1B2",
    "result": [
      {
        "electoralDistricts": [
          {
            "election": null,
            "id": 53,
            "name": "London—Fanshawe"
          }
        ],
        "pollDivisionIds": [
          10139565
        ],
        "postalCode": "N5V1B2",
        "streetName": "BOW",
        "streetDirectionId": null,
        "streetTypeId": "ST",
        "placeName": "LONDON",
        "streetNameDisplayText": "BOW ST, LONDON"
      }
    ]
  },
  {
    "postal": "N5V0H9",
    "result": []
  },
  {
    "postal": "N5V8M4",
    "result": []
  },
  {
    "postal": "N5V2M5",
    "result": [
      {
        "electoralDistricts": [
          {
            "election": null,
            "id": 53,
            "name": "London—Fanshawe"
          }
        ],
        "pollDivisionIds": [
          10139559
        ],
        "postalCode": "N5V2M5",
        "streetName": "PERTH",
        "streetDirectionId": null,
        "streetTypeId": "AVE",
        "placeName": "LONDON",
        "streetNameDisplayText": "PERTH AVE, LONDON"
      }
    ]
  },
  {
    "postal": "N5V0T9",
    "result": []
  },
  {
    "postal": "N5V3P1",
    "result": [
      {
        "electoralDistricts": [
          {
            "election": null,
            "id": 53,
            "name": "London—Fanshawe"
          }
        ],
        "pollDivisionIds": [
          10139557
        ],
        "postalCode": "N5V3P1",
        "streetName": "DUNDAS",
        "streetDirectionId": "E",
        "streetTypeId": "ST",
        "placeName": "LONDON",
        "streetNameDisplayText": "DUNDAS ST E, LONDON"
      }
    ]
  },
  {
    "postal": "N5V1R6",
    "result": [
      {
        "electoralDistricts": [
          {
            "election": null,
            "id": 53,
            "name": "London—Fanshawe"
          }
        ],
        "pollDivisionIds": [
          10139557
        ],
        "postalCode": "N5V1R6",
        "streetName": "CRUMLIN SDRD",
        "streetDirectionId": null,
        "streetTypeId": "SIDERD",
        "placeName": "LONDON",
        "streetNameDisplayText": "CRUMLIN SDRD SIDERD, LONDON"
      },
      {
        "electoralDistricts": [
          {
            "election": null,
            "id": 53,
            "name": "London—Fanshawe"
          }
        ],
        "pollDivisionIds": [
          10139557
        ],
        "postalCode": "N5V1R6",
        "streetName": "CRUMLIN SIDEROAD",
        "streetDirectionId": null,
        "streetTypeId": "SIDERD",
        "placeName": "LONDON",
        "streetNameDisplayText": "CRUMLIN SIDEROAD SIDERD, LONDON"
      }
    ]
  },
  {
    "postal": "N5V9V5",
    "result": []
  },
  {
    "postal": "N5V9T0",
    "result": []
  },
  {
    "postal": "N5V0A9",
    "result": []
  },
  {
    "postal": "N5V1M3",
    "result": [
      {
        "electoralDistricts": [
          {
            "election": null,
            "id": 53,
            "name": "London—Fanshawe"
          }
        ],
        "pollDivisionIds": [
          10139563
        ],
        "postalCode": "N5V1M3",
        "streetName": "WEXFORD",
        "streetDirectionId": null,
        "streetTypeId": "AVE",
        "placeName": "LONDON",
        "streetNameDisplayText": "WEXFORD AVE, LONDON"
      }
    ]
  },
  {
    "postal": "N5V1W8",
    "result": [
      {
        "electoralDistricts": [
          {
            "election": null,
            "id": 53,
            "name": "London—Fanshawe"
          }
        ],
        "pollDivisionIds": [
          10139559
        ],
        "postalCode": "N5V1W8",
        "streetName": "HOWLAND",
        "streetDirectionId": null,
        "streetTypeId": "AVE",
        "placeName": "LONDON",
        "streetNameDisplayText": "HOWLAND AVE, LONDON"
      }
    ]
  },
  {
    "postal": "N5V9J1",
    "result": []
  },
  {
    "postal": "N5V8N5",
    "result": []
  },
  {
    "postal": "N5V5X1",
    "result": []
  },
  {
    "postal": "N5V6S2",
    "result": []
  },
  {
    "postal": "N5V2A2",
    "result": [
      {
        "electoralDistricts": [
          {
            "election": null,
            "id": 53,
            "name": "London—Fanshawe"
          }
        ],
        "pollDivisionIds": [
          10139559
        ],
        "postalCode": "N5V2A2",
        "streetName": "FIRST",
        "streetDirectionId": null,
        "streetTypeId": "ST",
        "placeName": "LONDON",
        "streetNameDisplayText": "FIRST ST, LONDON"
      }
    ]
  },
  {
    "postal": "N5V6A6",
    "result": []
  },
  {
    "postal": "N5V0S3",
    "result": []
  },
  {
    "postal": "N5V3E7",
    "result": [
      {
        "electoralDistricts": [
          {
            "election": null,
            "id": 53,
            "name": "London—Fanshawe"
          }
        ],
        "pollDivisionIds": [
          10139559
        ],
        "postalCode": "N5V3E7",
        "streetName": "CHEAPSIDE",
        "streetDirectionId": null,
        "streetTypeId": "ST",
        "placeName": "LONDON",
        "streetNameDisplayText": "CHEAPSIDE ST, LONDON"
      }
    ]
  },
  {
    "postal": "N5V5R7",
    "result": []
  },
  {
    "postal": "N5V3R6",
    "result": [
      {
        "electoralDistricts": [
          {
            "election": null,
            "id": 53,
            "name": "London—Fanshawe"
          }
        ],
        "pollDivisionIds": [
          10139559
        ],
        "postalCode": "N5V3R6",
        "streetName": "OXFORD",
        "streetDirectionId": "E",
        "streetTypeId": "ST",
        "placeName": "LONDON",
        "streetNameDisplayText": "OXFORD ST E, LONDON"
      },
      {
        "electoralDistricts": [
          {
            "election": null,
            "id": 55,
            "name": "London West"
          }
        ],
        "pollDivisionIds": [
          10139615
        ],
        "postalCode": "N5V3R6",
        "streetName": "OXFORD",
        "streetDirectionId": "W",
        "streetTypeId": "ST",
        "placeName": "LONDON",
        "streetNameDisplayText": "OXFORD ST W, LONDON"
      }
    ]
  },
  {
    "postal": "N5V6K4",
    "result": []
  },
  {
    "postal": "N5V2W5",
    "result": [
      {
        "electoralDistricts": [
          {
            "election": null,
            "id": 53,
            "name": "London—Fanshawe"
          }
        ],
        "pollDivisionIds": [
          10139558
        ],
        "postalCode": "N5V2W5",
        "streetName": "CAYUGA",
        "streetDirectionId": null,
        "streetTypeId": "CRES",
        "placeName": "LONDON",
        "streetNameDisplayText": "CAYUGA CRES, LONDON"
      }
    ]
  },
  {
    "postal": "N5V8W4",
    "result": []
  },
  {
    "postal": "N5V9C2",
    "result": []
  },
  {
    "postal": "N5V2C0",
    "result": []
  },
  {
    "postal": "N5V0E1",
    "result": []
  },
  {
    "postal": "N5V1K9",
    "result": [
      {
        "electoralDistricts": [
          {
            "election": null,
            "id": 53,
            "name": "London—Fanshawe"
          }
        ],
        "pollDivisionIds": [
          10139563
        ],
        "postalCode": "N5V1K9",
        "streetName": "BUCHAN",
        "streetDirectionId": null,
        "streetTypeId": "RD",
        "placeName": "LONDON",
        "streetNameDisplayText": "BUCHAN RD, LONDON"
      }
    ]
  },
  {
    "postal": "N5V1G7",
    "result": [
      {
        "electoralDistricts": [
          {
            "election": null,
            "id": 53,
            "name": "London—Fanshawe"
          }
        ],
        "pollDivisionIds": [
          10139565
        ],
        "postalCode": "N5V1G7",
        "streetName": "FROBISHER",
        "streetDirectionId": null,
        "streetTypeId": "CRES",
        "placeName": "LONDON",
        "streetNameDisplayText": "FROBISHER CRES, LONDON"
      }
    ]
  },
  {
    "postal": "N5V4E9",
    "result": [
      {
        "electoralDistricts": [
          {
            "election": null,
            "id": 53,
            "name": "London—Fanshawe"
          }
        ],
        "pollDivisionIds": [
          10139558
        ],
        "postalCode": "N5V4E9",
        "streetName": "DUNCAN",
        "streetDirectionId": null,
        "streetTypeId": "CRES",
        "placeName": "LONDON",
        "streetNameDisplayText": "DUNCAN CRES, LONDON"
      },
      {
        "electoralDistricts": [
          {
            "election": null,
            "id": 53,
            "name": "London—Fanshawe"
          }
        ],
        "pollDivisionIds": [
          10139558
        ],
        "postalCode": "N5V4E9",
        "streetName": "DUNCAN",
        "streetDirectionId": null,
        "streetTypeId": "LANE",
        "placeName": "LONDON",
        "streetNameDisplayText": "DUNCAN LANE, LONDON"
      }
    ]
  },
  {
    "postal": "N5V9P0",
    "result": []
  },
  {
    "postal": "N5V5H3",
    "result": [
      {
        "electoralDistricts": [
          {
            "election": null,
            "id": 53,
            "name": "London—Fanshawe"
          }
        ],
        "pollDivisionIds": [
          10139557
        ],
        "postalCode": "N5V5H3",
        "streetName": "PAGE",
        "streetDirectionId": null,
        "streetTypeId": "ST",
        "placeName": "LONDON",
        "streetNameDisplayText": "PAGE ST, LONDON"
      }
    ]
  },
  {
    "postal": "N5V9X6",
    "result": []
  },
  {
    "postal": "N5V5N7",
    "result": []
  },
  {
    "postal": "N5V5A6",
    "result": [
      {
        "electoralDistricts": [
          {
            "election": null,
            "id": 53,
            "name": "London—Fanshawe"
          }
        ],
        "pollDivisionIds": [
          10139557
        ],
        "postalCode": "N5V5A6",
        "streetName": "HURON",
        "streetDirectionId": null,
        "streetTypeId": "ST",
        "placeName": "LONDON",
        "streetNameDisplayText": "HURON ST, LONDON"
      }
    ]
  },
  {
    "postal": "N5V4M0",
    "result": []
  },
  {
    "postal": "N5V3V6",
    "result": [
      {
        "electoralDistricts": [
          {
            "election": null,
            "id": 53,
            "name": "London—Fanshawe"
          }
        ],
        "pollDivisionIds": [
          10139565
        ],
        "postalCode": "N5V3V6",
        "streetName": "SADDY",
        "streetDirectionId": null,
        "streetTypeId": "AVE",
        "placeName": "LONDON",
        "streetNameDisplayText": "SADDY AVE, LONDON"
      }
    ]
  },
  {
    "postal": "N5V1L7",
    "result": [
      {
        "electoralDistricts": [
          {
            "election": null,
            "id": 53,
            "name": "London—Fanshawe"
          }
        ],
        "pollDivisionIds": [
          10139563
        ],
        "postalCode": "N5V1L7",
        "streetName": "WEXFORD",
        "streetDirectionId": null,
        "streetTypeId": "AVE",
        "placeName": "LONDON",
        "streetNameDisplayText": "WEXFORD AVE, LONDON"
      }
    ]
  },
  {
    "postal": "N5V2P9",
    "result": [
      {
        "electoralDistricts": [
          {
            "election": null,
            "id": 53,
            "name": "London—Fanshawe"
          }
        ],
        "pollDivisionIds": [
          10139559
        ],
        "postalCode": "N5V2P9",
        "streetName": "PICKWICK",
        "streetDirectionId": null,
        "streetTypeId": "CRES",
        "placeName": "LONDON",
        "streetNameDisplayText": "PICKWICK CRES, LONDON"
      }
    ]
  },
  {
    "postal": "N5V5T4",
    "result": []
  },
  {
    "postal": "N5V5Z1",
    "result": []
  },
  {
    "postal": "N5V2X0",
    "result": []
  },
  {
    "postal": "N5V6Z2",
    "result": []
  },
  {
    "postal": "N5V0E0",
    "result": []
  },
  {
    "postal": "N5V3Z5",
    "result": [
      {
        "electoralDistricts": [
          {
            "election": null,
            "id": 53,
            "name": "London—Fanshawe"
          }
        ],
        "pollDivisionIds": [
          10139563
        ],
        "postalCode": "N5V3Z5",
        "streetName": "BONAVENTURE",
        "streetDirectionId": null,
        "streetTypeId": "DR",
        "placeName": "LONDON",
        "streetNameDisplayText": "BONAVENTURE DR, LONDON"
      }
    ]
  },
  {
    "postal": "N5V8H3",
    "result": []
  },
  {
    "postal": "N5V7S6",
    "result": []
  },
  {
    "postal": "N5V4C1",
    "result": [
      {
        "electoralDistricts": [
          {
            "election": null,
            "id": 53,
            "name": "London—Fanshawe"
          }
        ],
        "pollDivisionIds": [
          10139560
        ],
        "postalCode": "N5V4C1",
        "streetName": "CLARKE",
        "streetDirectionId": null,
        "streetTypeId": "RD",
        "placeName": "LONDON",
        "streetNameDisplayText": "CLARKE RD, LONDON"
      }
    ]
  },
  {
    "postal": "N5V3K2",
    "result": [
      {
        "electoralDistricts": [
          {
            "election": null,
            "id": 53,
            "name": "London—Fanshawe"
          }
        ],
        "pollDivisionIds": [
          10139557
        ],
        "postalCode": "N5V3K2",
        "streetName": "OSLER",
        "streetDirectionId": null,
        "streetTypeId": "ST",
        "placeName": "LONDON",
        "streetNameDisplayText": "OSLER ST, LONDON"
      }
    ]
  },
  {
    "postal": "N5V1Y5",
    "result": [
      {
        "electoralDistricts": [
          {
            "election": null,
            "id": 53,
            "name": "London—Fanshawe"
          }
        ],
        "pollDivisionIds": [
          10139561
        ],
        "postalCode": "N5V1Y5",
        "streetName": "HANSULD",
        "streetDirectionId": null,
        "streetTypeId": "ST",
        "placeName": "LONDON",
        "streetNameDisplayText": "HANSULD ST, LONDON"
      }
    ]
  },
  {
    "postal": "N5V6P6",
    "result": []
  },
  {
    "postal": "N5V3N9",
    "result": [
      {
        "electoralDistricts": [
          {
            "election": null,
            "id": 53,
            "name": "London—Fanshawe"
          }
        ],
        "pollDivisionIds": [
          10139559
        ],
        "postalCode": "N5V3N9",
        "streetName": "CHEAPSIDE",
        "streetDirectionId": null,
        "streetTypeId": "ST",
        "placeName": "LONDON",
        "streetNameDisplayText": "CHEAPSIDE ST, LONDON"
      }
    ]
  },
  {
    "postal": "N5V3W2",
    "result": [
      {
        "electoralDistricts": [
          {
            "election": null,
            "id": 53,
            "name": "London—Fanshawe"
          }
        ],
        "pollDivisionIds": [
          10139563
        ],
        "postalCode": "N5V3W2",
        "streetName": "SPEIGHT",
        "streetDirectionId": null,
        "streetTypeId": "CRES",
        "placeName": "LONDON",
        "streetNameDisplayText": "SPEIGHT CRES, LONDON"
      }
    ]
  },
  {
    "postal": "N5V6H8",
    "result": []
  },
  {
    "postal": "N5V9T3",
    "result": []
  },
  {
    "postal": "N5V5L9",
    "result": []
  },
  {
    "postal": "N5V7X7",
    "result": []
  },
  {
    "postal": "N5V3J5",
    "result": [
      {
        "electoralDistricts": [
          {
            "election": null,
            "id": 53,
            "name": "London—Fanshawe"
          }
        ],
        "pollDivisionIds": [
          10139557
        ],
        "postalCode": "N5V3J5",
        "streetName": "SPEIGHT",
        "streetDirectionId": null,
        "streetTypeId": "BLVD",
        "placeName": "LONDON",
        "streetNameDisplayText": "SPEIGHT BLVD, LONDON"
      }
    ]
  },
  {
    "postal": "N5V4J5",
    "result": [
      {
        "electoralDistricts": [
          {
            "election": null,
            "id": 53,
            "name": "London—Fanshawe"
          }
        ],
        "pollDivisionIds": [
          10139557
        ],
        "postalCode": "N5V4J5",
        "streetName": "INDUSTRIAL",
        "streetDirectionId": null,
        "streetTypeId": "RD",
        "placeName": "LONDON",
        "streetNameDisplayText": "INDUSTRIAL RD, LONDON"
      }
    ]
  },
  {
    "postal": "N5V6J2",
    "result": []
  },
  {
    "postal": "N5V5V6",
    "result": []
  },
  {
    "postal": "N5V3N2",
    "result": [
      {
        "electoralDistricts": [
          {
            "election": null,
            "id": 53,
            "name": "London—Fanshawe"
          }
        ],
        "pollDivisionIds": [
          10139563
        ],
        "postalCode": "N5V3N2",
        "streetName": "TIFFANY",
        "streetDirectionId": null,
        "streetTypeId": "DR",
        "placeName": "LONDON",
        "streetNameDisplayText": "TIFFANY DR, LONDON"
      }
    ]
  },
  {
    "postal": "N5V3B1",
    "result": [
      {
        "electoralDistricts": [
          {
            "election": null,
            "id": 53,
            "name": "London—Fanshawe"
          }
        ],
        "pollDivisionIds": [
          10139559
        ],
        "postalCode": "N5V3B1",
        "streetName": "CLARKE",
        "streetDirectionId": null,
        "streetTypeId": "RD",
        "placeName": "LONDON",
        "streetNameDisplayText": "CLARKE RD, LONDON"
      }
    ]
  },
  {
    "postal": "N5V8B5",
    "result": []
  },
  {
    "postal": "N5V0K1",
    "result": []
  },
  {
    "postal": "N5V7M7",
    "result": []
  },
  {
    "postal": "N5V2M2",
    "result": [
      {
        "electoralDistricts": [
          {
            "election": null,
            "id": 53,
            "name": "London—Fanshawe"
          }
        ],
        "pollDivisionIds": [
          10139559
        ],
        "postalCode": "N5V2M2",
        "streetName": "MADEIRA",
        "streetDirectionId": null,
        "streetTypeId": "DR",
        "placeName": "LONDON",
        "streetNameDisplayText": "MADEIRA DR, LONDON"
      }
    ]
  },
  {
    "postal": "N5V9N3",
    "result": []
  },
  {
    "postal": "N5V4Y8",
    "result": [
      {
        "electoralDistricts": [
          {
            "election": null,
            "id": 53,
            "name": "London—Fanshawe"
          }
        ],
        "pollDivisionIds": [
          10139559
        ],
        "postalCode": "N5V4Y8",
        "streetName": "FLEMING",
        "streetDirectionId": null,
        "streetTypeId": "DR",
        "placeName": "LONDON",
        "streetNameDisplayText": "FLEMING DR, LONDON"
      }
    ]
  },
  {
    "postal": "N5V3V7",
    "result": [
      {
        "electoralDistricts": [
          {
            "election": null,
            "id": 53,
            "name": "London—Fanshawe"
          }
        ],
        "pollDivisionIds": [
          10139565
        ],
        "postalCode": "N5V3V7",
        "streetName": "SADDY",
        "streetDirectionId": null,
        "streetTypeId": "CRES",
        "placeName": "LONDON",
        "streetNameDisplayText": "SADDY CRES, LONDON"
      }
    ]
  },
  {
    "postal": "N5V8Z1",
    "result": []
  },
  {
    "postal": "N5V7B3",
    "result": []
  },
  {
    "postal": "N5V3A8",
    "result": []
  },
  {
    "postal": "N5V7V5",
    "result": []
  },
  {
    "postal": "N5V2T2",
    "result": [
      {
        "electoralDistricts": [
          {
            "election": null,
            "id": 53,
            "name": "London—Fanshawe"
          }
        ],
        "pollDivisionIds": [
          10139558
        ],
        "postalCode": "N5V2T2",
        "streetName": "PAWNEE",
        "streetDirectionId": null,
        "streetTypeId": "CRES",
        "placeName": "LONDON",
        "streetNameDisplayText": "PAWNEE CRES, LONDON"
      }
    ]
  },
  {
    "postal": "N5V6L3",
    "result": []
  },
  {
    "postal": "N5V0L2",
    "result": []
  },
  {
    "postal": "N5V5Y8",
    "result": []
  },
  {
    "postal": "N5V0B8",
    "result": [
      {
        "electoralDistricts": [
          {
            "election": null,
            "id": 53,
            "name": "London—Fanshawe"
          }
        ],
        "pollDivisionIds": [
          10139558
        ],
        "postalCode": "N5V0B8",
        "streetName": "MICHAEL",
        "streetDirectionId": null,
        "streetTypeId": "CIR",
        "placeName": "LONDON",
        "streetNameDisplayText": "MICHAEL CIR, LONDON"
      }
    ]
  },
  {
    "postal": "N5V6R5",
    "result": []
  },
  {
    "postal": "N5V8W6",
    "result": []
  },
  {
    "postal": "N5V8G6",
    "result": []
  },
  {
    "postal": "N5V6X3",
    "result": []
  },
  {
    "postal": "N5V7R7",
    "result": []
  },
  {
    "postal": "N5V4B6",
    "result": [
      {
        "electoralDistricts": [
          {
            "election": null,
            "id": 53,
            "name": "London—Fanshawe"
          }
        ],
        "pollDivisionIds": [
          10139563
        ],
        "postalCode": "N5V4B6",
        "streetName": "MARTINET",
        "streetDirectionId": null,
        "streetTypeId": "AVE",
        "placeName": "LONDON",
        "streetNameDisplayText": "MARTINET AVE, LONDON"
      }
    ]
  },
  {
    "postal": "N5V3P9",
    "result": [
      {
        "electoralDistricts": [
          {
            "election": null,
            "id": 53,
            "name": "London—Fanshawe"
          }
        ],
        "pollDivisionIds": [
          10139558
        ],
        "postalCode": "N5V3P9",
        "streetName": "WEBSTER",
        "streetDirectionId": null,
        "streetTypeId": "ST",
        "placeName": "LONDON",
        "streetNameDisplayText": "WEBSTER ST, LONDON"
      }
    ]
  },
  {
    "postal": "N5V2T3",
    "result": [
      {
        "electoralDistricts": [
          {
            "election": null,
            "id": 53,
            "name": "London—Fanshawe"
          }
        ],
        "pollDivisionIds": [
          10139558
        ],
        "postalCode": "N5V2T3",
        "streetName": "PAWNEE",
        "streetDirectionId": null,
        "streetTypeId": "CRES",
        "placeName": "LONDON",
        "streetNameDisplayText": "PAWNEE CRES, LONDON"
      }
    ]
  },
  {
    "postal": "N5V1M4",
    "result": [
      {
        "electoralDistricts": [
          {
            "election": null,
            "id": 53,
            "name": "London—Fanshawe"
          }
        ],
        "pollDivisionIds": [
          10139563
        ],
        "postalCode": "N5V1M4",
        "streetName": "WEXFORD",
        "streetDirectionId": null,
        "streetTypeId": "AVE",
        "placeName": "LONDON",
        "streetNameDisplayText": "WEXFORD AVE, LONDON"
      }
    ]
  },
  {
    "postal": "N5V0H1",
    "result": []
  },
  {
    "postal": "N5V9W3",
    "result": []
  },
  {
    "postal": "N5V6P1",
    "result": []
  },
  {
    "postal": "N5V7G2",
    "result": []
  },
  {
    "postal": "N5V4J9",
    "result": [
      {
        "electoralDistricts": [
          {
            "election": null,
            "id": 53,
            "name": "London—Fanshawe"
          }
        ],
        "pollDivisionIds": [
          10139563
        ],
        "postalCode": "N5V4J9",
        "streetName": "TRAFALGAR",
        "streetDirectionId": null,
        "streetTypeId": "ST",
        "placeName": "LONDON",
        "streetNameDisplayText": "TRAFALGAR ST, LONDON"
      }
    ]
  },
  {
    "postal": "N5V9E4",
    "result": []
  },
  {
    "postal": "N5V8H0",
    "result": []
  },
  {
    "postal": "N5V4M7",
    "result": [
      {
        "electoralDistricts": [
          {
            "election": null,
            "id": 53,
            "name": "London—Fanshawe"
          }
        ],
        "pollDivisionIds": [
          10139557
        ],
        "postalCode": "N5V4M7",
        "streetName": "JETSTREAM",
        "streetDirectionId": null,
        "streetTypeId": "RD",
        "placeName": "LONDON",
        "streetNameDisplayText": "JETSTREAM RD, LONDON"
      }
    ]
  },
  {
    "postal": "N5V2G9",
    "result": [
      {
        "electoralDistricts": [
          {
            "election": null,
            "id": 53,
            "name": "London—Fanshawe"
          }
        ],
        "pollDivisionIds": [
          10139558
        ],
        "postalCode": "N5V2G9",
        "streetName": "MARK",
        "streetDirectionId": null,
        "streetTypeId": "ST",
        "placeName": "LONDON",
        "streetNameDisplayText": "MARK ST, LONDON"
      }
    ]
  },
  {
    "postal": "N5V8T2",
    "result": []
  },
  {
    "postal": "N5V7G7",
    "result": []
  },
  {
    "postal": "N5V4Z3",
    "result": []
  },
  {
    "postal": "N5V5B3",
    "result": [
      {
        "electoralDistricts": [
          {
            "election": null,
            "id": 53,
            "name": "London—Fanshawe"
          }
        ],
        "pollDivisionIds": [
          10139557
        ],
        "postalCode": "N5V5B3",
        "streetName": "CREAMERY",
        "streetDirectionId": null,
        "streetTypeId": "RD",
        "placeName": "LONDON",
        "streetNameDisplayText": "CREAMERY RD, LONDON"
      }
    ]
  },
  {
    "postal": "N5V1S7",
    "result": [
      {
        "electoralDistricts": [
          {
            "election": null,
            "id": 53,
            "name": "London—Fanshawe"
          }
        ],
        "pollDivisionIds": [
          10139557
        ],
        "postalCode": "N5V1S7",
        "streetName": "ARVILLA",
        "streetDirectionId": null,
        "streetTypeId": "BLVD",
        "placeName": "LONDON",
        "streetNameDisplayText": "ARVILLA BLVD, LONDON"
      }
    ]
  },
  {
    "postal": "N5V2N7",
    "result": [
      {
        "electoralDistricts": [
          {
            "election": null,
            "id": 53,
            "name": "London—Fanshawe"
          }
        ],
        "pollDivisionIds": [
          10139559
        ],
        "postalCode": "N5V2N7",
        "streetName": "SORREL",
        "streetDirectionId": null,
        "streetTypeId": "RD",
        "placeName": "LONDON",
        "streetNameDisplayText": "SORREL RD, LONDON"
      }
    ]
  },
  {
    "postal": "N5V0H8",
    "result": []
  },
  {
    "postal": "N5V7Z4",
    "result": []
  },
  {
    "postal": "N5V7B1",
    "result": []
  },
  {
    "postal": "N5V7P8",
    "result": []
  },
  {
    "postal": "N5V7N0",
    "result": []
  },
  {
    "postal": "N5V3Y5",
    "result": [
      {
        "electoralDistricts": [
          {
            "election": null,
            "id": 53,
            "name": "London—Fanshawe"
          }
        ],
        "pollDivisionIds": [
          10139565
        ],
        "postalCode": "N5V3Y5",
        "streetName": "MARCONI",
        "streetDirectionId": null,
        "streetTypeId": "BLVD",
        "placeName": "LONDON",
        "streetNameDisplayText": "MARCONI BLVD, LONDON"
      }
    ]
  },
  {
    "postal": "N5V6K1",
    "result": []
  },
  {
    "postal": "N5V9X5",
    "result": []
  },
  {
    "postal": "N5V7S5",
    "result": []
  },
  {
    "postal": "N5V0A4",
    "result": []
  },
  {
    "postal": "N5V4T5",
    "result": [
      {
        "electoralDistricts": [
          {
            "election": null,
            "id": 53,
            "name": "London—Fanshawe"
          }
        ],
        "pollDivisionIds": [
          10139565
        ],
        "postalCode": "N5V4T5",
        "streetName": "MARCONI",
        "streetDirectionId": null,
        "streetTypeId": "BLVD",
        "placeName": "LONDON",
        "streetNameDisplayText": "MARCONI BLVD, LONDON"
      }
    ]
  },
  {
    "postal": "N5V5K1",
    "result": [
      {
        "electoralDistricts": [
          {
            "election": null,
            "id": 53,
            "name": "London—Fanshawe"
          }
        ],
        "pollDivisionIds": [
          10139556
        ],
        "postalCode": "N5V5K1",
        "streetName": "AGATHOS",
        "streetDirectionId": null,
        "streetTypeId": "ST",
        "placeName": "LONDON",
        "streetNameDisplayText": "AGATHOS ST, LONDON"
      },
      {
        "electoralDistricts": [
          {
            "election": null,
            "id": 53,
            "name": "London—Fanshawe"
          }
        ],
        "pollDivisionIds": [
          10139556
        ],
        "postalCode": "N5V5K1",
        "streetName": "BENJAMIN",
        "streetDirectionId": null,
        "streetTypeId": "DR",
        "placeName": "LONDON",
        "streetNameDisplayText": "BENJAMIN DR, LONDON"
      }
    ]
  },
  {
    "postal": "N5V0Z9",
    "result": []
  },
  {
    "postal": "N5V7T2",
    "result": []
  },
  {
    "postal": "N5V1L5",
    "result": [
      {
        "electoralDistricts": [
          {
            "election": null,
            "id": 53,
            "name": "London—Fanshawe"
          }
        ],
        "pollDivisionIds": [
          10139563
        ],
        "postalCode": "N5V1L5",
        "streetName": "WEXFORD",
        "streetDirectionId": null,
        "streetTypeId": "AVE",
        "placeName": "LONDON",
        "streetNameDisplayText": "WEXFORD AVE, LONDON"
      }
    ]
  },
  {
    "postal": "N5V3N5",
    "result": [
      {
        "electoralDistricts": [
          {
            "election": null,
            "id": 53,
            "name": "London—Fanshawe"
          }
        ],
        "pollDivisionIds": [
          10139557
        ],
        "postalCode": "N5V3N5",
        "streetName": "INDUSTRIAL",
        "streetDirectionId": null,
        "streetTypeId": "RD",
        "placeName": "LONDON",
        "streetNameDisplayText": "INDUSTRIAL RD, LONDON"
      }
    ]
  },
  {
    "postal": "N5V6H4",
    "result": []
  },
  {
    "postal": "N5V5A5",
    "result": [
      {
        "electoralDistricts": [
          {
            "election": null,
            "id": 53,
            "name": "London—Fanshawe"
          }
        ],
        "pollDivisionIds": [
          10139557
        ],
        "postalCode": "N5V5A5",
        "streetName": "HURON",
        "streetDirectionId": null,
        "streetTypeId": "ST",
        "placeName": "LONDON",
        "streetNameDisplayText": "HURON ST, LONDON"
      }
    ]
  },
  {
    "postal": "N5V3R9",
    "result": []
  },
  {
    "postal": "N5V7L8",
    "result": []
  },
  {
    "postal": "N5V6T6",
    "result": []
  },
  {
    "postal": "N5V7Y7",
    "result": []
  },
  {
    "postal": "N5V3M8",
    "result": []
  },
  {
    "postal": "N5V2E0",
    "result": []
  },
  {
    "postal": "N5V4B5",
    "result": [
      {
        "electoralDistricts": [
          {
            "election": null,
            "id": 53,
            "name": "London—Fanshawe"
          }
        ],
        "pollDivisionIds": [
          10139563
        ],
        "postalCode": "N5V4B5",
        "streetName": "BONAVENTURE",
        "streetDirectionId": null,
        "streetTypeId": "DR",
        "placeName": "LONDON",
        "streetNameDisplayText": "BONAVENTURE DR, LONDON"
      },
      {
        "electoralDistricts": [
          {
            "election": null,
            "id": 53,
            "name": "London—Fanshawe"
          }
        ],
        "pollDivisionIds": [
          10139563
        ],
        "postalCode": "N5V4B5",
        "streetName": "MARTINET",
        "streetDirectionId": null,
        "streetTypeId": "AVE",
        "placeName": "LONDON",
        "streetNameDisplayText": "MARTINET AVE, LONDON"
      },
      {
        "electoralDistricts": [
          {
            "election": null,
            "id": 53,
            "name": "London—Fanshawe"
          }
        ],
        "pollDivisionIds": [
          10139563
        ],
        "postalCode": "N5V4B5",
        "streetName": "MARTINET",
        "streetDirectionId": null,
        "streetTypeId": "PL",
        "placeName": "LONDON",
        "streetNameDisplayText": "MARTINET PL, LONDON"
      }
    ]
  },
  {
    "postal": "N5V1J3",
    "result": [
      {
        "electoralDistricts": [
          {
            "election": null,
            "id": 53,
            "name": "London—Fanshawe"
          }
        ],
        "pollDivisionIds": [
          10139563
        ],
        "postalCode": "N5V1J3",
        "streetName": "ADMIRAL",
        "streetDirectionId": null,
        "streetTypeId": "DR",
        "placeName": "LONDON",
        "streetNameDisplayText": "ADMIRAL DR, LONDON"
      }
    ]
  },
  {
    "postal": "N5V5S6",
    "result": []
  },
  {
    "postal": "N5V8P7",
    "result": []
  },
  {
    "postal": "N5V7S7",
    "result": []
  },
  {
    "postal": "N5V4C2",
    "result": [
      {
        "electoralDistricts": [
          {
            "election": null,
            "id": 53,
            "name": "London—Fanshawe"
          }
        ],
        "pollDivisionIds": [
          10139558
        ],
        "postalCode": "N5V4C2",
        "streetName": "BASSWOOD",
        "streetDirectionId": null,
        "streetTypeId": "PL",
        "placeName": "LONDON",
        "streetNameDisplayText": "BASSWOOD PL, LONDON"
      },
      {
        "electoralDistricts": [
          {
            "election": null,
            "id": 53,
            "name": "London—Fanshawe"
          }
        ],
        "pollDivisionIds": [
          10139558
        ],
        "postalCode": "N5V4C2",
        "streetName": "BASSWOOD",
        "streetDirectionId": null,
        "streetTypeId": "RD",
        "placeName": "LONDON",
        "streetNameDisplayText": "BASSWOOD RD, LONDON"
      },
      {
        "electoralDistricts": [
          {
            "election": null,
            "id": 53,
            "name": "London—Fanshawe"
          }
        ],
        "pollDivisionIds": [
          10139558
        ],
        "postalCode": "N5V4C2",
        "streetName": "REDWOOD",
        "streetDirectionId": null,
        "streetTypeId": "LANE",
        "placeName": "LONDON",
        "streetNameDisplayText": "REDWOOD LANE, LONDON"
      }
    ]
  },
  {
    "postal": "N5V5Y0",
    "result": []
  },
  {
    "postal": "N5V2V7",
    "result": [
      {
        "electoralDistricts": [
          {
            "election": null,
            "id": 53,
            "name": "London—Fanshawe"
          }
        ],
        "pollDivisionIds": [
          10139558
        ],
        "postalCode": "N5V2V7",
        "streetName": "APACHE",
        "streetDirectionId": null,
        "streetTypeId": "RD",
        "placeName": "LONDON",
        "streetNameDisplayText": "APACHE RD, LONDON"
      }
    ]
  },
  {
    "postal": "N5V8P5",
    "result": []
  },
  {
    "postal": "N5V5P5",
    "result": []
  },
  {
    "postal": "N5V5Z0",
    "result": []
  },
  {
    "postal": "N5V9B0",
    "result": []
  },
  {
    "postal": "N5V1L0",
    "result": []
  },
  {
    "postal": "N5V0B5",
    "result": []
  },
  {
    "postal": "N5V3L2",
    "result": []
  },
  {
    "postal": "N5V3B7",
    "result": []
  },
  {
    "postal": "N5V8L1",
    "result": []
  },
  {
    "postal": "N5V5M4",
    "result": []
  },
  {
    "postal": "N5V4G9",
    "result": [
      {
        "electoralDistricts": [
          {
            "election": null,
            "id": 53,
            "name": "London—Fanshawe"
          }
        ],
        "pollDivisionIds": [
          10139558
        ],
        "postalCode": "N5V4G9",
        "streetName": "CHIPPEWA",
        "streetDirectionId": null,
        "streetTypeId": "DR",
        "placeName": "LONDON",
        "streetNameDisplayText": "CHIPPEWA DR, LONDON"
      }
    ]
  },
  {
    "postal": "N5V0P0",
    "result": []
  },
  {
    "postal": "N5V8G2",
    "result": []
  },
  {
    "postal": "N5V1V9",
    "result": [
      {
        "electoralDistricts": [
          {
            "election": null,
            "id": 53,
            "name": "London—Fanshawe"
          }
        ],
        "pollDivisionIds": [
          10139559
        ],
        "postalCode": "N5V1V9",
        "streetName": "OXFORD",
        "streetDirectionId": "E",
        "streetTypeId": "ST",
        "placeName": "LONDON",
        "streetNameDisplayText": "OXFORD ST E, LONDON"
      }
    ]
  },
  {
    "postal": "N5V8N8",
    "result": []
  },
  {
    "postal": "N5V6S8",
    "result": []
  },
  {
    "postal": "N5V8H2",
    "result": []
  },
  {
    "postal": "N5V5R8",
    "result": []
  },
  {
    "postal": "N5V5L4",
    "result": []
  },
  {
    "postal": "N5V9E1",
    "result": []
  },
  {
    "postal": "N5V1C4",
    "result": [
      {
        "electoralDistricts": [
          {
            "election": null,
            "id": 53,
            "name": "London—Fanshawe"
          }
        ],
        "pollDivisionIds": [
          10139565
        ],
        "postalCode": "N5V1C4",
        "streetName": "TREMONT",
        "streetDirectionId": null,
        "streetTypeId": "RD",
        "placeName": "LONDON",
        "streetNameDisplayText": "TREMONT RD, LONDON"
      }
    ]
  },
  {
    "postal": "N5V8W5",
    "result": []
  },
  {
    "postal": "N5V1Y4",
    "result": [
      {
        "electoralDistricts": [
          {
            "election": null,
            "id": 53,
            "name": "London—Fanshawe"
          }
        ],
        "pollDivisionIds": [
          10139561
        ],
        "postalCode": "N5V1Y4",
        "streetName": "HANSULD",
        "streetDirectionId": null,
        "streetTypeId": "ST",
        "placeName": "LONDON",
        "streetNameDisplayText": "HANSULD ST, LONDON"
      }
    ]
  },
  {
    "postal": "N5V1C0",
    "result": []
  },
  {
    "postal": "N5V2J2",
    "result": [
      {
        "electoralDistricts": [
          {
            "election": null,
            "id": 53,
            "name": "London—Fanshawe"
          }
        ],
        "pollDivisionIds": [
          10139559
        ],
        "postalCode": "N5V2J2",
        "streetName": "PATANN",
        "streetDirectionId": null,
        "streetTypeId": "DR",
        "placeName": "LONDON",
        "streetNameDisplayText": "PATANN DR, LONDON"
      }
    ]
  },
  {
    "postal": "N5V2J0",
    "result": []
  },
  {
    "postal": "N5V7A3",
    "result": []
  },
  {
    "postal": "N5V8M1",
    "result": []
  },
  {
    "postal": "N5V7T9",
    "result": []
  },
  {
    "postal": "N5V6C0",
    "result": []
  },
  {
    "postal": "N5V7X1",
    "result": []
  },
  {
    "postal": "N5V0G1",
    "result": []
  },
  {
    "postal": "N5V4X2",
    "result": [
      {
        "electoralDistricts": [
          {
            "election": null,
            "id": 53,
            "name": "London—Fanshawe"
          }
        ],
        "pollDivisionIds": [
          10139563
        ],
        "postalCode": "N5V4X2",
        "streetName": "MCMANUS",
        "streetDirectionId": null,
        "streetTypeId": "PL",
        "placeName": "LONDON",
        "streetNameDisplayText": "MCMANUS PL, LONDON"
      }
    ]
  },
  {
    "postal": "N5V0N6",
    "result": []
  },
  {
    "postal": "N5V8E3",
    "result": []
  },
  {
    "postal": "N5V5S8",
    "result": []
  },
  {
    "postal": "N5V0R0",
    "result": []
  },
  {
    "postal": "N5V6J6",
    "result": []
  },
  {
    "postal": "N5V4B4",
    "result": [
      {
        "electoralDistricts": [
          {
            "election": null,
            "id": 53,
            "name": "London—Fanshawe"
          }
        ],
        "pollDivisionIds": [
          10139557,
          10139563
        ],
        "postalCode": "N5V4B4",
        "streetName": "BONAVENTURE",
        "streetDirectionId": null,
        "streetTypeId": "DR",
        "placeName": "LONDON",
        "streetNameDisplayText": "BONAVENTURE DR, LONDON"
      },
      {
        "electoralDistricts": [
          {
            "election": null,
            "id": 53,
            "name": "London—Fanshawe"
          }
        ],
        "pollDivisionIds": [
          10139557,
          10139563
        ],
        "postalCode": "N5V4B4",
        "streetName": "NAPOLEON",
        "streetDirectionId": null,
        "streetTypeId": "CRT",
        "placeName": "LONDON",
        "streetNameDisplayText": "NAPOLEON CRT, LONDON"
      },
      {
        "electoralDistricts": [
          {
            "election": null,
            "id": 53,
            "name": "London—Fanshawe"
          }
        ],
        "pollDivisionIds": [
          10139563
        ],
        "postalCode": "N5V4B4",
        "streetName": "NAPOLEON",
        "streetDirectionId": null,
        "streetTypeId": "DR",
        "placeName": "LONDON",
        "streetNameDisplayText": "NAPOLEON DR, LONDON"
      }
    ]
  },
  {
    "postal": "N5V7E3",
    "result": []
  },
  {
    "postal": "N5V3N6",
    "result": [
      {
        "electoralDistricts": [
          {
            "election": null,
            "id": 53,
            "name": "London—Fanshawe"
          }
        ],
        "pollDivisionIds": [
          10139557
        ],
        "postalCode": "N5V3N6",
        "streetName": "PIPER",
        "streetDirectionId": null,
        "streetTypeId": "LANE",
        "placeName": "LONDON",
        "streetNameDisplayText": "PIPER LANE, LONDON"
      }
    ]
  },
  {
    "postal": "N5V3X6",
    "result": [
      {
        "electoralDistricts": [
          {
            "election": null,
            "id": 53,
            "name": "London—Fanshawe"
          }
        ],
        "pollDivisionIds": [
          10139558
        ],
        "postalCode": "N5V3X6",
        "streetName": "SANDFORD",
        "streetDirectionId": null,
        "streetTypeId": "ST",
        "placeName": "LONDON",
        "streetNameDisplayText": "SANDFORD ST, LONDON"
      }
    ]
  },
  {
    "postal": "N5V8L0",
    "result": []
  },
  {
    "postal": "N5V8N1",
    "result": []
  },
  {
    "postal": "N5V4J0",
    "result": []
  },
  {
    "postal": "N5V0X7",
    "result": []
  },
  {
    "postal": "N5V6S4",
    "result": []
  },
  {
    "postal": "N5V0Z0",
    "result": []
  },
  {
    "postal": "N5V9X8",
    "result": []
  },
  {
    "postal": "N5V3H3",
    "result": [
      {
        "electoralDistricts": [
          {
            "election": null,
            "id": 53,
            "name": "London—Fanshawe"
          }
        ],
        "pollDivisionIds": [
          10139560
        ],
        "postalCode": "N5V3H3",
        "streetName": "CULVER",
        "streetDirectionId": null,
        "streetTypeId": "PL",
        "placeName": "LONDON",
        "streetNameDisplayText": "CULVER PL, LONDON"
      }
    ]
  },
  {
    "postal": "N5V7S2",
    "result": []
  },
  {
    "postal": "N5V3T3",
    "result": [
      {
        "electoralDistricts": [
          {
            "election": null,
            "id": 53,
            "name": "London—Fanshawe"
          }
        ],
        "pollDivisionIds": [
          10139558
        ],
        "postalCode": "N5V3T3",
        "streetName": "BASSWOOD",
        "streetDirectionId": null,
        "streetTypeId": "RD",
        "placeName": "LONDON",
        "streetNameDisplayText": "BASSWOOD RD, LONDON"
      }
    ]
  },
  {
    "postal": "N5V9P3",
    "result": []
  },
  {
    "postal": "N5V4H8",
    "result": [
      {
        "electoralDistricts": [
          {
            "election": null,
            "id": 53,
            "name": "London—Fanshawe"
          }
        ],
        "pollDivisionIds": [
          10139557
        ],
        "postalCode": "N5V4H8",
        "streetName": "BONAVENTURE",
        "streetDirectionId": null,
        "streetTypeId": "DR",
        "placeName": "LONDON",
        "streetNameDisplayText": "BONAVENTURE DR, LONDON"
      }
    ]
  },
  {
    "postal": "N5V6R1",
    "result": []
  },
  {
    "postal": "N5V1S0",
    "result": []
  },
  {
    "postal": "N5V3W8",
    "result": [
      {
        "electoralDistricts": [
          {
            "election": null,
            "id": 53,
            "name": "London—Fanshawe"
          }
        ],
        "pollDivisionIds": [
          10139563
        ],
        "postalCode": "N5V3W8",
        "streetName": "SPEIGHT",
        "streetDirectionId": null,
        "streetTypeId": "CRES",
        "placeName": "LONDON",
        "streetNameDisplayText": "SPEIGHT CRES, LONDON"
      }
    ]
  },
  {
    "postal": "N5V4S3",
    "result": [
      {
        "electoralDistricts": [
          {
            "election": null,
            "id": 53,
            "name": "London—Fanshawe"
          }
        ],
        "pollDivisionIds": [
          10139560
        ],
        "postalCode": "N5V4S3",
        "streetName": "SHEPHERD",
        "streetDirectionId": null,
        "streetTypeId": "AVE",
        "placeName": "LONDON",
        "streetNameDisplayText": "SHEPHERD AVE, LONDON"
      }
    ]
  },
  {
    "postal": "N5V1B6",
    "result": [
      {
        "electoralDistricts": [
          {
            "election": null,
            "id": 53,
            "name": "London—Fanshawe"
          }
        ],
        "pollDivisionIds": [
          10139565
        ],
        "postalCode": "N5V1B6",
        "streetName": "BURNSIDE",
        "streetDirectionId": null,
        "streetTypeId": "DR",
        "placeName": "LONDON",
        "streetNameDisplayText": "BURNSIDE DR, LONDON"
      }
    ]
  },
  {
    "postal": "N5V8R3",
    "result": []
  },
  {
    "postal": "N5V4V9",
    "result": [
      {
        "electoralDistricts": [
          {
            "election": null,
            "id": 53,
            "name": "London—Fanshawe"
          }
        ],
        "pollDivisionIds": [
          10139565
        ],
        "postalCode": "N5V4V9",
        "streetName": "DAYBREAK",
        "streetDirectionId": null,
        "streetTypeId": "DR",
        "placeName": "LONDON",
        "streetNameDisplayText": "DAYBREAK DR, LONDON"
      },
      {
        "electoralDistricts": [
          {
            "election": null,
            "id": 53,
            "name": "London—Fanshawe"
          }
        ],
        "pollDivisionIds": [
          10139565
        ],
        "postalCode": "N5V4V9",
        "streetName": "JOLIET",
        "streetDirectionId": null,
        "streetTypeId": "ST",
        "placeName": "LONDON",
        "streetNameDisplayText": "JOLIET ST, LONDON"
      },
      {
        "electoralDistricts": [
          {
            "election": null,
            "id": 53,
            "name": "London—Fanshawe"
          }
        ],
        "pollDivisionIds": [
          10139565
        ],
        "postalCode": "N5V4V9",
        "streetName": "RAILTON",
        "streetDirectionId": null,
        "streetTypeId": "AVE",
        "placeName": "LONDON",
        "streetNameDisplayText": "RAILTON AVE, LONDON"
      }
    ]
  },
  {
    "postal": "N5V9W4",
    "result": []
  },
  {
    "postal": "N5V3T4",
    "result": [
      {
        "electoralDistricts": [
          {
            "election": null,
            "id": 53,
            "name": "London—Fanshawe"
          }
        ],
        "pollDivisionIds": [
          10139558
        ],
        "postalCode": "N5V3T4",
        "streetName": "BASSWOOD",
        "streetDirectionId": null,
        "streetTypeId": "RD",
        "placeName": "LONDON",
        "streetNameDisplayText": "BASSWOOD RD, LONDON"
      },
      {
        "electoralDistricts": [
          {
            "election": null,
            "id": 53,
            "name": "London—Fanshawe"
          }
        ],
        "pollDivisionIds": [
          10139558
        ],
        "postalCode": "N5V3T4",
        "streetName": "SANDFORD",
        "streetDirectionId": null,
        "streetTypeId": "ST",
        "placeName": "LONDON",
        "streetNameDisplayText": "SANDFORD ST, LONDON"
      }
    ]
  },
  {
    "postal": "N5V5C7",
    "result": [
      {
        "electoralDistricts": [
          {
            "election": null,
            "id": 53,
            "name": "London—Fanshawe"
          }
        ],
        "pollDivisionIds": [
          10139559
        ],
        "postalCode": "N5V5C7",
        "streetName": "FLEMING",
        "streetDirectionId": null,
        "streetTypeId": "DR",
        "placeName": "LONDON",
        "streetNameDisplayText": "FLEMING DR, LONDON"
      },
      {
        "electoralDistricts": [
          {
            "election": null,
            "id": 53,
            "name": "London—Fanshawe"
          },
          {
            "election": null,
            "id": 54,
            "name": "London North Centre"
          }
        ],
        "pollDivisionIds": [
          10139559,
          10135379
        ],
        "postalCode": "N5V5C7",
        "streetName": "PROSPERITY",
        "streetDirectionId": null,
        "streetTypeId": "CRT",
        "placeName": "LONDON",
        "streetNameDisplayText": "PROSPERITY CRT, LONDON"
      }
    ]
  },
  {
    "postal": "N5V3Y1",
    "result": [
      {
        "electoralDistricts": [
          {
            "election": null,
            "id": 53,
            "name": "London—Fanshawe"
          }
        ],
        "pollDivisionIds": [
          10139558
        ],
        "postalCode": "N5V3Y1",
        "streetName": "SANDFORD",
        "streetDirectionId": null,
        "streetTypeId": "ST",
        "placeName": "LONDON",
        "streetNameDisplayText": "SANDFORD ST, LONDON"
      }
    ]
  },
  {
    "postal": "N5V5V0",
    "result": []
  },
  {
    "postal": "N5V8G8",
    "result": []
  },
  {
    "postal": "N5V8B1",
    "result": []
  },
  {
    "postal": "N5V4P5",
    "result": [
      {
        "electoralDistricts": [
          {
            "election": null,
            "id": 53,
            "name": "London—Fanshawe"
          }
        ],
        "pollDivisionIds": [
          10139563
        ],
        "postalCode": "N5V4P5",
        "streetName": "MARTINET",
        "streetDirectionId": null,
        "streetTypeId": "AVE",
        "placeName": "LONDON",
        "streetNameDisplayText": "MARTINET AVE, LONDON"
      }
    ]
  },
  {
    "postal": "N5V7B2",
    "result": []
  },
  {
    "postal": "N5V0R2",
    "result": []
  },
  {
    "postal": "N5V4M4",
    "result": [
      {
        "electoralDistricts": [
          {
            "election": null,
            "id": 53,
            "name": "London—Fanshawe"
          }
        ],
        "pollDivisionIds": [
          10139558
        ],
        "postalCode": "N5V4M4",
        "streetName": "BENTLEY",
        "streetDirectionId": null,
        "streetTypeId": "DR",
        "placeName": "LONDON",
        "streetNameDisplayText": "BENTLEY DR, LONDON"
      }
    ]
  },
  {
    "postal": "N5V7M4",
    "result": []
  },
  {
    "postal": "N5V9S7",
    "result": []
  },
  {
    "postal": "N5V5Z7",
    "result": []
  },
  {
    "postal": "N5V7J7",
    "result": []
  },
  {
    "postal": "N5V8R8",
    "result": []
  },
  {
    "postal": "N5V9X1",
    "result": []
  },
  {
    "postal": "N5V5M9",
    "result": []
  },
  {
    "postal": "N5V9B4",
    "result": []
  },
  {
    "postal": "N5V0L9",
    "result": []
  },
  {
    "postal": "N5V9G4",
    "result": []
  },
  {
    "postal": "N5V1J4",
    "result": [
      {
        "electoralDistricts": [
          {
            "election": null,
            "id": 53,
            "name": "London—Fanshawe"
          }
        ],
        "pollDivisionIds": [
          10139563
        ],
        "postalCode": "N5V1J4",
        "streetName": "TOULON",
        "streetDirectionId": null,
        "streetTypeId": "CRES",
        "placeName": "LONDON",
        "streetNameDisplayText": "TOULON CRES, LONDON"
      }
    ]
  },
  {
    "postal": "N5V0W6",
    "result": []
  }
]
