[
  {
    "postal": "M9N9J6",
    "result": []
  },
  {
    "postal": "M9N9Z5",
    "result": []
  },
  {
    "postal": "M9N7H8",
    "result": []
  },
  {
    "postal": "M9N0P6",
    "result": []
  },
  {
    "postal": "M9N0S7",
    "result": []
  },
  {
    "postal": "M9N8B9",
    "result": []
  },
  {
    "postal": "M9N2A6",
    "result": [
      {
        "electoralDistricts": [
          {
            "election": null,
            "id": 122,
            "name": "York South—Weston"
          }
        ],
        "pollDivisionIds": [
          10142950
        ],
        "postalCode": "M9N2A6",
        "streetName": "WESTON",
        "streetDirectionId": null,
        "streetTypeId": "RD",
        "placeName": "NORTH YORK",
        "streetNameDisplayText": "WESTON RD, NORTH YORK"
      }
    ]
  },
  {
    "postal": "M9N7V2",
    "result": []
  },
  {
    "postal": "M9N9P4",
    "result": []
  },
  {
    "postal": "M9N6G0",
    "result": []
  },
  {
    "postal": "M9N2K0",
    "result": []
  },
  {
    "postal": "M9N7N6",
    "result": []
  },
  {
    "postal": "M9N5R3",
    "result": []
  },
  {
    "postal": "M9N7K0",
    "result": []
  },
  {
    "postal": "M9N3R2",
    "result": [
      {
        "electoralDistricts": [
          {
            "election": null,
            "id": 122,
            "name": "York South—Weston"
          }
        ],
        "pollDivisionIds": [
          10142950
        ],
        "postalCode": "M9N3R2",
        "streetName": "WENDELL",
        "streetDirectionId": null,
        "streetTypeId": "AVE",
        "placeName": "NORTH YORK",
        "streetNameDisplayText": "WENDELL AVE, NORTH YORK"
      }
    ]
  },
  {
    "postal": "M9N0J1",
    "result": []
  },
  {
    "postal": "M9N0B0",
    "result": []
  },
  {
    "postal": "M9N5Z2",
    "result": []
  },
  {
    "postal": "M9N7P3",
    "result": []
  },
  {
    "postal": "M9N2K3",
    "result": [
      {
        "electoralDistricts": [
          {
            "election": null,
            "id": 122,
            "name": "York South—Weston"
          }
        ],
        "pollDivisionIds": [
          10142951
        ],
        "postalCode": "M9N2K3",
        "streetName": "LAMONT",
        "streetDirectionId": null,
        "streetTypeId": "AVE",
        "placeName": "NORTH YORK",
        "streetNameDisplayText": "LAMONT AVE, NORTH YORK"
      }
    ]
  },
  {
    "postal": "M9N7Y6",
    "result": []
  },
  {
    "postal": "M9N1L9",
    "result": [
      {
        "electoralDistricts": [
          {
            "election": null,
            "id": 122,
            "name": "York South—Weston"
          }
        ],
        "pollDivisionIds": [
          10142956
        ],
        "postalCode": "M9N1L9",
        "streetName": "FERN",
        "streetDirectionId": null,
        "streetTypeId": "AVE",
        "placeName": "YORK",
        "streetNameDisplayText": "FERN AVE, YORK"
      }
    ]
  },
  {
    "postal": "M9N8T0",
    "result": []
  },
  {
    "postal": "M9N3K8",
    "result": [
      {
        "electoralDistricts": [
          {
            "election": null,
            "id": 122,
            "name": "York South—Weston"
          }
        ],
        "pollDivisionIds": [
          10142950
        ],
        "postalCode": "M9N3K8",
        "streetName": "WENDELL",
        "streetDirectionId": null,
        "streetTypeId": "AVE",
        "placeName": "NORTH YORK",
        "streetNameDisplayText": "WENDELL AVE, NORTH YORK"
      }
    ]
  },
  {
    "postal": "M9N5W9",
    "result": []
  },
  {
    "postal": "M9N6T9",
    "result": []
  },
  {
    "postal": "M9N4H1",
    "result": []
  },
  {
    "postal": "M9N7A2",
    "result": []
  },
  {
    "postal": "M9N5G0",
    "result": []
  },
  {
    "postal": "M9N8V5",
    "result": []
  },
  {
    "postal": "M9N2Y8",
    "result": [
      {
        "electoralDistricts": [
          {
            "election": null,
            "id": 122,
            "name": "York South—Weston"
          }
        ],
        "pollDivisionIds": [
          10142963
        ],
        "postalCode": "M9N2Y8",
        "streetName": "PINE",
        "streetDirectionId": null,
        "streetTypeId": "ST",
        "placeName": "YORK",
        "streetNameDisplayText": "PINE ST, YORK"
      }
    ]
  },
  {
    "postal": "M9N2B6",
    "result": [
      {
        "electoralDistricts": [
          {
            "election": null,
            "id": 122,
            "name": "York South—Weston"
          }
        ],
        "pollDivisionIds": [
          10142954
        ],
        "postalCode": "M9N2B6",
        "streetName": "GEORGE",
        "streetDirectionId": null,
        "streetTypeId": "ST",
        "placeName": "TORONTO,ONTARIO",
        "streetNameDisplayText": "GEORGE ST, TORONTO,ONTARIO"
      },
      {
        "electoralDistricts": [
          {
            "election": null,
            "id": 122,
            "name": "York South—Weston"
          }
        ],
        "pollDivisionIds": [
          10142956
        ],
        "postalCode": "M9N2B6",
        "streetName": "GEORGE",
        "streetDirectionId": null,
        "streetTypeId": "ST",
        "placeName": "YORK",
        "streetNameDisplayText": "GEORGE ST, YORK"
      }
    ]
  },
  {
    "postal": "M9N4W8",
    "result": []
  },
  {
    "postal": "M9N8H7",
    "result": []
  },
  {
    "postal": "M9N5P1",
    "result": []
  },
  {
    "postal": "M9N2B8",
    "result": [
      {
        "electoralDistricts": [
          {
            "election": null,
            "id": 122,
            "name": "York South—Weston"
          }
        ],
        "pollDivisionIds": [
          10142956
        ],
        "postalCode": "M9N2B8",
        "streetName": "CROSS",
        "streetDirectionId": null,
        "streetTypeId": "ST",
        "placeName": "TORONTO",
        "streetNameDisplayText": "CROSS ST, TORONTO"
      },
      {
        "electoralDistricts": [
          {
            "election": null,
            "id": 122,
            "name": "York South—Weston"
          }
        ],
        "pollDivisionIds": [
          10142956
        ],
        "postalCode": "M9N2B8",
        "streetName": "CROSS",
        "streetDirectionId": null,
        "streetTypeId": "ST",
        "placeName": "YORK",
        "streetNameDisplayText": "CROSS ST, YORK"
      }
    ]
  },
  {
    "postal": "M9N0P2",
    "result": []
  },
  {
    "postal": "M9N9M1",
    "result": []
  },
  {
    "postal": "M9N3G0",
    "result": []
  },
  {
    "postal": "M9N9Z2",
    "result": []
  },
  {
    "postal": "M9N2A0",
    "result": []
  },
  {
    "postal": "M9N6Y0",
    "result": []
  },
  {
    "postal": "M9N2Z8",
    "result": [
      {
        "electoralDistricts": [
          {
            "election": null,
            "id": 122,
            "name": "York South—Weston"
          }
        ],
        "pollDivisionIds": [
          10142951
        ],
        "postalCode": "M9N2Z8",
        "streetName": "FARNSWORTH",
        "streetDirectionId": null,
        "streetTypeId": "DR",
        "placeName": "NORTH YORK",
        "streetNameDisplayText": "FARNSWORTH DR, NORTH YORK"
      }
    ]
  },
  {
    "postal": "M9N7Y3",
    "result": []
  },
  {
    "postal": "M9N6Z5",
    "result": []
  },
  {
    "postal": "M9N6E0",
    "result": []
  },
  {
    "postal": "M9N9B7",
    "result": []
  },
  {
    "postal": "M9N9S5",
    "result": []
  },
  {
    "postal": "M9N3X3",
    "result": [
      {
        "electoralDistricts": [
          {
            "election": null,
            "id": 122,
            "name": "York South—Weston"
          }
        ],
        "pollDivisionIds": [
          10142952
        ],
        "postalCode": "M9N3X3",
        "streetName": "GORDON MACKAY",
        "streetDirectionId": null,
        "streetTypeId": "RD",
        "placeName": "NORTH YORK",
        "streetNameDisplayText": "GORDON MACKAY RD, NORTH YORK"
      }
    ]
  },
  {
    "postal": "M9N7R5",
    "result": []
  },
  {
    "postal": "M9N2X3",
    "result": [
      {
        "electoralDistricts": [
          {
            "election": null,
            "id": 122,
            "name": "York South—Weston"
          }
        ],
        "pollDivisionIds": [
          10142951
        ],
        "postalCode": "M9N2X3",
        "streetName": "PELMO",
        "streetDirectionId": null,
        "streetTypeId": "CRES",
        "placeName": "NORTH YORK",
        "streetNameDisplayText": "PELMO CRES, NORTH YORK"
      }
    ]
  },
  {
    "postal": "M9N8Z9",
    "result": []
  },
  {
    "postal": "M9N0N4",
    "result": []
  },
  {
    "postal": "M9N1K1",
    "result": [
      {
        "electoralDistricts": [
          {
            "election": null,
            "id": 122,
            "name": "York South—Weston"
          }
        ],
        "pollDivisionIds": [
          10142957
        ],
        "postalCode": "M9N1K1",
        "streetName": "JOHN",
        "streetDirectionId": null,
        "streetTypeId": "ST",
        "placeName": "YORK",
        "streetNameDisplayText": "JOHN ST, YORK"
      }
    ]
  },
  {
    "postal": "M9N1S3",
    "result": [
      {
        "electoralDistricts": [
          {
            "election": null,
            "id": 122,
            "name": "York South—Weston"
          }
        ],
        "pollDivisionIds": [
          10142950
        ],
        "postalCode": "M9N1S3",
        "streetName": "FAIRGLEN",
        "streetDirectionId": null,
        "streetTypeId": "CRES",
        "placeName": "NORTH YORK",
        "streetNameDisplayText": "FAIRGLEN CRES, NORTH YORK"
      }
    ]
  },
  {
    "postal": "M9N6M4",
    "result": []
  },
  {
    "postal": "M9N9A9",
    "result": []
  },
  {
    "postal": "M9N9Z9",
    "result": []
  },
  {
    "postal": "M9N6T4",
    "result": []
  },
  {
    "postal": "M9N0B2",
    "result": []
  },
  {
    "postal": "M9N2L9",
    "result": [
      {
        "electoralDistricts": [
          {
            "election": null,
            "id": 122,
            "name": "York South—Weston"
          }
        ],
        "pollDivisionIds": [
          10142951
        ],
        "postalCode": "M9N2L9",
        "streetName": "DEBBY",
        "streetDirectionId": null,
        "streetTypeId": "CRT",
        "placeName": "NORTH YORK",
        "streetNameDisplayText": "DEBBY CRT, NORTH YORK"
      }
    ]
  },
  {
    "postal": "M9N8K9",
    "result": []
  },
  {
    "postal": "M9N2H9",
    "result": [
      {
        "electoralDistricts": [
          {
            "election": null,
            "id": 56,
            "name": "Markham—Stouffville"
          }
        ],
        "pollDivisionIds": [
          10134355
        ],
        "postalCode": "M9N2H9",
        "streetName": "JOSEPH",
        "streetDirectionId": null,
        "streetTypeId": "ST",
        "placeName": "MARKHAM",
        "streetNameDisplayText": "JOSEPH ST, MARKHAM"
      },
      {
        "electoralDistricts": [
          {
            "election": null,
            "id": 122,
            "name": "York South—Weston"
          }
        ],
        "pollDivisionIds": [
          10142957
        ],
        "postalCode": "M9N2H9",
        "streetName": "JOSEPH",
        "streetDirectionId": null,
        "streetTypeId": "ST",
        "placeName": "YORK",
        "streetNameDisplayText": "JOSEPH ST, YORK"
      }
    ]
  },
  {
    "postal": "M9N3Z6",
    "result": [
      {
        "electoralDistricts": [
          {
            "election": null,
            "id": 122,
            "name": "York South—Weston"
          }
        ],
        "pollDivisionIds": [
          10142950
        ],
        "postalCode": "M9N3Z6",
        "streetName": "MEADOW OAK",
        "streetDirectionId": null,
        "streetTypeId": "PL",
        "placeName": "NORTH YORK",
        "streetNameDisplayText": "MEADOW OAK PL, NORTH YORK"
      }
    ]
  },
  {
    "postal": "M9N3B0",
    "result": []
  },
  {
    "postal": "M9N2H8",
    "result": [
      {
        "electoralDistricts": [
          {
            "election": null,
            "id": 122,
            "name": "York South—Weston"
          }
        ],
        "pollDivisionIds": [
          10142957
        ],
        "postalCode": "M9N2H8",
        "streetName": "QUEENS",
        "streetDirectionId": "E",
        "streetTypeId": "DR",
        "placeName": "YORK",
        "streetNameDisplayText": "QUEENS DR E, YORK"
      },
      {
        "electoralDistricts": [
          {
            "election": null,
            "id": 122,
            "name": "York South—Weston"
          }
        ],
        "pollDivisionIds": [
          10142957
        ],
        "postalCode": "M9N2H8",
        "streetName": "QUEENS",
        "streetDirectionId": null,
        "streetTypeId": "DR",
        "placeName": "YORK",
        "streetNameDisplayText": "QUEENS DR, YORK"
      },
      {
        "electoralDistricts": [
          {
            "election": null,
            "id": 101,
            "name": "Spadina—Fort York"
          }
        ],
        "pollDivisionIds": [
          10141965
        ],
        "postalCode": "M9N2H8",
        "streetName": "QUEENS",
        "streetDirectionId": "W",
        "streetTypeId": "QUAY",
        "placeName": "YORK",
        "streetNameDisplayText": "QUEENS QUAY W, YORK"
      }
    ]
  },
  {
    "postal": "M9N3X2",
    "result": []
  },
  {
    "postal": "M9N2E9",
    "result": [
      {
        "electoralDistricts": [
          {
            "election": null,
            "id": 122,
            "name": "York South—Weston"
          }
        ],
        "pollDivisionIds": [
          10142957
        ],
        "postalCode": "M9N2E9",
        "streetName": "PATIKA",
        "streetDirectionId": null,
        "streetTypeId": "AVE",
        "placeName": "YORK",
        "streetNameDisplayText": "PATIKA AVE, YORK"
      }
    ]
  },
  {
    "postal": "M9N9P6",
    "result": []
  },
  {
    "postal": "M9N9E2",
    "result": []
  },
  {
    "postal": "M9N9H2",
    "result": []
  },
  {
    "postal": "M9N1S8",
    "result": [
      {
        "electoralDistricts": [
          {
            "election": null,
            "id": 122,
            "name": "York South—Weston"
          }
        ],
        "pollDivisionIds": [
          10142950
        ],
        "postalCode": "M9N1S8",
        "streetName": "DEE",
        "streetDirectionId": null,
        "streetTypeId": "AVE",
        "placeName": "NORTH YORK",
        "streetNameDisplayText": "DEE AVE, NORTH YORK"
      }
    ]
  },
  {
    "postal": "M9N3M6",
    "result": []
  },
  {
    "postal": "M9N6Z8",
    "result": []
  },
  {
    "postal": "M9N4J2",
    "result": []
  },
  {
    "postal": "M9N9Y1",
    "result": []
  },
  {
    "postal": "M9N8V6",
    "result": []
  },
  {
    "postal": "M9N6B2",
    "result": []
  },
  {
    "postal": "M9N1P8",
    "result": [
      {
        "electoralDistricts": [
          {
            "election": null,
            "id": 122,
            "name": "York South—Weston"
          }
        ],
        "pollDivisionIds": [
          10142951
        ],
        "postalCode": "M9N1P8",
        "streetName": "RECTORY",
        "streetDirectionId": null,
        "streetTypeId": "RD",
        "placeName": "YORK",
        "streetNameDisplayText": "RECTORY RD, YORK"
      }
    ]
  },
  {
    "postal": "M9N0V8",
    "result": []
  },
  {
    "postal": "M9N4Y0",
    "result": []
  },
  {
    "postal": "M9N2T4",
    "result": [
      {
        "electoralDistricts": [
          {
            "election": null,
            "id": 122,
            "name": "York South—Weston"
          }
        ],
        "pollDivisionIds": [
          10142957
        ],
        "postalCode": "M9N2T4",
        "streetName": "JANE",
        "streetDirectionId": null,
        "streetTypeId": "ST",
        "placeName": "YORK",
        "streetNameDisplayText": "JANE ST, YORK"
      }
    ]
  },
  {
    "postal": "M9N2S3",
    "result": [
      {
        "electoralDistricts": [
          {
            "election": null,
            "id": 122,
            "name": "York South—Weston"
          }
        ],
        "pollDivisionIds": [
          10142959
        ],
        "postalCode": "M9N2S3",
        "streetName": "JANE",
        "streetDirectionId": null,
        "streetTypeId": "ST",
        "placeName": "NORTH YORK",
        "streetNameDisplayText": "JANE ST, NORTH YORK"
      }
    ]
  },
  {
    "postal": "M9N0K0",
    "result": []
  },
  {
    "postal": "M9N5N1",
    "result": []
  },
  {
    "postal": "M9N7T0",
    "result": []
  },
  {
    "postal": "M9N9N2",
    "result": []
  },
  {
    "postal": "M9N5L1",
    "result": []
  },
  {
    "postal": "M9N7G5",
    "result": []
  },
  {
    "postal": "M9N6K2",
    "result": []
  },
  {
    "postal": "M9N6P9",
    "result": []
  },
  {
    "postal": "M9N0E6",
    "result": []
  },
  {
    "postal": "M9N8R9",
    "result": []
  },
  {
    "postal": "M9N3G9",
    "result": [
      {
        "electoralDistricts": [
          {
            "election": null,
            "id": 122,
            "name": "York South—Weston"
          }
        ],
        "pollDivisionIds": [
          10142950
        ],
        "postalCode": "M9N3G9",
        "streetName": "PORTAGE",
        "streetDirectionId": null,
        "streetTypeId": "AVE",
        "placeName": "NORTH YORK",
        "streetNameDisplayText": "PORTAGE AVE, NORTH YORK"
      }
    ]
  },
  {
    "postal": "M9N0V7",
    "result": []
  },
  {
    "postal": "M9N2Z1",
    "result": [
      {
        "electoralDistricts": [
          {
            "election": null,
            "id": 122,
            "name": "York South—Weston"
          }
        ],
        "pollDivisionIds": [
          10142957
        ],
        "postalCode": "M9N2Z1",
        "streetName": "PINE",
        "streetDirectionId": null,
        "streetTypeId": "ST",
        "placeName": "YORK",
        "streetNameDisplayText": "PINE ST, YORK"
      }
    ]
  },
  {
    "postal": "M9N7N1",
    "result": []
  },
  {
    "postal": "M9N3C6",
    "result": [
      {
        "electoralDistricts": [
          {
            "election": null,
            "id": 122,
            "name": "York South—Weston"
          }
        ],
        "pollDivisionIds": [
          10142957
        ],
        "postalCode": "M9N3C6",
        "streetName": "ELM",
        "streetDirectionId": null,
        "streetTypeId": "ST",
        "placeName": "YORK",
        "streetNameDisplayText": "ELM ST, YORK"
      }
    ]
  },
  {
    "postal": "M9N4M1",
    "result": []
  },
  {
    "postal": "M9N9K2",
    "result": []
  },
  {
    "postal": "M9N9S6",
    "result": []
  },
  {
    "postal": "M9N4X1",
    "result": []
  },
  {
    "postal": "M9N8W2",
    "result": []
  },
  {
    "postal": "M9N7N2",
    "result": []
  },
  {
    "postal": "M9N8S3",
    "result": []
  },
  {
    "postal": "M9N4V0",
    "result": []
  },
  {
    "postal": "M9N6W4",
    "result": []
  },
  {
    "postal": "M9N5M1",
    "result": []
  },
  {
    "postal": "M9N0S4",
    "result": []
  },
  {
    "postal": "M9N5X6",
    "result": []
  },
  {
    "postal": "M9N8L5",
    "result": []
  },
  {
    "postal": "M9N5M8",
    "result": []
  },
  {
    "postal": "M9N2G3",
    "result": [
      {
        "electoralDistricts": [
          {
            "election": null,
            "id": 122,
            "name": "York South—Weston"
          }
        ],
        "pollDivisionIds": [
          10142958
        ],
        "postalCode": "M9N2G3",
        "streetName": "WADSWORTH",
        "streetDirectionId": null,
        "streetTypeId": "BLVD",
        "placeName": "YORK",
        "streetNameDisplayText": "WADSWORTH BLVD, YORK"
      }
    ]
  },
  {
    "postal": "M9N8E4",
    "result": []
  },
  {
    "postal": "M9N7S9",
    "result": []
  },
  {
    "postal": "M9N1K3",
    "result": [
      {
        "electoralDistricts": [
          {
            "election": null,
            "id": 122,
            "name": "York South—Weston"
          }
        ],
        "pollDivisionIds": [
          10142956
        ],
        "postalCode": "M9N1K3",
        "streetName": "LITTLE",
        "streetDirectionId": null,
        "streetTypeId": "AVE",
        "placeName": "YORK",
        "streetNameDisplayText": "LITTLE AVE, YORK"
      }
    ]
  },
  {
    "postal": "M9N4E1",
    "result": []
  },
  {
    "postal": "M9N4R2",
    "result": []
  },
  {
    "postal": "M9N6T0",
    "result": []
  },
  {
    "postal": "M9N3K5",
    "result": [
      {
        "electoralDistricts": [
          {
            "election": null,
            "id": 122,
            "name": "York South—Weston"
          }
        ],
        "pollDivisionIds": [
          10142951
        ],
        "postalCode": "M9N3K5",
        "streetName": "WENDELL",
        "streetDirectionId": null,
        "streetTypeId": "AVE",
        "placeName": "NORTH YORK",
        "streetNameDisplayText": "WENDELL AVE, NORTH YORK"
      }
    ]
  },
  {
    "postal": "M9N3S3",
    "result": [
      {
        "electoralDistricts": [
          {
            "election": null,
            "id": 122,
            "name": "York South—Weston"
          }
        ],
        "pollDivisionIds": [
          10142963
        ],
        "postalCode": "M9N3S3",
        "streetName": "ROMANWAY",
        "streetDirectionId": null,
        "streetTypeId": "CRES",
        "placeName": "YORK",
        "streetNameDisplayText": "ROMANWAY CRES, YORK"
      }
    ]
  },
  {
    "postal": "M9N3L4",
    "result": [
      {
        "electoralDistricts": [
          {
            "election": null,
            "id": 122,
            "name": "York South—Weston"
          }
        ],
        "pollDivisionIds": [
          10142950
        ],
        "postalCode": "M9N3L4",
        "streetName": "TELCO",
        "streetDirectionId": null,
        "streetTypeId": "CRES",
        "placeName": "NORTH YORK",
        "streetNameDisplayText": "TELCO CRES, NORTH YORK"
      }
    ]
  },
  {
    "postal": "M9N9Y2",
    "result": []
  },
  {
    "postal": "M9N1E0",
    "result": []
  },
  {
    "postal": "M9N9A4",
    "result": []
  },
  {
    "postal": "M9N1L3",
    "result": [
      {
        "electoralDistricts": [
          {
            "election": null,
            "id": 101,
            "name": "Spadina—Fort York"
          }
        ],
        "pollDivisionIds": [
          10141948
        ],
        "postalCode": "M9N1L3",
        "streetName": "KING",
        "streetDirectionId": "W",
        "streetTypeId": "ST",
        "placeName": "YORK",
        "streetNameDisplayText": "KING ST W, YORK"
      },
      {
        "electoralDistricts": [
          {
            "election": null,
            "id": 121,
            "name": "York—Simcoe"
          },
          {
            "election": null,
            "id": 122,
            "name": "York South—Weston"
          }
        ],
        "pollDivisionIds": [
          10142917,
          10142957
        ],
        "postalCode": "M9N1L3",
        "streetName": "KING",
        "streetDirectionId": null,
        "streetTypeId": "ST",
        "placeName": "YORK",
        "streetNameDisplayText": "KING ST, YORK"
      }
    ]
  },
  {
    "postal": "M9N6N1",
    "result": []
  },
  {
    "postal": "M9N6G7",
    "result": []
  },
  {
    "postal": "M9N7W1",
    "result": []
  },
  {
    "postal": "M9N4M6",
    "result": []
  },
  {
    "postal": "M9N1K0",
    "result": []
  },
  {
    "postal": "M9N3E2",
    "result": [
      {
        "electoralDistricts": [
          {
            "election": null,
            "id": 122,
            "name": "York South—Weston"
          }
        ],
        "pollDivisionIds": [
          10142951
        ],
        "postalCode": "M9N3E2",
        "streetName": "LANGSIDE",
        "streetDirectionId": null,
        "streetTypeId": "AVE",
        "placeName": "NORTH YORK",
        "streetNameDisplayText": "LANGSIDE AVE, NORTH YORK"
      }
    ]
  },
  {
    "postal": "M9N5H4",
    "result": []
  },
  {
    "postal": "M9N1K7",
    "result": [
      {
        "electoralDistricts": [
          {
            "election": null,
            "id": 122,
            "name": "York South—Weston"
          }
        ],
        "pollDivisionIds": [
          10142956
        ],
        "postalCode": "M9N1K7",
        "streetName": "KING ST",
        "streetDirectionId": null,
        "streetTypeId": "CRES",
        "placeName": "YORK",
        "streetNameDisplayText": "KING ST CRES, YORK"
      },
      {
        "electoralDistricts": [
          {
            "election": null,
            "id": 122,
            "name": "York South—Weston"
          }
        ],
        "pollDivisionIds": [
          10142956
        ],
        "postalCode": "M9N1K7",
        "streetName": "KING STREET",
        "streetDirectionId": null,
        "streetTypeId": "CRES",
        "placeName": "YORK",
        "streetNameDisplayText": "KING STREET CRES, YORK"
      }
    ]
  },
  {
    "postal": "M9N0H0",
    "result": []
  },
  {
    "postal": "M9N0J3",
    "result": []
  },
  {
    "postal": "M9N1X6",
    "result": [
      {
        "electoralDistricts": [
          {
            "election": null,
            "id": 122,
            "name": "York South—Weston"
          }
        ],
        "pollDivisionIds": [
          10142955
        ],
        "postalCode": "M9N1X6",
        "streetName": "WESTON",
        "streetDirectionId": null,
        "streetTypeId": "RD",
        "placeName": "NORTH YORK",
        "streetNameDisplayText": "WESTON RD, NORTH YORK"
      }
    ]
  },
  {
    "postal": "M9N2Z6",
    "result": [
      {
        "electoralDistricts": [
          {
            "election": null,
            "id": 122,
            "name": "York South—Weston"
          }
        ],
        "pollDivisionIds": [
          10142951
        ],
        "postalCode": "M9N2Z6",
        "streetName": "FARNSWORTH",
        "streetDirectionId": null,
        "streetTypeId": "DR",
        "placeName": "NORTH YORK",
        "streetNameDisplayText": "FARNSWORTH DR, NORTH YORK"
      }
    ]
  },
  {
    "postal": "M9N4R9",
    "result": []
  },
  {
    "postal": "M9N0W8",
    "result": []
  },
  {
    "postal": "M9N1L4",
    "result": [
      {
        "electoralDistricts": [
          {
            "election": null,
            "id": 3,
            "name": "Aurora—Oak Ridges—Richmond Hill"
          }
        ],
        "pollDivisionIds": [
          10136826
        ],
        "postalCode": "M9N1L4",
        "streetName": "KING",
        "streetDirectionId": null,
        "streetTypeId": "RD",
        "placeName": "YORK",
        "streetNameDisplayText": "KING RD, YORK"
      },
      {
        "electoralDistricts": [
          {
            "election": null,
            "id": 109,
            "name": "Toronto Centre"
          }
        ],
        "pollDivisionIds": [
          10135204
        ],
        "postalCode": "M9N1L4",
        "streetName": "KING",
        "streetDirectionId": "E",
        "streetTypeId": "ST",
        "placeName": "TORONTO",
        "streetNameDisplayText": "KING ST E, TORONTO"
      },
      {
        "electoralDistricts": [
          {
            "election": null,
            "id": 109,
            "name": "Toronto Centre"
          }
        ],
        "pollDivisionIds": [
          10135204
        ],
        "postalCode": "M9N1L4",
        "streetName": "KING",
        "streetDirectionId": "E",
        "streetTypeId": "ST",
        "placeName": "YORK",
        "streetNameDisplayText": "KING ST E, YORK"
      },
      {
        "electoralDistricts": [
          {
            "election": null,
            "id": 122,
            "name": "York South—Weston"
          },
          {
            "election": null,
            "id": 121,
            "name": "York—Simcoe"
          }
        ],
        "pollDivisionIds": [
          10142957,
          10142917
        ],
        "postalCode": "M9N1L4",
        "streetName": "KING",
        "streetDirectionId": null,
        "streetTypeId": "ST",
        "placeName": "YORK",
        "streetNameDisplayText": "KING ST, YORK"
      }
    ]
  },
  {
    "postal": "M9N0C8",
    "result": []
  },
  {
    "postal": "M9N9X7",
    "result": []
  },
  {
    "postal": "M9N4T1",
    "result": []
  },
  {
    "postal": "M9N0M0",
    "result": []
  },
  {
    "postal": "M9N6A2",
    "result": []
  },
  {
    "postal": "M9N9S8",
    "result": []
  },
  {
    "postal": "M9N9T4",
    "result": []
  },
  {
    "postal": "M9N9Y4",
    "result": []
  },
  {
    "postal": "M9N6G5",
    "result": []
  },
  {
    "postal": "M9N6H9",
    "result": []
  },
  {
    "postal": "M9N2P3",
    "result": [
      {
        "electoralDistricts": [
          {
            "election": null,
            "id": 122,
            "name": "York South—Weston"
          }
        ],
        "pollDivisionIds": [
          10142950
        ],
        "postalCode": "M9N2P3",
        "streetName": "LIMERICK",
        "streetDirectionId": null,
        "streetTypeId": "AVE",
        "placeName": "NORTH YORK",
        "streetNameDisplayText": "LIMERICK AVE, NORTH YORK"
      }
    ]
  },
  {
    "postal": "M9N1T6",
    "result": [
      {
        "electoralDistricts": [
          {
            "election": null,
            "id": 122,
            "name": "York South—Weston"
          }
        ],
        "pollDivisionIds": [
          10142962
        ],
        "postalCode": "M9N1T6",
        "streetName": "WESTON",
        "streetDirectionId": null,
        "streetTypeId": "RD",
        "placeName": "YORK",
        "streetNameDisplayText": "WESTON RD, YORK"
      }
    ]
  },
  {
    "postal": "M9N4P6",
    "result": []
  },
  {
    "postal": "M9N3K1",
    "result": [
      {
        "electoralDistricts": [
          {
            "election": null,
            "id": 122,
            "name": "York South—Weston"
          }
        ],
        "pollDivisionIds": [
          10142950
        ],
        "postalCode": "M9N3K1",
        "streetName": "ACADEMY",
        "streetDirectionId": null,
        "streetTypeId": "RD",
        "placeName": "NORTH YORK",
        "streetNameDisplayText": "ACADEMY RD, NORTH YORK"
      }
    ]
  },
  {
    "postal": "M9N6X4",
    "result": []
  },
  {
    "postal": "M9N4M8",
    "result": []
  },
  {
    "postal": "M9N2Y1",
    "result": [
      {
        "electoralDistricts": [
          {
            "election": null,
            "id": 122,
            "name": "York South—Weston"
          }
        ],
        "pollDivisionIds": [
          10142951
        ],
        "postalCode": "M9N2Y1",
        "streetName": "PELMO",
        "streetDirectionId": null,
        "streetTypeId": "CRES",
        "placeName": "NORTH YORK",
        "streetNameDisplayText": "PELMO CRES, NORTH YORK"
      }
    ]
  },
  {
    "postal": "M9N6M1",
    "result": []
  },
  {
    "postal": "M9N5L8",
    "result": []
  },
  {
    "postal": "M9N3P6",
    "result": []
  },
  {
    "postal": "M9N9A5",
    "result": []
  },
  {
    "postal": "M9N7K1",
    "result": []
  },
  {
    "postal": "M9N3J4",
    "result": [
      {
        "electoralDistricts": [
          {
            "election": null,
            "id": 122,
            "name": "York South—Weston"
          }
        ],
        "pollDivisionIds": [
          10142951
        ],
        "postalCode": "M9N3J4",
        "streetName": "GRATTAN",
        "streetDirectionId": null,
        "streetTypeId": "ST",
        "placeName": "NORTH YORK",
        "streetNameDisplayText": "GRATTAN ST, NORTH YORK"
      }
    ]
  },
  {
    "postal": "M9N5E7",
    "result": []
  },
  {
    "postal": "M9N3A7",
    "result": [
      {
        "electoralDistricts": [
          {
            "election": null,
            "id": 122,
            "name": "York South—Weston"
          }
        ],
        "pollDivisionIds": [
          10142951
        ],
        "postalCode": "M9N3A7",
        "streetName": "DEERHURST",
        "streetDirectionId": null,
        "streetTypeId": "AVE",
        "placeName": "NORTH YORK",
        "streetNameDisplayText": "DEERHURST AVE, NORTH YORK"
      }
    ]
  },
  {
    "postal": "M9N1B9",
    "result": [
      {
        "electoralDistricts": [
          {
            "election": null,
            "id": 122,
            "name": "York South—Weston"
          }
        ],
        "pollDivisionIds": [
          10142963
        ],
        "postalCode": "M9N1B9",
        "streetName": "DENISON",
        "streetDirectionId": "E",
        "streetTypeId": "RD",
        "placeName": "YORK",
        "streetNameDisplayText": "DENISON RD E, YORK"
      },
      {
        "electoralDistricts": [
          {
            "election": null,
            "id": 122,
            "name": "York South—Weston"
          }
        ],
        "pollDivisionIds": [
          10142962
        ],
        "postalCode": "M9N1B9",
        "streetName": "DENISON",
        "streetDirectionId": "W",
        "streetTypeId": "RD",
        "placeName": "YORK",
        "streetNameDisplayText": "DENISON RD W, YORK"
      }
    ]
  },
  {
    "postal": "M9N9E8",
    "result": []
  },
  {
    "postal": "M9N1C9",
    "result": [
      {
        "electoralDistricts": [
          {
            "election": null,
            "id": 122,
            "name": "York South—Weston"
          }
        ],
        "pollDivisionIds": [
          10142962
        ],
        "postalCode": "M9N1C9",
        "streetName": "SYKES",
        "streetDirectionId": null,
        "streetTypeId": "AVE",
        "placeName": "YORK",
        "streetNameDisplayText": "SYKES AVE, YORK"
      }
    ]
  },
  {
    "postal": "M9N3B5",
    "result": [
      {
        "electoralDistricts": [
          {
            "election": null,
            "id": 122,
            "name": "York South—Weston"
          }
        ],
        "pollDivisionIds": [
          10142957
        ],
        "postalCode": "M9N3B5",
        "streetName": "ROSEMOUNT",
        "streetDirectionId": null,
        "streetTypeId": "AVE",
        "placeName": "YORK",
        "streetNameDisplayText": "ROSEMOUNT AVE, YORK"
      }
    ]
  },
  {
    "postal": "M9N8R0",
    "result": []
  },
  {
    "postal": "M9N3P2",
    "result": [
      {
        "electoralDistricts": [
          {
            "election": null,
            "id": 122,
            "name": "York South—Weston"
          }
        ],
        "pollDivisionIds": [
          10142950
        ],
        "postalCode": "M9N3P2",
        "streetName": "PELLATT",
        "streetDirectionId": null,
        "streetTypeId": "AVE",
        "placeName": "NORTH YORK",
        "streetNameDisplayText": "PELLATT AVE, NORTH YORK"
      }
    ]
  },
  {
    "postal": "M9N5V4",
    "result": []
  },
  {
    "postal": "M9N4H0",
    "result": []
  },
  {
    "postal": "M9N4S7",
    "result": []
  },
  {
    "postal": "M9N6C2",
    "result": []
  },
  {
    "postal": "M9N8W3",
    "result": []
  },
  {
    "postal": "M9N4M5",
    "result": []
  },
  {
    "postal": "M9N5T1",
    "result": []
  },
  {
    "postal": "M9N3B3",
    "result": [
      {
        "electoralDistricts": [
          {
            "election": null,
            "id": 122,
            "name": "York South—Weston"
          },
          {
            "election": null,
            "id": 19,
            "name": "Davenport"
          }
        ],
        "pollDivisionIds": [
          10142954,
          10142958,
          10136082
        ],
        "postalCode": "M9N3B3",
        "streetName": "ROSEMOUNT",
        "streetDirectionId": null,
        "streetTypeId": "AVE",
        "placeName": "YORK",
        "streetNameDisplayText": "ROSEMOUNT AVE, YORK"
      }
    ]
  },
  {
    "postal": "M9N6C6",
    "result": []
  },
  {
    "postal": "M9N7N8",
    "result": []
  },
  {
    "postal": "M9N2Y3",
    "result": [
      {
        "electoralDistricts": [
          {
            "election": null,
            "id": 122,
            "name": "York South—Weston"
          }
        ],
        "pollDivisionIds": [
          10142951
        ],
        "postalCode": "M9N2Y3",
        "streetName": "KAMES",
        "streetDirectionId": null,
        "streetTypeId": "AVE",
        "placeName": "NORTH YORK",
        "streetNameDisplayText": "KAMES AVE, NORTH YORK"
      }
    ]
  },
  {
    "postal": "M9N2R6",
    "result": [
      {
        "electoralDistricts": [
          {
            "election": null,
            "id": 122,
            "name": "York South—Weston"
          }
        ],
        "pollDivisionIds": [
          10142963
        ],
        "postalCode": "M9N2R6",
        "streetName": "JANE",
        "streetDirectionId": null,
        "streetTypeId": "ST",
        "placeName": "NORTH YORK",
        "streetNameDisplayText": "JANE ST, NORTH YORK"
      }
    ]
  },
  {
    "postal": "M9N7N3",
    "result": []
  },
  {
    "postal": "M9N8J2",
    "result": []
  },
  {
    "postal": "M9N6A9",
    "result": []
  },
  {
    "postal": "M9N3V2",
    "result": [
      {
        "electoralDistricts": [
          {
            "election": null,
            "id": 122,
            "name": "York South—Weston"
          }
        ],
        "pollDivisionIds": [
          10142963
        ],
        "postalCode": "M9N3V2",
        "streetName": "LAWRENCE",
        "streetDirectionId": "W",
        "streetTypeId": "AVE",
        "placeName": "YORK",
        "streetNameDisplayText": "LAWRENCE AVE W, YORK"
      }
    ]
  },
  {
    "postal": "M9N2N3",
    "result": [
      {
        "electoralDistricts": [
          {
            "election": null,
            "id": 122,
            "name": "York South—Weston"
          }
        ],
        "pollDivisionIds": [
          10142950
        ],
        "postalCode": "M9N2N3",
        "streetName": "GARY",
        "streetDirectionId": null,
        "streetTypeId": "DR",
        "placeName": "NORTH YORK",
        "streetNameDisplayText": "GARY DR, NORTH YORK"
      },
      {
        "electoralDistricts": [
          {
            "election": null,
            "id": 120,
            "name": "York Centre"
          }
        ],
        "pollDivisionIds": [
          10142846
        ],
        "postalCode": "M9N2N3",
        "streetName": "GARY DR.",
        "streetDirectionId": null,
        "streetTypeId": "DR",
        "placeName": "NORTH YORK",
        "streetNameDisplayText": "GARY DR. DR, NORTH YORK"
      }
    ]
  },
  {
    "postal": "M9N1S5",
    "result": [
      {
        "electoralDistricts": [
          {
            "election": null,
            "id": 122,
            "name": "York South—Weston"
          }
        ],
        "pollDivisionIds": [
          10142950
        ],
        "postalCode": "M9N1S5",
        "streetName": "CARDELL",
        "streetDirectionId": null,
        "streetTypeId": "AVE",
        "placeName": "NORTH YORK",
        "streetNameDisplayText": "CARDELL AVE, NORTH YORK"
      }
    ]
  },
  {
    "postal": "M9N4T7",
    "result": []
  },
  {
    "postal": "M9N6Y7",
    "result": []
  },
  {
    "postal": "M9N0W7",
    "result": []
  },
  {
    "postal": "M9N2W9",
    "result": []
  },
  {
    "postal": "M9N8V0",
    "result": []
  },
  {
    "postal": "M9N0H4",
    "result": []
  },
  {
    "postal": "M9N2T1",
    "result": [
      {
        "electoralDistricts": [
          {
            "election": null,
            "id": 122,
            "name": "York South—Weston"
          }
        ],
        "pollDivisionIds": [
          10142957,
          10142959
        ],
        "postalCode": "M9N2T1",
        "streetName": "JANE",
        "streetDirectionId": null,
        "streetTypeId": "ST",
        "placeName": "YORK",
        "streetNameDisplayText": "JANE ST, YORK"
      }
    ]
  },
  {
    "postal": "M9N1B1",
    "result": [
      {
        "electoralDistricts": [
          {
            "election": null,
            "id": 122,
            "name": "York South—Weston"
          }
        ],
        "pollDivisionIds": [
          10142962
        ],
        "postalCode": "M9N1B1",
        "streetName": "LIPPINCOTT",
        "streetDirectionId": "E",
        "streetTypeId": "ST",
        "placeName": "YORK",
        "streetNameDisplayText": "LIPPINCOTT ST E, YORK"
      }
    ]
  },
  {
    "postal": "M9N8B6",
    "result": []
  },
  {
    "postal": "M9N6H1",
    "result": []
  },
  {
    "postal": "M9N8T8",
    "result": []
  },
  {
    "postal": "M9N0T4",
    "result": []
  },
  {
    "postal": "M9N2C4",
    "result": [
      {
        "electoralDistricts": [
          {
            "election": null,
            "id": 122,
            "name": "York South—Weston"
          }
        ],
        "pollDivisionIds": [
          10142951
        ],
        "postalCode": "M9N2C4",
        "streetName": "HOLLEY",
        "streetDirectionId": null,
        "streetTypeId": "AVE",
        "placeName": "YORK",
        "streetNameDisplayText": "HOLLEY AVE, YORK"
      }
    ]
  },
  {
    "postal": "M9N8N3",
    "result": []
  },
  {
    "postal": "M9N4L8",
    "result": []
  },
  {
    "postal": "M9N2B5",
    "result": [
      {
        "electoralDistricts": [
          {
            "election": null,
            "id": 122,
            "name": "York South—Weston"
          }
        ],
        "pollDivisionIds": [
          10142956
        ],
        "postalCode": "M9N2B5",
        "streetName": "GEORGE",
        "streetDirectionId": "S",
        "streetTypeId": "ST",
        "placeName": "YORK",
        "streetNameDisplayText": "GEORGE ST S, YORK"
      },
      {
        "electoralDistricts": [
          {
            "election": null,
            "id": 122,
            "name": "York South—Weston"
          }
        ],
        "pollDivisionIds": [
          10142956
        ],
        "postalCode": "M9N2B5",
        "streetName": "GEORGE",
        "streetDirectionId": null,
        "streetTypeId": "ST",
        "placeName": "YORK",
        "streetNameDisplayText": "GEORGE ST, YORK"
      }
    ]
  },
  {
    "postal": "M9N3H1",
    "result": [
      {
        "electoralDistricts": [
          {
            "election": null,
            "id": 122,
            "name": "York South—Weston"
          }
        ],
        "pollDivisionIds": [
          10142950
        ],
        "postalCode": "M9N3H1",
        "streetName": "PORTAGE",
        "streetDirectionId": null,
        "streetTypeId": "AVE",
        "placeName": "NORTH YORK",
        "streetNameDisplayText": "PORTAGE AVE, NORTH YORK"
      }
    ]
  },
  {
    "postal": "M9N4Y1",
    "result": []
  },
  {
    "postal": "M9N7E2",
    "result": []
  },
  {
    "postal": "M9N2P5",
    "result": [
      {
        "electoralDistricts": [
          {
            "election": null,
            "id": 122,
            "name": "York South—Weston"
          }
        ],
        "pollDivisionIds": [
          10142950,
          10142951
        ],
        "postalCode": "M9N2P5",
        "streetName": "PELLATT",
        "streetDirectionId": null,
        "streetTypeId": "AVE",
        "placeName": "NORTH YORK",
        "streetNameDisplayText": "PELLATT AVE, NORTH YORK"
      }
    ]
  },
  {
    "postal": "M9N8R7",
    "result": []
  },
  {
    "postal": "M9N9P1",
    "result": []
  },
  {
    "postal": "M9N3B8",
    "result": [
      {
        "electoralDistricts": [
          {
            "election": null,
            "id": 122,
            "name": "York South—Weston"
          }
        ],
        "pollDivisionIds": [
          10142957
        ],
        "postalCode": "M9N3B8",
        "streetName": "ROSEMOUNT",
        "streetDirectionId": null,
        "streetTypeId": "AVE",
        "placeName": "YORK",
        "streetNameDisplayText": "ROSEMOUNT AVE, YORK"
      }
    ]
  },
  {
    "postal": "M9N3P7",
    "result": [
      {
        "electoralDistricts": [
          {
            "election": null,
            "id": 122,
            "name": "York South—Weston"
          }
        ],
        "pollDivisionIds": [
          10142958
        ],
        "postalCode": "M9N3P7",
        "streetName": "WESTON",
        "streetDirectionId": null,
        "streetTypeId": "RD",
        "placeName": "YORK",
        "streetNameDisplayText": "WESTON RD, YORK"
      }
    ]
  },
  {
    "postal": "M9N9B2",
    "result": []
  },
  {
    "postal": "M9N6Z3",
    "result": []
  },
  {
    "postal": "M9N4N5",
    "result": []
  },
  {
    "postal": "M9N8T3",
    "result": []
  },
  {
    "postal": "M9N1V2",
    "result": [
      {
        "electoralDistricts": [
          {
            "election": null,
            "id": 122,
            "name": "York South—Weston"
          }
        ],
        "pollDivisionIds": [
          10142962
        ],
        "postalCode": "M9N1V2",
        "streetName": "WESTON",
        "streetDirectionId": null,
        "streetTypeId": "RD",
        "placeName": "YORK",
        "streetNameDisplayText": "WESTON RD, YORK"
      }
    ]
  },
  {
    "postal": "M9N1Y0",
    "result": []
  },
  {
    "postal": "M9N3G6",
    "result": [
      {
        "electoralDistricts": [
          {
            "election": null,
            "id": 122,
            "name": "York South—Weston"
          }
        ],
        "pollDivisionIds": [
          10142951
        ],
        "postalCode": "M9N3G6",
        "streetName": "PORTAGE",
        "streetDirectionId": null,
        "streetTypeId": "AVE",
        "placeName": "NORTH YORK",
        "streetNameDisplayText": "PORTAGE AVE, NORTH YORK"
      }
    ]
  },
  {
    "postal": "M9N3H7",
    "result": [
      {
        "electoralDistricts": [
          {
            "election": null,
            "id": 122,
            "name": "York South—Weston"
          }
        ],
        "pollDivisionIds": [
          10142950
        ],
        "postalCode": "M9N3H7",
        "streetName": "WALWYN",
        "streetDirectionId": null,
        "streetTypeId": "AVE",
        "placeName": "NORTH YORK",
        "streetNameDisplayText": "WALWYN AVE, NORTH YORK"
      }
    ]
  },
  {
    "postal": "M9N7X8",
    "result": []
  },
  {
    "postal": "M9N0C7",
    "result": []
  },
  {
    "postal": "M9N0W9",
    "result": []
  },
  {
    "postal": "M9N8E6",
    "result": []
  },
  {
    "postal": "M9N9Z8",
    "result": []
  },
  {
    "postal": "M9N3P4",
    "result": [
      {
        "electoralDistricts": [
          {
            "election": null,
            "id": 122,
            "name": "York South—Weston"
          }
        ],
        "pollDivisionIds": [
          10142950
        ],
        "postalCode": "M9N3P4",
        "streetName": "LANGSIDE",
        "streetDirectionId": null,
        "streetTypeId": "AVE",
        "placeName": "NORTH YORK",
        "streetNameDisplayText": "LANGSIDE AVE, NORTH YORK"
      }
    ]
  },
  {
    "postal": "M9N6L8",
    "result": []
  },
  {
    "postal": "M9N2R4",
    "result": []
  },
  {
    "postal": "M9N2W1",
    "result": [
      {
        "electoralDistricts": [
          {
            "election": null,
            "id": 122,
            "name": "York South—Weston"
          }
        ],
        "pollDivisionIds": [
          10142958
        ],
        "postalCode": "M9N2W1",
        "streetName": "VIMY",
        "streetDirectionId": null,
        "streetTypeId": "AVE",
        "placeName": "YORK",
        "streetNameDisplayText": "VIMY AVE, YORK"
      }
    ]
  },
  {
    "postal": "M9N9H8",
    "result": []
  },
  {
    "postal": "M9N8X9",
    "result": []
  },
  {
    "postal": "M9N7H4",
    "result": []
  },
  {
    "postal": "M9N3J1",
    "result": [
      {
        "electoralDistricts": [
          {
            "election": null,
            "id": 122,
            "name": "York South—Weston"
          }
        ],
        "pollDivisionIds": [
          10142950
        ],
        "postalCode": "M9N3J1",
        "streetName": "WALWYN",
        "streetDirectionId": null,
        "streetTypeId": "AVE",
        "placeName": "NORTH YORK",
        "streetNameDisplayText": "WALWYN AVE, NORTH YORK"
      }
    ]
  },
  {
    "postal": "M9N1P4",
    "result": [
      {
        "electoralDistricts": [
          {
            "election": null,
            "id": 122,
            "name": "York South—Weston"
          }
        ],
        "pollDivisionIds": [
          10142951
        ],
        "postalCode": "M9N1P4",
        "streetName": "COULTER",
        "streetDirectionId": null,
        "streetTypeId": "AVE",
        "placeName": "YORK",
        "streetNameDisplayText": "COULTER AVE, YORK"
      }
    ]
  },
  {
    "postal": "M9N2A3",
    "result": [
      {
        "electoralDistricts": [
          {
            "election": null,
            "id": 122,
            "name": "York South—Weston"
          }
        ],
        "pollDivisionIds": [
          10142985,
          10142954
        ],
        "postalCode": "M9N2A3",
        "streetName": "WESTON",
        "streetDirectionId": null,
        "streetTypeId": "RD",
        "placeName": "NORTH YORK",
        "streetNameDisplayText": "WESTON RD, NORTH YORK"
      },
      {
        "electoralDistricts": [
          {
            "election": null,
            "id": 122,
            "name": "York South—Weston"
          }
        ],
        "pollDivisionIds": [
          10142985
        ],
        "postalCode": "M9N2A3",
        "streetName": "WESTON",
        "streetDirectionId": null,
        "streetTypeId": "RD",
        "placeName": "YORK",
        "streetNameDisplayText": "WESTON RD, YORK"
      }
    ]
  },
  {
    "postal": "M9N0Z1",
    "result": []
  },
  {
    "postal": "M9N1C1",
    "result": [
      {
        "electoralDistricts": [
          {
            "election": null,
            "id": 122,
            "name": "York South—Weston"
          }
        ],
        "pollDivisionIds": [
          10142962
        ],
        "postalCode": "M9N1C1",
        "streetName": "DENISON",
        "streetDirectionId": "E",
        "streetTypeId": "RD",
        "placeName": "YORK",
        "streetNameDisplayText": "DENISON RD E, YORK"
      },
      {
        "electoralDistricts": [
          {
            "election": null,
            "id": 122,
            "name": "York South—Weston"
          }
        ],
        "pollDivisionIds": [
          10142962
        ],
        "postalCode": "M9N1C1",
        "streetName": "DENISON",
        "streetDirectionId": "W",
        "streetTypeId": "RD",
        "placeName": "YORK",
        "streetNameDisplayText": "DENISON RD W, YORK"
      },
      {
        "electoralDistricts": [
          {
            "election": null,
            "id": 112,
            "name": "University—Rosedale"
          }
        ],
        "pollDivisionIds": [
          10136388
        ],
        "postalCode": "M9N1C1",
        "streetName": "DENISON",
        "streetDirectionId": "W",
        "streetTypeId": "SQ",
        "placeName": "YORK",
        "streetNameDisplayText": "DENISON SQ W, YORK"
      }
    ]
  },
  {
    "postal": "M9N0H3",
    "result": []
  },
  {
    "postal": "M9N7B0",
    "result": []
  },
  {
    "postal": "M9N5K2",
    "result": []
  },
  {
    "postal": "M9N1E9",
    "result": [
      {
        "electoralDistricts": [
          {
            "election": null,
            "id": 122,
            "name": "York South—Weston"
          }
        ],
        "pollDivisionIds": [
          10142963
        ],
        "postalCode": "M9N1E9",
        "streetName": "SPEERS",
        "streetDirectionId": null,
        "streetTypeId": "AVE",
        "placeName": "YORK",
        "streetNameDisplayText": "SPEERS AVE, YORK"
      }
    ]
  },
  {
    "postal": "M9N9W7",
    "result": []
  },
  {
    "postal": "M9N5W6",
    "result": []
  },
  {
    "postal": "M9N6S6",
    "result": []
  },
  {
    "postal": "M9N2P8",
    "result": [
      {
        "electoralDistricts": [
          {
            "election": null,
            "id": 122,
            "name": "York South—Weston"
          }
        ],
        "pollDivisionIds": [
          10142950
        ],
        "postalCode": "M9N2P8",
        "streetName": "PELLATT",
        "streetDirectionId": null,
        "streetTypeId": "AVE",
        "placeName": "NORTH YORK",
        "streetNameDisplayText": "PELLATT AVE, NORTH YORK"
      }
    ]
  },
  {
    "postal": "M9N4P8",
    "result": []
  },
  {
    "postal": "M9N0V9",
    "result": []
  },
  {
    "postal": "M9N5Y2",
    "result": []
  },
  {
    "postal": "M9N7Z7",
    "result": []
  },
  {
    "postal": "M9N6Y8",
    "result": []
  },
  {
    "postal": "M9N2G7",
    "result": [
      {
        "electoralDistricts": [
          {
            "election": null,
            "id": 122,
            "name": "York South—Weston"
          }
        ],
        "pollDivisionIds": [
          10142957
        ],
        "postalCode": "M9N2G7",
        "streetName": "WILLIAM",
        "streetDirectionId": null,
        "streetTypeId": "ST",
        "placeName": "YORK",
        "streetNameDisplayText": "WILLIAM ST, YORK"
      }
    ]
  },
  {
    "postal": "M9N8C1",
    "result": []
  },
  {
    "postal": "M9N5C5",
    "result": []
  },
  {
    "postal": "M9N2X8",
    "result": [
      {
        "electoralDistricts": [
          {
            "election": null,
            "id": 122,
            "name": "York South—Weston"
          }
        ],
        "pollDivisionIds": [
          10142951
        ],
        "postalCode": "M9N2X8",
        "streetName": "PELMO",
        "streetDirectionId": null,
        "streetTypeId": "CRES",
        "placeName": "NORTH YORK",
        "streetNameDisplayText": "PELMO CRES, NORTH YORK"
      }
    ]
  },
  {
    "postal": "M9N1W5",
    "result": [
      {
        "electoralDistricts": [
          {
            "election": null,
            "id": 122,
            "name": "York South—Weston"
          }
        ],
        "pollDivisionIds": [
          10142958
        ],
        "postalCode": "M9N1W5",
        "streetName": "WESTON",
        "streetDirectionId": null,
        "streetTypeId": "RD",
        "placeName": "YORK",
        "streetNameDisplayText": "WESTON RD, YORK"
      }
    ]
  },
  {
    "postal": "M9N7G0",
    "result": []
  },
  {
    "postal": "M9N8J8",
    "result": []
  },
  {
    "postal": "M9N3Y0",
    "result": []
  },
  {
    "postal": "M9N9T7",
    "result": []
  },
  {
    "postal": "M9N5P4",
    "result": []
  },
  {
    "postal": "M9N4B0",
    "result": []
  },
  {
    "postal": "M9N9N8",
    "result": []
  },
  {
    "postal": "M9N4A7",
    "result": []
  },
  {
    "postal": "M9N4H9",
    "result": []
  },
  {
    "postal": "M9N6X1",
    "result": []
  },
  {
    "postal": "M9N9Y7",
    "result": []
  },
  {
    "postal": "M9N2Y5",
    "result": [
      {
        "electoralDistricts": [
          {
            "election": null,
            "id": 122,
            "name": "York South—Weston"
          }
        ],
        "pollDivisionIds": [
          10142951
        ],
        "postalCode": "M9N2Y5",
        "streetName": "DALBEATTIE",
        "streetDirectionId": null,
        "streetTypeId": "AVE",
        "placeName": "NORTH YORK",
        "streetNameDisplayText": "DALBEATTIE AVE, NORTH YORK"
      },
      {
        "electoralDistricts": [
          {
            "election": null,
            "id": 122,
            "name": "York South—Weston"
          }
        ],
        "pollDivisionIds": [
          10142951
        ],
        "postalCode": "M9N2Y5",
        "streetName": "WOODWARD",
        "streetDirectionId": null,
        "streetTypeId": "AVE",
        "placeName": "NORTH YORK",
        "streetNameDisplayText": "WOODWARD AVE, NORTH YORK"
      }
    ]
  },
  {
    "postal": "M9N8L7",
    "result": []
  },
  {
    "postal": "M9N2A8",
    "result": [
      {
        "electoralDistricts": [
          {
            "election": null,
            "id": 122,
            "name": "York South—Weston"
          }
        ],
        "pollDivisionIds": [
          10142950
        ],
        "postalCode": "M9N2A8",
        "streetName": "WESTON",
        "streetDirectionId": null,
        "streetTypeId": "RD",
        "placeName": "NORTH YORK",
        "streetNameDisplayText": "WESTON RD, NORTH YORK"
      }
    ]
  },
  {
    "postal": "M9N2K9",
    "result": [
      {
        "electoralDistricts": [
          {
            "election": null,
            "id": 122,
            "name": "York South—Weston"
          }
        ],
        "pollDivisionIds": [
          10142951
        ],
        "postalCode": "M9N2K9",
        "streetName": "QUEENSLEA",
        "streetDirectionId": null,
        "streetTypeId": "AVE",
        "placeName": "NORTH YORK",
        "streetNameDisplayText": "QUEENSLEA AVE, NORTH YORK"
      }
    ]
  },
  {
    "postal": "M9N3E5",
    "result": [
      {
        "electoralDistricts": [
          {
            "election": null,
            "id": 122,
            "name": "York South—Weston"
          }
        ],
        "pollDivisionIds": [
          10142951
        ],
        "postalCode": "M9N3E5",
        "streetName": "LANGSIDE",
        "streetDirectionId": null,
        "streetTypeId": "AVE",
        "placeName": "NORTH YORK",
        "streetNameDisplayText": "LANGSIDE AVE, NORTH YORK"
      }
    ]
  },
  {
    "postal": "M9N8N6",
    "result": []
  },
  {
    "postal": "M9N8J4",
    "result": []
  },
  {
    "postal": "M9N4R7",
    "result": []
  },
  {
    "postal": "M9N9K1",
    "result": []
  },
  {
    "postal": "M9N8E1",
    "result": []
  },
  {
    "postal": "M9N0R1",
    "result": []
  },
  {
    "postal": "M9N4J3",
    "result": []
  },
  {
    "postal": "M9N7E7",
    "result": []
  },
  {
    "postal": "M9N0J0",
    "result": []
  },
  {
    "postal": "M9N7R8",
    "result": []
  },
  {
    "postal": "M9N9X0",
    "result": []
  },
  {
    "postal": "M9N7P6",
    "result": []
  },
  {
    "postal": "M9N0R7",
    "result": []
  },
  {
    "postal": "M9N5W1",
    "result": []
  },
  {
    "postal": "M9N0K4",
    "result": []
  },
  {
    "postal": "M9N7N9",
    "result": []
  },
  {
    "postal": "M9N1N0",
    "result": []
  },
  {
    "postal": "M9N6P3",
    "result": []
  },
  {
    "postal": "M9N5A1",
    "result": []
  },
  {
    "postal": "M9N9M9",
    "result": []
  },
  {
    "postal": "M9N7T6",
    "result": []
  },
  {
    "postal": "M9N3X0",
    "result": []
  },
  {
    "postal": "M9N2T0",
    "result": []
  },
  {
    "postal": "M9N5X9",
    "result": []
  },
  {
    "postal": "M9N2R3",
    "result": [
      {
        "electoralDistricts": [
          {
            "election": null,
            "id": 122,
            "name": "York South—Weston"
          }
        ],
        "pollDivisionIds": [
          10142963,
          10142996
        ],
        "postalCode": "M9N2R3",
        "streetName": "JANE",
        "streetDirectionId": null,
        "streetTypeId": "ST",
        "placeName": "NORTH YORK",
        "streetNameDisplayText": "JANE ST, NORTH YORK"
      }
    ]
  },
  {
    "postal": "M9N5N2",
    "result": []
  },
  {
    "postal": "M9N4Y7",
    "result": []
  },
  {
    "postal": "M9N7M0",
    "result": []
  },
  {
    "postal": "M9N8P3",
    "result": []
  },
  {
    "postal": "M9N3N3",
    "result": []
  },
  {
    "postal": "M9N7S3",
    "result": []
  },
  {
    "postal": "M9N3V9",
    "result": [
      {
        "electoralDistricts": [
          {
            "election": null,
            "id": 122,
            "name": "York South—Weston"
          }
        ],
        "pollDivisionIds": [
          10142950
        ],
        "postalCode": "M9N3V9",
        "streetName": "WESTON",
        "streetDirectionId": null,
        "streetTypeId": "RD",
        "placeName": "NORTH YORK",
        "streetNameDisplayText": "WESTON RD, NORTH YORK"
      }
    ]
  },
  {
    "postal": "M9N9N7",
    "result": []
  },
  {
    "postal": "M9N0G4",
    "result": []
  },
  {
    "postal": "M9N2E2",
    "result": [
      {
        "electoralDistricts": [
          {
            "election": null,
            "id": 122,
            "name": "York South—Weston"
          }
        ],
        "pollDivisionIds": [
          10142958
        ],
        "postalCode": "M9N2E2",
        "streetName": "MACDONALD",
        "streetDirectionId": null,
        "streetTypeId": "AVE",
        "placeName": "YORK",
        "streetNameDisplayText": "MACDONALD AVE, YORK"
      }
    ]
  },
  {
    "postal": "M9N7W8",
    "result": []
  },
  {
    "postal": "M9N7M5",
    "result": []
  },
  {
    "postal": "M9N5W8",
    "result": []
  },
  {
    "postal": "M9N5E5",
    "result": []
  },
  {
    "postal": "M9N1P9",
    "result": [
      {
        "electoralDistricts": [
          {
            "election": null,
            "id": 122,
            "name": "York South—Weston"
          }
        ],
        "pollDivisionIds": [
          10142951
        ],
        "postalCode": "M9N1P9",
        "streetName": "RECTORY",
        "streetDirectionId": null,
        "streetTypeId": "RD",
        "placeName": "YORK",
        "streetNameDisplayText": "RECTORY RD, YORK"
      }
    ]
  },
  {
    "postal": "M9N8V8",
    "result": []
  },
  {
    "postal": "M9N9G8",
    "result": []
  },
  {
    "postal": "M9N8H9",
    "result": []
  },
  {
    "postal": "M9N1Z1",
    "result": [
      {
        "electoralDistricts": [
          {
            "election": null,
            "id": 122,
            "name": "York South—Weston"
          }
        ],
        "pollDivisionIds": [
          10142955
        ],
        "postalCode": "M9N1Z1",
        "streetName": "WESTON",
        "streetDirectionId": null,
        "streetTypeId": "RD",
        "placeName": "NORTH YORK",
        "streetNameDisplayText": "WESTON RD, NORTH YORK"
      },
      {
        "electoralDistricts": [
          {
            "election": null,
            "id": 122,
            "name": "York South—Weston"
          }
        ],
        "pollDivisionIds": [
          10142955
        ],
        "postalCode": "M9N1Z1",
        "streetName": "WESTON",
        "streetDirectionId": null,
        "streetTypeId": "RD",
        "placeName": "YORK",
        "streetNameDisplayText": "WESTON RD, YORK"
      }
    ]
  },
  {
    "postal": "M9N8M3",
    "result": []
  },
  {
    "postal": "M9N5H6",
    "result": []
  },
  {
    "postal": "M9N7W7",
    "result": []
  },
  {
    "postal": "M9N4L0",
    "result": []
  },
  {
    "postal": "M9N2N1",
    "result": [
      {
        "electoralDistricts": [
          {
            "election": null,
            "id": 122,
            "name": "York South—Weston"
          }
        ],
        "pollDivisionIds": [
          10142950
        ],
        "postalCode": "M9N2N1",
        "streetName": "GARY",
        "streetDirectionId": null,
        "streetTypeId": "DR",
        "placeName": "NORTH YORK",
        "streetNameDisplayText": "GARY DR, NORTH YORK"
      }
    ]
  },
  {
    "postal": "M9N2H4",
    "result": [
      {
        "electoralDistricts": [
          {
            "election": null,
            "id": 122,
            "name": "York South—Weston"
          }
        ],
        "pollDivisionIds": [
          10142957
        ],
        "postalCode": "M9N2H4",
        "streetName": "QUEENS",
        "streetDirectionId": null,
        "streetTypeId": "DR",
        "placeName": "YORK",
        "streetNameDisplayText": "QUEENS DR, YORK"
      }
    ]
  },
  {
    "postal": "M9N5C8",
    "result": []
  },
  {
    "postal": "M9N8B0",
    "result": []
  },
  {
    "postal": "M9N1T4",
    "result": [
      {
        "electoralDistricts": [
          {
            "election": null,
            "id": 122,
            "name": "York South—Weston"
          }
        ],
        "pollDivisionIds": [
          10142962
        ],
        "postalCode": "M9N1T4",
        "streetName": "WESTON",
        "streetDirectionId": null,
        "streetTypeId": "RD",
        "placeName": "YORK",
        "streetNameDisplayText": "WESTON RD, YORK"
      }
    ]
  },
  {
    "postal": "M9N7N7",
    "result": []
  },
  {
    "postal": "M9N4L3",
    "result": []
  },
  {
    "postal": "M9N2N2",
    "result": [
      {
        "electoralDistricts": [
          {
            "election": null,
            "id": 122,
            "name": "York South—Weston"
          }
        ],
        "pollDivisionIds": [
          10142951
        ],
        "postalCode": "M9N2N2",
        "streetName": "GARY",
        "streetDirectionId": null,
        "streetTypeId": "DR",
        "placeName": "NORTH YORK",
        "streetNameDisplayText": "GARY DR, NORTH YORK"
      }
    ]
  },
  {
    "postal": "M9N4N8",
    "result": []
  },
  {
    "postal": "M9N3M5",
    "result": []
  },
  {
    "postal": "M9N6H7",
    "result": []
  },
  {
    "postal": "M9N8Y8",
    "result": []
  },
  {
    "postal": "M9N5R9",
    "result": []
  },
  {
    "postal": "M9N8G3",
    "result": []
  },
  {
    "postal": "M9N4N7",
    "result": []
  },
  {
    "postal": "M9N0B9",
    "result": []
  },
  {
    "postal": "M9N9K7",
    "result": []
  },
  {
    "postal": "M9N9K9",
    "result": []
  },
  {
    "postal": "M9N3Z2",
    "result": [
      {
        "electoralDistricts": [
          {
            "election": null,
            "id": 122,
            "name": "York South—Weston"
          }
        ],
        "pollDivisionIds": [
          10142963
        ],
        "postalCode": "M9N3Z2",
        "streetName": "WRIGHT",
        "streetDirectionId": null,
        "streetTypeId": "AVE",
        "placeName": "YORK",
        "streetNameDisplayText": "WRIGHT AVE, YORK"
      }
    ]
  },
  {
    "postal": "M9N6W7",
    "result": []
  },
  {
    "postal": "M9N0P1",
    "result": []
  },
  {
    "postal": "M9N3A0",
    "result": []
  },
  {
    "postal": "M9N8L9",
    "result": []
  },
  {
    "postal": "M9N6X0",
    "result": []
  },
  {
    "postal": "M9N3E9",
    "result": [
      {
        "electoralDistricts": [
          {
            "election": null,
            "id": 122,
            "name": "York South—Weston"
          }
        ],
        "pollDivisionIds": [
          10142951
        ],
        "postalCode": "M9N3E9",
        "streetName": "RANWOOD",
        "streetDirectionId": null,
        "streetTypeId": "DR",
        "placeName": "NORTH YORK",
        "streetNameDisplayText": "RANWOOD DR, NORTH YORK"
      }
    ]
  },
  {
    "postal": "M9N0S5",
    "result": []
  },
  {
    "postal": "M9N1A2",
    "result": [
      {
        "electoralDistricts": [
          {
            "election": null,
            "id": 122,
            "name": "York South—Weston"
          }
        ],
        "pollDivisionIds": [
          10142962
        ],
        "postalCode": "M9N1A2",
        "streetName": "EDMUND",
        "streetDirectionId": null,
        "streetTypeId": "AVE",
        "placeName": "YORK",
        "streetNameDisplayText": "EDMUND AVE, YORK"
      }
    ]
  },
  {
    "postal": "M9N5V8",
    "result": []
  },
  {
    "postal": "M9N8C5",
    "result": []
  },
  {
    "postal": "M9N6N0",
    "result": []
  },
  {
    "postal": "M9N9E6",
    "result": []
  },
  {
    "postal": "M9N5J7",
    "result": []
  },
  {
    "postal": "M9N2R2",
    "result": [
      {
        "electoralDistricts": [
          {
            "election": null,
            "id": 122,
            "name": "York South—Weston"
          }
        ],
        "pollDivisionIds": [
          10142963
        ],
        "postalCode": "M9N2R2",
        "streetName": "JANE",
        "streetDirectionId": null,
        "streetTypeId": "ST",
        "placeName": "NORTH YORK",
        "streetNameDisplayText": "JANE ST, NORTH YORK"
      }
    ]
  },
  {
    "postal": "M9N0P5",
    "result": []
  },
  {
    "postal": "M9N5A7",
    "result": []
  },
  {
    "postal": "M9N1G1",
    "result": [
      {
        "electoralDistricts": [
          {
            "election": null,
            "id": 122,
            "name": "York South—Weston"
          },
          {
            "election": null,
            "id": 111,
            "name": "Toronto—St. Paul's"
          }
        ],
        "pollDivisionIds": [
          10142963,
          10136060
        ],
        "postalCode": "M9N1G1",
        "streetName": "SPEERS",
        "streetDirectionId": null,
        "streetTypeId": "AVE",
        "placeName": "YORK",
        "streetNameDisplayText": "SPEERS AVE, YORK"
      }
    ]
  },
  {
    "postal": "M9N9R6",
    "result": []
  },
  {
    "postal": "M9N4Z9",
    "result": []
  },
  {
    "postal": "M9N1V5",
    "result": [
      {
        "electoralDistricts": [
          {
            "election": null,
            "id": 122,
            "name": "York South—Weston"
          }
        ],
        "pollDivisionIds": [
          10142962
        ],
        "postalCode": "M9N1V5",
        "streetName": "WESTON",
        "streetDirectionId": null,
        "streetTypeId": "RD",
        "placeName": "YORK",
        "streetNameDisplayText": "WESTON RD, YORK"
      }
    ]
  },
  {
    "postal": "M9N9Y5",
    "result": []
  },
  {
    "postal": "M9N1P2",
    "result": [
      {
        "electoralDistricts": [
          {
            "election": null,
            "id": 122,
            "name": "York South—Weston"
          }
        ],
        "pollDivisionIds": [
          10142956
        ],
        "postalCode": "M9N1P2",
        "streetName": "CONRON",
        "streetDirectionId": null,
        "streetTypeId": "PL",
        "placeName": "YORK",
        "streetNameDisplayText": "CONRON PL, YORK"
      }
    ]
  },
  {
    "postal": "M9N5X0",
    "result": []
  },
  {
    "postal": "M9N7B8",
    "result": []
  },
  {
    "postal": "M9N0C6",
    "result": []
  },
  {
    "postal": "M9N6G1",
    "result": []
  },
  {
    "postal": "M9N3K3",
    "result": [
      {
        "electoralDistricts": [
          {
            "election": null,
            "id": 122,
            "name": "York South—Weston"
          }
        ],
        "pollDivisionIds": [
          10142950
        ],
        "postalCode": "M9N3K3",
        "streetName": "ACADEMY",
        "streetDirectionId": null,
        "streetTypeId": "RD",
        "placeName": "NORTH YORK",
        "streetNameDisplayText": "ACADEMY RD, NORTH YORK"
      }
    ]
  },
  {
    "postal": "M9N9R0",
    "result": []
  },
  {
    "postal": "M9N4R8",
    "result": []
  },
  {
    "postal": "M9N5P9",
    "result": []
  },
  {
    "postal": "M9N8N4",
    "result": []
  },
  {
    "postal": "M9N8H4",
    "result": []
  },
  {
    "postal": "M9N4V1",
    "result": []
  },
  {
    "postal": "M9N1K5",
    "result": []
  },
  {
    "postal": "M9N1Z5",
    "result": [
      {
        "electoralDistricts": [
          {
            "election": null,
            "id": 122,
            "name": "York South—Weston"
          }
        ],
        "pollDivisionIds": [
          10142951,
          10142954
        ],
        "postalCode": "M9N1Z5",
        "streetName": "WESTON",
        "streetDirectionId": null,
        "streetTypeId": "RD",
        "placeName": "YORK",
        "streetNameDisplayText": "WESTON RD, YORK"
      }
    ]
  },
  {
    "postal": "M9N9L9",
    "result": []
  },
  {
    "postal": "M9N5L2",
    "result": []
  },
  {
    "postal": "M9N0M2",
    "result": []
  },
  {
    "postal": "M9N1K8",
    "result": [
      {
        "electoralDistricts": [
          {
            "election": null,
            "id": 121,
            "name": "York—Simcoe"
          }
        ],
        "pollDivisionIds": [
          10142917
        ],
        "postalCode": "M9N1K8",
        "streetName": "KING",
        "streetDirectionId": null,
        "streetTypeId": "ST",
        "placeName": "MOUNT ALBERT",
        "streetNameDisplayText": "KING ST, MOUNT ALBERT"
      },
      {
        "electoralDistricts": [
          {
            "election": null,
            "id": 121,
            "name": "York—Simcoe"
          },
          {
            "election": null,
            "id": 122,
            "name": "York South—Weston"
          }
        ],
        "pollDivisionIds": [
          10142921,
          10142991,
          10142956
        ],
        "postalCode": "M9N1K8",
        "streetName": "KING",
        "streetDirectionId": null,
        "streetTypeId": "ST",
        "placeName": "YORK",
        "streetNameDisplayText": "KING ST, YORK"
      }
    ]
  },
  {
    "postal": "M9N3M7",
    "result": []
  },
  {
    "postal": "M9N1B2",
    "result": [
      {
        "electoralDistricts": [
          {
            "election": null,
            "id": 122,
            "name": "York South—Weston"
          }
        ],
        "pollDivisionIds": [
          10142962
        ],
        "postalCode": "M9N1B2",
        "streetName": "LIPPINCOTT",
        "streetDirectionId": "E",
        "streetTypeId": "ST",
        "placeName": "YORK",
        "streetNameDisplayText": "LIPPINCOTT ST E, YORK"
      }
    ]
  },
  {
    "postal": "M9N0H9",
    "result": []
  },
  {
    "postal": "M9N8M4",
    "result": []
  },
  {
    "postal": "M9N2M5",
    "result": [
      {
        "electoralDistricts": [
          {
            "election": null,
            "id": 122,
            "name": "York South—Weston"
          }
        ],
        "pollDivisionIds": [
          10142951
        ],
        "postalCode": "M9N2M5",
        "streetName": "GARY",
        "streetDirectionId": null,
        "streetTypeId": "DR",
        "placeName": "NORTH YORK",
        "streetNameDisplayText": "GARY DR, NORTH YORK"
      }
    ]
  },
  {
    "postal": "M9N0T9",
    "result": []
  },
  {
    "postal": "M9N3P1",
    "result": [
      {
        "electoralDistricts": [
          {
            "election": null,
            "id": 122,
            "name": "York South—Weston"
          }
        ],
        "pollDivisionIds": [
          10142954
        ],
        "postalCode": "M9N3P1",
        "streetName": "WESTON",
        "streetDirectionId": null,
        "streetTypeId": "RD",
        "placeName": "TORONTO,ONTARIO",
        "streetNameDisplayText": "WESTON RD, TORONTO,ONTARIO"
      },
      {
        "electoralDistricts": [
          {
            "election": null,
            "id": 122,
            "name": "York South—Weston"
          }
        ],
        "pollDivisionIds": [
          10142993
        ],
        "postalCode": "M9N3P1",
        "streetName": "WESTON",
        "streetDirectionId": null,
        "streetTypeId": "RD",
        "placeName": "YORK",
        "streetNameDisplayText": "WESTON RD, YORK"
      }
    ]
  },
  {
    "postal": "M9N1R6",
    "result": [
      {
        "electoralDistricts": [
          {
            "election": null,
            "id": 122,
            "name": "York South—Weston"
          }
        ],
        "pollDivisionIds": [
          10142951
        ],
        "postalCode": "M9N1R6",
        "streetName": "HUMBERVIEW",
        "streetDirectionId": null,
        "streetTypeId": "CRES",
        "placeName": "YORK",
        "streetNameDisplayText": "HUMBERVIEW CRES, YORK"
      }
    ]
  },
  {
    "postal": "M9N9V5",
    "result": []
  },
  {
    "postal": "M9N9T0",
    "result": []
  },
  {
    "postal": "M9N0A9",
    "result": []
  },
  {
    "postal": "M9N1M3",
    "result": [
      {
        "electoralDistricts": [
          {
            "election": null,
            "id": 56,
            "name": "Markham—Stouffville"
          }
        ],
        "pollDivisionIds": [
          10134355
        ],
        "postalCode": "M9N1M3",
        "streetName": "CHURCH",
        "streetDirectionId": null,
        "streetTypeId": "ST",
        "placeName": "MARKHAM",
        "streetNameDisplayText": "CHURCH ST, MARKHAM"
      },
      {
        "electoralDistricts": [
          {
            "election": null,
            "id": 122,
            "name": "York South—Weston"
          },
          {
            "election": null,
            "id": 56,
            "name": "Markham—Stouffville"
          }
        ],
        "pollDivisionIds": [
          10142956,
          10134355
        ],
        "postalCode": "M9N1M3",
        "streetName": "CHURCH",
        "streetDirectionId": null,
        "streetTypeId": "ST",
        "placeName": "YORK",
        "streetNameDisplayText": "CHURCH ST, YORK"
      }
    ]
  },
  {
    "postal": "M9N1W8",
    "result": [
      {
        "electoralDistricts": [
          {
            "election": null,
            "id": 122,
            "name": "York South—Weston"
          }
        ],
        "pollDivisionIds": [
          10142952,
          10142956
        ],
        "postalCode": "M9N1W8",
        "streetName": "WESTON",
        "streetDirectionId": null,
        "streetTypeId": "RD",
        "placeName": "YORK",
        "streetNameDisplayText": "WESTON RD, YORK"
      }
    ]
  },
  {
    "postal": "M9N9J1",
    "result": []
  },
  {
    "postal": "M9N8N5",
    "result": []
  },
  {
    "postal": "M9N5X1",
    "result": []
  },
  {
    "postal": "M9N6S2",
    "result": []
  },
  {
    "postal": "M9N2A2",
    "result": []
  },
  {
    "postal": "M9N6A6",
    "result": []
  },
  {
    "postal": "M9N0S3",
    "result": []
  },
  {
    "postal": "M9N3E7",
    "result": [
      {
        "electoralDistricts": [
          {
            "election": null,
            "id": 122,
            "name": "York South—Weston"
          }
        ],
        "pollDivisionIds": [
          10142957
        ],
        "postalCode": "M9N3E7",
        "streetName": "CYPRESS",
        "streetDirectionId": null,
        "streetTypeId": "ST",
        "placeName": "YORK",
        "streetNameDisplayText": "CYPRESS ST, YORK"
      }
    ]
  },
  {
    "postal": "M9N5R7",
    "result": []
  },
  {
    "postal": "M9N3R6",
    "result": []
  },
  {
    "postal": "M9N6K4",
    "result": []
  },
  {
    "postal": "M9N2W5",
    "result": [
      {
        "electoralDistricts": [
          {
            "election": null,
            "id": 122,
            "name": "York South—Weston"
          }
        ],
        "pollDivisionIds": [
          10142951
        ],
        "postalCode": "M9N2W5",
        "streetName": "BOYLEN",
        "streetDirectionId": null,
        "streetTypeId": "ST",
        "placeName": "NORTH YORK",
        "streetNameDisplayText": "BOYLEN ST, NORTH YORK"
      }
    ]
  },
  {
    "postal": "M9N8W4",
    "result": []
  },
  {
    "postal": "M9N9C2",
    "result": []
  },
  {
    "postal": "M9N2C0",
    "result": []
  },
  {
    "postal": "M9N0E1",
    "result": []
  },
  {
    "postal": "M9N1K9",
    "result": [
      {
        "electoralDistricts": [
          {
            "election": null,
            "id": 122,
            "name": "York South—Weston"
          }
        ],
        "pollDivisionIds": [
          10142950
        ],
        "postalCode": "M9N1K9",
        "streetName": "KING ST",
        "streetDirectionId": null,
        "streetTypeId": "CRES",
        "placeName": "YORK",
        "streetNameDisplayText": "KING ST CRES, YORK"
      },
      {
        "electoralDistricts": [
          {
            "election": null,
            "id": 109,
            "name": "Toronto Centre"
          }
        ],
        "pollDivisionIds": [
          10135203
        ],
        "postalCode": "M9N1K9",
        "streetName": "KING",
        "streetDirectionId": "W",
        "streetTypeId": "ST",
        "placeName": "YORK",
        "streetNameDisplayText": "KING ST W, YORK"
      },
      {
        "electoralDistricts": [
          {
            "election": null,
            "id": 121,
            "name": "York—Simcoe"
          }
        ],
        "pollDivisionIds": [
          10142917
        ],
        "postalCode": "M9N1K9",
        "streetName": "KING",
        "streetDirectionId": null,
        "streetTypeId": "ST",
        "placeName": "MOUNT ALBERT",
        "streetNameDisplayText": "KING ST, MOUNT ALBERT"
      },
      {
        "electoralDistricts": [
          {
            "election": null,
            "id": 122,
            "name": "York South—Weston"
          },
          {
            "election": null,
            "id": 121,
            "name": "York—Simcoe"
          }
        ],
        "pollDivisionIds": [
          10142956,
          10142921
        ],
        "postalCode": "M9N1K9",
        "streetName": "KING",
        "streetDirectionId": null,
        "streetTypeId": "ST",
        "placeName": "YORK",
        "streetNameDisplayText": "KING ST, YORK"
      }
    ]
  },
  {
    "postal": "M9N1G7",
    "result": [
      {
        "electoralDistricts": [
          {
            "election": null,
            "id": 122,
            "name": "York South—Weston"
          }
        ],
        "pollDivisionIds": [
          10142963
        ],
        "postalCode": "M9N1G7",
        "streetName": "PLAINFIELD",
        "streetDirectionId": null,
        "streetTypeId": "RD",
        "placeName": "NORTH YORK",
        "streetNameDisplayText": "PLAINFIELD RD, NORTH YORK"
      }
    ]
  },
  {
    "postal": "M9N4E9",
    "result": []
  },
  {
    "postal": "M9N9P0",
    "result": []
  },
  {
    "postal": "M9N5H3",
    "result": []
  },
  {
    "postal": "M9N9X6",
    "result": []
  },
  {
    "postal": "M9N5N7",
    "result": []
  },
  {
    "postal": "M9N5A6",
    "result": []
  },
  {
    "postal": "M9N4M0",
    "result": []
  },
  {
    "postal": "M9N3V6",
    "result": []
  },
  {
    "postal": "M9N1L7",
    "result": [
      {
        "electoralDistricts": [
          {
            "election": null,
            "id": 101,
            "name": "Spadina—Fort York"
          }
        ],
        "pollDivisionIds": [
          10141959
        ],
        "postalCode": "M9N1L7",
        "streetName": "KING",
        "streetDirectionId": "W",
        "streetTypeId": "ST",
        "placeName": "TORONTO",
        "streetNameDisplayText": "KING ST W, TORONTO"
      },
      {
        "electoralDistricts": [
          {
            "election": null,
            "id": 122,
            "name": "York South—Weston"
          }
        ],
        "pollDivisionIds": [
          10142957
        ],
        "postalCode": "M9N1L7",
        "streetName": "KING",
        "streetDirectionId": null,
        "streetTypeId": "ST",
        "placeName": "YORK",
        "streetNameDisplayText": "KING ST, YORK"
      }
    ]
  },
  {
    "postal": "M9N2P9",
    "result": [
      {
        "electoralDistricts": [
          {
            "election": null,
            "id": 122,
            "name": "York South—Weston"
          }
        ],
        "pollDivisionIds": [
          10142950
        ],
        "postalCode": "M9N2P9",
        "streetName": "PELLATT",
        "streetDirectionId": null,
        "streetTypeId": "AVE",
        "placeName": "NORTH YORK",
        "streetNameDisplayText": "PELLATT AVE, NORTH YORK"
      }
    ]
  },
  {
    "postal": "M9N5T4",
    "result": []
  },
  {
    "postal": "M9N5Z1",
    "result": []
  },
  {
    "postal": "M9N2X0",
    "result": []
  },
  {
    "postal": "M9N6Z2",
    "result": []
  },
  {
    "postal": "M9N0E0",
    "result": []
  },
  {
    "postal": "M9N3Z5",
    "result": [
      {
        "electoralDistricts": [
          {
            "election": null,
            "id": 122,
            "name": "York South—Weston"
          }
        ],
        "pollDivisionIds": [
          10142950
        ],
        "postalCode": "M9N3Z5",
        "streetName": "WEST OAK",
        "streetDirectionId": null,
        "streetTypeId": "CRES",
        "placeName": "NORTH YORK",
        "streetNameDisplayText": "WEST OAK CRES, NORTH YORK"
      },
      {
        "electoralDistricts": [
          {
            "election": null,
            "id": 122,
            "name": "York South—Weston"
          }
        ],
        "pollDivisionIds": [
          10142950
        ],
        "postalCode": "M9N3Z5",
        "streetName": "WESTON DOWNS",
        "streetDirectionId": null,
        "streetTypeId": "AVE",
        "placeName": "NORTH YORK",
        "streetNameDisplayText": "WESTON DOWNS AVE, NORTH YORK"
      }
    ]
  },
  {
    "postal": "M9N8H3",
    "result": []
  },
  {
    "postal": "M9N7S6",
    "result": []
  },
  {
    "postal": "M9N4C1",
    "result": []
  },
  {
    "postal": "M9N3K2",
    "result": [
      {
        "electoralDistricts": [
          {
            "election": null,
            "id": 122,
            "name": "York South—Weston"
          }
        ],
        "pollDivisionIds": [
          10142950
        ],
        "postalCode": "M9N3K2",
        "streetName": "ACADEMY",
        "streetDirectionId": null,
        "streetTypeId": "RD",
        "placeName": "NORTH YORK",
        "streetNameDisplayText": "ACADEMY RD, NORTH YORK"
      }
    ]
  },
  {
    "postal": "M9N1Y5",
    "result": [
      {
        "electoralDistricts": [
          {
            "election": null,
            "id": 122,
            "name": "York South—Weston"
          }
        ],
        "pollDivisionIds": [
          10142955,
          10142956
        ],
        "postalCode": "M9N1Y5",
        "streetName": "WESTON",
        "streetDirectionId": null,
        "streetTypeId": "RD",
        "placeName": "YORK",
        "streetNameDisplayText": "WESTON RD, YORK"
      }
    ]
  },
  {
    "postal": "M9N6P6",
    "result": []
  },
  {
    "postal": "M9N3N9",
    "result": [
      {
        "electoralDistricts": [
          {
            "election": null,
            "id": 122,
            "name": "York South—Weston"
          }
        ],
        "pollDivisionIds": [
          10142952
        ],
        "postalCode": "M9N3N9",
        "streetName": "SUNTRACT",
        "streetDirectionId": null,
        "streetTypeId": "RD",
        "placeName": "NORTH YORK",
        "streetNameDisplayText": "SUNTRACT RD, NORTH YORK"
      }
    ]
  },
  {
    "postal": "M9N3W2",
    "result": []
  },
  {
    "postal": "M9N6H8",
    "result": []
  },
  {
    "postal": "M9N9T3",
    "result": []
  },
  {
    "postal": "M9N5L9",
    "result": []
  },
  {
    "postal": "M9N7X7",
    "result": []
  },
  {
    "postal": "M9N3J5",
    "result": [
      {
        "electoralDistricts": [
          {
            "election": null,
            "id": 122,
            "name": "York South—Weston"
          }
        ],
        "pollDivisionIds": [
          10142951
        ],
        "postalCode": "M9N3J5",
        "streetName": "GRATTAN",
        "streetDirectionId": null,
        "streetTypeId": "ST",
        "placeName": "NORTH YORK",
        "streetNameDisplayText": "GRATTAN ST, NORTH YORK"
      }
    ]
  },
  {
    "postal": "M9N4J5",
    "result": []
  },
  {
    "postal": "M9N6J2",
    "result": []
  },
  {
    "postal": "M9N5V6",
    "result": []
  },
  {
    "postal": "M9N3N2",
    "result": []
  },
  {
    "postal": "M9N3B1",
    "result": [
      {
        "electoralDistricts": [
          {
            "election": null,
            "id": 122,
            "name": "York South—Weston"
          }
        ],
        "pollDivisionIds": [
          10142958
        ],
        "postalCode": "M9N3B1",
        "streetName": "SPRINGMOUNT",
        "streetDirectionId": null,
        "streetTypeId": "AVE",
        "placeName": "YORK",
        "streetNameDisplayText": "SPRINGMOUNT AVE, YORK"
      }
    ]
  },
  {
    "postal": "M9N8B5",
    "result": []
  },
  {
    "postal": "M9N0K1",
    "result": []
  },
  {
    "postal": "M9N7M7",
    "result": []
  },
  {
    "postal": "M9N2M2",
    "result": [
      {
        "electoralDistricts": [
          {
            "election": null,
            "id": 122,
            "name": "York South—Weston"
          }
        ],
        "pollDivisionIds": [
          10142951
        ],
        "postalCode": "M9N2M2",
        "streetName": "GARY",
        "streetDirectionId": null,
        "streetTypeId": "DR",
        "placeName": "NORTH YORK",
        "streetNameDisplayText": "GARY DR, NORTH YORK"
      }
    ]
  },
  {
    "postal": "M9N9N3",
    "result": []
  },
  {
    "postal": "M9N4Y8",
    "result": []
  },
  {
    "postal": "M9N3V7",
    "result": [
      {
        "electoralDistricts": [
          {
            "election": null,
            "id": 122,
            "name": "York South—Weston"
          }
        ],
        "pollDivisionIds": [
          10142959
        ],
        "postalCode": "M9N3V7",
        "streetName": "JANE",
        "streetDirectionId": null,
        "streetTypeId": "ST",
        "placeName": "NORTH YORK",
        "streetNameDisplayText": "JANE ST, NORTH YORK"
      }
    ]
  },
  {
    "postal": "M9N8Z1",
    "result": []
  },
  {
    "postal": "M9N7B3",
    "result": []
  },
  {
    "postal": "M9N3A8",
    "result": [
      {
        "electoralDistricts": [
          {
            "election": null,
            "id": 122,
            "name": "York South—Weston"
          }
        ],
        "pollDivisionIds": [
          10142958
        ],
        "postalCode": "M9N3A8",
        "streetName": "RALPH",
        "streetDirectionId": null,
        "streetTypeId": "ST",
        "placeName": "YORK",
        "streetNameDisplayText": "RALPH ST, YORK"
      }
    ]
  },
  {
    "postal": "M9N7V5",
    "result": []
  },
  {
    "postal": "M9N2T2",
    "result": [
      {
        "electoralDistricts": [
          {
            "election": null,
            "id": 122,
            "name": "York South—Weston"
          }
        ],
        "pollDivisionIds": [
          10142957
        ],
        "postalCode": "M9N2T2",
        "streetName": "JANE",
        "streetDirectionId": null,
        "streetTypeId": "ST",
        "placeName": "YORK",
        "streetNameDisplayText": "JANE ST, YORK"
      }
    ]
  },
  {
    "postal": "M9N6L3",
    "result": []
  },
  {
    "postal": "M9N0L2",
    "result": []
  },
  {
    "postal": "M9N5Y8",
    "result": []
  },
  {
    "postal": "M9N0B8",
    "result": []
  },
  {
    "postal": "M9N6R5",
    "result": []
  },
  {
    "postal": "M9N8W6",
    "result": []
  },
  {
    "postal": "M9N8G6",
    "result": []
  },
  {
    "postal": "M9N6X3",
    "result": []
  },
  {
    "postal": "M9N7R7",
    "result": []
  },
  {
    "postal": "M9N4B6",
    "result": []
  },
  {
    "postal": "M9N3P9",
    "result": [
      {
        "electoralDistricts": [
          {
            "election": null,
            "id": 122,
            "name": "York South—Weston"
          }
        ],
        "pollDivisionIds": [
          10142992,
          10142954
        ],
        "postalCode": "M9N3P9",
        "streetName": "HICKORY TREE",
        "streetDirectionId": null,
        "streetTypeId": "RD",
        "placeName": "YORK",
        "streetNameDisplayText": "HICKORY TREE RD, YORK"
      }
    ]
  },
  {
    "postal": "M9N2T3",
    "result": [
      {
        "electoralDistricts": [
          {
            "election": null,
            "id": 122,
            "name": "York South—Weston"
          }
        ],
        "pollDivisionIds": [
          10142957
        ],
        "postalCode": "M9N2T3",
        "streetName": "JANE",
        "streetDirectionId": null,
        "streetTypeId": "ST",
        "placeName": "YORK",
        "streetNameDisplayText": "JANE ST, YORK"
      }
    ]
  },
  {
    "postal": "M9N1M4",
    "result": [
      {
        "electoralDistricts": [
          {
            "election": null,
            "id": 122,
            "name": "York South—Weston"
          },
          {
            "election": null,
            "id": 45,
            "name": "King—Vaughan"
          }
        ],
        "pollDivisionIds": [
          10142956,
          10139077
        ],
        "postalCode": "M9N1M4",
        "streetName": "CHURCH",
        "streetDirectionId": null,
        "streetTypeId": "ST",
        "placeName": "YORK",
        "streetNameDisplayText": "CHURCH ST, YORK"
      }
    ]
  },
  {
    "postal": "M9N0H1",
    "result": []
  },
  {
    "postal": "M9N9W3",
    "result": []
  },
  {
    "postal": "M9N6P1",
    "result": []
  },
  {
    "postal": "M9N7G2",
    "result": []
  },
  {
    "postal": "M9N4J9",
    "result": []
  },
  {
    "postal": "M9N9E4",
    "result": []
  },
  {
    "postal": "M9N8H0",
    "result": []
  },
  {
    "postal": "M9N4M7",
    "result": []
  },
  {
    "postal": "M9N2G9",
    "result": [
      {
        "electoralDistricts": [
          {
            "election": null,
            "id": 122,
            "name": "York South—Weston"
          }
        ],
        "pollDivisionIds": [
          10142958
        ],
        "postalCode": "M9N2G9",
        "streetName": "WILLIAM",
        "streetDirectionId": null,
        "streetTypeId": "ST",
        "placeName": "YORK",
        "streetNameDisplayText": "WILLIAM ST, YORK"
      }
    ]
  },
  {
    "postal": "M9N8T2",
    "result": []
  },
  {
    "postal": "M9N7G7",
    "result": []
  },
  {
    "postal": "M9N4Z3",
    "result": []
  },
  {
    "postal": "M9N5B3",
    "result": []
  },
  {
    "postal": "M9N1S7",
    "result": [
      {
        "electoralDistricts": [
          {
            "election": null,
            "id": 122,
            "name": "York South—Weston"
          }
        ],
        "pollDivisionIds": [
          10142950
        ],
        "postalCode": "M9N1S7",
        "streetName": "MAPLE BUSH",
        "streetDirectionId": null,
        "streetTypeId": "AVE",
        "placeName": "NORTH YORK",
        "streetNameDisplayText": "MAPLE BUSH AVE, NORTH YORK"
      }
    ]
  },
  {
    "postal": "M9N2N7",
    "result": [
      {
        "electoralDistricts": [
          {
            "election": null,
            "id": 122,
            "name": "York South—Weston"
          }
        ],
        "pollDivisionIds": [
          10142950
        ],
        "postalCode": "M9N2N7",
        "streetName": "WALL",
        "streetDirectionId": null,
        "streetTypeId": "AVE",
        "placeName": "NORTH YORK",
        "streetNameDisplayText": "WALL AVE, NORTH YORK"
      }
    ]
  },
  {
    "postal": "M9N0H8",
    "result": []
  },
  {
    "postal": "M9N7Z4",
    "result": []
  },
  {
    "postal": "M9N7B1",
    "result": []
  },
  {
    "postal": "M9N7P8",
    "result": []
  },
  {
    "postal": "M9N7N0",
    "result": []
  },
  {
    "postal": "M9N3Y5",
    "result": [
      {
        "electoralDistricts": [
          {
            "election": null,
            "id": 122,
            "name": "York South—Weston"
          }
        ],
        "pollDivisionIds": [
          10142963
        ],
        "postalCode": "M9N3Y5",
        "streetName": "MARGARET ROSE",
        "streetDirectionId": null,
        "streetTypeId": "CRT",
        "placeName": "NORTH YORK",
        "streetNameDisplayText": "MARGARET ROSE CRT, NORTH YORK"
      },
      {
        "electoralDistricts": [
          {
            "election": null,
            "id": 122,
            "name": "York South—Weston"
          }
        ],
        "pollDivisionIds": [
          10142963
        ],
        "postalCode": "M9N3Y5",
        "streetName": "SAM FRUSTAGLIO",
        "streetDirectionId": null,
        "streetTypeId": "DR",
        "placeName": "NORTH YORK",
        "streetNameDisplayText": "SAM FRUSTAGLIO DR, NORTH YORK"
      }
    ]
  },
  {
    "postal": "M9N6K1",
    "result": []
  },
  {
    "postal": "M9N9X5",
    "result": []
  },
  {
    "postal": "M9N7S5",
    "result": []
  },
  {
    "postal": "M9N0A4",
    "result": [
      {
        "electoralDistricts": [
          {
            "election": null,
            "id": 122,
            "name": "York South—Weston"
          }
        ],
        "pollDivisionIds": [
          10142951
        ],
        "postalCode": "M9N0A4",
        "streetName": "A OAK",
        "streetDirectionId": null,
        "streetTypeId": "ST",
        "placeName": "NORTH YORK",
        "streetNameDisplayText": "A OAK ST, NORTH YORK"
      },
      {
        "electoralDistricts": [
          {
            "election": null,
            "id": 109,
            "name": "Toronto Centre"
          },
          {
            "election": null,
            "id": 122,
            "name": "York South—Weston"
          }
        ],
        "pollDivisionIds": [
          10135195,
          10142951
        ],
        "postalCode": "M9N0A4",
        "streetName": "OAK",
        "streetDirectionId": null,
        "streetTypeId": "ST",
        "placeName": "NORTH YORK",
        "streetNameDisplayText": "OAK ST, NORTH YORK"
      },
      {
        "electoralDistricts": [
          {
            "election": null,
            "id": 122,
            "name": "York South—Weston"
          }
        ],
        "pollDivisionIds": [
          10142951
        ],
        "postalCode": "M9N0A4",
        "streetName": "PIGGOTT",
        "streetDirectionId": null,
        "streetTypeId": "MEWS",
        "placeName": "NORTH YORK",
        "streetNameDisplayText": "PIGGOTT MEWS, NORTH YORK"
      },
      {
        "electoralDistricts": [
          {
            "election": null,
            "id": 122,
            "name": "York South—Weston"
          }
        ],
        "pollDivisionIds": [
          10142951
        ],
        "postalCode": "M9N0A4",
        "streetName": "PONT",
        "streetDirectionId": null,
        "streetTypeId": "LANE",
        "placeName": "NORTH YORK",
        "streetNameDisplayText": "PONT LANE, NORTH YORK"
      }
    ]
  },
  {
    "postal": "M9N4T5",
    "result": []
  },
  {
    "postal": "M9N5K1",
    "result": []
  },
  {
    "postal": "M9N0Z9",
    "result": []
  },
  {
    "postal": "M9N7T2",
    "result": []
  },
  {
    "postal": "M9N1L5",
    "result": [
      {
        "electoralDistricts": [
          {
            "election": null,
            "id": 109,
            "name": "Toronto Centre"
          }
        ],
        "pollDivisionIds": [
          10135204
        ],
        "postalCode": "M9N1L5",
        "streetName": "KING",
        "streetDirectionId": "E",
        "streetTypeId": "ST",
        "placeName": "YORK",
        "streetNameDisplayText": "KING ST E, YORK"
      },
      {
        "electoralDistricts": [
          {
            "election": null,
            "id": 121,
            "name": "York—Simcoe"
          }
        ],
        "pollDivisionIds": [
          10142917
        ],
        "postalCode": "M9N1L5",
        "streetName": "KING",
        "streetDirectionId": null,
        "streetTypeId": "ST",
        "placeName": "MOUNT ALBERT",
        "streetNameDisplayText": "KING ST, MOUNT ALBERT"
      },
      {
        "electoralDistricts": [
          {
            "election": null,
            "id": 122,
            "name": "York South—Weston"
          }
        ],
        "pollDivisionIds": [
          10142957
        ],
        "postalCode": "M9N1L5",
        "streetName": "KING",
        "streetDirectionId": null,
        "streetTypeId": "ST",
        "placeName": "YORK",
        "streetNameDisplayText": "KING ST, YORK"
      }
    ]
  },
  {
    "postal": "M9N3N5",
    "result": []
  },
  {
    "postal": "M9N6H4",
    "result": []
  },
  {
    "postal": "M9N5A5",
    "result": []
  },
  {
    "postal": "M9N3R9",
    "result": [
      {
        "electoralDistricts": [
          {
            "election": null,
            "id": 122,
            "name": "York South—Weston"
          }
        ],
        "pollDivisionIds": [
          10142956,
          10142955
        ],
        "postalCode": "M9N3R9",
        "streetName": "WESTON",
        "streetDirectionId": null,
        "streetTypeId": "RD",
        "placeName": "YORK",
        "streetNameDisplayText": "WESTON RD, YORK"
      }
    ]
  },
  {
    "postal": "M9N7L8",
    "result": []
  },
  {
    "postal": "M9N6T6",
    "result": []
  },
  {
    "postal": "M9N7Y7",
    "result": []
  },
  {
    "postal": "M9N3M8",
    "result": []
  },
  {
    "postal": "M9N2E0",
    "result": []
  },
  {
    "postal": "M9N4B5",
    "result": []
  },
  {
    "postal": "M9N1J3",
    "result": [
      {
        "electoralDistricts": [
          {
            "election": null,
            "id": 122,
            "name": "York South—Weston"
          }
        ],
        "pollDivisionIds": [
          10142956
        ],
        "postalCode": "M9N1J3",
        "streetName": "JOHN",
        "streetDirectionId": null,
        "streetTypeId": "ST",
        "placeName": "YORK",
        "streetNameDisplayText": "JOHN ST, YORK"
      }
    ]
  },
  {
    "postal": "M9N5S6",
    "result": []
  },
  {
    "postal": "M9N8P7",
    "result": []
  },
  {
    "postal": "M9N7S7",
    "result": []
  },
  {
    "postal": "M9N4C2",
    "result": []
  },
  {
    "postal": "M9N5Y0",
    "result": []
  },
  {
    "postal": "M9N2V7",
    "result": []
  },
  {
    "postal": "M9N8P5",
    "result": []
  },
  {
    "postal": "M9N5P5",
    "result": []
  },
  {
    "postal": "M9N5Z0",
    "result": []
  },
  {
    "postal": "M9N9B0",
    "result": []
  },
  {
    "postal": "M9N1L0",
    "result": []
  },
  {
    "postal": "M9N0B5",
    "result": []
  },
  {
    "postal": "M9N3L2",
    "result": [
      {
        "electoralDistricts": [
          {
            "election": null,
            "id": 122,
            "name": "York South—Weston"
          }
        ],
        "pollDivisionIds": [
          10142950
        ],
        "postalCode": "M9N3L2",
        "streetName": "HOWBERT",
        "streetDirectionId": null,
        "streetTypeId": "DR",
        "placeName": "NORTH YORK",
        "streetNameDisplayText": "HOWBERT DR, NORTH YORK"
      }
    ]
  },
  {
    "postal": "M9N3B7",
    "result": [
      {
        "electoralDistricts": [
          {
            "election": null,
            "id": 122,
            "name": "York South—Weston"
          }
        ],
        "pollDivisionIds": [
          10142957
        ],
        "postalCode": "M9N3B7",
        "streetName": "ROSEMOUNT",
        "streetDirectionId": null,
        "streetTypeId": "AVE",
        "placeName": "YORK",
        "streetNameDisplayText": "ROSEMOUNT AVE, YORK"
      }
    ]
  },
  {
    "postal": "M9N8L1",
    "result": []
  },
  {
    "postal": "M9N5M4",
    "result": []
  },
  {
    "postal": "M9N4G9",
    "result": []
  },
  {
    "postal": "M9N0P0",
    "result": []
  },
  {
    "postal": "M9N8G2",
    "result": []
  },
  {
    "postal": "M9N1V9",
    "result": [
      {
        "electoralDistricts": [
          {
            "election": null,
            "id": 122,
            "name": "York South—Weston"
          }
        ],
        "pollDivisionIds": [
          10142958
        ],
        "postalCode": "M9N1V9",
        "streetName": "WESTON",
        "streetDirectionId": null,
        "streetTypeId": "RD",
        "placeName": "YORK",
        "streetNameDisplayText": "WESTON RD, YORK"
      }
    ]
  },
  {
    "postal": "M9N8N8",
    "result": []
  },
  {
    "postal": "M9N6S8",
    "result": []
  },
  {
    "postal": "M9N8H2",
    "result": []
  },
  {
    "postal": "M9N5R8",
    "result": []
  },
  {
    "postal": "M9N5L4",
    "result": []
  },
  {
    "postal": "M9N9E1",
    "result": []
  },
  {
    "postal": "M9N1C4",
    "result": [
      {
        "electoralDistricts": [
          {
            "election": null,
            "id": 122,
            "name": "York South—Weston"
          }
        ],
        "pollDivisionIds": [
          10142963
        ],
        "postalCode": "M9N1C4",
        "streetName": "JOHN BEST",
        "streetDirectionId": null,
        "streetTypeId": "AVE",
        "placeName": "NORTH YORK",
        "streetNameDisplayText": "JOHN BEST AVE, NORTH YORK"
      }
    ]
  },
  {
    "postal": "M9N8W5",
    "result": []
  },
  {
    "postal": "M9N1Y4",
    "result": []
  },
  {
    "postal": "M9N1C0",
    "result": []
  },
  {
    "postal": "M9N2J2",
    "result": [
      {
        "electoralDistricts": [
          {
            "election": null,
            "id": 122,
            "name": "York South—Weston"
          }
        ],
        "pollDivisionIds": [
          10142951
        ],
        "postalCode": "M9N2J2",
        "streetName": "JOSEPH",
        "streetDirectionId": null,
        "streetTypeId": "ST",
        "placeName": "YORK",
        "streetNameDisplayText": "JOSEPH ST, YORK"
      }
    ]
  },
  {
    "postal": "M9N2J0",
    "result": []
  },
  {
    "postal": "M9N7A3",
    "result": []
  },
  {
    "postal": "M9N8M1",
    "result": []
  },
  {
    "postal": "M9N7T9",
    "result": []
  },
  {
    "postal": "M9N6C0",
    "result": []
  },
  {
    "postal": "M9N7X1",
    "result": []
  },
  {
    "postal": "M9N0G1",
    "result": []
  },
  {
    "postal": "M9N4X2",
    "result": []
  },
  {
    "postal": "M9N0N6",
    "result": []
  },
  {
    "postal": "M9N8E3",
    "result": []
  },
  {
    "postal": "M9N5S8",
    "result": []
  },
  {
    "postal": "M9N0R0",
    "result": []
  },
  {
    "postal": "M9N6J6",
    "result": []
  },
  {
    "postal": "M9N4B4",
    "result": []
  },
  {
    "postal": "M9N7E3",
    "result": []
  },
  {
    "postal": "M9N3N6",
    "result": []
  },
  {
    "postal": "M9N3X6",
    "result": [
      {
        "electoralDistricts": [
          {
            "election": null,
            "id": 122,
            "name": "York South—Weston"
          }
        ],
        "pollDivisionIds": [
          10142951
        ],
        "postalCode": "M9N3X6",
        "streetName": "ROSEMOUNT",
        "streetDirectionId": null,
        "streetTypeId": "AVE",
        "placeName": "NORTH YORK",
        "streetNameDisplayText": "ROSEMOUNT AVE, NORTH YORK"
      }
    ]
  },
  {
    "postal": "M9N8L0",
    "result": []
  },
  {
    "postal": "M9N8N1",
    "result": []
  },
  {
    "postal": "M9N4J0",
    "result": []
  },
  {
    "postal": "M9N0X7",
    "result": []
  },
  {
    "postal": "M9N6S4",
    "result": []
  },
  {
    "postal": "M9N0Z0",
    "result": []
  },
  {
    "postal": "M9N9X8",
    "result": []
  },
  {
    "postal": "M9N3H3",
    "result": [
      {
        "electoralDistricts": [
          {
            "election": null,
            "id": 122,
            "name": "York South—Weston"
          }
        ],
        "pollDivisionIds": [
          10142950
        ],
        "postalCode": "M9N3H3",
        "streetName": "PORTAGE",
        "streetDirectionId": null,
        "streetTypeId": "AVE",
        "placeName": "NORTH YORK",
        "streetNameDisplayText": "PORTAGE AVE, NORTH YORK"
      }
    ]
  },
  {
    "postal": "M9N7S2",
    "result": []
  },
  {
    "postal": "M9N3T3",
    "result": [
      {
        "electoralDistricts": [
          {
            "election": null,
            "id": 122,
            "name": "York South—Weston"
          }
        ],
        "pollDivisionIds": [
          10142963
        ],
        "postalCode": "M9N3T3",
        "streetName": "WRIGHT",
        "streetDirectionId": null,
        "streetTypeId": "AVE",
        "placeName": "YORK",
        "streetNameDisplayText": "WRIGHT AVE, YORK"
      }
    ]
  },
  {
    "postal": "M9N9P3",
    "result": []
  },
  {
    "postal": "M9N4H8",
    "result": []
  },
  {
    "postal": "M9N6R1",
    "result": []
  },
  {
    "postal": "M9N1S0",
    "result": []
  },
  {
    "postal": "M9N3W8",
    "result": []
  },
  {
    "postal": "M9N4S3",
    "result": []
  },
  {
    "postal": "M9N1B6",
    "result": [
      {
        "electoralDistricts": [
          {
            "election": null,
            "id": 122,
            "name": "York South—Weston"
          }
        ],
        "pollDivisionIds": [
          10142962
        ],
        "postalCode": "M9N1B6",
        "streetName": "DENISON",
        "streetDirectionId": "E",
        "streetTypeId": "RD",
        "placeName": "YORK",
        "streetNameDisplayText": "DENISON RD E, YORK"
      }
    ]
  },
  {
    "postal": "M9N8R3",
    "result": []
  },
  {
    "postal": "M9N4V9",
    "result": []
  },
  {
    "postal": "M9N9W4",
    "result": []
  },
  {
    "postal": "M9N3T4",
    "result": []
  },
  {
    "postal": "M9N5C7",
    "result": []
  },
  {
    "postal": "M9N3Y1",
    "result": []
  },
  {
    "postal": "M9N5V0",
    "result": []
  },
  {
    "postal": "M9N8G8",
    "result": []
  },
  {
    "postal": "M9N8B1",
    "result": []
  },
  {
    "postal": "M9N4P5",
    "result": []
  },
  {
    "postal": "M9N7B2",
    "result": []
  },
  {
    "postal": "M9N0R2",
    "result": []
  },
  {
    "postal": "M9N4M4",
    "result": []
  },
  {
    "postal": "M9N7M4",
    "result": []
  },
  {
    "postal": "M9N9S7",
    "result": []
  },
  {
    "postal": "M9N5Z7",
    "result": []
  },
  {
    "postal": "M9N7J7",
    "result": []
  },
  {
    "postal": "M9N8R8",
    "result": []
  },
  {
    "postal": "M9N9X1",
    "result": []
  },
  {
    "postal": "M9N5M9",
    "result": []
  },
  {
    "postal": "M9N9B4",
    "result": []
  },
  {
    "postal": "M9N0L9",
    "result": []
  },
  {
    "postal": "M9N9G4",
    "result": []
  },
  {
    "postal": "M9N1J4",
    "result": [
      {
        "electoralDistricts": [
          {
            "election": null,
            "id": 122,
            "name": "York South—Weston"
          }
        ],
        "pollDivisionIds": [
          10142958
        ],
        "postalCode": "M9N1J4",
        "streetName": "JOHN",
        "streetDirectionId": null,
        "streetTypeId": "ST",
        "placeName": "YORK",
        "streetNameDisplayText": "JOHN ST, YORK"
      }
    ]
  },
  {
    "postal": "M9N0W6",
    "result": []
  },
  {
    "postal": "M9N4C5",
    "result": []
  },
  {
    "postal": "M9N7E4",
    "result": []
  },
  {
    "postal": "M9N1R9",
    "result": []
  },
  {
    "postal": "M9N2P0",
    "result": []
  },
  {
    "postal": "M9N5S4",
    "result": []
  },
  {
    "postal": "M9N5K8",
    "result": []
  },
  {
    "postal": "M9N8K4",
    "result": []
  },
  {
    "postal": "M9N7C1",
    "result": []
  },
  {
    "postal": "M9N7K9",
    "result": []
  },
  {
    "postal": "M9N5J1",
    "result": []
  },
  {
    "postal": "M9N4P9",
    "result": []
  },
  {
    "postal": "M9N0N2",
    "result": []
  },
  {
    "postal": "M9N2G6",
    "result": [
      {
        "electoralDistricts": [
          {
            "election": null,
            "id": 122,
            "setId": 0,
            "name": "York South—Weston"
          }
        ],
        "pollDivisionIds": [
          10142958
        ],
        "postalCode": "M9N2G6",
        "streetName": "WILLIAM",
        "streetDirectionId": null,
        "streetTypeId": "ST",
        "placeName": "YORK",
        "streetNameDisplayText": "WILLIAM ST, YORK"
      }
    ]
  },
  {
    "postal": "M9N6P4",
    "result": []
  },
  {
    "postal": "M9N3J0",
    "result": []
  },
  {
    "postal": "M9N8X4",
    "result": []
  },
  {
    "postal": "M9N1Y3",
    "result": [
      {
        "electoralDistricts": [
          {
            "election": null,
            "id": 122,
            "setId": 0,
            "name": "York South—Weston"
          }
        ],
        "pollDivisionIds": [
          10142955
        ],
        "postalCode": "M9N1Y3",
        "streetName": "WESTON",
        "streetDirectionId": null,
        "streetTypeId": "RD",
        "placeName": "NORTH YORK",
        "streetNameDisplayText": "WESTON RD, NORTH YORK"
      },
      {
        "electoralDistricts": [
          {
            "election": null,
            "id": 122,
            "setId": 0,
            "name": "York South—Weston"
          }
        ],
        "pollDivisionIds": [
          10142955
        ],
        "postalCode": "M9N1Y3",
        "streetName": "WESTON",
        "streetDirectionId": null,
        "streetTypeId": "RD",
        "placeName": "YORK",
        "streetNameDisplayText": "WESTON RD, YORK"
      }
    ]
  },
  {
    "postal": "M9N1A8",
    "result": [
      {
        "electoralDistricts": [
          {
            "election": null,
            "id": 122,
            "setId": 0,
            "name": "York South—Weston"
          }
        ],
        "pollDivisionIds": [
          10142962
        ],
        "postalCode": "M9N1A8",
        "streetName": "CLOUSTON",
        "streetDirectionId": null,
        "streetTypeId": "AVE",
        "placeName": "YORK",
        "streetNameDisplayText": "CLOUSTON AVE, YORK"
      }
    ]
  },
  {
    "postal": "M9N6Y5",
    "result": []
  },
  {
    "postal": "M9N0J6",
    "result": []
  },
  {
    "postal": "M9N2C9",
    "result": [
      {
        "electoralDistricts": [
          {
            "election": null,
            "id": 122,
            "setId": 0,
            "name": "York South—Weston"
          }
        ],
        "pollDivisionIds": [
          10142958
        ],
        "postalCode": "M9N2C9",
        "streetName": "BOYD",
        "streetDirectionId": null,
        "streetTypeId": "AVE",
        "placeName": "YORK",
        "streetNameDisplayText": "BOYD AVE, YORK"
      }
    ]
  },
  {
    "postal": "M9N8J6",
    "result": []
  },
  {
    "postal": "M9N8T4",
    "result": []
  },
  {
    "postal": "M9N1P7",
    "result": [
      {
        "electoralDistricts": [
          {
            "election": null,
            "id": 122,
            "setId": 0,
            "name": "York South—Weston"
          }
        ],
        "pollDivisionIds": [
          10142956
        ],
        "postalCode": "M9N1P7",
        "streetName": "COULTER",
        "streetDirectionId": null,
        "streetTypeId": "AVE",
        "placeName": "YORK",
        "streetNameDisplayText": "COULTER AVE, YORK"
      }
    ]
  },
  {
    "postal": "M9N9V9",
    "result": []
  },
  {
    "postal": "M9N0M1",
    "result": []
  },
  {
    "postal": "M9N6K5",
    "result": []
  },
  {
    "postal": "M9N2T5",
    "result": [
      {
        "electoralDistricts": [
          {
            "election": null,
            "id": 122,
            "setId": 0,
            "name": "York South—Weston"
          }
        ],
        "pollDivisionIds": [
          10142957
        ],
        "postalCode": "M9N2T5",
        "streetName": "JANE",
        "streetDirectionId": null,
        "streetTypeId": "ST",
        "placeName": "YORK",
        "streetNameDisplayText": "JANE ST, YORK"
      }
    ]
  },
  {
    "postal": "M9N7E9",
    "result": []
  },
  {
    "postal": "M9N5K5",
    "result": []
  },
  {
    "postal": "M9N3R5",
    "result": []
  },
  {
    "postal": "M9N5B1",
    "result": []
  },
  {
    "postal": "M9N2P1",
    "result": [
      {
        "electoralDistricts": [
          {
            "election": null,
            "id": 122,
            "setId": 0,
            "name": "York South—Weston"
          }
        ],
        "pollDivisionIds": [
          10142950
        ],
        "postalCode": "M9N2P1",
        "streetName": "CHANTILLY",
        "streetDirectionId": null,
        "streetTypeId": "GDNS",
        "placeName": "NORTH YORK",
        "streetNameDisplayText": "CHANTILLY GDNS, NORTH YORK"
      }
    ]
  },
  {
    "postal": "M9N7L0",
    "result": []
  },
  {
    "postal": "M9N3L6",
    "result": [
      {
        "electoralDistricts": [
          {
            "election": null,
            "id": 122,
            "setId": 0,
            "name": "York South—Weston"
          }
        ],
        "pollDivisionIds": [
          10142950
        ],
        "postalCode": "M9N3L6",
        "streetName": "GALEWOOD",
        "streetDirectionId": null,
        "streetTypeId": "DR",
        "placeName": "NORTH YORK",
        "streetNameDisplayText": "GALEWOOD DR, NORTH YORK"
      }
    ]
  },
  {
    "postal": "M9N2A4",
    "result": [
      {
        "electoralDistricts": [
          {
            "election": null,
            "id": 122,
            "setId": 0,
            "name": "York South—Weston"
          }
        ],
        "pollDivisionIds": [
          10142986
        ],
        "postalCode": "M9N2A4",
        "streetName": "WESTON",
        "streetDirectionId": null,
        "streetTypeId": "RD",
        "placeName": "NORTH YORK",
        "streetNameDisplayText": "WESTON RD, NORTH YORK"
      },
      {
        "electoralDistricts": [
          {
            "election": null,
            "id": 122,
            "setId": 0,
            "name": "York South—Weston"
          }
        ],
        "pollDivisionIds": [
          10142986
        ],
        "postalCode": "M9N2A4",
        "streetName": "WESTON",
        "streetDirectionId": null,
        "streetTypeId": "RD",
        "placeName": "YORK",
        "streetNameDisplayText": "WESTON RD, YORK"
      }
    ]
  },
  {
    "postal": "M9N8S0",
    "result": []
  },
  {
    "postal": "M9N3L5",
    "result": [
      {
        "electoralDistricts": [
          {
            "election": null,
            "id": 122,
            "setId": 0,
            "name": "York South—Weston"
          }
        ],
        "pollDivisionIds": [
          10142950
        ],
        "postalCode": "M9N3L5",
        "streetName": "TELCO",
        "streetDirectionId": null,
        "streetTypeId": "CRES",
        "placeName": "NORTH YORK",
        "streetNameDisplayText": "TELCO CRES, NORTH YORK"
      }
    ]
  },
  {
    "postal": "M9N2R5",
    "result": [
      {
        "electoralDistricts": [
          {
            "election": null,
            "id": 122,
            "setId": 0,
            "name": "York South—Weston"
          }
        ],
        "pollDivisionIds": [
          10142963
        ],
        "postalCode": "M9N2R5",
        "streetName": "JANE",
        "streetDirectionId": null,
        "streetTypeId": "ST",
        "placeName": "NORTH YORK",
        "streetNameDisplayText": "JANE ST, NORTH YORK"
      }
    ]
  },
  {
    "postal": "M9N9T6",
    "result": []
  },
  {
    "postal": "M9N8Z2",
    "result": []
  },
  {
    "postal": "M9N0E9",
    "result": []
  },
  {
    "postal": "M9N8C0",
    "result": []
  },
  {
    "postal": "M9N3K7",
    "result": [
      {
        "electoralDistricts": [
          {
            "election": null,
            "id": 122,
            "setId": 0,
            "name": "York South—Weston"
          }
        ],
        "pollDivisionIds": [
          10142950
        ],
        "postalCode": "M9N3K7",
        "streetName": "WENDELL",
        "streetDirectionId": null,
        "streetTypeId": "AVE",
        "placeName": "NORTH YORK",
        "streetNameDisplayText": "WENDELL AVE, NORTH YORK"
      }
    ]
  },
  {
    "postal": "M9N2H3",
    "result": [
      {
        "electoralDistricts": [
          {
            "election": null,
            "id": 122,
            "setId": 0,
            "name": "York South—Weston"
          }
        ],
        "pollDivisionIds": [
          10142957
        ],
        "postalCode": "M9N2H3",
        "streetName": "QUEENS",
        "streetDirectionId": null,
        "streetTypeId": "DR",
        "placeName": "YORK",
        "streetNameDisplayText": "QUEENS DR, YORK"
      },
      {
        "electoralDistricts": [
          {
            "election": null,
            "id": 112,
            "setId": 0,
            "name": "University—Rosedale"
          }
        ],
        "pollDivisionIds": [
          10143706
        ],
        "postalCode": "M9N2H3",
        "streetName": "QUEEN'S",
        "streetDirectionId": null,
        "streetTypeId": "DR",
        "placeName": "YORK",
        "streetNameDisplayText": "QUEEN'S DR, YORK"
      },
      {
        "electoralDistricts": [
          {
            "election": null,
            "id": 101,
            "setId": 0,
            "name": "Spadina—Fort York"
          }
        ],
        "pollDivisionIds": [
          10141970
        ],
        "postalCode": "M9N2H3",
        "streetName": "QUEEN'S",
        "streetDirectionId": "E",
        "streetTypeId": "QUAY",
        "placeName": "YORK",
        "streetNameDisplayText": "QUEEN'S QUAY E, YORK"
      },
      {
        "electoralDistricts": [
          {
            "election": null,
            "id": 101,
            "setId": 0,
            "name": "Spadina—Fort York"
          }
        ],
        "pollDivisionIds": [
          10141965
        ],
        "postalCode": "M9N2H3",
        "streetName": "QUEENS",
        "streetDirectionId": "W",
        "streetTypeId": "QUAY",
        "placeName": "YORK",
        "streetNameDisplayText": "QUEENS QUAY W, YORK"
      }
    ]
  },
  {
    "postal": "M9N2Y6",
    "result": [
      {
        "electoralDistricts": [
          {
            "election": null,
            "id": 122,
            "setId": 0,
            "name": "York South—Weston"
          }
        ],
        "pollDivisionIds": [
          10142951
        ],
        "postalCode": "M9N2Y6",
        "streetName": "DALBEATTIE",
        "streetDirectionId": null,
        "streetTypeId": "AVE",
        "placeName": "NORTH YORK",
        "streetNameDisplayText": "DALBEATTIE AVE, NORTH YORK"
      }
    ]
  },
  {
    "postal": "M9N7M2",
    "result": []
  },
  {
    "postal": "M9N6E2",
    "result": []
  },
  {
    "postal": "M9N3R0",
    "result": []
  },
  {
    "postal": "M9N4J7",
    "result": []
  },
  {
    "postal": "M9N6N8",
    "result": []
  },
  {
    "postal": "M9N0J7",
    "result": []
  },
  {
    "postal": "M9N7P2",
    "result": []
  },
  {
    "postal": "M9N3T8",
    "result": [
      {
        "electoralDistricts": [
          {
            "election": null,
            "id": 122,
            "setId": 0,
            "name": "York South—Weston"
          }
        ],
        "pollDivisionIds": [
          10142958,
          10142954
        ],
        "postalCode": "M9N3T8",
        "streetName": "SOUTH STATION",
        "streetDirectionId": null,
        "streetTypeId": "ST",
        "placeName": "YORK",
        "streetNameDisplayText": "SOUTH STATION ST, YORK"
      }
    ]
  },
  {
    "postal": "M9N3S7",
    "result": [
      {
        "electoralDistricts": [
          {
            "election": null,
            "id": 122,
            "setId": 0,
            "name": "York South—Weston"
          }
        ],
        "pollDivisionIds": [
          10142957
        ],
        "postalCode": "M9N3S7",
        "streetName": "JANE",
        "streetDirectionId": null,
        "streetTypeId": "ST",
        "placeName": "NORTH YORK",
        "streetNameDisplayText": "JANE ST, NORTH YORK"
      }
    ]
  },
  {
    "postal": "M9N2S7",
    "result": [
      {
        "electoralDistricts": [
          {
            "election": null,
            "id": 122,
            "setId": 0,
            "name": "York South—Weston"
          }
        ],
        "pollDivisionIds": [
          10142959
        ],
        "postalCode": "M9N2S7",
        "streetName": "JANE",
        "streetDirectionId": null,
        "streetTypeId": "ST",
        "placeName": "NORTH YORK",
        "streetNameDisplayText": "JANE ST, NORTH YORK"
      }
    ]
  },
  {
    "postal": "M9N1S4",
    "result": [
      {
        "electoralDistricts": [
          {
            "election": null,
            "id": 122,
            "setId": 0,
            "name": "York South—Weston"
          }
        ],
        "pollDivisionIds": [
          10142950
        ],
        "postalCode": "M9N1S4",
        "streetName": "CARDELL",
        "streetDirectionId": null,
        "streetTypeId": "AVE",
        "placeName": "NORTH YORK",
        "streetNameDisplayText": "CARDELL AVE, NORTH YORK"
      }
    ]
  },
  {
    "postal": "M9N1L8",
    "result": [
      {
        "electoralDistricts": [
          {
            "election": null,
            "id": 109,
            "setId": 0,
            "name": "Toronto Centre"
          }
        ],
        "pollDivisionIds": [
          10135204
        ],
        "postalCode": "M9N1L8",
        "streetName": "KING",
        "streetDirectionId": "E",
        "streetTypeId": "ST",
        "placeName": "TORONTO",
        "streetNameDisplayText": "KING ST E, TORONTO"
      },
      {
        "electoralDistricts": [
          {
            "election": null,
            "id": 121,
            "setId": 0,
            "name": "York—Simcoe"
          }
        ],
        "pollDivisionIds": [
          10142917
        ],
        "postalCode": "M9N1L8",
        "streetName": "KING",
        "streetDirectionId": null,
        "streetTypeId": "ST",
        "placeName": "MOUNT ALBERT",
        "streetNameDisplayText": "KING ST, MOUNT ALBERT"
      },
      {
        "electoralDistricts": [
          {
            "election": null,
            "id": 122,
            "setId": 0,
            "name": "York South—Weston"
          }
        ],
        "pollDivisionIds": [
          10142957
        ],
        "postalCode": "M9N1L8",
        "streetName": "KING",
        "streetDirectionId": null,
        "streetTypeId": "ST",
        "placeName": "YORK",
        "streetNameDisplayText": "KING ST, YORK"
      }
    ]
  },
  {
    "postal": "M9N8E9",
    "result": []
  },
  {
    "postal": "M9N0T0",
    "result": []
  },
  {
    "postal": "M9N3G4",
    "result": [
      {
        "electoralDistricts": [
          {
            "election": null,
            "id": 122,
            "setId": 0,
            "name": "York South—Weston"
          }
        ],
        "pollDivisionIds": [
          10142950
        ],
        "postalCode": "M9N3G4",
        "streetName": "SNOWBERRY",
        "streetDirectionId": null,
        "streetTypeId": "AVE",
        "placeName": "NORTH YORK",
        "streetNameDisplayText": "SNOWBERRY AVE, NORTH YORK"
      }
    ]
  },
  {
    "postal": "M9N0V6",
    "result": []
  },
  {
    "postal": "M9N4W1",
    "result": []
  },
  {
    "postal": "M9N9G9",
    "result": []
  },
  {
    "postal": "M9N5W4",
    "result": []
  },
  {
    "postal": "M9N7M8",
    "result": []
  },
  {
    "postal": "M9N2C2",
    "result": [
      {
        "electoralDistricts": [
          {
            "election": null,
            "id": 122,
            "setId": 0,
            "name": "York South—Weston"
          }
        ],
        "pollDivisionIds": [
          10142951
        ],
        "postalCode": "M9N2C2",
        "streetName": "WINDAL",
        "streetDirectionId": null,
        "streetTypeId": "AVE",
        "placeName": "YORK",
        "streetNameDisplayText": "WINDAL AVE, YORK"
      }
    ]
  },
  {
    "postal": "M9N4Y2",
    "result": []
  },
  {
    "postal": "M9N9X9",
    "result": []
  },
  {
    "postal": "M9N3T0",
    "result": []
  },
  {
    "postal": "M9N4T8",
    "result": []
  },
  {
    "postal": "M9N9C4",
    "result": []
  },
  {
    "postal": "M9N8P2",
    "result": []
  },
  {
    "postal": "M9N0Y8",
    "result": []
  },
  {
    "postal": "M9N1G8",
    "result": [
      {
        "electoralDistricts": [
          {
            "election": null,
            "id": 122,
            "setId": 0,
            "name": "York South—Weston"
          }
        ],
        "pollDivisionIds": [
          10142963
        ],
        "postalCode": "M9N1G8",
        "streetName": "LAWRENCE",
        "streetDirectionId": "W",
        "streetTypeId": "AVE",
        "placeName": "YORK",
        "streetNameDisplayText": "LAWRENCE AVE W, YORK"
      }
    ]
  },
  {
    "postal": "M9N2T6",
    "result": []
  },
  {
    "postal": "M9N1N7",
    "result": [
      {
        "electoralDistricts": [
          {
            "election": null,
            "id": 89,
            "setId": 0,
            "name": "Richmond Hill"
          }
        ],
        "pollDivisionIds": [
          10141286
        ],
        "postalCode": "M9N1N7",
        "streetName": "CHURCH",
        "streetDirectionId": "S",
        "streetTypeId": "ST",
        "placeName": "YORK",
        "streetNameDisplayText": "CHURCH ST S, YORK"
      },
      {
        "electoralDistricts": [
          {
            "election": null,
            "id": 67,
            "setId": 0,
            "name": "Newmarket—Aurora"
          }
        ],
        "pollDivisionIds": [
          10139866
        ],
        "postalCode": "M9N1N7",
        "streetName": "CHURCH",
        "streetDirectionId": null,
        "streetTypeId": "ST",
        "placeName": "NEWMARKET",
        "streetNameDisplayText": "CHURCH ST, NEWMARKET"
      },
      {
        "electoralDistricts": [
          {
            "election": null,
            "id": 121,
            "setId": 0,
            "name": "York—Simcoe"
          },
          {
            "election": null,
            "id": 122,
            "setId": 0,
            "name": "York South—Weston"
          }
        ],
        "pollDivisionIds": [
          10142923,
          10142957
        ],
        "postalCode": "M9N1N7",
        "streetName": "CHURCH",
        "streetDirectionId": null,
        "streetTypeId": "ST",
        "placeName": "YORK",
        "streetNameDisplayText": "CHURCH ST, YORK"
      }
    ]
  },
  {
    "postal": "M9N0L6",
    "result": []
  },
  {
    "postal": "M9N9V4",
    "result": []
  },
  {
    "postal": "M9N2V1",
    "result": [
      {
        "electoralDistricts": [
          {
            "election": null,
            "id": 122,
            "setId": 0,
            "name": "York South—Weston"
          }
        ],
        "pollDivisionIds": [
          10142952
        ],
        "postalCode": "M9N2V1",
        "streetName": "JANE",
        "streetDirectionId": null,
        "streetTypeId": "ST",
        "placeName": "NORTH YORK",
        "streetNameDisplayText": "JANE ST, NORTH YORK"
      }
    ]
  },
  {
    "postal": "M9N3L8",
    "result": [
      {
        "electoralDistricts": [
          {
            "election": null,
            "id": 122,
            "setId": 0,
            "name": "York South—Weston"
          }
        ],
        "pollDivisionIds": [
          10142951
        ],
        "postalCode": "M9N3L8",
        "streetName": "JAYMAR",
        "streetDirectionId": null,
        "streetTypeId": "PL",
        "placeName": "NORTH YORK",
        "streetNameDisplayText": "JAYMAR PL, NORTH YORK"
      }
    ]
  },
  {
    "postal": "M9N2R8",
    "result": [
      {
        "electoralDistricts": [
          {
            "election": null,
            "id": 122,
            "setId": 0,
            "name": "York South—Weston"
          }
        ],
        "pollDivisionIds": [
          10142959
        ],
        "postalCode": "M9N2R8",
        "streetName": "JANE",
        "streetDirectionId": null,
        "streetTypeId": "ST",
        "placeName": "NORTH YORK",
        "streetNameDisplayText": "JANE ST, NORTH YORK"
      }
    ]
  },
  {
    "postal": "M9N5C1",
    "result": []
  },
  {
    "postal": "M9N4W3",
    "result": []
  },
  {
    "postal": "M9N5X5",
    "result": []
  },
  {
    "postal": "M9N9W5",
    "result": []
  },
  {
    "postal": "M9N3C4",
    "result": []
  },
  {
    "postal": "M9N1N6",
    "result": [
      {
        "electoralDistricts": [
          {
            "election": null,
            "id": 121,
            "setId": 0,
            "name": "York—Simcoe"
          }
        ],
        "pollDivisionIds": [
          10142923
        ],
        "postalCode": "M9N1N6",
        "streetName": "CHURCH",
        "streetDirectionId": null,
        "streetTypeId": "ST",
        "placeName": "KESWICK",
        "streetNameDisplayText": "CHURCH ST, KESWICK"
      },
      {
        "electoralDistricts": [
          {
            "election": null,
            "id": 122,
            "setId": 0,
            "name": "York South—Weston"
          }
        ],
        "pollDivisionIds": [
          10142957
        ],
        "postalCode": "M9N1N6",
        "streetName": "CHURCH",
        "streetDirectionId": null,
        "streetTypeId": "ST",
        "placeName": "YORK",
        "streetNameDisplayText": "CHURCH ST, YORK"
      }
    ]
  },
  {
    "postal": "M9N9S9",
    "result": []
  },
  {
    "postal": "M9N9M2",
    "result": []
  },
  {
    "postal": "M9N8Y4",
    "result": []
  },
  {
    "postal": "M9N7S4",
    "result": []
  },
  {
    "postal": "M9N0K6",
    "result": []
  },
  {
    "postal": "M9N1W3",
    "result": []
  },
  {
    "postal": "M9N7R2",
    "result": []
  },
  {
    "postal": "M9N2Y9",
    "result": [
      {
        "electoralDistricts": [
          {
            "election": null,
            "id": 122,
            "setId": 0,
            "name": "York South—Weston"
          }
        ],
        "pollDivisionIds": [
          10142958
        ],
        "postalCode": "M9N2Y9",
        "streetName": "PINE",
        "streetDirectionId": null,
        "streetTypeId": "ST",
        "placeName": "TORONTO",
        "streetNameDisplayText": "PINE ST, TORONTO"
      }
    ]
  },
  {
    "postal": "M9N7G4",
    "result": []
  },
  {
    "postal": "M9N7E5",
    "result": []
  },
  {
    "postal": "M9N9G2",
    "result": []
  },
  {
    "postal": "M9N7Y8",
    "result": []
  },
  {
    "postal": "M9N9V2",
    "result": []
  },
  {
    "postal": "M9N3T7",
    "result": []
  },
  {
    "postal": "M9N1H0",
    "result": []
  },
  {
    "postal": "M9N1M7",
    "result": [
      {
        "electoralDistricts": [
          {
            "election": null,
            "id": 121,
            "setId": 0,
            "name": "York—Simcoe"
          },
          {
            "election": null,
            "id": 122,
            "setId": 0,
            "name": "York South—Weston"
          }
        ],
        "pollDivisionIds": [
          10142924,
          10142956
        ],
        "postalCode": "M9N1M7",
        "streetName": "CHURCH",
        "streetDirectionId": null,
        "streetTypeId": "ST",
        "placeName": "YORK",
        "streetNameDisplayText": "CHURCH ST, YORK"
      }
    ]
  },
  {
    "postal": "M9N8V4",
    "result": []
  },
  {
    "postal": "M9N4M2",
    "result": []
  },
  {
    "postal": "M9N0X2",
    "result": []
  },
  {
    "postal": "M9N5Z4",
    "result": []
  },
  {
    "postal": "M9N6V4",
    "result": []
  },
  {
    "postal": "M9N8J3",
    "result": []
  },
  {
    "postal": "M9N8E5",
    "result": []
  },
  {
    "postal": "M9N2V5",
    "result": [
      {
        "electoralDistricts": [
          {
            "election": null,
            "id": 122,
            "setId": 0,
            "name": "York South—Weston"
          }
        ],
        "pollDivisionIds": [
          10142952
        ],
        "postalCode": "M9N2V5",
        "streetName": "GORDON MACKAY",
        "streetDirectionId": null,
        "streetTypeId": "RD",
        "placeName": "NORTH YORK",
        "streetNameDisplayText": "GORDON MACKAY RD, NORTH YORK"
      }
    ]
  },
  {
    "postal": "M9N7S1",
    "result": []
  },
  {
    "postal": "M9N6V3",
    "result": []
  },
  {
    "postal": "M9N2L8",
    "result": [
      {
        "electoralDistricts": [
          {
            "election": null,
            "id": 122,
            "setId": 0,
            "name": "York South—Weston"
          }
        ],
        "pollDivisionIds": [
          10142951
        ],
        "postalCode": "M9N2L8",
        "streetName": "DEBBY",
        "streetDirectionId": null,
        "streetTypeId": "CRT",
        "placeName": "NORTH YORK",
        "streetNameDisplayText": "DEBBY CRT, NORTH YORK"
      }
    ]
  },
  {
    "postal": "M9N9V0",
    "result": []
  },
  {
    "postal": "M9N3M4",
    "result": []
  },
  {
    "postal": "M9N5B2",
    "result": []
  },
  {
    "postal": "M9N3X5",
    "result": [
      {
        "electoralDistricts": [
          {
            "election": null,
            "id": 122,
            "setId": 0,
            "name": "York South—Weston"
          }
        ],
        "pollDivisionIds": [
          10142951
        ],
        "postalCode": "M9N3X5",
        "streetName": "QUEENSLEA",
        "streetDirectionId": null,
        "streetTypeId": "AVE",
        "placeName": "NORTH YORK",
        "streetNameDisplayText": "QUEENSLEA AVE, NORTH YORK"
      }
    ]
  },
  {
    "postal": "M9N9R7",
    "result": []
  },
  {
    "postal": "M9N2X2",
    "result": [
      {
        "electoralDistricts": [
          {
            "election": null,
            "id": 122,
            "setId": 0,
            "name": "York South—Weston"
          }
        ],
        "pollDivisionIds": [
          10142951
        ],
        "postalCode": "M9N2X2",
        "streetName": "LONGVIEW",
        "streetDirectionId": null,
        "streetTypeId": "DR",
        "placeName": "NORTH YORK",
        "streetNameDisplayText": "LONGVIEW DR, NORTH YORK"
      }
    ]
  },
  {
    "postal": "M9N8Z6",
    "result": []
  },
  {
    "postal": "M9N4R4",
    "result": []
  },
  {
    "postal": "M9N2R1",
    "result": [
      {
        "electoralDistricts": [
          {
            "election": null,
            "id": 122,
            "setId": 0,
            "name": "York South—Weston"
          }
        ],
        "pollDivisionIds": [
          10142963
        ],
        "postalCode": "M9N2R1",
        "streetName": "JANE",
        "streetDirectionId": null,
        "streetTypeId": "ST",
        "placeName": "NORTH YORK",
        "streetNameDisplayText": "JANE ST, NORTH YORK"
      }
    ]
  },
  {
    "postal": "M9N3R8",
    "result": [
      {
        "electoralDistricts": [
          {
            "election": null,
            "id": 121,
            "setId": 0,
            "name": "York—Simcoe"
          }
        ],
        "pollDivisionIds": [
          10142921
        ],
        "postalCode": "M9N3R8",
        "streetName": "KING",
        "streetDirectionId": null,
        "streetTypeId": "ST",
        "placeName": "YORK",
        "streetNameDisplayText": "KING ST, YORK"
      }
    ]
  },
  {
    "postal": "M9N9A1",
    "result": []
  },
  {
    "postal": "M9N8L3",
    "result": []
  },
  {
    "postal": "M9N9K4",
    "result": []
  },
  {
    "postal": "M9N9S3",
    "result": []
  },
  {
    "postal": "M9N8N7",
    "result": []
  },
  {
    "postal": "M9N1C6",
    "result": [
      {
        "electoralDistricts": [
          {
            "election": null,
            "id": 122,
            "setId": 0,
            "name": "York South—Weston"
          }
        ],
        "pollDivisionIds": [
          10142962
        ],
        "postalCode": "M9N1C6",
        "streetName": "ARTHUR",
        "streetDirectionId": null,
        "streetTypeId": "ST",
        "placeName": "YORK",
        "streetNameDisplayText": "ARTHUR ST, YORK"
      }
    ]
  },
  {
    "postal": "M9N3Z8",
    "result": [
      {
        "electoralDistricts": [
          {
            "election": null,
            "id": 122,
            "setId": 0,
            "name": "York South—Weston"
          }
        ],
        "pollDivisionIds": [
          10142963
        ],
        "postalCode": "M9N3Z8",
        "streetName": "PINE",
        "streetDirectionId": null,
        "streetTypeId": "ST",
        "placeName": "NORTH YORK",
        "streetNameDisplayText": "PINE ST, NORTH YORK"
      },
      {
        "electoralDistricts": [
          {
            "election": null,
            "id": 122,
            "setId": 0,
            "name": "York South—Weston"
          }
        ],
        "pollDivisionIds": [
          10142963
        ],
        "postalCode": "M9N3Z8",
        "streetName": "PINE",
        "streetDirectionId": null,
        "streetTypeId": "ST",
        "placeName": "YORK",
        "streetNameDisplayText": "PINE ST, YORK"
      }
    ]
  },
  {
    "postal": "M9N8G5",
    "result": []
  },
  {
    "postal": "M9N5R6",
    "result": []
  },
  {
    "postal": "M9N2W3",
    "result": [
      {
        "electoralDistricts": [
          {
            "election": null,
            "id": 122,
            "setId": 0,
            "name": "York South—Weston"
          }
        ],
        "pollDivisionIds": [
          10142951
        ],
        "postalCode": "M9N2W3",
        "streetName": "BOYLEN",
        "streetDirectionId": null,
        "streetTypeId": "ST",
        "placeName": "NORTH YORK",
        "streetNameDisplayText": "BOYLEN ST, NORTH YORK"
      }
    ]
  },
  {
    "postal": "M9N0A0",
    "result": []
  },
  {
    "postal": "M9N6P8",
    "result": []
  },
  {
    "postal": "M9N8N9",
    "result": []
  },
  {
    "postal": "M9N0S9",
    "result": []
  },
  {
    "postal": "M9N8G0",
    "result": []
  },
  {
    "postal": "M9N8C7",
    "result": []
  },
  {
    "postal": "M9N5X8",
    "result": []
  },
  {
    "postal": "M9N7E8",
    "result": []
  },
  {
    "postal": "M9N6X2",
    "result": []
  },
  {
    "postal": "M9N4C6",
    "result": []
  },
  {
    "postal": "M9N7H2",
    "result": []
  },
  {
    "postal": "M9N4R0",
    "result": []
  },
  {
    "postal": "M9N6J3",
    "result": []
  },
  {
    "postal": "M9N4B8",
    "result": []
  },
  {
    "postal": "M9N6H6",
    "result": []
  },
  {
    "postal": "M9N0S1",
    "result": []
  },
  {
    "postal": "M9N4E3",
    "result": []
  },
  {
    "postal": "M9N7K2",
    "result": []
  },
  {
    "postal": "M9N7T8",
    "result": []
  },
  {
    "postal": "M9N0J9",
    "result": []
  },
  {
    "postal": "M9N5J9",
    "result": []
  },
  {
    "postal": "M9N5S7",
    "result": []
  },
  {
    "postal": "M9N0G9",
    "result": []
  },
  {
    "postal": "M9N3J9",
    "result": []
  },
  {
    "postal": "M9N2Y0",
    "result": []
  },
  {
    "postal": "M9N8X5",
    "result": []
  },
  {
    "postal": "M9N2M7",
    "result": [
      {
        "electoralDistricts": [
          {
            "election": null,
            "id": 122,
            "setId": 0,
            "name": "York South—Weston"
          }
        ],
        "pollDivisionIds": [
          10142950
        ],
        "postalCode": "M9N2M7",
        "streetName": "GARY",
        "streetDirectionId": null,
        "streetTypeId": "DR",
        "placeName": "NORTH YORK",
        "streetNameDisplayText": "GARY DR, NORTH YORK"
      }
    ]
  },
  {
    "postal": "M9N9Z3",
    "result": []
  },
  {
    "postal": "M9N7W2",
    "result": []
  },
  {
    "postal": "M9N3W0",
    "result": []
  },
  {
    "postal": "M9N3M1",
    "result": []
  },
  {
    "postal": "M9N6A5",
    "result": []
  },
  {
    "postal": "M9N2M9",
    "result": [
      {
        "electoralDistricts": [
          {
            "election": null,
            "id": 122,
            "setId": 0,
            "name": "York South—Weston"
          }
        ],
        "pollDivisionIds": [
          10142951
        ],
        "postalCode": "M9N2M9",
        "streetName": "GARY",
        "streetDirectionId": null,
        "streetTypeId": "DR",
        "placeName": "NORTH YORK",
        "streetNameDisplayText": "GARY DR, NORTH YORK"
      }
    ]
  },
  {
    "postal": "M9N5C3",
    "result": []
  },
  {
    "postal": "M9N0Y6",
    "result": []
  },
  {
    "postal": "M9N9H7",
    "result": []
  },
  {
    "postal": "M9N3L0",
    "result": []
  },
  {
    "postal": "M9N5N9",
    "result": []
  },
  {
    "postal": "M9N5E3",
    "result": []
  },
  {
    "postal": "M9N7M9",
    "result": []
  },
  {
    "postal": "M9N8N2",
    "result": []
  },
  {
    "postal": "M9N9H3",
    "result": []
  },
  {
    "postal": "M9N2K8",
    "result": []
  },
  {
    "postal": "M9N9L0",
    "result": []
  },
  {
    "postal": "M9N6L9",
    "result": []
  },
  {
    "postal": "M9N6A8",
    "result": []
  },
  {
    "postal": "M9N2K6",
    "result": [
      {
        "electoralDistricts": [
          {
            "election": null,
            "id": 122,
            "setId": 0,
            "name": "York South—Weston"
          }
        ],
        "pollDivisionIds": [
          10142951
        ],
        "postalCode": "M9N2K6",
        "streetName": "ETTRICK",
        "streetDirectionId": null,
        "streetTypeId": "CRES",
        "placeName": "NORTH YORK",
        "streetNameDisplayText": "ETTRICK CRES, NORTH YORK"
      }
    ]
  },
  {
    "postal": "M9N2M0",
    "result": []
  },
  {
    "postal": "M9N5X7",
    "result": []
  },
  {
    "postal": "M9N0M7",
    "result": []
  },
  {
    "postal": "M9N7A6",
    "result": []
  },
  {
    "postal": "M9N3C5",
    "result": [
      {
        "electoralDistricts": [
          {
            "election": null,
            "id": 122,
            "setId": 0,
            "name": "York South—Weston"
          }
        ],
        "pollDivisionIds": [
          10142951
        ],
        "postalCode": "M9N3C5",
        "streetName": "ROSEMOUNT",
        "streetDirectionId": null,
        "streetTypeId": "AVE",
        "placeName": "YORK",
        "streetNameDisplayText": "ROSEMOUNT AVE, YORK"
      }
    ]
  },
  {
    "postal": "M9N2P2",
    "result": [
      {
        "electoralDistricts": [
          {
            "election": null,
            "id": 122,
            "setId": 0,
            "name": "York South—Weston"
          }
        ],
        "pollDivisionIds": [
          10142950
        ],
        "postalCode": "M9N2P2",
        "streetName": "LIMERICK",
        "streetDirectionId": null,
        "streetTypeId": "AVE",
        "placeName": "NORTH YORK",
        "streetNameDisplayText": "LIMERICK AVE, NORTH YORK"
      }
    ]
  },
  {
    "postal": "M9N9N4",
    "result": []
  },
  {
    "postal": "M9N3M9",
    "result": []
  },
  {
    "postal": "M9N8K6",
    "result": []
  },
  {
    "postal": "M9N1L2",
    "result": [
      {
        "electoralDistricts": [
          {
            "election": null,
            "id": 122,
            "setId": 0,
            "name": "York South—Weston"
          }
        ],
        "pollDivisionIds": [
          10142951
        ],
        "postalCode": "M9N1L2",
        "streetName": "KING",
        "streetDirectionId": null,
        "streetTypeId": "ST",
        "placeName": "YORK",
        "streetNameDisplayText": "KING ST, YORK"
      }
    ]
  },
  {
    "postal": "M9N2Z9",
    "result": [
      {
        "electoralDistricts": [
          {
            "election": null,
            "id": 122,
            "setId": 0,
            "name": "York South—Weston"
          }
        ],
        "pollDivisionIds": [
          10142951
        ],
        "postalCode": "M9N2Z9",
        "streetName": "LOCKERBIE",
        "streetDirectionId": null,
        "streetTypeId": "AVE",
        "placeName": "NORTH YORK",
        "streetNameDisplayText": "LOCKERBIE AVE, NORTH YORK"
      }
    ]
  },
  {
    "postal": "M9N2S2",
    "result": [
      {
        "electoralDistricts": [
          {
            "election": null,
            "id": 122,
            "setId": 0,
            "name": "York South—Weston"
          }
        ],
        "pollDivisionIds": [
          10142963
        ],
        "postalCode": "M9N2S2",
        "streetName": "JANE",
        "streetDirectionId": null,
        "streetTypeId": "ST",
        "placeName": "YORK",
        "streetNameDisplayText": "JANE ST, YORK"
      }
    ]
  },
  {
    "postal": "M9N2W2",
    "result": [
      {
        "electoralDistricts": [
          {
            "election": null,
            "id": 122,
            "setId": 0,
            "name": "York South—Weston"
          }
        ],
        "pollDivisionIds": [
          10142958
        ],
        "postalCode": "M9N2W2",
        "streetName": "VIMY",
        "streetDirectionId": null,
        "streetTypeId": "AVE",
        "placeName": "YORK",
        "streetNameDisplayText": "VIMY AVE, YORK"
      }
    ]
  },
  {
    "postal": "M9N2C3",
    "result": [
      {
        "electoralDistricts": [
          {
            "election": null,
            "id": 122,
            "setId": 0,
            "name": "York South—Weston"
          }
        ],
        "pollDivisionIds": [
          10142951
        ],
        "postalCode": "M9N2C3",
        "streetName": "WINDAL",
        "streetDirectionId": null,
        "streetTypeId": "AVE",
        "placeName": "YORK",
        "streetNameDisplayText": "WINDAL AVE, YORK"
      }
    ]
  },
  {
    "postal": "M9N6L7",
    "result": []
  },
  {
    "postal": "M9N3K0",
    "result": []
  },
  {
    "postal": "M9N3C1",
    "result": [
      {
        "electoralDistricts": [
          {
            "election": null,
            "id": 122,
            "setId": 0,
            "name": "York South—Weston"
          }
        ],
        "pollDivisionIds": [
          10142957
        ],
        "postalCode": "M9N3C1",
        "streetName": "ROSEMOUNT",
        "streetDirectionId": null,
        "streetTypeId": "AVE",
        "placeName": "YORK",
        "streetNameDisplayText": "ROSEMOUNT AVE, YORK"
      }
    ]
  },
  {
    "postal": "M9N6M9",
    "result": []
  },
  {
    "postal": "M9N4N9",
    "result": []
  },
  {
    "postal": "M9N3Y7",
    "result": [
      {
        "electoralDistricts": [
          {
            "election": null,
            "id": 122,
            "setId": 0,
            "name": "York South—Weston"
          }
        ],
        "pollDivisionIds": [
          10142963
        ],
        "postalCode": "M9N3Y7",
        "streetName": "RICHWOOD",
        "streetDirectionId": null,
        "streetTypeId": "ST",
        "placeName": "NORTH YORK",
        "streetNameDisplayText": "RICHWOOD ST, NORTH YORK"
      },
      {
        "electoralDistricts": [
          {
            "election": null,
            "id": 122,
            "setId": 0,
            "name": "York South—Weston"
          }
        ],
        "pollDivisionIds": [
          10142963
        ],
        "postalCode": "M9N3Y7",
        "streetName": "SAM FRUSTAGLIO",
        "streetDirectionId": null,
        "streetTypeId": "DR",
        "placeName": "NORTH YORK",
        "streetNameDisplayText": "SAM FRUSTAGLIO DR, NORTH YORK"
      }
    ]
  },
  {
    "postal": "M9N2A9",
    "result": [
      {
        "electoralDistricts": [
          {
            "election": null,
            "id": 122,
            "setId": 0,
            "name": "York South—Weston"
          }
        ],
        "pollDivisionIds": [
          10142950
        ],
        "postalCode": "M9N2A9",
        "streetName": "WESTON",
        "streetDirectionId": null,
        "streetTypeId": "RD",
        "placeName": "NORTH YORK",
        "streetNameDisplayText": "WESTON RD, NORTH YORK"
      }
    ]
  },
  {
    "postal": "M9N6H5",
    "result": []
  },
  {
    "postal": "M9N8B4",
    "result": []
  },
  {
    "postal": "M9N4Z2",
    "result": []
  },
  {
    "postal": "M9N9J0",
    "result": []
  },
  {
    "postal": "M9N7V7",
    "result": []
  },
  {
    "postal": "M9N5T5",
    "result": []
  },
  {
    "postal": "M9N4W5",
    "result": []
  },
  {
    "postal": "M9N1T8",
    "result": [
      {
        "electoralDistricts": [
          {
            "election": null,
            "id": 122,
            "setId": 0,
            "name": "York South—Weston"
          }
        ],
        "pollDivisionIds": [
          10142962
        ],
        "postalCode": "M9N1T8",
        "streetName": "WESTON",
        "streetDirectionId": null,
        "streetTypeId": "RD",
        "placeName": "YORK",
        "streetNameDisplayText": "WESTON RD, YORK"
      }
    ]
  },
  {
    "postal": "M9N9G6",
    "result": []
  },
  {
    "postal": "M9N1H3",
    "result": [
      {
        "electoralDistricts": [
          {
            "election": null,
            "id": 122,
            "setId": 0,
            "name": "York South—Weston"
          }
        ],
        "pollDivisionIds": [
          10142963
        ],
        "postalCode": "M9N1H3",
        "streetName": "LAWRENCE",
        "streetDirectionId": "W",
        "streetTypeId": "AVE",
        "placeName": "YORK",
        "streetNameDisplayText": "LAWRENCE AVE W, YORK"
      }
    ]
  },
  {
    "postal": "M9N5R5",
    "result": []
  },
  {
    "postal": "M9N8A4",
    "result": []
  },
  {
    "postal": "M9N3T6",
    "result": []
  },
  {
    "postal": "M9N9W8",
    "result": []
  },
  {
    "postal": "M9N0N3",
    "result": []
  },
  {
    "postal": "M9N7V0",
    "result": []
  },
  {
    "postal": "M9N8T5",
    "result": []
  },
  {
    "postal": "M9N5N3",
    "result": []
  },
  {
    "postal": "M9N5G9",
    "result": []
  },
  {
    "postal": "M9N3X8",
    "result": [
      {
        "electoralDistricts": [
          {
            "election": null,
            "id": 122,
            "setId": 0,
            "name": "York South—Weston"
          }
        ],
        "pollDivisionIds": [
          10142951
        ],
        "postalCode": "M9N3X8",
        "streetName": "KIRAH",
        "streetDirectionId": null,
        "streetTypeId": "CRT",
        "placeName": "NORTH YORK",
        "streetNameDisplayText": "KIRAH CRT, NORTH YORK"
      },
      {
        "electoralDistricts": [
          {
            "election": null,
            "id": 122,
            "setId": 0,
            "name": "York South—Weston"
          }
        ],
        "pollDivisionIds": [
          10142951
        ],
        "postalCode": "M9N3X8",
        "streetName": "PURDY",
        "streetDirectionId": null,
        "streetTypeId": "CRES",
        "placeName": "NORTH YORK",
        "streetNameDisplayText": "PURDY CRES, NORTH YORK"
      }
    ]
  },
  {
    "postal": "M9N9R3",
    "result": []
  },
  {
    "postal": "M9N2S1",
    "result": [
      {
        "electoralDistricts": [
          {
            "election": null,
            "id": 122,
            "setId": 0,
            "name": "York South—Weston"
          }
        ],
        "pollDivisionIds": [
          10142963
        ],
        "postalCode": "M9N2S1",
        "streetName": "JANE",
        "streetDirectionId": null,
        "streetTypeId": "ST",
        "placeName": "YORK",
        "streetNameDisplayText": "JANE ST, YORK"
      }
    ]
  },
  {
    "postal": "M9N9J7",
    "result": []
  },
  {
    "postal": "M9N2J3",
    "result": [
      {
        "electoralDistricts": [
          {
            "election": null,
            "id": 122,
            "setId": 0,
            "name": "York South—Weston"
          }
        ],
        "pollDivisionIds": [
          10142957
        ],
        "postalCode": "M9N2J3",
        "streetName": "WOODWARD",
        "streetDirectionId": null,
        "streetTypeId": "AVE",
        "placeName": "YORK",
        "streetNameDisplayText": "WOODWARD AVE, YORK"
      }
    ]
  },
  {
    "postal": "M9N3B6",
    "result": [
      {
        "electoralDistricts": [
          {
            "election": null,
            "id": 122,
            "setId": 0,
            "name": "York South—Weston"
          }
        ],
        "pollDivisionIds": [
          10142957
        ],
        "postalCode": "M9N3B6",
        "streetName": "ROSEMOUNT",
        "streetDirectionId": null,
        "streetTypeId": "AVE",
        "placeName": "YORK",
        "streetNameDisplayText": "ROSEMOUNT AVE, YORK"
      }
    ]
  },
  {
    "postal": "M9N8J0",
    "result": []
  },
  {
    "postal": "M9N7R4",
    "result": []
  },
  {
    "postal": "M9N8K8",
    "result": []
  },
  {
    "postal": "M9N4P3",
    "result": []
  },
  {
    "postal": "M9N0A2",
    "result": [
      {
        "electoralDistricts": [
          {
            "election": null,
            "id": 122,
            "setId": 0,
            "name": "York South—Weston"
          }
        ],
        "pollDivisionIds": [
          10142950
        ],
        "postalCode": "M9N0A2",
        "streetName": "WESTON",
        "streetDirectionId": null,
        "streetTypeId": "RD",
        "placeName": "NORTH YORK",
        "streetNameDisplayText": "WESTON RD, NORTH YORK"
      },
      {
        "electoralDistricts": [
          {
            "election": null,
            "id": 122,
            "setId": 0,
            "name": "York South—Weston"
          }
        ],
        "pollDivisionIds": [
          10142950
        ],
        "postalCode": "M9N0A2",
        "streetName": "WESTON",
        "streetDirectionId": null,
        "streetTypeId": "RD",
        "placeName": "YORK",
        "streetNameDisplayText": "WESTON RD, YORK"
      }
    ]
  },
  {
    "postal": "M9N2G2",
    "result": [
      {
        "electoralDistricts": [
          {
            "election": null,
            "id": 122,
            "setId": 0,
            "name": "York South—Weston"
          },
          {
            "election": null,
            "id": 28,
            "setId": 0,
            "name": "Etobicoke Centre"
          }
        ],
        "pollDivisionIds": [
          10142958,
          10138081
        ],
        "postalCode": "M9N2G2",
        "streetName": "WADSWORTH",
        "streetDirectionId": null,
        "streetTypeId": "BLVD",
        "placeName": "YORK",
        "streetNameDisplayText": "WADSWORTH BLVD, YORK"
      }
    ]
  },
  {
    "postal": "M9N5Y9",
    "result": []
  },
  {
    "postal": "M9N7X0",
    "result": []
  },
  {
    "postal": "M9N7W3",
    "result": []
  },
  {
    "postal": "M9N7X5",
    "result": []
  },
  {
    "postal": "M9N5K6",
    "result": []
  },
  {
    "postal": "M9N5B6",
    "result": []
  },
  {
    "postal": "M9N7Z0",
    "result": []
  },
  {
    "postal": "M9N9H6",
    "result": []
  },
  {
    "postal": "M9N1B4",
    "result": [
      {
        "electoralDistricts": [
          {
            "election": null,
            "id": 122,
            "setId": 0,
            "name": "York South—Weston"
          }
        ],
        "pollDivisionIds": [
          10142962
        ],
        "postalCode": "M9N1B4",
        "streetName": "LIPPINCOTT",
        "streetDirectionId": "W",
        "streetTypeId": "ST",
        "placeName": "YORK",
        "streetNameDisplayText": "LIPPINCOTT ST W, YORK"
      }
    ]
  },
  {
    "postal": "M9N1A0",
    "result": []
  },
  {
    "postal": "M9N9A0",
    "result": []
  },
  {
    "postal": "M9N1M6",
    "result": [
      {
        "electoralDistricts": [
          {
            "election": null,
            "id": 122,
            "setId": 0,
            "name": "York South—Weston"
          }
        ],
        "pollDivisionIds": [
          10142957
        ],
        "postalCode": "M9N1M6",
        "streetName": "CHURCH",
        "streetDirectionId": null,
        "streetTypeId": "ST",
        "placeName": "TORONTO,ONTARIO",
        "streetNameDisplayText": "CHURCH ST, TORONTO,ONTARIO"
      },
      {
        "electoralDistricts": [
          {
            "election": null,
            "id": 122,
            "setId": 0,
            "name": "York South—Weston"
          }
        ],
        "pollDivisionIds": [
          10142956
        ],
        "postalCode": "M9N1M6",
        "streetName": "CHURCH",
        "streetDirectionId": null,
        "streetTypeId": "ST",
        "placeName": "YORK",
        "streetNameDisplayText": "CHURCH ST, YORK"
      }
    ]
  },
  {
    "postal": "M9N5H0",
    "result": []
  },
  {
    "postal": "M9N1K6",
    "result": [
      {
        "electoralDistricts": [
          {
            "election": null,
            "id": 122,
            "setId": 0,
            "name": "York South—Weston"
          }
        ],
        "pollDivisionIds": [
          10142956
        ],
        "postalCode": "M9N1K6",
        "streetName": "KING STREET",
        "streetDirectionId": null,
        "streetTypeId": "CRES",
        "placeName": "YORK",
        "streetNameDisplayText": "KING STREET CRES, YORK"
      }
    ]
  },
  {
    "postal": "M9N5E1",
    "result": []
  },
  {
    "postal": "M9N3T9",
    "result": [
      {
        "electoralDistricts": [
          {
            "election": null,
            "id": 122,
            "setId": 0,
            "name": "York South—Weston"
          }
        ],
        "pollDivisionIds": [
          10142988
        ],
        "postalCode": "M9N3T9",
        "streetName": "JANE",
        "streetDirectionId": null,
        "streetTypeId": "ST",
        "placeName": "NORTH YORK",
        "streetNameDisplayText": "JANE ST, NORTH YORK"
      }
    ]
  },
  {
    "postal": "M9N2M6",
    "result": [
      {
        "electoralDistricts": [
          {
            "election": null,
            "id": 122,
            "setId": 0,
            "name": "York South—Weston"
          }
        ],
        "pollDivisionIds": [
          10142951
        ],
        "postalCode": "M9N2M6",
        "streetName": "GARY",
        "streetDirectionId": null,
        "streetTypeId": "DR",
        "placeName": "NORTH YORK",
        "streetNameDisplayText": "GARY DR, NORTH YORK"
      }
    ]
  },
  {
    "postal": "M9N0G5",
    "result": []
  },
  {
    "postal": "M9N0Y2",
    "result": []
  },
  {
    "postal": "M9N2Y7",
    "result": [
      {
        "electoralDistricts": [
          {
            "election": null,
            "id": 122,
            "setId": 0,
            "name": "York South—Weston"
          }
        ],
        "pollDivisionIds": [
          10142951
        ],
        "postalCode": "M9N2Y7",
        "streetName": "DALBEATTIE",
        "streetDirectionId": null,
        "streetTypeId": "AVE",
        "placeName": "NORTH YORK",
        "streetNameDisplayText": "DALBEATTIE AVE, NORTH YORK"
      }
    ]
  },
  {
    "postal": "M9N2J7",
    "result": [
      {
        "electoralDistricts": [
          {
            "election": null,
            "id": 122,
            "setId": 0,
            "name": "York South—Weston"
          },
          {
            "election": null,
            "id": 112,
            "setId": 0,
            "name": "University—Rosedale"
          }
        ],
        "pollDivisionIds": [
          10142951,
          10136388
        ],
        "postalCode": "M9N2J7",
        "streetName": "ROBERT",
        "streetDirectionId": null,
        "streetTypeId": "ST",
        "placeName": "YORK",
        "streetNameDisplayText": "ROBERT ST, YORK"
      }
    ]
  },
  {
    "postal": "M9N4K7",
    "result": []
  },
  {
    "postal": "M9N7P9",
    "result": []
  },
  {
    "postal": "M9N8X0",
    "result": []
  },
  {
    "postal": "M9N3X1",
    "result": [
      {
        "electoralDistricts": [
          {
            "election": null,
            "id": 122,
            "setId": 0,
            "name": "York South—Weston"
          }
        ],
        "pollDivisionIds": [
          10142991
        ],
        "postalCode": "M9N3X1",
        "streetName": "KING",
        "streetDirectionId": null,
        "streetTypeId": "ST",
        "placeName": "YORK",
        "streetNameDisplayText": "KING ST, YORK"
      }
    ]
  },
  {
    "postal": "M9N1R5",
    "result": [
      {
        "electoralDistricts": [
          {
            "election": null,
            "id": 122,
            "setId": 0,
            "name": "York South—Weston"
          }
        ],
        "pollDivisionIds": [
          10142951
        ],
        "postalCode": "M9N1R5",
        "streetName": "HUMBERVIEW",
        "streetDirectionId": null,
        "streetTypeId": "CRES",
        "placeName": "YORK",
        "streetNameDisplayText": "HUMBERVIEW CRES, YORK"
      }
    ]
  },
  {
    "postal": "M9N6X6",
    "result": []
  },
  {
    "postal": "M9N0Y1",
    "result": []
  },
  {
    "postal": "M9N8G1",
    "result": []
  },
  {
    "postal": "M9N3J3",
    "result": [
      {
        "electoralDistricts": [
          {
            "election": null,
            "id": 122,
            "setId": 0,
            "name": "York South—Weston"
          }
        ],
        "pollDivisionIds": [
          10142951
        ],
        "postalCode": "M9N3J3",
        "streetName": "GRATTAN",
        "streetDirectionId": null,
        "streetTypeId": "ST",
        "placeName": "NORTH YORK",
        "streetNameDisplayText": "GRATTAN ST, NORTH YORK"
      }
    ]
  },
  {
    "postal": "M9N8C2",
    "result": []
  },
  {
    "postal": "M9N4X9",
    "result": []
  },
  {
    "postal": "M9N6G9",
    "result": []
  },
  {
    "postal": "M9N4M3",
    "result": []
  },
  {
    "postal": "M9N9P7",
    "result": []
  },
  {
    "postal": "M9N4E5",
    "result": []
  },
  {
    "postal": "M9N5K9",
    "result": []
  },
  {
    "postal": "M9N2V2",
    "result": [
      {
        "electoralDistricts": [
          {
            "election": null,
            "id": 122,
            "setId": 0,
            "name": "York South—Weston"
          }
        ],
        "pollDivisionIds": [
          10142952
        ],
        "postalCode": "M9N2V2",
        "streetName": "JANE",
        "streetDirectionId": null,
        "streetTypeId": "ST",
        "placeName": "NORTH YORK",
        "streetNameDisplayText": "JANE ST, NORTH YORK"
      }
    ]
  },
  {
    "postal": "M9N2N9",
    "result": [
      {
        "electoralDistricts": [
          {
            "election": null,
            "id": 122,
            "setId": 0,
            "name": "York South—Weston"
          }
        ],
        "pollDivisionIds": [
          10142950
        ],
        "postalCode": "M9N2N9",
        "streetName": "CHANTILLY",
        "streetDirectionId": null,
        "streetTypeId": "GDNS",
        "placeName": "NORTH YORK",
        "streetNameDisplayText": "CHANTILLY GDNS, NORTH YORK"
      }
    ]
  },
  {
    "postal": "M9N6L4",
    "result": []
  },
  {
    "postal": "M9N8E0",
    "result": []
  },
  {
    "postal": "M9N0N0",
    "result": []
  },
  {
    "postal": "M9N6R0",
    "result": []
  },
  {
    "postal": "M9N9C1",
    "result": []
  },
  {
    "postal": "M9N4H4",
    "result": []
  },
  {
    "postal": "M9N5W3",
    "result": []
  },
  {
    "postal": "M9N9N9",
    "result": []
  },
  {
    "postal": "M9N1V7",
    "result": []
  },
  {
    "postal": "M9N8J1",
    "result": []
  },
  {
    "postal": "M9N5V9",
    "result": []
  },
  {
    "postal": "M9N2S8",
    "result": []
  },
  {
    "postal": "M9N6P0",
    "result": []
  },
  {
    "postal": "M9N4J8",
    "result": []
  },
  {
    "postal": "M9N0N1",
    "result": []
  },
  {
    "postal": "M9N1Y7",
    "result": [
      {
        "electoralDistricts": [
          {
            "election": null,
            "id": 122,
            "setId": 0,
            "name": "York South—Weston"
          }
        ],
        "pollDivisionIds": [
          10142957
        ],
        "postalCode": "M9N1Y7",
        "streetName": "CHURCH",
        "streetDirectionId": null,
        "streetTypeId": "ST",
        "placeName": "NORHT YORK",
        "streetNameDisplayText": "CHURCH ST, NORHT YORK"
      },
      {
        "electoralDistricts": [
          {
            "election": null,
            "id": 122,
            "setId": 0,
            "name": "York South—Weston"
          }
        ],
        "pollDivisionIds": [
          10142955
        ],
        "postalCode": "M9N1Y7",
        "streetName": "WESTON",
        "streetDirectionId": null,
        "streetTypeId": "RD",
        "placeName": "NORTH YORK",
        "streetNameDisplayText": "WESTON RD, NORTH YORK"
      },
      {
        "electoralDistricts": [
          {
            "election": null,
            "id": 122,
            "setId": 0,
            "name": "York South—Weston"
          }
        ],
        "pollDivisionIds": [
          10142955
        ],
        "postalCode": "M9N1Y7",
        "streetName": "WESTON",
        "streetDirectionId": null,
        "streetTypeId": "RD",
        "placeName": "YORK",
        "streetNameDisplayText": "WESTON RD, YORK"
      }
    ]
  },
  {
    "postal": "M9N7W5",
    "result": []
  },
  {
    "postal": "M9N3Z1",
    "result": [
      {
        "electoralDistricts": [
          {
            "election": null,
            "id": 122,
            "setId": 0,
            "name": "York South—Weston"
          }
        ],
        "pollDivisionIds": [
          10142963
        ],
        "postalCode": "M9N3Z1",
        "streetName": "WRIGHT",
        "streetDirectionId": null,
        "streetTypeId": "AVE",
        "placeName": "NORTH YORK",
        "streetNameDisplayText": "WRIGHT AVE, NORTH YORK"
      }
    ]
  },
  {
    "postal": "M9N7M6",
    "result": []
  },
  {
    "postal": "M9N1W7",
    "result": [
      {
        "electoralDistricts": [
          {
            "election": null,
            "id": 122,
            "setId": 0,
            "name": "York South—Weston"
          }
        ],
        "pollDivisionIds": [
          10142958
        ],
        "postalCode": "M9N1W7",
        "streetName": "WESTON",
        "streetDirectionId": null,
        "streetTypeId": "RD",
        "placeName": "YORK",
        "streetNameDisplayText": "WESTON RD, YORK"
      }
    ]
  },
  {
    "postal": "M9N1X1",
    "result": []
  },
  {
    "postal": "M9N0C1",
    "result": []
  },
  {
    "postal": "M9N4N3",
    "result": []
  },
  {
    "postal": "M9N4S8",
    "result": []
  },
  {
    "postal": "M9N1H6",
    "result": []
  },
  {
    "postal": "M9N2Z4",
    "result": [
      {
        "electoralDistricts": [
          {
            "election": null,
            "id": 122,
            "setId": 0,
            "name": "York South—Weston"
          }
        ],
        "pollDivisionIds": [
          10142957
        ],
        "postalCode": "M9N2Z4",
        "streetName": "PINE",
        "streetDirectionId": null,
        "streetTypeId": "ST",
        "placeName": "YORK",
        "streetNameDisplayText": "PINE ST, YORK"
      }
    ]
  },
  {
    "postal": "M9N7K3",
    "result": []
  },
  {
    "postal": "M9N8A2",
    "result": []
  },
  {
    "postal": "M9N6J1",
    "result": []
  },
  {
    "postal": "M9N5Z6",
    "result": []
  },
  {
    "postal": "M9N3Z0",
    "result": []
  },
  {
    "postal": "M9N8M0",
    "result": []
  },
  {
    "postal": "M9N1Z6",
    "result": [
      {
        "electoralDistricts": [
          {
            "election": null,
            "id": 122,
            "setId": 0,
            "name": "York South—Weston"
          }
        ],
        "pollDivisionIds": [
          10142951
        ],
        "postalCode": "M9N1Z6",
        "streetName": "WESTON",
        "streetDirectionId": null,
        "streetTypeId": "RD",
        "placeName": "YORK",
        "streetNameDisplayText": "WESTON RD, YORK"
      }
    ]
  },
  {
    "postal": "M9N8K7",
    "result": []
  },
  {
    "postal": "M9N1N3",
    "result": [
      {
        "electoralDistricts": [
          {
            "election": null,
            "id": 56,
            "setId": 0,
            "name": "Markham—Stouffville"
          },
          {
            "election": null,
            "id": 122,
            "setId": 0,
            "name": "York South—Weston"
          },
          {
            "election": null,
            "id": 121,
            "setId": 0,
            "name": "York—Simcoe"
          }
        ],
        "pollDivisionIds": [
          10134339,
          10142951,
          10142923
        ],
        "postalCode": "M9N1N3",
        "streetName": "CHURCH",
        "streetDirectionId": null,
        "streetTypeId": "ST",
        "placeName": "YORK",
        "streetNameDisplayText": "CHURCH ST, YORK"
      }
    ]
  },
  {
    "postal": "M9N9S2",
    "result": []
  },
  {
    "postal": "M9N2K1",
    "result": [
      {
        "electoralDistricts": [
          {
            "election": null,
            "id": 122,
            "setId": 0,
            "name": "York South—Weston"
          }
        ],
        "pollDivisionIds": [
          10142951
        ],
        "postalCode": "M9N2K1",
        "streetName": "LAMONT",
        "streetDirectionId": null,
        "streetTypeId": "AVE",
        "placeName": "NORTH YORK",
        "streetNameDisplayText": "LAMONT AVE, NORTH YORK"
      }
    ]
  },
  {
    "postal": "M9N1E8",
    "result": [
      {
        "electoralDistricts": [
          {
            "election": null,
            "id": 122,
            "setId": 0,
            "name": "York South—Weston"
          }
        ],
        "pollDivisionIds": [
          10142963
        ],
        "postalCode": "M9N1E8",
        "streetName": "WRIGHT",
        "streetDirectionId": null,
        "streetTypeId": "AVE",
        "placeName": "YORK",
        "streetNameDisplayText": "WRIGHT AVE, YORK"
      }
    ]
  },
  {
    "postal": "M9N9B8",
    "result": []
  },
  {
    "postal": "M9N7X4",
    "result": []
  },
  {
    "postal": "M9N1Z4",
    "result": [
      {
        "electoralDistricts": [
          {
            "election": null,
            "id": 122,
            "setId": 0,
            "name": "York South—Weston"
          }
        ],
        "pollDivisionIds": [
          10142955
        ],
        "postalCode": "M9N1Z4",
        "streetName": "WESTON",
        "streetDirectionId": null,
        "streetTypeId": "RD",
        "placeName": "YORK",
        "streetNameDisplayText": "WESTON RD, YORK"
      }
    ]
  },
  {
    "postal": "M9N2C7",
    "result": [
      {
        "electoralDistricts": [
          {
            "election": null,
            "id": 122,
            "setId": 0,
            "name": "York South—Weston"
          }
        ],
        "pollDivisionIds": [
          10142958
        ],
        "postalCode": "M9N2C7",
        "streetName": "BOYD",
        "streetDirectionId": null,
        "streetTypeId": "AVE",
        "placeName": "YORK",
        "streetNameDisplayText": "BOYD AVE, YORK"
      }
    ]
  },
  {
    "postal": "M9N2E7",
    "result": [
      {
        "electoralDistricts": [
          {
            "election": null,
            "id": 122,
            "setId": 0,
            "name": "York South—Weston"
          }
        ],
        "pollDivisionIds": [
          10142958
        ],
        "postalCode": "M9N2E7",
        "streetName": "PATIKA",
        "streetDirectionId": null,
        "streetTypeId": "AVE",
        "placeName": "YORK",
        "streetNameDisplayText": "PATIKA AVE, YORK"
      }
    ]
  },
  {
    "postal": "M9N3R1",
    "result": [
      {
        "electoralDistricts": [
          {
            "election": null,
            "id": 122,
            "setId": 0,
            "name": "York South—Weston"
          }
        ],
        "pollDivisionIds": [
          10142950
        ],
        "postalCode": "M9N3R1",
        "streetName": "DEE",
        "streetDirectionId": null,
        "streetTypeId": "CRES",
        "placeName": "NORTH YORK",
        "streetNameDisplayText": "DEE CRES, NORTH YORK"
      }
    ]
  },
  {
    "postal": "M9N4K4",
    "result": []
  },
  {
    "postal": "M9N9G3",
    "result": []
  },
  {
    "postal": "M9N6C9",
    "result": []
  },
  {
    "postal": "M9N9H5",
    "result": []
  },
  {
    "postal": "M9N1P5",
    "result": [
      {
        "electoralDistricts": [
          {
            "election": null,
            "id": 122,
            "setId": 0,
            "name": "York South—Weston"
          }
        ],
        "pollDivisionIds": [
          10142956
        ],
        "postalCode": "M9N1P5",
        "streetName": "COULTER",
        "streetDirectionId": null,
        "streetTypeId": "AVE",
        "placeName": "YORK",
        "streetNameDisplayText": "COULTER AVE, YORK"
      }
    ]
  },
  {
    "postal": "M9N2J5",
    "result": [
      {
        "electoralDistricts": [
          {
            "election": null,
            "id": 121,
            "setId": 0,
            "name": "York—Simcoe"
          }
        ],
        "pollDivisionIds": [
          10142927
        ],
        "postalCode": "M9N2J5",
        "streetName": "ROBERT",
        "streetDirectionId": null,
        "streetTypeId": "ST",
        "placeName": "KESWICK",
        "streetNameDisplayText": "ROBERT ST, KESWICK"
      },
      {
        "electoralDistricts": [
          {
            "election": null,
            "id": 122,
            "setId": 0,
            "name": "York South—Weston"
          },
          {
            "election": null,
            "id": 112,
            "setId": 0,
            "name": "University—Rosedale"
          }
        ],
        "pollDivisionIds": [
          10142951,
          10136388
        ],
        "postalCode": "M9N2J5",
        "streetName": "ROBERT",
        "streetDirectionId": null,
        "streetTypeId": "ST",
        "placeName": "YORK",
        "streetNameDisplayText": "ROBERT ST, YORK"
      }
    ]
  },
  {
    "postal": "M9N4W6",
    "result": []
  },
  {
    "postal": "M9N8M8",
    "result": []
  },
  {
    "postal": "M9N6C5",
    "result": []
  },
  {
    "postal": "M9N9H0",
    "result": []
  },
  {
    "postal": "M9N1X8",
    "result": [
      {
        "electoralDistricts": [
          {
            "election": null,
            "id": 122,
            "setId": 0,
            "name": "York South—Weston"
          }
        ],
        "pollDivisionIds": [
          10142956
        ],
        "postalCode": "M9N1X8",
        "streetName": "WESTON",
        "streetDirectionId": null,
        "streetTypeId": "RD",
        "placeName": "YORK",
        "streetNameDisplayText": "WESTON RD, YORK"
      }
    ]
  },
  {
    "postal": "M9N3H4",
    "result": [
      {
        "electoralDistricts": [
          {
            "election": null,
            "id": 122,
            "setId": 0,
            "name": "York South—Weston"
          }
        ],
        "pollDivisionIds": [
          10142951
        ],
        "postalCode": "M9N3H4",
        "streetName": "WALWYN",
        "streetDirectionId": null,
        "streetTypeId": "AVE",
        "placeName": "NORTH YORK",
        "streetNameDisplayText": "WALWYN AVE, NORTH YORK"
      }
    ]
  },
  {
    "postal": "M9N4E7",
    "result": []
  },
  {
    "postal": "M9N8A0",
    "result": []
  },
  {
    "postal": "M9N1Z7",
    "result": [
      {
        "electoralDistricts": [
          {
            "election": null,
            "id": 122,
            "setId": 0,
            "name": "York South—Weston"
          }
        ],
        "pollDivisionIds": [
          10142951
        ],
        "postalCode": "M9N1Z7",
        "streetName": "WESTON",
        "streetDirectionId": null,
        "streetTypeId": "RD",
        "placeName": "YORK",
        "streetNameDisplayText": "WESTON RD, YORK"
      }
    ]
  },
  {
    "postal": "M9N7Z3",
    "result": []
  },
  {
    "postal": "M9N0L7",
    "result": []
  },
  {
    "postal": "M9N2C6",
    "result": [
      {
        "electoralDistricts": [
          {
            "election": null,
            "id": 122,
            "setId": 0,
            "name": "York South—Weston"
          }
        ],
        "pollDivisionIds": [
          10142958
        ],
        "postalCode": "M9N2C6",
        "streetName": "BOYD",
        "streetDirectionId": null,
        "streetTypeId": "AVE",
        "placeName": "YORK",
        "streetNameDisplayText": "BOYD AVE, YORK"
      }
    ]
  },
  {
    "postal": "M9N6M3",
    "result": []
  },
  {
    "postal": "M9N2J1",
    "result": [
      {
        "electoralDistricts": [
          {
            "election": null,
            "id": 56,
            "setId": 0,
            "name": "Markham—Stouffville"
          },
          {
            "election": null,
            "id": 122,
            "setId": 0,
            "name": "York South—Weston"
          }
        ],
        "pollDivisionIds": [
          10134355,
          10142951
        ],
        "postalCode": "M9N2J1",
        "streetName": "JOSEPH",
        "streetDirectionId": null,
        "streetTypeId": "ST",
        "placeName": "YORK",
        "streetNameDisplayText": "JOSEPH ST, YORK"
      }
    ]
  },
  {
    "postal": "M9N3E3",
    "result": [
      {
        "electoralDistricts": [
          {
            "election": null,
            "id": 122,
            "setId": 0,
            "name": "York South—Weston"
          }
        ],
        "pollDivisionIds": [
          10142951
        ],
        "postalCode": "M9N3E3",
        "streetName": "LANGSIDE",
        "streetDirectionId": null,
        "streetTypeId": "AVE",
        "placeName": "NORTH YORK",
        "streetNameDisplayText": "LANGSIDE AVE, NORTH YORK"
      }
    ]
  },
  {
    "postal": "M9N6Z9",
    "result": []
  },
  {
    "postal": "M9N3M3",
    "result": [
      {
        "electoralDistricts": [
          {
            "election": null,
            "id": 122,
            "setId": 0,
            "name": "York South—Weston"
          }
        ],
        "pollDivisionIds": [
          10142951
        ],
        "postalCode": "M9N3M3",
        "streetName": "YELLAND",
        "streetDirectionId": null,
        "streetTypeId": "ST",
        "placeName": "NORTH YORK",
        "streetNameDisplayText": "YELLAND ST, NORTH YORK"
      }
    ]
  },
  {
    "postal": "M9N9B1",
    "result": []
  },
  {
    "postal": "M9N9J5",
    "result": []
  },
  {
    "postal": "M9N4V8",
    "result": []
  },
  {
    "postal": "M9N6W2",
    "result": []
  },
  {
    "postal": "M9N0V5",
    "result": []
  },
  {
    "postal": "M9N0Z8",
    "result": []
  },
  {
    "postal": "M9N5G2",
    "result": []
  },
  {
    "postal": "M9N4N4",
    "result": []
  },
  {
    "postal": "M9N8G7",
    "result": []
  },
  {
    "postal": "M9N8W1",
    "result": []
  },
  {
    "postal": "M9N1S6",
    "result": [
      {
        "electoralDistricts": [
          {
            "election": null,
            "id": 122,
            "setId": 0,
            "name": "York South—Weston"
          }
        ],
        "pollDivisionIds": [
          10142950
        ],
        "postalCode": "M9N1S6",
        "streetName": "MAPLE BUSH",
        "streetDirectionId": null,
        "streetTypeId": "AVE",
        "placeName": "NORTH YORK",
        "streetNameDisplayText": "MAPLE BUSH AVE, NORTH YORK"
      }
    ]
  },
  {
    "postal": "M9N4E0",
    "result": []
  },
  {
    "postal": "M9N4L9",
    "result": []
  },
  {
    "postal": "M9N5Z9",
    "result": []
  },
  {
    "postal": "M9N5V3",
    "result": []
  },
  {
    "postal": "M9N4V2",
    "result": []
  },
  {
    "postal": "M9N7C0",
    "result": []
  },
  {
    "postal": "M9N6L0",
    "result": []
  },
  {
    "postal": "M9N1S9",
    "result": [
      {
        "electoralDistricts": [
          {
            "election": null,
            "id": 122,
            "setId": 0,
            "name": "York South—Weston"
          }
        ],
        "pollDivisionIds": [
          10142950
        ],
        "postalCode": "M9N1S9",
        "streetName": "DEE",
        "streetDirectionId": null,
        "streetTypeId": "AVE",
        "placeName": "NORTH YORK",
        "streetNameDisplayText": "DEE AVE, NORTH YORK"
      }
    ]
  },
  {
    "postal": "M9N7R6",
    "result": []
  },
  {
    "postal": "M9N7J0",
    "result": []
  },
  {
    "postal": "M9N5M0",
    "result": []
  },
  {
    "postal": "M9N2E5",
    "result": [
      {
        "electoralDistricts": [
          {
            "election": null,
            "id": 122,
            "setId": 0,
            "name": "York South—Weston"
          }
        ],
        "pollDivisionIds": [
          10142958
        ],
        "postalCode": "M9N2E5",
        "streetName": "MACDONALD",
        "streetDirectionId": null,
        "streetTypeId": "AVE",
        "placeName": "YORK",
        "streetNameDisplayText": "MACDONALD AVE, YORK"
      }
    ]
  },
  {
    "postal": "M9N7C7",
    "result": []
  },
  {
    "postal": "M9N5C0",
    "result": []
  },
  {
    "postal": "M9N8V9",
    "result": []
  },
  {
    "postal": "M9N7E0",
    "result": []
  },
  {
    "postal": "M9N6R4",
    "result": []
  },
  {
    "postal": "M9N3Z7",
    "result": [
      {
        "electoralDistricts": [
          {
            "election": null,
            "id": 122,
            "setId": 0,
            "name": "York South—Weston"
          }
        ],
        "pollDivisionIds": [
          10142950
        ],
        "postalCode": "M9N3Z7",
        "streetName": "MEADOW OAK",
        "streetDirectionId": null,
        "streetTypeId": "PL",
        "placeName": "NORTH YORK",
        "streetNameDisplayText": "MEADOW OAK PL, NORTH YORK"
      },
      {
        "electoralDistricts": [
          {
            "election": null,
            "id": 122,
            "setId": 0,
            "name": "York South—Weston"
          }
        ],
        "pollDivisionIds": [
          10142950
        ],
        "postalCode": "M9N3Z7",
        "streetName": "WEST OAK",
        "streetDirectionId": null,
        "streetTypeId": "CRES",
        "placeName": "NORTH YORK",
        "streetNameDisplayText": "WEST OAK CRES, NORTH YORK"
      }
    ]
  },
  {
    "postal": "M9N1J9",
    "result": [
      {
        "electoralDistricts": [
          {
            "election": null,
            "id": 101,
            "setId": 0,
            "name": "Spadina—Fort York"
          }
        ],
        "pollDivisionIds": [
          10141959
        ],
        "postalCode": "M9N1J9",
        "streetName": "JOHN",
        "streetDirectionId": null,
        "streetTypeId": "ST",
        "placeName": "TORONTO",
        "streetNameDisplayText": "JOHN ST, TORONTO"
      },
      {
        "electoralDistricts": [
          {
            "election": null,
            "id": 101,
            "setId": 0,
            "name": "Spadina—Fort York"
          },
          {
            "election": null,
            "id": 122,
            "setId": 0,
            "name": "York South—Weston"
          }
        ],
        "pollDivisionIds": [
          10141945,
          10141959,
          10142957
        ],
        "postalCode": "M9N1J9",
        "streetName": "JOHN",
        "streetDirectionId": null,
        "streetTypeId": "ST",
        "placeName": "YORK",
        "streetNameDisplayText": "JOHN ST, YORK"
      }
    ]
  },
  {
    "postal": "M9N7K6",
    "result": []
  },
  {
    "postal": "M9N7Y5",
    "result": []
  },
  {
    "postal": "M9N1B7",
    "result": [
      {
        "electoralDistricts": [
          {
            "election": null,
            "id": 122,
            "setId": 0,
            "name": "York South—Weston"
          }
        ],
        "pollDivisionIds": [
          10142963
        ],
        "postalCode": "M9N1B7",
        "streetName": "DENISON",
        "streetDirectionId": "E",
        "streetTypeId": "RD",
        "placeName": "NORTH YORK",
        "streetNameDisplayText": "DENISON RD E, NORTH YORK"
      }
    ]
  },
  {
    "postal": "M9N4S9",
    "result": []
  },
  {
    "postal": "M9N9R9",
    "result": []
  },
  {
    "postal": "M9N5K7",
    "result": []
  },
  {
    "postal": "M9N6P2",
    "result": []
  },
  {
    "postal": "M9N2C5",
    "result": [
      {
        "electoralDistricts": [
          {
            "election": null,
            "id": 122,
            "setId": 0,
            "name": "York South—Weston"
          }
        ],
        "pollDivisionIds": [
          10142951
        ],
        "postalCode": "M9N2C5",
        "streetName": "HOLLEY",
        "streetDirectionId": null,
        "streetTypeId": "AVE",
        "placeName": "YORK",
        "streetNameDisplayText": "HOLLEY AVE, YORK"
      }
    ]
  },
  {
    "postal": "M9N2N0",
    "result": []
  },
  {
    "postal": "M9N1G0",
    "result": []
  },
  {
    "postal": "M9N4K5",
    "result": []
  },
  {
    "postal": "M9N9B5",
    "result": []
  },
  {
    "postal": "M9N6T5",
    "result": []
  },
  {
    "postal": "M9N1N8",
    "result": [
      {
        "electoralDistricts": [
          {
            "election": null,
            "id": 122,
            "setId": 0,
            "name": "York South—Weston"
          }
        ],
        "pollDivisionIds": [
          10142957
        ],
        "postalCode": "M9N1N8",
        "streetName": "CHURCH",
        "streetDirectionId": null,
        "streetTypeId": "ST",
        "placeName": "YORK",
        "streetNameDisplayText": "CHURCH ST, YORK"
      }
    ]
  },
  {
    "postal": "M9N0C0",
    "result": []
  },
  {
    "postal": "M9N0R9",
    "result": []
  },
  {
    "postal": "M9N7L1",
    "result": []
  },
  {
    "postal": "M9N3Y8",
    "result": [
      {
        "electoralDistricts": [
          {
            "election": null,
            "id": 122,
            "setId": 0,
            "name": "York South—Weston"
          }
        ],
        "pollDivisionIds": [
          10142963
        ],
        "postalCode": "M9N3Y8",
        "streetName": "RICHWOOD",
        "streetDirectionId": null,
        "streetTypeId": "ST",
        "placeName": "NORTH YORK",
        "streetNameDisplayText": "RICHWOOD ST, NORTH YORK"
      }
    ]
  },
  {
    "postal": "M9N7X9",
    "result": []
  },
  {
    "postal": "M9N1A7",
    "result": [
      {
        "electoralDistricts": [
          {
            "election": null,
            "id": 122,
            "setId": 0,
            "name": "York South—Weston"
          }
        ],
        "pollDivisionIds": [
          10142962
        ],
        "postalCode": "M9N1A7",
        "streetName": "CLOUSTON",
        "streetDirectionId": null,
        "streetTypeId": "AVE",
        "placeName": "YORK",
        "streetNameDisplayText": "CLOUSTON AVE, YORK"
      }
    ]
  },
  {
    "postal": "M9N2T9",
    "result": []
  },
  {
    "postal": "M9N2E6",
    "result": [
      {
        "electoralDistricts": [
          {
            "election": null,
            "id": 122,
            "setId": 0,
            "name": "York South—Weston"
          }
        ],
        "pollDivisionIds": [
          10142958
        ],
        "postalCode": "M9N2E6",
        "streetName": "MACDONALD",
        "streetDirectionId": null,
        "streetTypeId": "AVE",
        "placeName": "YORK",
        "streetNameDisplayText": "MACDONALD AVE, YORK"
      }
    ]
  },
  {
    "postal": "M9N8Y1",
    "result": []
  },
  {
    "postal": "M9N0J5",
    "result": []
  },
  {
    "postal": "M9N4J1",
    "result": []
  },
  {
    "postal": "M9N1A5",
    "result": [
      {
        "electoralDistricts": [
          {
            "election": null,
            "id": 122,
            "setId": 0,
            "name": "York South—Weston"
          }
        ],
        "pollDivisionIds": [
          10142962
        ],
        "postalCode": "M9N1A5",
        "streetName": "CLOUSTON",
        "streetDirectionId": null,
        "streetTypeId": "AVE",
        "placeName": "YORK",
        "streetNameDisplayText": "CLOUSTON AVE, YORK"
      }
    ]
  },
  {
    "postal": "M9N6Z6",
    "result": []
  },
  {
    "postal": "M9N5K4",
    "result": []
  },
  {
    "postal": "M9N7R9",
    "result": []
  },
  {
    "postal": "M9N6G4",
    "result": []
  }
]
