[
  {
    "postal": "M1S9J6",
    "result": []
  },
  {
    "postal": "M1S9Z5",
    "result": []
  },
  {
    "postal": "M1S7H8",
    "result": []
  },
  {
    "postal": "M1S0P6",
    "result": []
  },
  {
    "postal": "M1S0S7",
    "result": []
  },
  {
    "postal": "M1S8B9",
    "result": []
  },
  {
    "postal": "M1S2A6",
    "result": []
  },
  {
    "postal": "M1S7V2",
    "result": []
  },
  {
    "postal": "M1S9P4",
    "result": []
  },
  {
    "postal": "M1S6G0",
    "result": []
  },
  {
    "postal": "M1S2K0",
    "result": []
  },
  {
    "postal": "M1S7N6",
    "result": []
  },
  {
    "postal": "M1S5R3",
    "result": [
      {
        "electoralDistricts": [
          {
            "election": null,
            "id": 96,
            "name": "Scarborough North"
          }
        ],
        "pollDivisionIds": [
          10141711
        ],
        "postalCode": "M1S5R3",
        "streetName": "COMPASS",
        "streetDirectionId": null,
        "streetTypeId": "CRT",
        "placeName": "SCARBOROUGH",
        "streetNameDisplayText": "COMPASS CRT, SCARBOROUGH"
      }
    ]
  },
  {
    "postal": "M1S7K0",
    "result": []
  },
  {
    "postal": "M1S3R2",
    "result": [
      {
        "electoralDistricts": [
          {
            "election": null,
            "id": 96,
            "name": "Scarborough North"
          }
        ],
        "pollDivisionIds": [
          10141714
        ],
        "postalCode": "M1S3R2",
        "streetName": "MILNER",
        "streetDirectionId": null,
        "streetTypeId": "AVE",
        "placeName": "SCARBOROUGH",
        "streetNameDisplayText": "MILNER AVE, SCARBOROUGH"
      }
    ]
  },
  {
    "postal": "M1S0J1",
    "result": []
  },
  {
    "postal": "M1S0B0",
    "result": []
  },
  {
    "postal": "M1S5Z2",
    "result": []
  },
  {
    "postal": "M1S7P3",
    "result": []
  },
  {
    "postal": "M1S2K3",
    "result": [
      {
        "electoralDistricts": [
          {
            "election": null,
            "id": 96,
            "name": "Scarborough North"
          }
        ],
        "pollDivisionIds": [
          10141709
        ],
        "postalCode": "M1S2K3",
        "streetName": "TODD",
        "streetDirectionId": null,
        "streetTypeId": "RD",
        "placeName": "SCARBOROUGH",
        "streetNameDisplayText": "TODD RD, SCARBOROUGH"
      }
    ]
  },
  {
    "postal": "M1S7Y6",
    "result": []
  },
  {
    "postal": "M1S1L9",
    "result": [
      {
        "electoralDistricts": [
          {
            "election": null,
            "id": 93,
            "name": "Scarborough—Agincourt"
          }
        ],
        "pollDivisionIds": [
          10141536
        ],
        "postalCode": "M1S1L9",
        "streetName": "STAINFORTH",
        "streetDirectionId": null,
        "streetTypeId": "DR",
        "placeName": "SCARBOROUGH",
        "streetNameDisplayText": "STAINFORTH DR, SCARBOROUGH"
      },
      {
        "electoralDistricts": [
          {
            "election": null,
            "id": 93,
            "name": "Scarborough—Agincourt"
          }
        ],
        "pollDivisionIds": [
          10141536
        ],
        "postalCode": "M1S1L9",
        "streetName": "STAINFORTH",
        "streetDirectionId": null,
        "streetTypeId": "DR",
        "placeName": "TORONTO",
        "streetNameDisplayText": "STAINFORTH DR, TORONTO"
      }
    ]
  },
  {
    "postal": "M1S8T0",
    "result": []
  },
  {
    "postal": "M1S3K8",
    "result": [
      {
        "electoralDistricts": [
          {
            "election": null,
            "id": 93,
            "name": "Scarborough—Agincourt"
          }
        ],
        "pollDivisionIds": [
          10141530
        ],
        "postalCode": "M1S3K8",
        "streetName": "MIDLAND",
        "streetDirectionId": null,
        "streetTypeId": "AVE",
        "placeName": "SCARBOROUGH",
        "streetNameDisplayText": "MIDLAND AVE, SCARBOROUGH"
      }
    ]
  },
  {
    "postal": "M1S5W9",
    "result": [
      {
        "electoralDistricts": [
          {
            "election": null,
            "id": 96,
            "name": "Scarborough North"
          }
        ],
        "pollDivisionIds": [
          10141714
        ],
        "postalCode": "M1S5W9",
        "streetName": "EXECUTIVE",
        "streetDirectionId": null,
        "streetTypeId": "CRT",
        "placeName": "SCARBOROUGH",
        "streetNameDisplayText": "EXECUTIVE CRT, SCARBOROUGH"
      }
    ]
  },
  {
    "postal": "M1S6T9",
    "result": []
  },
  {
    "postal": "M1S4H1",
    "result": [
      {
        "electoralDistricts": [
          {
            "election": null,
            "id": 96,
            "name": "Scarborough North"
          }
        ],
        "pollDivisionIds": [
          10141711
        ],
        "postalCode": "M1S4H1",
        "streetName": "PLACENTIA",
        "streetDirectionId": null,
        "streetTypeId": "BLVD",
        "placeName": "SCARBOROUGH",
        "streetNameDisplayText": "PLACENTIA BLVD, SCARBOROUGH"
      }
    ]
  },
  {
    "postal": "M1S7A2",
    "result": []
  },
  {
    "postal": "M1S5G0",
    "result": []
  },
  {
    "postal": "M1S8V5",
    "result": []
  },
  {
    "postal": "M1S2Y8",
    "result": [
      {
        "electoralDistricts": [
          {
            "election": null,
            "id": 96,
            "name": "Scarborough North"
          }
        ],
        "pollDivisionIds": [
          10141714
        ],
        "postalCode": "M1S2Y8",
        "streetName": "INVERGORDON",
        "streetDirectionId": null,
        "streetTypeId": "AVE",
        "placeName": "SCARBOROUGH",
        "streetNameDisplayText": "INVERGORDON AVE, SCARBOROUGH"
      }
    ]
  },
  {
    "postal": "M1S2B6",
    "result": [
      {
        "electoralDistricts": [
          {
            "election": null,
            "id": 96,
            "name": "Scarborough North"
          }
        ],
        "pollDivisionIds": [
          10141709
        ],
        "postalCode": "M1S2B6",
        "streetName": "BRIMLEY",
        "streetDirectionId": null,
        "streetTypeId": "RD",
        "placeName": "SCARBOROUGH",
        "streetNameDisplayText": "BRIMLEY RD, SCARBOROUGH"
      }
    ]
  },
  {
    "postal": "M1S4W8",
    "result": [
      {
        "electoralDistricts": [
          {
            "election": null,
            "id": 96,
            "name": "Scarborough North"
          }
        ],
        "pollDivisionIds": [
          10141714
        ],
        "postalCode": "M1S4W8",
        "streetName": "SPRING FOREST",
        "streetDirectionId": null,
        "streetTypeId": "SQ",
        "placeName": "SCARBOROUGH",
        "streetNameDisplayText": "SPRING FOREST SQ, SCARBOROUGH"
      }
    ]
  },
  {
    "postal": "M1S8H7",
    "result": []
  },
  {
    "postal": "M1S5P1",
    "result": []
  },
  {
    "postal": "M1S2B8",
    "result": []
  },
  {
    "postal": "M1S0P2",
    "result": []
  },
  {
    "postal": "M1S9M1",
    "result": []
  },
  {
    "postal": "M1S3G0",
    "result": []
  },
  {
    "postal": "M1S9Z2",
    "result": []
  },
  {
    "postal": "M1S2A0",
    "result": []
  },
  {
    "postal": "M1S6Y0",
    "result": []
  },
  {
    "postal": "M1S2Z8",
    "result": [
      {
        "electoralDistricts": [
          {
            "election": null,
            "id": 96,
            "name": "Scarborough North"
          }
        ],
        "pollDivisionIds": [
          10141714
        ],
        "postalCode": "M1S2Z8",
        "streetName": "GLENSTROKE",
        "streetDirectionId": null,
        "streetTypeId": "DR",
        "placeName": "SCARBOROUGH",
        "streetNameDisplayText": "GLENSTROKE DR, SCARBOROUGH"
      }
    ]
  },
  {
    "postal": "M1S7Y3",
    "result": []
  },
  {
    "postal": "M1S6Z5",
    "result": []
  },
  {
    "postal": "M1S6E0",
    "result": []
  },
  {
    "postal": "M1S9B7",
    "result": []
  },
  {
    "postal": "M1S9S5",
    "result": []
  },
  {
    "postal": "M1S3X3",
    "result": [
      {
        "electoralDistricts": [
          {
            "election": null,
            "id": 96,
            "name": "Scarborough North"
          }
        ],
        "pollDivisionIds": [
          10143248
        ],
        "postalCode": "M1S3X3",
        "streetName": "TERRYHILL",
        "streetDirectionId": null,
        "streetTypeId": "CRES",
        "placeName": "SCARBOROUGH",
        "streetNameDisplayText": "TERRYHILL CRES, SCARBOROUGH"
      }
    ]
  },
  {
    "postal": "M1S7R5",
    "result": []
  },
  {
    "postal": "M1S2X3",
    "result": [
      {
        "electoralDistricts": [
          {
            "election": null,
            "id": 96,
            "name": "Scarborough North"
          }
        ],
        "pollDivisionIds": [
          10143247
        ],
        "postalCode": "M1S2X3",
        "streetName": "HOSEYHILL",
        "streetDirectionId": null,
        "streetTypeId": "CRES",
        "placeName": "SCARBOROUGH",
        "streetNameDisplayText": "HOSEYHILL CRES, SCARBOROUGH"
      }
    ]
  },
  {
    "postal": "M1S8Z9",
    "result": []
  },
  {
    "postal": "M1S0N4",
    "result": [
      {
        "electoralDistricts": [
          {
            "election": null,
            "id": 93,
            "name": "Scarborough—Agincourt"
          }
        ],
        "pollDivisionIds": [
          10141540
        ],
        "postalCode": "M1S0N4",
        "streetName": "VILLAGE GREEN",
        "streetDirectionId": null,
        "streetTypeId": "SQ",
        "placeName": "SCARBOROUGH",
        "streetNameDisplayText": "VILLAGE GREEN SQ, SCARBOROUGH"
      }
    ]
  },
  {
    "postal": "M1S1K1",
    "result": [
      {
        "electoralDistricts": [
          {
            "election": null,
            "id": 93,
            "name": "Scarborough—Agincourt"
          }
        ],
        "pollDivisionIds": [
          10141530
        ],
        "postalCode": "M1S1K1",
        "streetName": "BELLBROOK",
        "streetDirectionId": null,
        "streetTypeId": "RD",
        "placeName": "SCARBOROUGH",
        "streetNameDisplayText": "BELLBROOK RD, SCARBOROUGH"
      }
    ]
  },
  {
    "postal": "M1S1S3",
    "result": [
      {
        "electoralDistricts": [
          {
            "election": null,
            "id": 96,
            "name": "Scarborough North"
          }
        ],
        "pollDivisionIds": [
          10141708
        ],
        "postalCode": "M1S1S3",
        "streetName": "MIDLAND",
        "streetDirectionId": null,
        "streetTypeId": "AVE",
        "placeName": "SCARBOROUGH",
        "streetNameDisplayText": "MIDLAND AVE, SCARBOROUGH"
      }
    ]
  },
  {
    "postal": "M1S6M4",
    "result": []
  },
  {
    "postal": "M1S9A9",
    "result": []
  },
  {
    "postal": "M1S9Z9",
    "result": []
  },
  {
    "postal": "M1S6T4",
    "result": []
  },
  {
    "postal": "M1S0B2",
    "result": []
  },
  {
    "postal": "M1S2L9",
    "result": [
      {
        "electoralDistricts": [
          {
            "election": null,
            "id": 96,
            "name": "Scarborough North"
          }
        ],
        "pollDivisionIds": [
          10141708
        ],
        "postalCode": "M1S2L9",
        "streetName": "BOARHILL",
        "streetDirectionId": null,
        "streetTypeId": "DR",
        "placeName": "SCARBOROUGH",
        "streetNameDisplayText": "BOARHILL DR, SCARBOROUGH"
      }
    ]
  },
  {
    "postal": "M1S8K9",
    "result": []
  },
  {
    "postal": "M1S2H9",
    "result": [
      {
        "electoralDistricts": [
          {
            "election": null,
            "id": 96,
            "name": "Scarborough North"
          }
        ],
        "pollDivisionIds": [
          10141709
        ],
        "postalCode": "M1S2H9",
        "streetName": "MORAN",
        "streetDirectionId": null,
        "streetTypeId": "RD",
        "placeName": "SCARBOROUGH",
        "streetNameDisplayText": "MORAN RD, SCARBOROUGH"
      }
    ]
  },
  {
    "postal": "M1S3Z6",
    "result": [
      {
        "electoralDistricts": [
          {
            "election": null,
            "id": 96,
            "name": "Scarborough North"
          }
        ],
        "pollDivisionIds": [
          10141714
        ],
        "postalCode": "M1S3Z6",
        "streetName": "MASSIE",
        "streetDirectionId": null,
        "streetTypeId": "ST",
        "placeName": "SCARBOROUGH",
        "streetNameDisplayText": "MASSIE ST, SCARBOROUGH"
      }
    ]
  },
  {
    "postal": "M1S3B0",
    "result": []
  },
  {
    "postal": "M1S2H8",
    "result": [
      {
        "electoralDistricts": [
          {
            "election": null,
            "id": 96,
            "name": "Scarborough North"
          }
        ],
        "pollDivisionIds": [
          10141709
        ],
        "postalCode": "M1S2H8",
        "streetName": "MORAN",
        "streetDirectionId": null,
        "streetTypeId": "RD",
        "placeName": "SCARBOROUGH",
        "streetNameDisplayText": "MORAN RD, SCARBOROUGH"
      }
    ]
  },
  {
    "postal": "M1S3X2",
    "result": [
      {
        "electoralDistricts": [
          {
            "election": null,
            "id": 96,
            "name": "Scarborough North"
          }
        ],
        "pollDivisionIds": [
          10143248
        ],
        "postalCode": "M1S3X2",
        "streetName": "TERRYHILL",
        "streetDirectionId": null,
        "streetTypeId": "CRES",
        "placeName": "SCARBOROUGH",
        "streetNameDisplayText": "TERRYHILL CRES, SCARBOROUGH"
      }
    ]
  },
  {
    "postal": "M1S2E9",
    "result": [
      {
        "electoralDistricts": [
          {
            "election": null,
            "id": 96,
            "name": "Scarborough North"
          }
        ],
        "pollDivisionIds": [
          10141709
        ],
        "postalCode": "M1S2E9",
        "streetName": "DENNETT",
        "streetDirectionId": null,
        "streetTypeId": "DR",
        "placeName": "SCARBOROUGH",
        "streetNameDisplayText": "DENNETT DR, SCARBOROUGH"
      }
    ]
  },
  {
    "postal": "M1S9P6",
    "result": []
  },
  {
    "postal": "M1S9E2",
    "result": []
  },
  {
    "postal": "M1S9H2",
    "result": []
  },
  {
    "postal": "M1S1S8",
    "result": [
      {
        "electoralDistricts": [
          {
            "election": null,
            "id": 93,
            "name": "Scarborough—Agincourt"
          }
        ],
        "pollDivisionIds": [
          10141540
        ],
        "postalCode": "M1S1S8",
        "streetName": "SHEPPARD",
        "streetDirectionId": "E",
        "streetTypeId": "AVE",
        "placeName": "SCARBOROUGH",
        "streetNameDisplayText": "SHEPPARD AVE E, SCARBOROUGH"
      }
    ]
  },
  {
    "postal": "M1S3M6",
    "result": [
      {
        "electoralDistricts": [
          {
            "election": null,
            "id": 93,
            "name": "Scarborough—Agincourt"
          }
        ],
        "pollDivisionIds": [
          10141530
        ],
        "postalCode": "M1S3M6",
        "streetName": "PETWORTH",
        "streetDirectionId": null,
        "streetTypeId": "CRES",
        "placeName": "SCARBOROUGH",
        "streetNameDisplayText": "PETWORTH CRES, SCARBOROUGH"
      }
    ]
  },
  {
    "postal": "M1S6Z8",
    "result": []
  },
  {
    "postal": "M1S4J2",
    "result": [
      {
        "electoralDistricts": [
          {
            "election": null,
            "id": 96,
            "name": "Scarborough North"
          }
        ],
        "pollDivisionIds": [
          10141711
        ],
        "postalCode": "M1S4J2",
        "streetName": "NUGGET",
        "streetDirectionId": null,
        "streetTypeId": "AVE",
        "placeName": "SCARBOROUGH",
        "streetNameDisplayText": "NUGGET AVE, SCARBOROUGH"
      }
    ]
  },
  {
    "postal": "M1S9Y1",
    "result": []
  },
  {
    "postal": "M1S8V6",
    "result": []
  },
  {
    "postal": "M1S6B2",
    "result": []
  },
  {
    "postal": "M1S1P8",
    "result": [
      {
        "electoralDistricts": [
          {
            "election": null,
            "id": 93,
            "name": "Scarborough—Agincourt"
          }
        ],
        "pollDivisionIds": [
          10141540
        ],
        "postalCode": "M1S1P8",
        "streetName": "MIDLAND",
        "streetDirectionId": null,
        "streetTypeId": "AVE",
        "placeName": "SCARBOROUGH",
        "streetNameDisplayText": "MIDLAND AVE, SCARBOROUGH"
      }
    ]
  },
  {
    "postal": "M1S0V8",
    "result": []
  },
  {
    "postal": "M1S4Y0",
    "result": []
  },
  {
    "postal": "M1S2T4",
    "result": [
      {
        "electoralDistricts": [
          {
            "election": null,
            "id": 96,
            "name": "Scarborough North"
          }
        ],
        "pollDivisionIds": [
          10143248
        ],
        "postalCode": "M1S2T4",
        "streetName": "CHARTERHOUSE",
        "streetDirectionId": null,
        "streetTypeId": "RD",
        "placeName": "SCARBOROUGH",
        "streetNameDisplayText": "CHARTERHOUSE RD, SCARBOROUGH"
      }
    ]
  },
  {
    "postal": "M1S2S3",
    "result": [
      {
        "electoralDistricts": [
          {
            "election": null,
            "id": 96,
            "name": "Scarborough North"
          }
        ],
        "pollDivisionIds": [
          10143247
        ],
        "postalCode": "M1S2S3",
        "streetName": "CHARTLAND",
        "streetDirectionId": "S",
        "streetTypeId": "BLVD",
        "placeName": "SCARBOROUGH",
        "streetNameDisplayText": "CHARTLAND BLVD S, SCARBOROUGH"
      }
    ]
  },
  {
    "postal": "M1S0K0",
    "result": []
  },
  {
    "postal": "M1S5N1",
    "result": []
  },
  {
    "postal": "M1S7T0",
    "result": []
  },
  {
    "postal": "M1S9N2",
    "result": []
  },
  {
    "postal": "M1S5L1",
    "result": []
  },
  {
    "postal": "M1S7G5",
    "result": []
  },
  {
    "postal": "M1S6K2",
    "result": []
  },
  {
    "postal": "M1S6P9",
    "result": []
  },
  {
    "postal": "M1S0E6",
    "result": []
  },
  {
    "postal": "M1S8R9",
    "result": []
  },
  {
    "postal": "M1S3G9",
    "result": [
      {
        "electoralDistricts": [
          {
            "election": null,
            "id": 96,
            "name": "Scarborough North"
          }
        ],
        "pollDivisionIds": [
          10143248
        ],
        "postalCode": "M1S3G9",
        "streetName": "SHEPPARD",
        "streetDirectionId": "E",
        "streetTypeId": "AVE",
        "placeName": "SCARBOROUGH",
        "streetNameDisplayText": "SHEPPARD AVE E, SCARBOROUGH"
      }
    ]
  },
  {
    "postal": "M1S0V7",
    "result": []
  },
  {
    "postal": "M1S2Z1",
    "result": [
      {
        "electoralDistricts": [
          {
            "election": null,
            "id": 96,
            "name": "Scarborough North"
          }
        ],
        "pollDivisionIds": [
          10141714
        ],
        "postalCode": "M1S2Z1",
        "streetName": "INVERGORDON",
        "streetDirectionId": null,
        "streetTypeId": "AVE",
        "placeName": "SCARBOROUGH",
        "streetNameDisplayText": "INVERGORDON AVE, SCARBOROUGH"
      }
    ]
  },
  {
    "postal": "M1S7N1",
    "result": []
  },
  {
    "postal": "M1S3C6",
    "result": []
  },
  {
    "postal": "M1S4M1",
    "result": []
  },
  {
    "postal": "M1S9K2",
    "result": []
  },
  {
    "postal": "M1S9S6",
    "result": []
  },
  {
    "postal": "M1S4X1",
    "result": [
      {
        "electoralDistricts": [
          {
            "election": null,
            "id": 96,
            "name": "Scarborough North"
          }
        ],
        "pollDivisionIds": [
          10141714
        ],
        "postalCode": "M1S4X1",
        "streetName": "PENNYBROOK",
        "streetDirectionId": null,
        "streetTypeId": "LANE",
        "placeName": "SCARBOROUGH",
        "streetNameDisplayText": "PENNYBROOK LANE, SCARBOROUGH"
      },
      {
        "electoralDistricts": [
          {
            "election": null,
            "id": 96,
            "name": "Scarborough North"
          }
        ],
        "pollDivisionIds": [
          10141714
        ],
        "postalCode": "M1S4X1",
        "streetName": "SPRING FOREST",
        "streetDirectionId": null,
        "streetTypeId": "SQ",
        "placeName": "SCARBOROUGH",
        "streetNameDisplayText": "SPRING FOREST SQ, SCARBOROUGH"
      }
    ]
  },
  {
    "postal": "M1S8W2",
    "result": []
  },
  {
    "postal": "M1S7N2",
    "result": []
  },
  {
    "postal": "M1S8S3",
    "result": []
  },
  {
    "postal": "M1S4V0",
    "result": []
  },
  {
    "postal": "M1S6W4",
    "result": []
  },
  {
    "postal": "M1S5M1",
    "result": []
  },
  {
    "postal": "M1S0S4",
    "result": []
  },
  {
    "postal": "M1S5X6",
    "result": []
  },
  {
    "postal": "M1S8L5",
    "result": []
  },
  {
    "postal": "M1S5M8",
    "result": [
      {
        "electoralDistricts": [
          {
            "election": null,
            "id": 96,
            "name": "Scarborough North"
          }
        ],
        "pollDivisionIds": [
          10141711
        ],
        "postalCode": "M1S5M8",
        "streetName": "SHEPPARD",
        "streetDirectionId": "E",
        "streetTypeId": "AVE",
        "placeName": "SCARBOROUGH",
        "streetNameDisplayText": "SHEPPARD AVE E, SCARBOROUGH"
      }
    ]
  },
  {
    "postal": "M1S2G3",
    "result": [
      {
        "electoralDistricts": [
          {
            "election": null,
            "id": 96,
            "name": "Scarborough North"
          }
        ],
        "pollDivisionIds": [
          10141709
        ],
        "postalCode": "M1S2G3",
        "streetName": "MONTGOMERY",
        "streetDirectionId": null,
        "streetTypeId": "AVE",
        "placeName": "SCARBOROUGH",
        "streetNameDisplayText": "MONTGOMERY AVE, SCARBOROUGH"
      }
    ]
  },
  {
    "postal": "M1S8E4",
    "result": []
  },
  {
    "postal": "M1S7S9",
    "result": []
  },
  {
    "postal": "M1S1K3",
    "result": [
      {
        "electoralDistricts": [
          {
            "election": null,
            "id": 93,
            "name": "Scarborough—Agincourt"
          }
        ],
        "pollDivisionIds": [
          10141536
        ],
        "postalCode": "M1S1K3",
        "streetName": "HUNTINGWOOD",
        "streetDirectionId": null,
        "streetTypeId": "DR",
        "placeName": "SCARBOROUGH",
        "streetNameDisplayText": "HUNTINGWOOD DR, SCARBOROUGH"
      }
    ]
  },
  {
    "postal": "M1S4E1",
    "result": [
      {
        "electoralDistricts": [
          {
            "election": null,
            "id": 96,
            "name": "Scarborough North"
          }
        ],
        "pollDivisionIds": [
          10141711
        ],
        "postalCode": "M1S4E1",
        "streetName": "SHOOTFIELD",
        "streetDirectionId": null,
        "streetTypeId": "CRES",
        "placeName": "SCARBOROUGH",
        "streetNameDisplayText": "SHOOTFIELD CRES, SCARBOROUGH"
      }
    ]
  },
  {
    "postal": "M1S4R2",
    "result": [
      {
        "electoralDistricts": [
          {
            "election": null,
            "id": 96,
            "name": "Scarborough North"
          }
        ],
        "pollDivisionIds": [
          10141714
        ],
        "postalCode": "M1S4R2",
        "streetName": "SHEPPARD",
        "streetDirectionId": "E",
        "streetTypeId": "AVE",
        "placeName": "SCARBOROUGH",
        "streetNameDisplayText": "SHEPPARD AVE E, SCARBOROUGH"
      }
    ]
  },
  {
    "postal": "M1S6T0",
    "result": []
  },
  {
    "postal": "M1S3K5",
    "result": [
      {
        "electoralDistricts": [
          {
            "election": null,
            "id": 96,
            "name": "Scarborough North"
          }
        ],
        "pollDivisionIds": [
          10143247
        ],
        "postalCode": "M1S3K5",
        "streetName": "BRIARSCROSS",
        "streetDirectionId": null,
        "streetTypeId": "BLVD",
        "placeName": "SCARBOROUGH",
        "streetNameDisplayText": "BRIARSCROSS BLVD, SCARBOROUGH"
      }
    ]
  },
  {
    "postal": "M1S3S3",
    "result": [
      {
        "electoralDistricts": [
          {
            "election": null,
            "id": 96,
            "name": "Scarborough North"
          }
        ],
        "pollDivisionIds": [
          10141711
        ],
        "postalCode": "M1S3S3",
        "streetName": "SHORTING",
        "streetDirectionId": null,
        "streetTypeId": "RD",
        "placeName": "SCARBOROUGH",
        "streetNameDisplayText": "SHORTING RD, SCARBOROUGH"
      }
    ]
  },
  {
    "postal": "M1S3L4",
    "result": []
  },
  {
    "postal": "M1S9Y2",
    "result": []
  },
  {
    "postal": "M1S1E0",
    "result": []
  },
  {
    "postal": "M1S9A4",
    "result": []
  },
  {
    "postal": "M1S1L3",
    "result": [
      {
        "electoralDistricts": [
          {
            "election": null,
            "id": 93,
            "name": "Scarborough—Agincourt"
          }
        ],
        "pollDivisionIds": [
          10141536
        ],
        "postalCode": "M1S1L3",
        "streetName": "EMMELINE",
        "streetDirectionId": null,
        "streetTypeId": "CRES",
        "placeName": "SCARBOROUGH",
        "streetNameDisplayText": "EMMELINE CRES, SCARBOROUGH"
      }
    ]
  },
  {
    "postal": "M1S6N1",
    "result": []
  },
  {
    "postal": "M1S6G7",
    "result": []
  },
  {
    "postal": "M1S7W1",
    "result": []
  },
  {
    "postal": "M1S4M6",
    "result": [
      {
        "electoralDistricts": [
          {
            "election": null,
            "id": 96,
            "name": "Scarborough North"
          }
        ],
        "pollDivisionIds": [
          10141711
        ],
        "postalCode": "M1S4M6",
        "streetName": "MIDDLEFIELD",
        "streetDirectionId": null,
        "streetTypeId": "RD",
        "placeName": "SCARBOROUGH",
        "streetNameDisplayText": "MIDDLEFIELD RD, SCARBOROUGH"
      }
    ]
  },
  {
    "postal": "M1S1K0",
    "result": []
  },
  {
    "postal": "M1S3E2",
    "result": []
  },
  {
    "postal": "M1S5H4",
    "result": []
  },
  {
    "postal": "M1S1K7",
    "result": [
      {
        "electoralDistricts": [
          {
            "election": null,
            "id": 96,
            "name": "Scarborough North"
          }
        ],
        "pollDivisionIds": [
          10141708
        ],
        "postalCode": "M1S1K7",
        "streetName": "HUNTINGWOOD",
        "streetDirectionId": null,
        "streetTypeId": "DR",
        "placeName": "SCARBOROUGH",
        "streetNameDisplayText": "HUNTINGWOOD DR, SCARBOROUGH"
      }
    ]
  },
  {
    "postal": "M1S0H0",
    "result": []
  },
  {
    "postal": "M1S0J3",
    "result": []
  },
  {
    "postal": "M1S1X6",
    "result": [
      {
        "electoralDistricts": [
          {
            "election": null,
            "id": 96,
            "name": "Scarborough North"
          }
        ],
        "pollDivisionIds": [
          10143248
        ],
        "postalCode": "M1S1X6",
        "streetName": "PITFIELD",
        "streetDirectionId": null,
        "streetTypeId": "RD",
        "placeName": "SCARBOROUGH",
        "streetNameDisplayText": "PITFIELD RD, SCARBOROUGH"
      }
    ]
  },
  {
    "postal": "M1S2Z6",
    "result": [
      {
        "electoralDistricts": [
          {
            "election": null,
            "id": 96,
            "name": "Scarborough North"
          }
        ],
        "pollDivisionIds": [
          10141714
        ],
        "postalCode": "M1S2Z6",
        "streetName": "LOCKDARE",
        "streetDirectionId": null,
        "streetTypeId": "ST",
        "placeName": "SCARBOROUGH",
        "streetNameDisplayText": "LOCKDARE ST, SCARBOROUGH"
      },
      {
        "electoralDistricts": [
          {
            "election": null,
            "id": 96,
            "name": "Scarborough North"
          }
        ],
        "pollDivisionIds": [
          10141714
        ],
        "postalCode": "M1S2Z6",
        "streetName": "MASSIE",
        "streetDirectionId": null,
        "streetTypeId": "ST",
        "placeName": "SCARBOROUGH",
        "streetNameDisplayText": "MASSIE ST, SCARBOROUGH"
      }
    ]
  },
  {
    "postal": "M1S4R9",
    "result": [
      {
        "electoralDistricts": [
          {
            "election": null,
            "id": 96,
            "name": "Scarborough North"
          }
        ],
        "pollDivisionIds": [
          10141714
        ],
        "postalCode": "M1S4R9",
        "streetName": "CARLINGWOOD",
        "streetDirectionId": null,
        "streetTypeId": "CRT",
        "placeName": "SCARBOROUGH",
        "streetNameDisplayText": "CARLINGWOOD CRT, SCARBOROUGH"
      }
    ]
  },
  {
    "postal": "M1S0W8",
    "result": []
  },
  {
    "postal": "M1S1L4",
    "result": [
      {
        "electoralDistricts": [
          {
            "election": null,
            "id": 93,
            "name": "Scarborough—Agincourt"
          }
        ],
        "pollDivisionIds": [
          10141536
        ],
        "postalCode": "M1S1L4",
        "streetName": "EMMELINE",
        "streetDirectionId": null,
        "streetTypeId": "CRES",
        "placeName": "SCARBOROUGH",
        "streetNameDisplayText": "EMMELINE CRES, SCARBOROUGH"
      }
    ]
  },
  {
    "postal": "M1S0C8",
    "result": []
  },
  {
    "postal": "M1S9X7",
    "result": []
  },
  {
    "postal": "M1S4T1",
    "result": []
  },
  {
    "postal": "M1S0M0",
    "result": []
  },
  {
    "postal": "M1S6A2",
    "result": []
  },
  {
    "postal": "M1S9S8",
    "result": []
  },
  {
    "postal": "M1S9T4",
    "result": []
  },
  {
    "postal": "M1S9Y4",
    "result": []
  },
  {
    "postal": "M1S6G5",
    "result": []
  },
  {
    "postal": "M1S6H9",
    "result": []
  },
  {
    "postal": "M1S2P3",
    "result": [
      {
        "electoralDistricts": [
          {
            "election": null,
            "id": 96,
            "name": "Scarborough North"
          }
        ],
        "pollDivisionIds": [
          10141708
        ],
        "postalCode": "M1S2P3",
        "streetName": "LEESWOOD",
        "streetDirectionId": null,
        "streetTypeId": "CRES",
        "placeName": "SCARBOROUGH",
        "streetNameDisplayText": "LEESWOOD CRES, SCARBOROUGH"
      }
    ]
  },
  {
    "postal": "M1S1T6",
    "result": [
      {
        "electoralDistricts": [
          {
            "election": null,
            "id": 96,
            "name": "Scarborough North"
          }
        ],
        "pollDivisionIds": [
          10143248
        ],
        "postalCode": "M1S1T6",
        "streetName": "SHEPPARD",
        "streetDirectionId": "E",
        "streetTypeId": "AVE",
        "placeName": "SCARBOROUGH",
        "streetNameDisplayText": "SHEPPARD AVE E, SCARBOROUGH"
      }
    ]
  },
  {
    "postal": "M1S4P6",
    "result": [
      {
        "electoralDistricts": [
          {
            "election": null,
            "id": 96,
            "name": "Scarborough North"
          }
        ],
        "pollDivisionIds": [
          10141714
        ],
        "postalCode": "M1S4P6",
        "streetName": "PRINCE WILLIAM",
        "streetDirectionId": null,
        "streetTypeId": "CRT",
        "placeName": "SCARBOROUGH",
        "streetNameDisplayText": "PRINCE WILLIAM CRT, SCARBOROUGH"
      }
    ]
  },
  {
    "postal": "M1S3K1",
    "result": [
      {
        "electoralDistricts": [
          {
            "election": null,
            "id": 96,
            "name": "Scarborough North"
          }
        ],
        "pollDivisionIds": [
          10143247
        ],
        "postalCode": "M1S3K1",
        "streetName": "BRIARSCROSS",
        "streetDirectionId": null,
        "streetTypeId": "BLVD",
        "placeName": "SCARBOROUGH",
        "streetNameDisplayText": "BRIARSCROSS BLVD, SCARBOROUGH"
      }
    ]
  },
  {
    "postal": "M1S6X4",
    "result": []
  },
  {
    "postal": "M1S4M8",
    "result": [
      {
        "electoralDistricts": [
          {
            "election": null,
            "id": 96,
            "name": "Scarborough North"
          }
        ],
        "pollDivisionIds": [
          10141714
        ],
        "postalCode": "M1S4M8",
        "streetName": "MILNER",
        "streetDirectionId": null,
        "streetTypeId": "AVE",
        "placeName": "SCARBOROUGH",
        "streetNameDisplayText": "MILNER AVE, SCARBOROUGH"
      }
    ]
  },
  {
    "postal": "M1S2Y1",
    "result": [
      {
        "electoralDistricts": [
          {
            "election": null,
            "id": 96,
            "name": "Scarborough North"
          }
        ],
        "pollDivisionIds": [
          10143247
        ],
        "postalCode": "M1S2Y1",
        "streetName": "HORNSHILL",
        "streetDirectionId": null,
        "streetTypeId": "DR",
        "placeName": "SCARBOROUGH",
        "streetNameDisplayText": "HORNSHILL DR, SCARBOROUGH"
      }
    ]
  },
  {
    "postal": "M1S6M1",
    "result": []
  },
  {
    "postal": "M1S5L8",
    "result": []
  },
  {
    "postal": "M1S3P6",
    "result": [
      {
        "electoralDistricts": [
          {
            "election": null,
            "id": 96,
            "name": "Scarborough North"
          }
        ],
        "pollDivisionIds": [
          10141714
        ],
        "postalCode": "M1S3P6",
        "streetName": "MILNER",
        "streetDirectionId": null,
        "streetTypeId": "AVE",
        "placeName": "SCARBOROUGH",
        "streetNameDisplayText": "MILNER AVE, SCARBOROUGH"
      }
    ]
  },
  {
    "postal": "M1S9A5",
    "result": []
  },
  {
    "postal": "M1S7K1",
    "result": []
  },
  {
    "postal": "M1S3J4",
    "result": [
      {
        "electoralDistricts": [
          {
            "election": null,
            "id": 96,
            "name": "Scarborough North"
          }
        ],
        "pollDivisionIds": [
          10143247
        ],
        "postalCode": "M1S3J4",
        "streetName": "HORNSHILL",
        "streetDirectionId": null,
        "streetTypeId": "DR",
        "placeName": "SCARBOROUGH",
        "streetNameDisplayText": "HORNSHILL DR, SCARBOROUGH"
      }
    ]
  },
  {
    "postal": "M1S5E7",
    "result": []
  },
  {
    "postal": "M1S3A7",
    "result": [
      {
        "electoralDistricts": [
          {
            "election": null,
            "id": 96,
            "name": "Scarborough North"
          }
        ],
        "pollDivisionIds": [
          10141711
        ],
        "postalCode": "M1S3A7",
        "streetName": "NUGGET",
        "streetDirectionId": null,
        "streetTypeId": "AVE",
        "placeName": "SCARBOROUGH",
        "streetNameDisplayText": "NUGGET AVE, SCARBOROUGH"
      }
    ]
  },
  {
    "postal": "M1S1B9",
    "result": [
      {
        "electoralDistricts": [
          {
            "election": null,
            "id": 93,
            "name": "Scarborough—Agincourt"
          }
        ],
        "pollDivisionIds": [
          10141534
        ],
        "postalCode": "M1S1B9",
        "streetName": "MARILYN",
        "streetDirectionId": null,
        "streetTypeId": "AVE",
        "placeName": "SCARBOROUGH",
        "streetNameDisplayText": "MARILYN AVE, SCARBOROUGH"
      }
    ]
  },
  {
    "postal": "M1S9E8",
    "result": []
  },
  {
    "postal": "M1S1C9",
    "result": [
      {
        "electoralDistricts": [
          {
            "election": null,
            "id": 93,
            "name": "Scarborough—Agincourt"
          }
        ],
        "pollDivisionIds": [
          10141534
        ],
        "postalCode": "M1S1C9",
        "streetName": "HAVENDALE",
        "streetDirectionId": null,
        "streetTypeId": "RD",
        "placeName": "SCARBOROUGH",
        "streetNameDisplayText": "HAVENDALE RD, SCARBOROUGH"
      }
    ]
  },
  {
    "postal": "M1S3B5",
    "result": []
  },
  {
    "postal": "M1S8R0",
    "result": []
  },
  {
    "postal": "M1S3P2",
    "result": [
      {
        "electoralDistricts": [
          {
            "election": null,
            "id": 96,
            "name": "Scarborough North"
          }
        ],
        "pollDivisionIds": [
          10143247
        ],
        "postalCode": "M1S3P2",
        "streetName": "SANDHURST",
        "streetDirectionId": null,
        "streetTypeId": "CIR",
        "placeName": "SCARBOROUGH",
        "streetNameDisplayText": "SANDHURST CIR, SCARBOROUGH"
      }
    ]
  },
  {
    "postal": "M1S5V4",
    "result": []
  },
  {
    "postal": "M1S4H0",
    "result": []
  },
  {
    "postal": "M1S4S7",
    "result": []
  },
  {
    "postal": "M1S6C2",
    "result": []
  },
  {
    "postal": "M1S8W3",
    "result": []
  },
  {
    "postal": "M1S4M5",
    "result": []
  },
  {
    "postal": "M1S5T1",
    "result": [
      {
        "electoralDistricts": [
          {
            "election": null,
            "id": 96,
            "name": "Scarborough North"
          }
        ],
        "pollDivisionIds": [
          10141726
        ],
        "postalCode": "M1S5T1",
        "streetName": "MCCOWAN",
        "streetDirectionId": null,
        "streetTypeId": "RD",
        "placeName": "SCARBOROUGH",
        "streetNameDisplayText": "MCCOWAN RD, SCARBOROUGH"
      }
    ]
  },
  {
    "postal": "M1S3B3",
    "result": []
  },
  {
    "postal": "M1S6C6",
    "result": []
  },
  {
    "postal": "M1S7N8",
    "result": []
  },
  {
    "postal": "M1S2Y3",
    "result": [
      {
        "electoralDistricts": [
          {
            "election": null,
            "id": 96,
            "name": "Scarborough North"
          }
        ],
        "pollDivisionIds": [
          10141714
        ],
        "postalCode": "M1S2Y3",
        "streetName": "MCCOWAN",
        "streetDirectionId": null,
        "streetTypeId": "RD",
        "placeName": "SCARBOROUGH",
        "streetNameDisplayText": "MCCOWAN RD, SCARBOROUGH"
      }
    ]
  },
  {
    "postal": "M1S2R6",
    "result": [
      {
        "electoralDistricts": [
          {
            "election": null,
            "id": 96,
            "name": "Scarborough North"
          }
        ],
        "pollDivisionIds": [
          10141708
        ],
        "postalCode": "M1S2R6",
        "streetName": "CHARTLAND",
        "streetDirectionId": "S",
        "streetTypeId": "BLVD",
        "placeName": "SCARBOROUGH",
        "streetNameDisplayText": "CHARTLAND BLVD S, SCARBOROUGH"
      }
    ]
  },
  {
    "postal": "M1S7N3",
    "result": []
  },
  {
    "postal": "M1S8J2",
    "result": []
  },
  {
    "postal": "M1S6A9",
    "result": []
  },
  {
    "postal": "M1S3V2",
    "result": []
  },
  {
    "postal": "M1S2N3",
    "result": [
      {
        "electoralDistricts": [
          {
            "election": null,
            "id": 96,
            "name": "Scarborough North"
          }
        ],
        "pollDivisionIds": [
          10141708
        ],
        "postalCode": "M1S2N3",
        "streetName": "DEEPDALE",
        "streetDirectionId": null,
        "streetTypeId": "DR",
        "placeName": "SCARBOROUGH",
        "streetNameDisplayText": "DEEPDALE DR, SCARBOROUGH"
      }
    ]
  },
  {
    "postal": "M1S1S5",
    "result": []
  },
  {
    "postal": "M1S4T7",
    "result": [
      {
        "electoralDistricts": [
          {
            "election": null,
            "id": 93,
            "name": "Scarborough—Agincourt"
          }
        ],
        "pollDivisionIds": [
          10141525
        ],
        "postalCode": "M1S4T7",
        "streetName": "FINCH",
        "streetDirectionId": "E",
        "streetTypeId": "AVE",
        "placeName": "SCARBOROUGH",
        "streetNameDisplayText": "FINCH AVE E, SCARBOROUGH"
      }
    ]
  },
  {
    "postal": "M1S6Y7",
    "result": []
  },
  {
    "postal": "M1S0W7",
    "result": []
  },
  {
    "postal": "M1S2W9",
    "result": [
      {
        "electoralDistricts": [
          {
            "election": null,
            "id": 96,
            "name": "Scarborough North"
          }
        ],
        "pollDivisionIds": [
          10143247
        ],
        "postalCode": "M1S2W9",
        "streetName": "DIBGATE",
        "streetDirectionId": null,
        "streetTypeId": "BLVD",
        "placeName": "SCARBOROUGH",
        "streetNameDisplayText": "DIBGATE BLVD, SCARBOROUGH"
      }
    ]
  },
  {
    "postal": "M1S8V0",
    "result": []
  },
  {
    "postal": "M1S0H4",
    "result": []
  },
  {
    "postal": "M1S2T1",
    "result": [
      {
        "electoralDistricts": [
          {
            "election": null,
            "id": 96,
            "name": "Scarborough North"
          }
        ],
        "pollDivisionIds": [
          10143248
        ],
        "postalCode": "M1S2T1",
        "streetName": "LAWNMERE",
        "streetDirectionId": null,
        "streetTypeId": "CRES",
        "placeName": "SCARBOROUGH",
        "streetNameDisplayText": "LAWNMERE CRES, SCARBOROUGH"
      }
    ]
  },
  {
    "postal": "M1S1B1",
    "result": [
      {
        "electoralDistricts": [
          {
            "election": null,
            "id": 93,
            "name": "Scarborough—Agincourt"
          }
        ],
        "pollDivisionIds": [
          10141540
        ],
        "postalCode": "M1S1B1",
        "streetName": "EMBLEM",
        "streetDirectionId": null,
        "streetTypeId": "CRT",
        "placeName": "SCARBOROUGH",
        "streetNameDisplayText": "EMBLEM CRT, SCARBOROUGH"
      }
    ]
  },
  {
    "postal": "M1S8B6",
    "result": []
  },
  {
    "postal": "M1S6H1",
    "result": []
  },
  {
    "postal": "M1S8T8",
    "result": []
  },
  {
    "postal": "M1S0T4",
    "result": []
  },
  {
    "postal": "M1S2C4",
    "result": [
      {
        "electoralDistricts": [
          {
            "election": null,
            "id": 96,
            "name": "Scarborough North"
          }
        ],
        "pollDivisionIds": [
          10141709
        ],
        "postalCode": "M1S2C4",
        "streetName": "GLEN WATFORD",
        "streetDirectionId": null,
        "streetTypeId": "DR",
        "placeName": "SCARBOROUGH",
        "streetNameDisplayText": "GLEN WATFORD DR, SCARBOROUGH"
      }
    ]
  },
  {
    "postal": "M1S8N3",
    "result": []
  },
  {
    "postal": "M1S4L8",
    "result": [
      {
        "electoralDistricts": [
          {
            "election": null,
            "id": 96,
            "name": "Scarborough North"
          }
        ],
        "pollDivisionIds": [
          10141711
        ],
        "postalCode": "M1S4L8",
        "streetName": "NUGGET",
        "streetDirectionId": null,
        "streetTypeId": "AVE",
        "placeName": "SCARBOROUGH",
        "streetNameDisplayText": "NUGGET AVE, SCARBOROUGH"
      }
    ]
  },
  {
    "postal": "M1S2B5",
    "result": [
      {
        "electoralDistricts": [
          {
            "election": null,
            "id": 96,
            "name": "Scarborough North"
          }
        ],
        "pollDivisionIds": [
          10141709
        ],
        "postalCode": "M1S2B5",
        "streetName": "BRIMLEY",
        "streetDirectionId": null,
        "streetTypeId": "RD",
        "placeName": "SCARBOROUGH",
        "streetNameDisplayText": "BRIMLEY RD, SCARBOROUGH"
      }
    ]
  },
  {
    "postal": "M1S3H1",
    "result": [
      {
        "electoralDistricts": [
          {
            "election": null,
            "id": 96,
            "name": "Scarborough North"
          }
        ],
        "pollDivisionIds": [
          10141708
        ],
        "postalCode": "M1S3H1",
        "streetName": "CROCKAMHILL",
        "streetDirectionId": null,
        "streetTypeId": "DR",
        "placeName": "SCARBOROUGH",
        "streetNameDisplayText": "CROCKAMHILL DR, SCARBOROUGH"
      }
    ]
  },
  {
    "postal": "M1S4Y1",
    "result": [
      {
        "electoralDistricts": [
          {
            "election": null,
            "id": 96,
            "name": "Scarborough North"
          }
        ],
        "pollDivisionIds": [
          10143248
        ],
        "postalCode": "M1S4Y1",
        "streetName": "RUBIC",
        "streetDirectionId": null,
        "streetTypeId": "CRES",
        "placeName": "SCARBOROUGH",
        "streetNameDisplayText": "RUBIC CRES, SCARBOROUGH"
      }
    ]
  },
  {
    "postal": "M1S7E2",
    "result": []
  },
  {
    "postal": "M1S2P5",
    "result": [
      {
        "electoralDistricts": [
          {
            "election": null,
            "id": 96,
            "name": "Scarborough North"
          }
        ],
        "pollDivisionIds": [
          10141708
        ],
        "postalCode": "M1S2P5",
        "streetName": "KNOCKBOLT",
        "streetDirectionId": null,
        "streetTypeId": "CRES",
        "placeName": "SCARBOROUGH",
        "streetNameDisplayText": "KNOCKBOLT CRES, SCARBOROUGH"
      }
    ]
  },
  {
    "postal": "M1S8R7",
    "result": []
  },
  {
    "postal": "M1S9P1",
    "result": []
  },
  {
    "postal": "M1S3B8",
    "result": []
  },
  {
    "postal": "M1S3P7",
    "result": []
  },
  {
    "postal": "M1S9B2",
    "result": []
  },
  {
    "postal": "M1S6Z3",
    "result": []
  },
  {
    "postal": "M1S4N5",
    "result": [
      {
        "electoralDistricts": [
          {
            "election": null,
            "id": 96,
            "name": "Scarborough North"
          }
        ],
        "pollDivisionIds": [
          10141711
        ],
        "postalCode": "M1S4N5",
        "streetName": "SHEPPARD",
        "streetDirectionId": "E",
        "streetTypeId": "AVE",
        "placeName": "SCARBOROUGH",
        "streetNameDisplayText": "SHEPPARD AVE E, SCARBOROUGH"
      }
    ]
  },
  {
    "postal": "M1S8T3",
    "result": []
  },
  {
    "postal": "M1S1V2",
    "result": [
      {
        "electoralDistricts": [
          {
            "election": null,
            "id": 96,
            "name": "Scarborough North"
          }
        ],
        "pollDivisionIds": [
          10143247
        ],
        "postalCode": "M1S1V2",
        "streetName": "SHEPPARD",
        "streetDirectionId": "E",
        "streetTypeId": "AVE",
        "placeName": "SCARBOROUGH",
        "streetNameDisplayText": "SHEPPARD AVE E, SCARBOROUGH"
      }
    ]
  },
  {
    "postal": "M1S1Y0",
    "result": []
  },
  {
    "postal": "M1S3G6",
    "result": [
      {
        "electoralDistricts": [
          {
            "election": null,
            "id": 96,
            "name": "Scarborough North"
          }
        ],
        "pollDivisionIds": [
          10143247
        ],
        "postalCode": "M1S3G6",
        "streetName": "OBRIS",
        "streetDirectionId": null,
        "streetTypeId": "CRES",
        "placeName": "SCARBOROUGH",
        "streetNameDisplayText": "OBRIS CRES, SCARBOROUGH"
      }
    ]
  },
  {
    "postal": "M1S3H7",
    "result": [
      {
        "electoralDistricts": [
          {
            "election": null,
            "id": 96,
            "name": "Scarborough North"
          }
        ],
        "pollDivisionIds": [
          10143247
        ],
        "postalCode": "M1S3H7",
        "streetName": "COMMANDER",
        "streetDirectionId": null,
        "streetTypeId": "BLVD",
        "placeName": "SCARBOROUGH",
        "streetNameDisplayText": "COMMANDER BLVD, SCARBOROUGH"
      }
    ]
  },
  {
    "postal": "M1S7X8",
    "result": []
  },
  {
    "postal": "M1S0C7",
    "result": [
      {
        "electoralDistricts": [
          {
            "election": null,
            "id": 96,
            "name": "Scarborough North"
          }
        ],
        "pollDivisionIds": [
          10141706
        ],
        "postalCode": "M1S0C7",
        "streetName": "FINCH",
        "streetDirectionId": "E",
        "streetTypeId": "AVE",
        "placeName": "SCARBOROUGH",
        "streetNameDisplayText": "FINCH AVE E, SCARBOROUGH"
      }
    ]
  },
  {
    "postal": "M1S0W9",
    "result": []
  },
  {
    "postal": "M1S8E6",
    "result": []
  },
  {
    "postal": "M1S9Z8",
    "result": []
  },
  {
    "postal": "M1S3P4",
    "result": [
      {
        "electoralDistricts": [
          {
            "election": null,
            "id": 96,
            "name": "Scarborough North"
          }
        ],
        "pollDivisionIds": [
          10143247
        ],
        "postalCode": "M1S3P4",
        "streetName": "CHARTLAND",
        "streetDirectionId": "S",
        "streetTypeId": "BLVD",
        "placeName": "SCARBOROUGH",
        "streetNameDisplayText": "CHARTLAND BLVD S, SCARBOROUGH"
      }
    ]
  },
  {
    "postal": "M1S6L8",
    "result": []
  },
  {
    "postal": "M1S2R4",
    "result": [
      {
        "electoralDistricts": [
          {
            "election": null,
            "id": 96,
            "name": "Scarborough North"
          }
        ],
        "pollDivisionIds": [
          10141708
        ],
        "postalCode": "M1S2R4",
        "streetName": "CHARTLAND",
        "streetDirectionId": "S",
        "streetTypeId": "BLVD",
        "placeName": "SCARBOROUGH",
        "streetNameDisplayText": "CHARTLAND BLVD S, SCARBOROUGH"
      }
    ]
  },
  {
    "postal": "M1S2W1",
    "result": [
      {
        "electoralDistricts": [
          {
            "election": null,
            "id": 96,
            "name": "Scarborough North"
          }
        ],
        "pollDivisionIds": [
          10143247
        ],
        "postalCode": "M1S2W1",
        "streetName": "BROOMFIELD",
        "streetDirectionId": null,
        "streetTypeId": "DR",
        "placeName": "SCARBOROUGH",
        "streetNameDisplayText": "BROOMFIELD DR, SCARBOROUGH"
      }
    ]
  },
  {
    "postal": "M1S9H8",
    "result": []
  },
  {
    "postal": "M1S8X9",
    "result": []
  },
  {
    "postal": "M1S7H4",
    "result": []
  },
  {
    "postal": "M1S3J1",
    "result": [
      {
        "electoralDistricts": [
          {
            "election": null,
            "id": 96,
            "name": "Scarborough North"
          }
        ],
        "pollDivisionIds": [
          10143247
        ],
        "postalCode": "M1S3J1",
        "streetName": "HUNTINGWOOD",
        "streetDirectionId": null,
        "streetTypeId": "DR",
        "placeName": "SCARBOROUGH",
        "streetNameDisplayText": "HUNTINGWOOD DR, SCARBOROUGH"
      }
    ]
  },
  {
    "postal": "M1S1P4",
    "result": [
      {
        "electoralDistricts": [
          {
            "election": null,
            "id": 93,
            "name": "Scarborough—Agincourt"
          }
        ],
        "pollDivisionIds": [
          10141536
        ],
        "postalCode": "M1S1P4",
        "streetName": "ROKER",
        "streetDirectionId": null,
        "streetTypeId": "CRES",
        "placeName": "SCARBOROUGH",
        "streetNameDisplayText": "ROKER CRES, SCARBOROUGH"
      }
    ]
  },
  {
    "postal": "M1S2A3",
    "result": [
      {
        "electoralDistricts": [
          {
            "election": null,
            "id": 96,
            "name": "Scarborough North"
          }
        ],
        "pollDivisionIds": [
          10143248
        ],
        "postalCode": "M1S2A3",
        "streetName": "FULHAM",
        "streetDirectionId": null,
        "streetTypeId": "ST",
        "placeName": "SCARBOROUGH",
        "streetNameDisplayText": "FULHAM ST, SCARBOROUGH"
      }
    ]
  },
  {
    "postal": "M1S0Z1",
    "result": []
  },
  {
    "postal": "M1S1C1",
    "result": [
      {
        "electoralDistricts": [
          {
            "election": null,
            "id": 93,
            "name": "Scarborough—Agincourt"
          }
        ],
        "pollDivisionIds": [
          10141534
        ],
        "postalCode": "M1S1C1",
        "streetName": "MARILYN",
        "streetDirectionId": null,
        "streetTypeId": "AVE",
        "placeName": "SCARBOROUGH",
        "streetNameDisplayText": "MARILYN AVE, SCARBOROUGH"
      }
    ]
  },
  {
    "postal": "M1S0H3",
    "result": []
  },
  {
    "postal": "M1S7B0",
    "result": []
  },
  {
    "postal": "M1S5K2",
    "result": []
  },
  {
    "postal": "M1S1E9",
    "result": [
      {
        "electoralDistricts": [
          {
            "election": null,
            "id": 93,
            "name": "Scarborough—Agincourt"
          }
        ],
        "pollDivisionIds": [
          10141536
        ],
        "postalCode": "M1S1E9",
        "streetName": "FARMINGTON",
        "streetDirectionId": null,
        "streetTypeId": "CRES",
        "placeName": "SCARBOROUGH",
        "streetNameDisplayText": "FARMINGTON CRES, SCARBOROUGH"
      }
    ]
  },
  {
    "postal": "M1S9W7",
    "result": []
  },
  {
    "postal": "M1S5W6",
    "result": []
  },
  {
    "postal": "M1S6S6",
    "result": []
  },
  {
    "postal": "M1S2P8",
    "result": [
      {
        "electoralDistricts": [
          {
            "election": null,
            "id": 96,
            "name": "Scarborough North"
          }
        ],
        "pollDivisionIds": [
          10141708
        ],
        "postalCode": "M1S2P8",
        "streetName": "PEBBLEHILL",
        "streetDirectionId": null,
        "streetTypeId": "SQ",
        "placeName": "SCARBOROUGH",
        "streetNameDisplayText": "PEBBLEHILL SQ, SCARBOROUGH"
      }
    ]
  },
  {
    "postal": "M1S4P8",
    "result": [
      {
        "electoralDistricts": [
          {
            "election": null,
            "id": 96,
            "name": "Scarborough North"
          }
        ],
        "pollDivisionIds": [
          10143248
        ],
        "postalCode": "M1S4P8",
        "streetName": "SALOME",
        "streetDirectionId": null,
        "streetTypeId": "DR",
        "placeName": "SCARBOROUGH",
        "streetNameDisplayText": "SALOME DR, SCARBOROUGH"
      }
    ]
  },
  {
    "postal": "M1S0V9",
    "result": []
  },
  {
    "postal": "M1S5Y2",
    "result": []
  },
  {
    "postal": "M1S7Z7",
    "result": []
  },
  {
    "postal": "M1S6Y8",
    "result": []
  },
  {
    "postal": "M1S2G7",
    "result": [
      {
        "electoralDistricts": [
          {
            "election": null,
            "id": 96,
            "name": "Scarborough North"
          }
        ],
        "pollDivisionIds": [
          10143248
        ],
        "postalCode": "M1S2G7",
        "streetName": "MARYDON",
        "streetDirectionId": null,
        "streetTypeId": "CRES",
        "placeName": "SCARBOROUGH",
        "streetNameDisplayText": "MARYDON CRES, SCARBOROUGH"
      }
    ]
  },
  {
    "postal": "M1S8C1",
    "result": []
  },
  {
    "postal": "M1S5C5",
    "result": [
      {
        "electoralDistricts": [
          {
            "election": null,
            "id": 96,
            "name": "Scarborough North"
          }
        ],
        "pollDivisionIds": [
          10141711
        ],
        "postalCode": "M1S5C5",
        "streetName": "MCGRISKIN",
        "streetDirectionId": null,
        "streetTypeId": "RD",
        "placeName": "SCARBOROUGH",
        "streetNameDisplayText": "MCGRISKIN RD, SCARBOROUGH"
      }
    ]
  },
  {
    "postal": "M1S2X8",
    "result": [
      {
        "electoralDistricts": [
          {
            "election": null,
            "id": 96,
            "name": "Scarborough North"
          }
        ],
        "pollDivisionIds": [
          10143247
        ],
        "postalCode": "M1S2X8",
        "streetName": "BLUEBERRY",
        "streetDirectionId": null,
        "streetTypeId": "DR",
        "placeName": "SCARBOROUGH",
        "streetNameDisplayText": "BLUEBERRY DR, SCARBOROUGH"
      }
    ]
  },
  {
    "postal": "M1S1W5",
    "result": [
      {
        "electoralDistricts": [
          {
            "election": null,
            "id": 96,
            "name": "Scarborough North"
          }
        ],
        "pollDivisionIds": [
          10143248
        ],
        "postalCode": "M1S1W5",
        "streetName": "ROSEGROVE",
        "streetDirectionId": null,
        "streetTypeId": "PL",
        "placeName": "SCARBOROUGH",
        "streetNameDisplayText": "ROSEGROVE PL, SCARBOROUGH"
      }
    ]
  },
  {
    "postal": "M1S7G0",
    "result": []
  },
  {
    "postal": "M1S8J8",
    "result": []
  },
  {
    "postal": "M1S3Y0",
    "result": []
  },
  {
    "postal": "M1S9T7",
    "result": []
  },
  {
    "postal": "M1S5P4",
    "result": []
  },
  {
    "postal": "M1S4B0",
    "result": []
  },
  {
    "postal": "M1S9N8",
    "result": []
  },
  {
    "postal": "M1S4A7",
    "result": [
      {
        "electoralDistricts": [
          {
            "election": null,
            "id": 96,
            "name": "Scarborough North"
          }
        ],
        "pollDivisionIds": [
          10141711
        ],
        "postalCode": "M1S4A7",
        "streetName": "SHEPPARD",
        "streetDirectionId": "E",
        "streetTypeId": "AVE",
        "placeName": "SCARBOROUGH",
        "streetNameDisplayText": "SHEPPARD AVE E, SCARBOROUGH"
      }
    ]
  },
  {
    "postal": "M1S4H9",
    "result": [
      {
        "electoralDistricts": [
          {
            "election": null,
            "id": 96,
            "name": "Scarborough North"
          }
        ],
        "pollDivisionIds": [
          10141711
        ],
        "postalCode": "M1S4H9",
        "streetName": "CROACH",
        "streetDirectionId": null,
        "streetTypeId": "CRES",
        "placeName": "SCARBOROUGH",
        "streetNameDisplayText": "CROACH CRES, SCARBOROUGH"
      }
    ]
  },
  {
    "postal": "M1S6X1",
    "result": []
  },
  {
    "postal": "M1S9Y7",
    "result": []
  },
  {
    "postal": "M1S2Y5",
    "result": [
      {
        "electoralDistricts": [
          {
            "election": null,
            "id": 96,
            "name": "Scarborough North"
          }
        ],
        "pollDivisionIds": [
          10141714
        ],
        "postalCode": "M1S2Y5",
        "streetName": "TINETA",
        "streetDirectionId": null,
        "streetTypeId": "CRES",
        "placeName": "SCARBOROUGH",
        "streetNameDisplayText": "TINETA CRES, SCARBOROUGH"
      }
    ]
  },
  {
    "postal": "M1S8L7",
    "result": []
  },
  {
    "postal": "M1S2A8",
    "result": [
      {
        "electoralDistricts": [
          {
            "election": null,
            "id": 96,
            "name": "Scarborough North"
          }
        ],
        "pollDivisionIds": [
          10143248
        ],
        "postalCode": "M1S2A8",
        "streetName": "SALOME",
        "streetDirectionId": null,
        "streetTypeId": "DR",
        "placeName": "SCARBOROUGH",
        "streetNameDisplayText": "SALOME DR, SCARBOROUGH"
      }
    ]
  },
  {
    "postal": "M1S2K9",
    "result": [
      {
        "electoralDistricts": [
          {
            "election": null,
            "id": 96,
            "name": "Scarborough North"
          }
        ],
        "pollDivisionIds": [
          10141708
        ],
        "postalCode": "M1S2K9",
        "streetName": "CROCKAMHILL",
        "streetDirectionId": null,
        "streetTypeId": "DR",
        "placeName": "SCARBOROUGH",
        "streetNameDisplayText": "CROCKAMHILL DR, SCARBOROUGH"
      }
    ]
  },
  {
    "postal": "M1S3E5",
    "result": [
      {
        "electoralDistricts": [
          {
            "election": null,
            "id": 96,
            "name": "Scarborough North"
          }
        ],
        "pollDivisionIds": [
          10143248
        ],
        "postalCode": "M1S3E5",
        "streetName": "PITFIELD",
        "streetDirectionId": null,
        "streetTypeId": "RD",
        "placeName": "SCARBOROUGH",
        "streetNameDisplayText": "PITFIELD RD, SCARBOROUGH"
      }
    ]
  },
  {
    "postal": "M1S8N6",
    "result": []
  },
  {
    "postal": "M1S8J4",
    "result": []
  },
  {
    "postal": "M1S4R7",
    "result": [
      {
        "electoralDistricts": [
          {
            "election": null,
            "id": 96,
            "name": "Scarborough North"
          }
        ],
        "pollDivisionIds": [
          10143248
        ],
        "postalCode": "M1S4R7",
        "streetName": "BRIMLEY",
        "streetDirectionId": null,
        "streetTypeId": "RD",
        "placeName": "SCARBOROUGH",
        "streetNameDisplayText": "BRIMLEY RD, SCARBOROUGH"
      }
    ]
  },
  {
    "postal": "M1S9K1",
    "result": []
  },
  {
    "postal": "M1S8E1",
    "result": []
  },
  {
    "postal": "M1S0R1",
    "result": []
  },
  {
    "postal": "M1S4J3",
    "result": [
      {
        "electoralDistricts": [
          {
            "election": null,
            "id": 96,
            "name": "Scarborough North"
          }
        ],
        "pollDivisionIds": [
          10141711
        ],
        "postalCode": "M1S4J3",
        "streetName": "NUGGET",
        "streetDirectionId": null,
        "streetTypeId": "AVE",
        "placeName": "SCARBOROUGH",
        "streetNameDisplayText": "NUGGET AVE, SCARBOROUGH"
      }
    ]
  },
  {
    "postal": "M1S7E7",
    "result": []
  },
  {
    "postal": "M1S0J0",
    "result": []
  },
  {
    "postal": "M1S7R8",
    "result": []
  },
  {
    "postal": "M1S9X0",
    "result": []
  },
  {
    "postal": "M1S7P6",
    "result": []
  },
  {
    "postal": "M1S0R7",
    "result": []
  },
  {
    "postal": "M1S5W1",
    "result": [
      {
        "electoralDistricts": [
          {
            "election": null,
            "id": 96,
            "name": "Scarborough North"
          }
        ],
        "pollDivisionIds": [
          10141711
        ],
        "postalCode": "M1S5W1",
        "streetName": "MIDDLEFIELD",
        "streetDirectionId": null,
        "streetTypeId": "RD",
        "placeName": "SCARBOROUGH",
        "streetNameDisplayText": "MIDDLEFIELD RD, SCARBOROUGH"
      }
    ]
  },
  {
    "postal": "M1S0K4",
    "result": []
  },
  {
    "postal": "M1S7N9",
    "result": []
  },
  {
    "postal": "M1S1N0",
    "result": []
  },
  {
    "postal": "M1S6P3",
    "result": []
  },
  {
    "postal": "M1S5A1",
    "result": []
  },
  {
    "postal": "M1S9M9",
    "result": []
  },
  {
    "postal": "M1S7T6",
    "result": []
  },
  {
    "postal": "M1S3X0",
    "result": []
  },
  {
    "postal": "M1S2T0",
    "result": []
  },
  {
    "postal": "M1S5X9",
    "result": []
  },
  {
    "postal": "M1S2R3",
    "result": [
      {
        "electoralDistricts": [
          {
            "election": null,
            "id": 96,
            "name": "Scarborough North"
          }
        ],
        "pollDivisionIds": [
          10141708
        ],
        "postalCode": "M1S2R3",
        "streetName": "CHARTLAND",
        "streetDirectionId": "S",
        "streetTypeId": "BLVD",
        "placeName": "SCARBOROUGH",
        "streetNameDisplayText": "CHARTLAND BLVD S, SCARBOROUGH"
      }
    ]
  },
  {
    "postal": "M1S5N2",
    "result": []
  },
  {
    "postal": "M1S4Y7",
    "result": [
      {
        "electoralDistricts": [
          {
            "election": null,
            "id": 93,
            "name": "Scarborough—Agincourt"
          }
        ],
        "pollDivisionIds": [
          10141534
        ],
        "postalCode": "M1S4Y7",
        "streetName": "CARDWELL",
        "streetDirectionId": null,
        "streetTypeId": "AVE",
        "placeName": "SCARBOROUGH",
        "streetNameDisplayText": "CARDWELL AVE, SCARBOROUGH"
      }
    ]
  },
  {
    "postal": "M1S7M0",
    "result": []
  },
  {
    "postal": "M1S8P3",
    "result": []
  },
  {
    "postal": "M1S3N3",
    "result": [
      {
        "electoralDistricts": [
          {
            "election": null,
            "id": 96,
            "name": "Scarborough North"
          }
        ],
        "pollDivisionIds": [
          10143247
        ],
        "postalCode": "M1S3N3",
        "streetName": "POST HORN",
        "streetDirectionId": null,
        "streetTypeId": "GROVE",
        "placeName": "SCARBOROUGH",
        "streetNameDisplayText": "POST HORN GROVE, SCARBOROUGH"
      },
      {
        "electoralDistricts": [
          {
            "election": null,
            "id": 96,
            "name": "Scarborough North"
          }
        ],
        "pollDivisionIds": [
          10143247
        ],
        "postalCode": "M1S3N3",
        "streetName": "POSTHORN",
        "streetDirectionId": null,
        "streetTypeId": "GROVE",
        "placeName": "SCARBOROUGH",
        "streetNameDisplayText": "POSTHORN GROVE, SCARBOROUGH"
      }
    ]
  },
  {
    "postal": "M1S7S3",
    "result": []
  },
  {
    "postal": "M1S3V9",
    "result": [
      {
        "electoralDistricts": [
          {
            "election": null,
            "id": 96,
            "name": "Scarborough North"
          }
        ],
        "pollDivisionIds": [
          10141711
        ],
        "postalCode": "M1S3V9",
        "streetName": "BUSHCROFT",
        "streetDirectionId": null,
        "streetTypeId": "GROVE",
        "placeName": "SCARBOROUGH",
        "streetNameDisplayText": "BUSHCROFT GROVE, SCARBOROUGH"
      }
    ]
  },
  {
    "postal": "M1S9N7",
    "result": []
  },
  {
    "postal": "M1S0G4",
    "result": [
      {
        "electoralDistricts": [
          {
            "election": null,
            "id": 93,
            "name": "Scarborough—Agincourt"
          }
        ],
        "pollDivisionIds": [
          10141540
        ],
        "postalCode": "M1S0G4",
        "streetName": "VILLAGE GREEN",
        "streetDirectionId": null,
        "streetTypeId": "SQ",
        "placeName": "SCARBOROUGH",
        "streetNameDisplayText": "VILLAGE GREEN SQ, SCARBOROUGH"
      }
    ]
  },
  {
    "postal": "M1S2E2",
    "result": [
      {
        "electoralDistricts": [
          {
            "election": null,
            "id": 96,
            "name": "Scarborough North"
          }
        ],
        "pollDivisionIds": [
          10143248
        ],
        "postalCode": "M1S2E2",
        "streetName": "HEATHER",
        "streetDirectionId": null,
        "streetTypeId": "RD",
        "placeName": "SCARBOROUGH",
        "streetNameDisplayText": "HEATHER RD, SCARBOROUGH"
      }
    ]
  },
  {
    "postal": "M1S7W8",
    "result": []
  },
  {
    "postal": "M1S7M5",
    "result": []
  },
  {
    "postal": "M1S5W8",
    "result": [
      {
        "electoralDistricts": [
          {
            "election": null,
            "id": 96,
            "name": "Scarborough North"
          }
        ],
        "pollDivisionIds": [
          10141711
        ],
        "postalCode": "M1S5W8",
        "streetName": "FINCH",
        "streetDirectionId": "E",
        "streetTypeId": "AVE",
        "placeName": "SCARBOROUGH",
        "streetNameDisplayText": "FINCH AVE E, SCARBOROUGH"
      }
    ]
  },
  {
    "postal": "M1S5E5",
    "result": []
  },
  {
    "postal": "M1S1P9",
    "result": [
      {
        "electoralDistricts": [
          {
            "election": null,
            "id": 93,
            "name": "Scarborough—Agincourt"
          }
        ],
        "pollDivisionIds": [
          10141540
        ],
        "postalCode": "M1S1P9",
        "streetName": "MIDLAND",
        "streetDirectionId": null,
        "streetTypeId": "AVE",
        "placeName": "SCARBOROUGH",
        "streetNameDisplayText": "MIDLAND AVE, SCARBOROUGH"
      }
    ]
  },
  {
    "postal": "M1S8V8",
    "result": []
  },
  {
    "postal": "M1S9G8",
    "result": []
  },
  {
    "postal": "M1S8H9",
    "result": []
  },
  {
    "postal": "M1S1Z1",
    "result": [
      {
        "electoralDistricts": [
          {
            "election": null,
            "id": 96,
            "name": "Scarborough North"
          }
        ],
        "pollDivisionIds": [
          10143248
        ],
        "postalCode": "M1S1Z1",
        "streetName": "PITFIELD",
        "streetDirectionId": null,
        "streetTypeId": "RD",
        "placeName": "SCARBOROUGH",
        "streetNameDisplayText": "PITFIELD RD, SCARBOROUGH"
      }
    ]
  },
  {
    "postal": "M1S8M3",
    "result": []
  },
  {
    "postal": "M1S5H6",
    "result": [
      {
        "electoralDistricts": [
          {
            "election": null,
            "id": 93,
            "name": "Scarborough—Agincourt"
          }
        ],
        "pollDivisionIds": [
          10141525
        ],
        "postalCode": "M1S5H6",
        "streetName": "FINCH",
        "streetDirectionId": "E",
        "streetTypeId": "AVE",
        "placeName": "SCARBOROUGH",
        "streetNameDisplayText": "FINCH AVE E, SCARBOROUGH"
      }
    ]
  },
  {
    "postal": "M1S7W7",
    "result": []
  },
  {
    "postal": "M1S4L0",
    "result": []
  },
  {
    "postal": "M1S2N1",
    "result": [
      {
        "electoralDistricts": [
          {
            "election": null,
            "id": 96,
            "name": "Scarborough North"
          }
        ],
        "pollDivisionIds": [
          10141708
        ],
        "postalCode": "M1S2N1",
        "streetName": "PATSFIELD",
        "streetDirectionId": null,
        "streetTypeId": "GATE",
        "placeName": "SCARBOROUGH",
        "streetNameDisplayText": "PATSFIELD GATE, SCARBOROUGH"
      }
    ]
  },
  {
    "postal": "M1S2H4",
    "result": [
      {
        "electoralDistricts": [
          {
            "election": null,
            "id": 96,
            "name": "Scarborough North"
          }
        ],
        "pollDivisionIds": [
          10141709
        ],
        "postalCode": "M1S2H4",
        "streetName": "LAURALYNN",
        "streetDirectionId": null,
        "streetTypeId": "CRES",
        "placeName": "SCARBOROUGH",
        "streetNameDisplayText": "LAURALYNN CRES, SCARBOROUGH"
      }
    ]
  },
  {
    "postal": "M1S5C8",
    "result": [
      {
        "electoralDistricts": [
          {
            "election": null,
            "id": 93,
            "name": "Scarborough—Agincourt"
          }
        ],
        "pollDivisionIds": [
          10141540
        ],
        "postalCode": "M1S5C8",
        "streetName": "COWDRAY",
        "streetDirectionId": null,
        "streetTypeId": "CRT",
        "placeName": "SCARBOROUGH",
        "streetNameDisplayText": "COWDRAY CRT, SCARBOROUGH"
      }
    ]
  },
  {
    "postal": "M1S8B0",
    "result": []
  },
  {
    "postal": "M1S1T4",
    "result": [
      {
        "electoralDistricts": [
          {
            "election": null,
            "id": 93,
            "name": "Scarborough—Agincourt"
          }
        ],
        "pollDivisionIds": [
          10141540
        ],
        "postalCode": "M1S1T4",
        "streetName": "SHEPPARD",
        "streetDirectionId": "E",
        "streetTypeId": "AVE",
        "placeName": "SCARBOROUGH",
        "streetNameDisplayText": "SHEPPARD AVE E, SCARBOROUGH"
      }
    ]
  },
  {
    "postal": "M1S7N7",
    "result": []
  },
  {
    "postal": "M1S4L3",
    "result": []
  },
  {
    "postal": "M1S2N2",
    "result": [
      {
        "electoralDistricts": [
          {
            "election": null,
            "id": 96,
            "name": "Scarborough North"
          }
        ],
        "pollDivisionIds": [
          10141708
        ],
        "postalCode": "M1S2N2",
        "streetName": "PATSFIELD",
        "streetDirectionId": null,
        "streetTypeId": "GATE",
        "placeName": "SCARBOROUGH",
        "streetNameDisplayText": "PATSFIELD GATE, SCARBOROUGH"
      }
    ]
  },
  {
    "postal": "M1S4N8",
    "result": [
      {
        "electoralDistricts": [
          {
            "election": null,
            "id": 96,
            "name": "Scarborough North"
          }
        ],
        "pollDivisionIds": [
          10141714
        ],
        "postalCode": "M1S4N8",
        "streetName": "SHEPPARD",
        "streetDirectionId": "E",
        "streetTypeId": "AVE",
        "placeName": "SCARBOROUGH",
        "streetNameDisplayText": "SHEPPARD AVE E, SCARBOROUGH"
      }
    ]
  },
  {
    "postal": "M1S3M5",
    "result": [
      {
        "electoralDistricts": [
          {
            "election": null,
            "id": 93,
            "name": "Scarborough—Agincourt"
          }
        ],
        "pollDivisionIds": [
          10141530
        ],
        "postalCode": "M1S3M5",
        "streetName": "PETWORTH",
        "streetDirectionId": null,
        "streetTypeId": "CRES",
        "placeName": "SCARBOROUGH",
        "streetNameDisplayText": "PETWORTH CRES, SCARBOROUGH"
      }
    ]
  },
  {
    "postal": "M1S6H7",
    "result": []
  },
  {
    "postal": "M1S8Y8",
    "result": []
  },
  {
    "postal": "M1S5R9",
    "result": [
      {
        "electoralDistricts": [
          {
            "election": null,
            "id": 96,
            "name": "Scarborough North"
          }
        ],
        "pollDivisionIds": [
          10141711
        ],
        "postalCode": "M1S5R9",
        "streetName": "EXCHEQUER",
        "streetDirectionId": null,
        "streetTypeId": "PL",
        "placeName": "SCARBOROUGH",
        "streetNameDisplayText": "EXCHEQUER PL, SCARBOROUGH"
      }
    ]
  },
  {
    "postal": "M1S8G3",
    "result": []
  },
  {
    "postal": "M1S4N7",
    "result": [
      {
        "electoralDistricts": [
          {
            "election": null,
            "id": 96,
            "name": "Scarborough North"
          }
        ],
        "pollDivisionIds": [
          10143247
        ],
        "postalCode": "M1S4N7",
        "streetName": "BRIMLEY",
        "streetDirectionId": null,
        "streetTypeId": "RD",
        "placeName": "SCARBOROUGH",
        "streetNameDisplayText": "BRIMLEY RD, SCARBOROUGH"
      }
    ]
  },
  {
    "postal": "M1S0B9",
    "result": []
  },
  {
    "postal": "M1S9K7",
    "result": []
  },
  {
    "postal": "M1S9K9",
    "result": []
  },
  {
    "postal": "M1S3Z2",
    "result": [
      {
        "electoralDistricts": [
          {
            "election": null,
            "id": 96,
            "name": "Scarborough North"
          }
        ],
        "pollDivisionIds": [
          10143248
        ],
        "postalCode": "M1S3Z2",
        "streetName": "TERRYHILL",
        "streetDirectionId": null,
        "streetTypeId": "CRES",
        "placeName": "SCARBOROUGH",
        "streetNameDisplayText": "TERRYHILL CRES, SCARBOROUGH"
      }
    ]
  },
  {
    "postal": "M1S6W7",
    "result": []
  },
  {
    "postal": "M1S0P1",
    "result": []
  },
  {
    "postal": "M1S3A0",
    "result": []
  },
  {
    "postal": "M1S8L9",
    "result": []
  },
  {
    "postal": "M1S6X0",
    "result": []
  },
  {
    "postal": "M1S3E9",
    "result": [
      {
        "electoralDistricts": [
          {
            "election": null,
            "id": 96,
            "name": "Scarborough North"
          }
        ],
        "pollDivisionIds": [
          10143247
        ],
        "postalCode": "M1S3E9",
        "streetName": "BLUEBERRY",
        "streetDirectionId": null,
        "streetTypeId": "DR",
        "placeName": "SCARBOROUGH",
        "streetNameDisplayText": "BLUEBERRY DR, SCARBOROUGH"
      }
    ]
  },
  {
    "postal": "M1S0S5",
    "result": []
  },
  {
    "postal": "M1S1A2",
    "result": []
  },
  {
    "postal": "M1S5V8",
    "result": []
  },
  {
    "postal": "M1S8C5",
    "result": []
  },
  {
    "postal": "M1S6N0",
    "result": []
  },
  {
    "postal": "M1S9E6",
    "result": []
  },
  {
    "postal": "M1S5J7",
    "result": []
  },
  {
    "postal": "M1S2R2",
    "result": [
      {
        "electoralDistricts": [
          {
            "election": null,
            "id": 96,
            "name": "Scarborough North"
          }
        ],
        "pollDivisionIds": [
          10141708
        ],
        "postalCode": "M1S2R2",
        "streetName": "CHARTLAND",
        "streetDirectionId": "S",
        "streetTypeId": "BLVD",
        "placeName": "SCARBOROUGH",
        "streetNameDisplayText": "CHARTLAND BLVD S, SCARBOROUGH"
      }
    ]
  },
  {
    "postal": "M1S0P5",
    "result": []
  },
  {
    "postal": "M1S5A7",
    "result": [
      {
        "electoralDistricts": [
          {
            "election": null,
            "id": 96,
            "name": "Scarborough North"
          }
        ],
        "pollDivisionIds": [
          10141711
        ],
        "postalCode": "M1S5A7",
        "streetName": "DOVEDALE",
        "streetDirectionId": null,
        "streetTypeId": "CRT",
        "placeName": "SCARBOROUGH",
        "streetNameDisplayText": "DOVEDALE CRT, SCARBOROUGH"
      }
    ]
  },
  {
    "postal": "M1S1G1",
    "result": [
      {
        "electoralDistricts": [
          {
            "election": null,
            "id": 93,
            "name": "Scarborough—Agincourt"
          }
        ],
        "pollDivisionIds": [
          10141536
        ],
        "postalCode": "M1S1G1",
        "streetName": "FARMINGTON",
        "streetDirectionId": null,
        "streetTypeId": "CRES",
        "placeName": "SCARBOROUGH",
        "streetNameDisplayText": "FARMINGTON CRES, SCARBOROUGH"
      }
    ]
  },
  {
    "postal": "M1S9R6",
    "result": []
  },
  {
    "postal": "M1S4Z9",
    "result": [
      {
        "electoralDistricts": [
          {
            "election": null,
            "id": 96,
            "name": "Scarborough North"
          }
        ],
        "pollDivisionIds": [
          10141706
        ],
        "postalCode": "M1S4Z9",
        "streetName": "FINCH",
        "streetDirectionId": "E",
        "streetTypeId": "AVE",
        "placeName": "SCARBOROUGH",
        "streetNameDisplayText": "FINCH AVE E, SCARBOROUGH"
      }
    ]
  },
  {
    "postal": "M1S1V5",
    "result": [
      {
        "electoralDistricts": [
          {
            "election": null,
            "id": 96,
            "name": "Scarborough North"
          }
        ],
        "pollDivisionIds": [
          10143248
        ],
        "postalCode": "M1S1V5",
        "streetName": "GOODLAND",
        "streetDirectionId": null,
        "streetTypeId": "GATE",
        "placeName": "SCARBOROUGH",
        "streetNameDisplayText": "GOODLAND GATE, SCARBOROUGH"
      }
    ]
  },
  {
    "postal": "M1S9Y5",
    "result": []
  },
  {
    "postal": "M1S1P2",
    "result": [
      {
        "electoralDistricts": [
          {
            "election": null,
            "id": 93,
            "name": "Scarborough—Agincourt"
          }
        ],
        "pollDivisionIds": [
          10141536
        ],
        "postalCode": "M1S1P2",
        "streetName": "DONALDA",
        "streetDirectionId": null,
        "streetTypeId": "CRES",
        "placeName": "SCARBOROUGH",
        "streetNameDisplayText": "DONALDA CRES, SCARBOROUGH"
      }
    ]
  },
  {
    "postal": "M1S5X0",
    "result": []
  },
  {
    "postal": "M1S7B8",
    "result": []
  },
  {
    "postal": "M1S0C6",
    "result": []
  },
  {
    "postal": "M1S6G1",
    "result": []
  },
  {
    "postal": "M1S3K3",
    "result": [
      {
        "electoralDistricts": [
          {
            "election": null,
            "id": 96,
            "name": "Scarborough North"
          }
        ],
        "pollDivisionIds": [
          10143247
        ],
        "postalCode": "M1S3K3",
        "streetName": "BRIARSCROSS",
        "streetDirectionId": null,
        "streetTypeId": "BLVD",
        "placeName": "SCARBOROUGH",
        "streetNameDisplayText": "BRIARSCROSS BLVD, SCARBOROUGH"
      }
    ]
  },
  {
    "postal": "M1S9R0",
    "result": []
  },
  {
    "postal": "M1S4R8",
    "result": [
      {
        "electoralDistricts": [
          {
            "election": null,
            "id": 96,
            "name": "Scarborough North"
          }
        ],
        "pollDivisionIds": [
          10141714
        ],
        "postalCode": "M1S4R8",
        "streetName": "CARLINGWOOD",
        "streetDirectionId": null,
        "streetTypeId": "CRT",
        "placeName": "SCARBOROUGH",
        "streetNameDisplayText": "CARLINGWOOD CRT, SCARBOROUGH"
      }
    ]
  },
  {
    "postal": "M1S5P9",
    "result": []
  },
  {
    "postal": "M1S8N4",
    "result": []
  },
  {
    "postal": "M1S8H4",
    "result": []
  },
  {
    "postal": "M1S4V1",
    "result": []
  },
  {
    "postal": "M1S1K5",
    "result": [
      {
        "electoralDistricts": [
          {
            "election": null,
            "id": 93,
            "name": "Scarborough—Agincourt"
          }
        ],
        "pollDivisionIds": [
          10141536
        ],
        "postalCode": "M1S1K5",
        "streetName": "HUNTINGWOOD",
        "streetDirectionId": null,
        "streetTypeId": "DR",
        "placeName": "SCARBOROUGH",
        "streetNameDisplayText": "HUNTINGWOOD DR, SCARBOROUGH"
      }
    ]
  },
  {
    "postal": "M1S1Z5",
    "result": [
      {
        "electoralDistricts": [
          {
            "election": null,
            "id": 96,
            "name": "Scarborough North"
          }
        ],
        "pollDivisionIds": [
          10143248
        ],
        "postalCode": "M1S1Z5",
        "streetName": "MCDAIRMID",
        "streetDirectionId": null,
        "streetTypeId": "RD",
        "placeName": "SCARBOROUGH",
        "streetNameDisplayText": "MCDAIRMID RD, SCARBOROUGH"
      }
    ]
  },
  {
    "postal": "M1S9L9",
    "result": []
  },
  {
    "postal": "M1S5L2",
    "result": []
  },
  {
    "postal": "M1S0M2",
    "result": []
  },
  {
    "postal": "M1S1K8",
    "result": [
      {
        "electoralDistricts": [
          {
            "election": null,
            "id": 96,
            "name": "Scarborough North"
          }
        ],
        "pollDivisionIds": [
          10141708
        ],
        "postalCode": "M1S1K8",
        "streetName": "HUNTINGWOOD",
        "streetDirectionId": null,
        "streetTypeId": "DR",
        "placeName": "SCARBOROUGH",
        "streetNameDisplayText": "HUNTINGWOOD DR, SCARBOROUGH"
      }
    ]
  },
  {
    "postal": "M1S3M7",
    "result": [
      {
        "electoralDistricts": [
          {
            "election": null,
            "id": 96,
            "name": "Scarborough North"
          }
        ],
        "pollDivisionIds": [
          10143247
        ],
        "postalCode": "M1S3M7",
        "streetName": "COMMANDER",
        "streetDirectionId": null,
        "streetTypeId": "BLVD",
        "placeName": "SCARBOROUGH",
        "streetNameDisplayText": "COMMANDER BLVD, SCARBOROUGH"
      }
    ]
  },
  {
    "postal": "M1S1B2",
    "result": [
      {
        "electoralDistricts": [
          {
            "election": null,
            "id": 93,
            "name": "Scarborough—Agincourt"
          }
        ],
        "pollDivisionIds": [
          10141534
        ],
        "postalCode": "M1S1B2",
        "streetName": "REIDMOUNT",
        "streetDirectionId": null,
        "streetTypeId": "AVE",
        "placeName": "SCARBOROUGH",
        "streetNameDisplayText": "REIDMOUNT AVE, SCARBOROUGH"
      }
    ]
  },
  {
    "postal": "M1S0H9",
    "result": []
  },
  {
    "postal": "M1S8M4",
    "result": []
  },
  {
    "postal": "M1S2M5",
    "result": [
      {
        "electoralDistricts": [
          {
            "election": null,
            "id": 96,
            "name": "Scarborough North"
          }
        ],
        "pollDivisionIds": [
          10141708
        ],
        "postalCode": "M1S2M5",
        "streetName": "OVENDON",
        "streetDirectionId": null,
        "streetTypeId": "SQ",
        "placeName": "SCARBOROUGH",
        "streetNameDisplayText": "OVENDON SQ, SCARBOROUGH"
      }
    ]
  },
  {
    "postal": "M1S0T9",
    "result": []
  },
  {
    "postal": "M1S3P1",
    "result": []
  },
  {
    "postal": "M1S1R6",
    "result": [
      {
        "electoralDistricts": [
          {
            "election": null,
            "id": 96,
            "name": "Scarborough North"
          }
        ],
        "pollDivisionIds": [
          10143248
        ],
        "postalCode": "M1S1R6",
        "streetName": "MIDLAND",
        "streetDirectionId": null,
        "streetTypeId": "AVE",
        "placeName": "SCARBOROUGH",
        "streetNameDisplayText": "MIDLAND AVE, SCARBOROUGH"
      }
    ]
  },
  {
    "postal": "M1S9V5",
    "result": []
  },
  {
    "postal": "M1S9T0",
    "result": []
  },
  {
    "postal": "M1S0A9",
    "result": []
  },
  {
    "postal": "M1S1M3",
    "result": [
      {
        "electoralDistricts": [
          {
            "election": null,
            "id": 93,
            "name": "Scarborough—Agincourt"
          }
        ],
        "pollDivisionIds": [
          10141536
        ],
        "postalCode": "M1S1M3",
        "streetName": "AGINCOURT",
        "streetDirectionId": null,
        "streetTypeId": "DR",
        "placeName": "SCARBOROUGH",
        "streetNameDisplayText": "AGINCOURT DR, SCARBOROUGH"
      }
    ]
  },
  {
    "postal": "M1S1W8",
    "result": [
      {
        "electoralDistricts": [
          {
            "election": null,
            "id": 96,
            "name": "Scarborough North"
          }
        ],
        "pollDivisionIds": [
          10143248
        ],
        "postalCode": "M1S1W8",
        "streetName": "SUMMERGLADE",
        "streetDirectionId": null,
        "streetTypeId": "DR",
        "placeName": "SCARBOROUGH",
        "streetNameDisplayText": "SUMMERGLADE DR, SCARBOROUGH"
      }
    ]
  },
  {
    "postal": "M1S9J1",
    "result": []
  },
  {
    "postal": "M1S8N5",
    "result": []
  },
  {
    "postal": "M1S5X1",
    "result": [
      {
        "electoralDistricts": [
          {
            "election": null,
            "id": 96,
            "name": "Scarborough North"
          }
        ],
        "pollDivisionIds": [
          10143248
        ],
        "postalCode": "M1S5X1",
        "streetName": "BRIMLEY",
        "streetDirectionId": null,
        "streetTypeId": "RD",
        "placeName": "SCARBOROUGH",
        "streetNameDisplayText": "BRIMLEY RD, SCARBOROUGH"
      }
    ]
  },
  {
    "postal": "M1S6S2",
    "result": []
  },
  {
    "postal": "M1S2A2",
    "result": [
      {
        "electoralDistricts": [
          {
            "election": null,
            "id": 112,
            "name": "University—Rosedale"
          },
          {
            "election": null,
            "id": 96,
            "name": "Scarborough North"
          }
        ],
        "pollDivisionIds": [
          10143758,
          10143248
        ],
        "postalCode": "M1S2A2",
        "streetName": "MURRAY",
        "streetDirectionId": null,
        "streetTypeId": "AVE",
        "placeName": "SCARBOROUGH",
        "streetNameDisplayText": "MURRAY AVE, SCARBOROUGH"
      }
    ]
  },
  {
    "postal": "M1S6A6",
    "result": []
  },
  {
    "postal": "M1S0S3",
    "result": []
  },
  {
    "postal": "M1S3E7",
    "result": [
      {
        "electoralDistricts": [
          {
            "election": null,
            "id": 96,
            "name": "Scarborough North"
          }
        ],
        "pollDivisionIds": [
          10143247
        ],
        "postalCode": "M1S3E7",
        "streetName": "COMMANDER",
        "streetDirectionId": null,
        "streetTypeId": "BLVD",
        "placeName": "SCARBOROUGH",
        "streetNameDisplayText": "COMMANDER BLVD, SCARBOROUGH"
      }
    ]
  },
  {
    "postal": "M1S5R7",
    "result": []
  },
  {
    "postal": "M1S3R6",
    "result": [
      {
        "electoralDistricts": [
          {
            "election": null,
            "id": 96,
            "name": "Scarborough North"
          }
        ],
        "pollDivisionIds": [
          10143247
        ],
        "postalCode": "M1S3R6",
        "streetName": "SHEPPARD",
        "streetDirectionId": "E",
        "streetTypeId": "AVE",
        "placeName": "SCARBOROUGH",
        "streetNameDisplayText": "SHEPPARD AVE E, SCARBOROUGH"
      }
    ]
  },
  {
    "postal": "M1S6K4",
    "result": []
  },
  {
    "postal": "M1S2W5",
    "result": [
      {
        "electoralDistricts": [
          {
            "election": null,
            "id": 96,
            "name": "Scarborough North"
          }
        ],
        "pollDivisionIds": [
          10143247
        ],
        "postalCode": "M1S2W5",
        "streetName": "IDEHILL",
        "streetDirectionId": null,
        "streetTypeId": "CRES",
        "placeName": "SCARBOROUGH",
        "streetNameDisplayText": "IDEHILL CRES, SCARBOROUGH"
      }
    ]
  },
  {
    "postal": "M1S8W4",
    "result": []
  },
  {
    "postal": "M1S9C2",
    "result": []
  },
  {
    "postal": "M1S2C0",
    "result": []
  },
  {
    "postal": "M1S0E1",
    "result": []
  },
  {
    "postal": "M1S1K9",
    "result": [
      {
        "electoralDistricts": [
          {
            "election": null,
            "id": 93,
            "name": "Scarborough—Agincourt"
          }
        ],
        "pollDivisionIds": [
          10141536
        ],
        "postalCode": "M1S1K9",
        "streetName": "KITTERY",
        "streetDirectionId": null,
        "streetTypeId": "BLVD",
        "placeName": "SCARBOROUGH",
        "streetNameDisplayText": "KITTERY BLVD, SCARBOROUGH"
      }
    ]
  },
  {
    "postal": "M1S1G7",
    "result": [
      {
        "electoralDistricts": [
          {
            "election": null,
            "id": 93,
            "name": "Scarborough—Agincourt"
          }
        ],
        "pollDivisionIds": [
          10141536
        ],
        "postalCode": "M1S1G7",
        "streetName": "BELGREEN",
        "streetDirectionId": null,
        "streetTypeId": "AVE",
        "placeName": "SCARBOROUGH",
        "streetNameDisplayText": "BELGREEN AVE, SCARBOROUGH"
      }
    ]
  },
  {
    "postal": "M1S4E9",
    "result": [
      {
        "electoralDistricts": [
          {
            "election": null,
            "id": 93,
            "name": "Scarborough—Agincourt"
          }
        ],
        "pollDivisionIds": [
          10141530
        ],
        "postalCode": "M1S4E9",
        "streetName": "KENFIN",
        "streetDirectionId": null,
        "streetTypeId": "AVE",
        "placeName": "SCARBOROUGH",
        "streetNameDisplayText": "KENFIN AVE, SCARBOROUGH"
      }
    ]
  },
  {
    "postal": "M1S9P0",
    "result": []
  },
  {
    "postal": "M1S5H3",
    "result": []
  },
  {
    "postal": "M1S9X6",
    "result": []
  },
  {
    "postal": "M1S5N7",
    "result": []
  },
  {
    "postal": "M1S5A6",
    "result": [
      {
        "electoralDistricts": [
          {
            "election": null,
            "id": 96,
            "name": "Scarborough North"
          }
        ],
        "pollDivisionIds": [
          10141714
        ],
        "postalCode": "M1S5A6",
        "streetName": "SCUNTHORPE",
        "streetDirectionId": null,
        "streetTypeId": "RD",
        "placeName": "SCARBOROUGH",
        "streetNameDisplayText": "SCUNTHORPE RD, SCARBOROUGH"
      },
      {
        "electoralDistricts": [
          {
            "election": null,
            "id": 96,
            "name": "Scarborough North"
          }
        ],
        "pollDivisionIds": [
          10141714
        ],
        "postalCode": "M1S5A6",
        "streetName": "SPRING FOREST",
        "streetDirectionId": null,
        "streetTypeId": "GATE",
        "placeName": "SCARBOROUGH",
        "streetNameDisplayText": "SPRING FOREST GATE, SCARBOROUGH"
      }
    ]
  },
  {
    "postal": "M1S4M0",
    "result": []
  },
  {
    "postal": "M1S3V6",
    "result": [
      {
        "electoralDistricts": [
          {
            "election": null,
            "id": 96,
            "name": "Scarborough North"
          }
        ],
        "pollDivisionIds": [
          10141711
        ],
        "postalCode": "M1S3V6",
        "streetName": "SHEPPARD",
        "streetDirectionId": "E",
        "streetTypeId": "AVE",
        "placeName": "SCARBOROUGH",
        "streetNameDisplayText": "SHEPPARD AVE E, SCARBOROUGH"
      }
    ]
  },
  {
    "postal": "M1S1L7",
    "result": [
      {
        "electoralDistricts": [
          {
            "election": null,
            "id": 93,
            "name": "Scarborough—Agincourt"
          }
        ],
        "pollDivisionIds": [
          10141536
        ],
        "postalCode": "M1S1L7",
        "streetName": "SCOTLAND",
        "streetDirectionId": null,
        "streetTypeId": "RD",
        "placeName": "SCARBOROUGH",
        "streetNameDisplayText": "SCOTLAND RD, SCARBOROUGH"
      }
    ]
  },
  {
    "postal": "M1S2P9",
    "result": [
      {
        "electoralDistricts": [
          {
            "election": null,
            "id": 96,
            "name": "Scarborough North"
          }
        ],
        "pollDivisionIds": [
          10141708
        ],
        "postalCode": "M1S2P9",
        "streetName": "PEBBLEHILL",
        "streetDirectionId": null,
        "streetTypeId": "SQ",
        "placeName": "SCARBOROUGH",
        "streetNameDisplayText": "PEBBLEHILL SQ, SCARBOROUGH"
      }
    ]
  },
  {
    "postal": "M1S5T4",
    "result": []
  },
  {
    "postal": "M1S5Z1",
    "result": []
  },
  {
    "postal": "M1S2X0",
    "result": []
  },
  {
    "postal": "M1S6Z2",
    "result": []
  },
  {
    "postal": "M1S0E0",
    "result": []
  },
  {
    "postal": "M1S3Z5",
    "result": [
      {
        "electoralDistricts": [
          {
            "election": null,
            "id": 96,
            "name": "Scarborough North"
          }
        ],
        "pollDivisionIds": [
          10141711
        ],
        "postalCode": "M1S3Z5",
        "streetName": "PLACENTIA",
        "streetDirectionId": null,
        "streetTypeId": "BLVD",
        "placeName": "SCARBOROUGH",
        "streetNameDisplayText": "PLACENTIA BLVD, SCARBOROUGH"
      }
    ]
  },
  {
    "postal": "M1S8H3",
    "result": []
  },
  {
    "postal": "M1S7S6",
    "result": []
  },
  {
    "postal": "M1S4C1",
    "result": [
      {
        "electoralDistricts": [
          {
            "election": null,
            "id": 96,
            "name": "Scarborough North"
          }
        ],
        "pollDivisionIds": [
          10141711
        ],
        "postalCode": "M1S4C1",
        "streetName": "TOOKLEA",
        "streetDirectionId": null,
        "streetTypeId": "CRES",
        "placeName": "SCARBOROUGH",
        "streetNameDisplayText": "TOOKLEA CRES, SCARBOROUGH"
      }
    ]
  },
  {
    "postal": "M1S3K2",
    "result": [
      {
        "electoralDistricts": [
          {
            "election": null,
            "id": 96,
            "name": "Scarborough North"
          }
        ],
        "pollDivisionIds": [
          10143247
        ],
        "postalCode": "M1S3K2",
        "streetName": "BRIARSCROSS",
        "streetDirectionId": null,
        "streetTypeId": "BLVD",
        "placeName": "SCARBOROUGH",
        "streetNameDisplayText": "BRIARSCROSS BLVD, SCARBOROUGH"
      }
    ]
  },
  {
    "postal": "M1S1Y5",
    "result": [
      {
        "electoralDistricts": [
          {
            "election": null,
            "id": 96,
            "name": "Scarborough North"
          }
        ],
        "pollDivisionIds": [
          10143248
        ],
        "postalCode": "M1S1Y5",
        "streetName": "PITFIELD",
        "streetDirectionId": null,
        "streetTypeId": "RD",
        "placeName": "SCARBOROUGH",
        "streetNameDisplayText": "PITFIELD RD, SCARBOROUGH"
      }
    ]
  },
  {
    "postal": "M1S6P6",
    "result": []
  },
  {
    "postal": "M1S3N9",
    "result": [
      {
        "electoralDistricts": [
          {
            "election": null,
            "id": 96,
            "name": "Scarborough North"
          }
        ],
        "pollDivisionIds": [
          10143247
        ],
        "postalCode": "M1S3N9",
        "streetName": "SANDHURST",
        "streetDirectionId": null,
        "streetTypeId": "CIR",
        "placeName": "SCARBOROUGH",
        "streetNameDisplayText": "SANDHURST CIR, SCARBOROUGH"
      }
    ]
  },
  {
    "postal": "M1S3W2",
    "result": [
      {
        "electoralDistricts": [
          {
            "election": null,
            "id": 96,
            "name": "Scarborough North"
          }
        ],
        "pollDivisionIds": [
          10141711
        ],
        "postalCode": "M1S3W2",
        "streetName": "ROOKSNEST",
        "streetDirectionId": null,
        "streetTypeId": "TRAIL",
        "placeName": "SCARBOROUGH",
        "streetNameDisplayText": "ROOKSNEST TRAIL, SCARBOROUGH"
      }
    ]
  },
  {
    "postal": "M1S6H8",
    "result": []
  },
  {
    "postal": "M1S9T3",
    "result": []
  },
  {
    "postal": "M1S5L9",
    "result": []
  },
  {
    "postal": "M1S7X7",
    "result": []
  },
  {
    "postal": "M1S3J5",
    "result": [
      {
        "electoralDistricts": [
          {
            "election": null,
            "id": 96,
            "name": "Scarborough North"
          }
        ],
        "pollDivisionIds": [
          10143247
        ],
        "postalCode": "M1S3J5",
        "streetName": "CUDHAM",
        "streetDirectionId": null,
        "streetTypeId": "DR",
        "placeName": "SCARBOROUGH",
        "streetNameDisplayText": "CUDHAM DR, SCARBOROUGH"
      }
    ]
  },
  {
    "postal": "M1S4J5",
    "result": [
      {
        "electoralDistricts": [
          {
            "election": null,
            "id": 96,
            "name": "Scarborough North"
          }
        ],
        "pollDivisionIds": [
          10141711
        ],
        "postalCode": "M1S4J5",
        "streetName": "NUGGET",
        "streetDirectionId": null,
        "streetTypeId": "AVE",
        "placeName": "SCARBOROUGH",
        "streetNameDisplayText": "NUGGET AVE, SCARBOROUGH"
      }
    ]
  },
  {
    "postal": "M1S6J2",
    "result": []
  },
  {
    "postal": "M1S5V6",
    "result": []
  },
  {
    "postal": "M1S3N2",
    "result": [
      {
        "electoralDistricts": [
          {
            "election": null,
            "id": 96,
            "name": "Scarborough North"
          }
        ],
        "pollDivisionIds": [
          10143247
        ],
        "postalCode": "M1S3N2",
        "streetName": "HARTLEYWOOD",
        "streetDirectionId": null,
        "streetTypeId": "DR",
        "placeName": "SCARBOROUGH",
        "streetNameDisplayText": "HARTLEYWOOD DR, SCARBOROUGH"
      }
    ]
  },
  {
    "postal": "M1S3B1",
    "result": [
      {
        "electoralDistricts": [
          {
            "election": null,
            "id": 96,
            "name": "Scarborough North"
          }
        ],
        "pollDivisionIds": [
          10141711
        ],
        "postalCode": "M1S3B1",
        "streetName": "NUGGET",
        "streetDirectionId": null,
        "streetTypeId": "AVE",
        "placeName": "SCARBOROUGH",
        "streetNameDisplayText": "NUGGET AVE, SCARBOROUGH"
      }
    ]
  },
  {
    "postal": "M1S8B5",
    "result": []
  },
  {
    "postal": "M1S0K1",
    "result": []
  },
  {
    "postal": "M1S7M7",
    "result": []
  },
  {
    "postal": "M1S2M2",
    "result": [
      {
        "electoralDistricts": [
          {
            "election": null,
            "id": 96,
            "name": "Scarborough North"
          }
        ],
        "pollDivisionIds": [
          10141708
        ],
        "postalCode": "M1S2M2",
        "streetName": "BOARHILL",
        "streetDirectionId": null,
        "streetTypeId": "DR",
        "placeName": "SCARBOROUGH",
        "streetNameDisplayText": "BOARHILL DR, SCARBOROUGH"
      }
    ]
  },
  {
    "postal": "M1S9N3",
    "result": []
  },
  {
    "postal": "M1S4Y8",
    "result": [
      {
        "electoralDistricts": [
          {
            "election": null,
            "id": 93,
            "name": "Scarborough—Agincourt"
          }
        ],
        "pollDivisionIds": [
          10141534
        ],
        "postalCode": "M1S4Y8",
        "streetName": "CARDWELL",
        "streetDirectionId": null,
        "streetTypeId": "AVE",
        "placeName": "SCARBOROUGH",
        "streetNameDisplayText": "CARDWELL AVE, SCARBOROUGH"
      }
    ]
  },
  {
    "postal": "M1S3V7",
    "result": [
      {
        "electoralDistricts": [
          {
            "election": null,
            "id": 96,
            "name": "Scarborough North"
          }
        ],
        "pollDivisionIds": [
          10141711
        ],
        "postalCode": "M1S3V7",
        "streetName": "SHEPPARD",
        "streetDirectionId": "E",
        "streetTypeId": "AVE",
        "placeName": "SCARBOROUGH",
        "streetNameDisplayText": "SHEPPARD AVE E, SCARBOROUGH"
      }
    ]
  },
  {
    "postal": "M1S8Z1",
    "result": []
  },
  {
    "postal": "M1S7B3",
    "result": []
  },
  {
    "postal": "M1S3A8",
    "result": [
      {
        "electoralDistricts": [
          {
            "election": null,
            "id": 96,
            "name": "Scarborough North"
          }
        ],
        "pollDivisionIds": [
          10141711
        ],
        "postalCode": "M1S3A8",
        "streetName": "NUGGET",
        "streetDirectionId": null,
        "streetTypeId": "AVE",
        "placeName": "SCARBOROUGH",
        "streetNameDisplayText": "NUGGET AVE, SCARBOROUGH"
      }
    ]
  },
  {
    "postal": "M1S7V5",
    "result": []
  },
  {
    "postal": "M1S2T2",
    "result": [
      {
        "electoralDistricts": [
          {
            "election": null,
            "id": 96,
            "name": "Scarborough North"
          }
        ],
        "pollDivisionIds": [
          10143248
        ],
        "postalCode": "M1S2T2",
        "streetName": "LAWNMERE",
        "streetDirectionId": null,
        "streetTypeId": "CRES",
        "placeName": "SCARBOROUGH",
        "streetNameDisplayText": "LAWNMERE CRES, SCARBOROUGH"
      }
    ]
  },
  {
    "postal": "M1S6L3",
    "result": []
  },
  {
    "postal": "M1S0L2",
    "result": [
      {
        "electoralDistricts": [
          {
            "election": null,
            "id": 93,
            "name": "Scarborough—Agincourt"
          }
        ],
        "pollDivisionIds": [
          10141540
        ],
        "postalCode": "M1S0L2",
        "streetName": "VILLAGE GREEN",
        "streetDirectionId": null,
        "streetTypeId": "SQ",
        "placeName": "SCARBOROUGH",
        "streetNameDisplayText": "VILLAGE GREEN SQ, SCARBOROUGH"
      }
    ]
  },
  {
    "postal": "M1S5Y8",
    "result": []
  },
  {
    "postal": "M1S0B8",
    "result": []
  },
  {
    "postal": "M1S6R5",
    "result": []
  },
  {
    "postal": "M1S8W6",
    "result": []
  },
  {
    "postal": "M1S8G6",
    "result": []
  },
  {
    "postal": "M1S6X3",
    "result": []
  },
  {
    "postal": "M1S7R7",
    "result": []
  },
  {
    "postal": "M1S4B6",
    "result": []
  },
  {
    "postal": "M1S3P9",
    "result": []
  },
  {
    "postal": "M1S2T3",
    "result": [
      {
        "electoralDistricts": [
          {
            "election": null,
            "id": 96,
            "name": "Scarborough North"
          }
        ],
        "pollDivisionIds": [
          10143248
        ],
        "postalCode": "M1S2T3",
        "streetName": "LAWNMERE",
        "streetDirectionId": null,
        "streetTypeId": "CRES",
        "placeName": "SCARBOROUGH",
        "streetNameDisplayText": "LAWNMERE CRES, SCARBOROUGH"
      }
    ]
  },
  {
    "postal": "M1S1M4",
    "result": [
      {
        "electoralDistricts": [
          {
            "election": null,
            "id": 93,
            "name": "Scarborough—Agincourt"
          }
        ],
        "pollDivisionIds": [
          10141536
        ],
        "postalCode": "M1S1M4",
        "streetName": "AGINCOURT",
        "streetDirectionId": null,
        "streetTypeId": "DR",
        "placeName": "SCARBOROUGH",
        "streetNameDisplayText": "AGINCOURT DR, SCARBOROUGH"
      }
    ]
  },
  {
    "postal": "M1S0H1",
    "result": []
  },
  {
    "postal": "M1S9W3",
    "result": []
  },
  {
    "postal": "M1S6P1",
    "result": []
  },
  {
    "postal": "M1S7G2",
    "result": []
  },
  {
    "postal": "M1S4J9",
    "result": [
      {
        "electoralDistricts": [
          {
            "election": null,
            "id": 96,
            "name": "Scarborough North"
          }
        ],
        "pollDivisionIds": [
          10143247
        ],
        "postalCode": "M1S4J9",
        "streetName": "SHEPPARD",
        "streetDirectionId": "E",
        "streetTypeId": "AVE",
        "placeName": "SCARBOROUGH",
        "streetNameDisplayText": "SHEPPARD AVE E, SCARBOROUGH"
      }
    ]
  },
  {
    "postal": "M1S9E4",
    "result": []
  },
  {
    "postal": "M1S8H0",
    "result": []
  },
  {
    "postal": "M1S4M7",
    "result": [
      {
        "electoralDistricts": [
          {
            "election": null,
            "id": 96,
            "name": "Scarborough North"
          }
        ],
        "pollDivisionIds": [
          10141714
        ],
        "postalCode": "M1S4M7",
        "streetName": "MILNER",
        "streetDirectionId": null,
        "streetTypeId": "AVE",
        "placeName": "SCARBOROUGH",
        "streetNameDisplayText": "MILNER AVE, SCARBOROUGH"
      }
    ]
  },
  {
    "postal": "M1S2G9",
    "result": [
      {
        "electoralDistricts": [
          {
            "election": null,
            "id": 96,
            "name": "Scarborough North"
          }
        ],
        "pollDivisionIds": [
          10141709
        ],
        "postalCode": "M1S2G9",
        "streetName": "MARYDON",
        "streetDirectionId": null,
        "streetTypeId": "CRES",
        "placeName": "SCARBOROUGH",
        "streetNameDisplayText": "MARYDON CRES, SCARBOROUGH"
      }
    ]
  },
  {
    "postal": "M1S8T2",
    "result": []
  },
  {
    "postal": "M1S7G7",
    "result": []
  },
  {
    "postal": "M1S4Z3",
    "result": []
  },
  {
    "postal": "M1S5B3",
    "result": [
      {
        "electoralDistricts": [
          {
            "election": null,
            "id": 96,
            "name": "Scarborough North"
          }
        ],
        "pollDivisionIds": [
          10141714
        ],
        "postalCode": "M1S5B3",
        "streetName": "SHEPPARD",
        "streetDirectionId": "E",
        "streetTypeId": "AVE",
        "placeName": "SCARBOROUGH",
        "streetNameDisplayText": "SHEPPARD AVE E, SCARBOROUGH"
      }
    ]
  },
  {
    "postal": "M1S1S7",
    "result": [
      {
        "electoralDistricts": [
          {
            "election": null,
            "id": 93,
            "name": "Scarborough—Agincourt"
          }
        ],
        "pollDivisionIds": [
          10141540
        ],
        "postalCode": "M1S1S7",
        "streetName": "SHEPPARD",
        "streetDirectionId": "E",
        "streetTypeId": "AVE",
        "placeName": "SCARBOROUGH",
        "streetNameDisplayText": "SHEPPARD AVE E, SCARBOROUGH"
      }
    ]
  },
  {
    "postal": "M1S2N7",
    "result": [
      {
        "electoralDistricts": [
          {
            "election": null,
            "id": 96,
            "name": "Scarborough North"
          }
        ],
        "pollDivisionIds": [
          10141708
        ],
        "postalCode": "M1S2N7",
        "streetName": "DEEPDALE",
        "streetDirectionId": null,
        "streetTypeId": "DR",
        "placeName": "SCARBOROUGH",
        "streetNameDisplayText": "DEEPDALE DR, SCARBOROUGH"
      }
    ]
  },
  {
    "postal": "M1S0H8",
    "result": []
  },
  {
    "postal": "M1S7Z4",
    "result": []
  },
  {
    "postal": "M1S7B1",
    "result": []
  },
  {
    "postal": "M1S7P8",
    "result": []
  },
  {
    "postal": "M1S7N0",
    "result": []
  },
  {
    "postal": "M1S3Y5",
    "result": []
  },
  {
    "postal": "M1S6K1",
    "result": []
  },
  {
    "postal": "M1S9X5",
    "result": []
  },
  {
    "postal": "M1S7S5",
    "result": []
  },
  {
    "postal": "M1S0A4",
    "result": []
  },
  {
    "postal": "M1S4T5",
    "result": [
      {
        "electoralDistricts": [
          {
            "election": null,
            "id": 93,
            "name": "Scarborough—Agincourt"
          }
        ],
        "pollDivisionIds": [
          10141525
        ],
        "postalCode": "M1S4T5",
        "streetName": "FINCH",
        "streetDirectionId": "E",
        "streetTypeId": "AVE",
        "placeName": "SCARBOROUGH",
        "streetNameDisplayText": "FINCH AVE E, SCARBOROUGH"
      }
    ]
  },
  {
    "postal": "M1S5K1",
    "result": []
  },
  {
    "postal": "M1S0Z9",
    "result": []
  },
  {
    "postal": "M1S7T2",
    "result": []
  },
  {
    "postal": "M1S1L5",
    "result": [
      {
        "electoralDistricts": [
          {
            "election": null,
            "id": 93,
            "name": "Scarborough—Agincourt"
          }
        ],
        "pollDivisionIds": [
          10141536
        ],
        "postalCode": "M1S1L5",
        "streetName": "SCOTLAND",
        "streetDirectionId": null,
        "streetTypeId": "RD",
        "placeName": "SCARBOROUGH",
        "streetNameDisplayText": "SCOTLAND RD, SCARBOROUGH"
      }
    ]
  },
  {
    "postal": "M1S3N5",
    "result": [
      {
        "electoralDistricts": [
          {
            "election": null,
            "id": 96,
            "name": "Scarborough North"
          }
        ],
        "pollDivisionIds": [
          10143247
        ],
        "postalCode": "M1S3N5",
        "streetName": "SANDHURST",
        "streetDirectionId": null,
        "streetTypeId": "CIR",
        "placeName": "SCARBOROUGH",
        "streetNameDisplayText": "SANDHURST CIR, SCARBOROUGH"
      }
    ]
  },
  {
    "postal": "M1S6H4",
    "result": []
  },
  {
    "postal": "M1S5A5",
    "result": [
      {
        "electoralDistricts": [
          {
            "election": null,
            "id": 96,
            "name": "Scarborough North"
          }
        ],
        "pollDivisionIds": [
          10141706
        ],
        "postalCode": "M1S5A5",
        "streetName": "FINCH",
        "streetDirectionId": "E",
        "streetTypeId": "AVE",
        "placeName": "SCARBOROUGH",
        "streetNameDisplayText": "FINCH AVE E, SCARBOROUGH"
      }
    ]
  },
  {
    "postal": "M1S3R9",
    "result": []
  },
  {
    "postal": "M1S7L8",
    "result": []
  },
  {
    "postal": "M1S6T6",
    "result": []
  },
  {
    "postal": "M1S7Y7",
    "result": []
  },
  {
    "postal": "M1S3M8",
    "result": []
  },
  {
    "postal": "M1S2E0",
    "result": []
  },
  {
    "postal": "M1S4B5",
    "result": [
      {
        "electoralDistricts": [
          {
            "election": null,
            "id": 96,
            "name": "Scarborough North"
          }
        ],
        "pollDivisionIds": [
          10143248
        ],
        "postalCode": "M1S4B5",
        "streetName": "CHANNEL NINE",
        "streetDirectionId": null,
        "streetTypeId": "CRT",
        "placeName": "SCARBOROUGH",
        "streetNameDisplayText": "CHANNEL NINE CRT, SCARBOROUGH"
      }
    ]
  },
  {
    "postal": "M1S1J3",
    "result": [
      {
        "electoralDistricts": [
          {
            "election": null,
            "id": 93,
            "name": "Scarborough—Agincourt"
          }
        ],
        "pollDivisionIds": [
          10141530
        ],
        "postalCode": "M1S1J3",
        "streetName": "BUENA VISTA",
        "streetDirectionId": null,
        "streetTypeId": "AVE",
        "placeName": "SCARBOROUGH",
        "streetNameDisplayText": "BUENA VISTA AVE, SCARBOROUGH"
      }
    ]
  },
  {
    "postal": "M1S5S6",
    "result": []
  },
  {
    "postal": "M1S8P7",
    "result": []
  },
  {
    "postal": "M1S7S7",
    "result": []
  },
  {
    "postal": "M1S4C2",
    "result": []
  },
  {
    "postal": "M1S5Y0",
    "result": []
  },
  {
    "postal": "M1S2V7",
    "result": [
      {
        "electoralDistricts": [
          {
            "election": null,
            "id": 96,
            "name": "Scarborough North"
          }
        ],
        "pollDivisionIds": [
          10143248
        ],
        "postalCode": "M1S2V7",
        "streetName": "BROWNSPRING",
        "streetDirectionId": null,
        "streetTypeId": "RD",
        "placeName": "SCARBOROUGH",
        "streetNameDisplayText": "BROWNSPRING RD, SCARBOROUGH"
      }
    ]
  },
  {
    "postal": "M1S8P5",
    "result": []
  },
  {
    "postal": "M1S5P5",
    "result": []
  },
  {
    "postal": "M1S5Z0",
    "result": []
  },
  {
    "postal": "M1S9B0",
    "result": []
  },
  {
    "postal": "M1S1L0",
    "result": []
  },
  {
    "postal": "M1S0B5",
    "result": [
      {
        "electoralDistricts": [
          {
            "election": null,
            "id": 96,
            "name": "Scarborough North"
          }
        ],
        "pollDivisionIds": [
          10141714
        ],
        "postalCode": "M1S0B5",
        "streetName": "WYPER",
        "streetDirectionId": null,
        "streetTypeId": "SQ",
        "placeName": "SCARBOROUGH",
        "streetNameDisplayText": "WYPER SQ, SCARBOROUGH"
      }
    ]
  },
  {
    "postal": "M1S3L2",
    "result": [
      {
        "electoralDistricts": [
          {
            "election": null,
            "id": 96,
            "name": "Scarborough North"
          }
        ],
        "pollDivisionIds": [
          10141711
        ],
        "postalCode": "M1S3L2",
        "streetName": "NUGGET",
        "streetDirectionId": null,
        "streetTypeId": "AVE",
        "placeName": "SCARBOROUGH",
        "streetNameDisplayText": "NUGGET AVE, SCARBOROUGH"
      }
    ]
  },
  {
    "postal": "M1S3B7",
    "result": []
  },
  {
    "postal": "M1S8L1",
    "result": []
  },
  {
    "postal": "M1S5M4",
    "result": []
  },
  {
    "postal": "M1S4G9",
    "result": [
      {
        "electoralDistricts": [
          {
            "election": null,
            "id": 96,
            "name": "Scarborough North"
          }
        ],
        "pollDivisionIds": [
          10141711
        ],
        "postalCode": "M1S4G9",
        "streetName": "PLACENTIA",
        "streetDirectionId": null,
        "streetTypeId": "BLVD",
        "placeName": "SCARBOROUGH",
        "streetNameDisplayText": "PLACENTIA BLVD, SCARBOROUGH"
      }
    ]
  },
  {
    "postal": "M1S0P0",
    "result": []
  },
  {
    "postal": "M1S8G2",
    "result": []
  },
  {
    "postal": "M1S1V9",
    "result": [
      {
        "electoralDistricts": [
          {
            "election": null,
            "id": 96,
            "name": "Scarborough North"
          }
        ],
        "pollDivisionIds": [
          10143248
        ],
        "postalCode": "M1S1V9",
        "streetName": "MARILAKE",
        "streetDirectionId": null,
        "streetTypeId": "DR",
        "placeName": "SCARBOROUGH",
        "streetNameDisplayText": "MARILAKE DR, SCARBOROUGH"
      }
    ]
  },
  {
    "postal": "M1S8N8",
    "result": []
  },
  {
    "postal": "M1S6S8",
    "result": []
  },
  {
    "postal": "M1S8H2",
    "result": []
  },
  {
    "postal": "M1S5R8",
    "result": [
      {
        "electoralDistricts": [
          {
            "election": null,
            "id": 96,
            "name": "Scarborough North"
          }
        ],
        "pollDivisionIds": [
          10141711
        ],
        "postalCode": "M1S5R8",
        "streetName": "EXCHEQUER",
        "streetDirectionId": null,
        "streetTypeId": "PL",
        "placeName": "SCARBOROUGH",
        "streetNameDisplayText": "EXCHEQUER PL, SCARBOROUGH"
      }
    ]
  },
  {
    "postal": "M1S5L4",
    "result": [
      {
        "electoralDistricts": [
          {
            "election": null,
            "id": 96,
            "name": "Scarborough North"
          }
        ],
        "pollDivisionIds": [
          10143247
        ],
        "postalCode": "M1S5L4",
        "streetName": "NORTH WIND",
        "streetDirectionId": null,
        "streetTypeId": "PL",
        "placeName": "SCARBOROUGH",
        "streetNameDisplayText": "NORTH WIND PL, SCARBOROUGH"
      }
    ]
  },
  {
    "postal": "M1S9E1",
    "result": []
  },
  {
    "postal": "M1S1C4",
    "result": [
      {
        "electoralDistricts": [
          {
            "election": null,
            "id": 93,
            "name": "Scarborough—Agincourt"
          }
        ],
        "pollDivisionIds": [
          10141534
        ],
        "postalCode": "M1S1C4",
        "streetName": "FULBERT",
        "streetDirectionId": null,
        "streetTypeId": "CRES",
        "placeName": "SCARBOROUGH",
        "streetNameDisplayText": "FULBERT CRES, SCARBOROUGH"
      }
    ]
  },
  {
    "postal": "M1S8W5",
    "result": []
  },
  {
    "postal": "M1S1Y4",
    "result": [
      {
        "electoralDistricts": [
          {
            "election": null,
            "id": 96,
            "name": "Scarborough North"
          }
        ],
        "pollDivisionIds": [
          10143248
        ],
        "postalCode": "M1S1Y4",
        "streetName": "PITFIELD",
        "streetDirectionId": null,
        "streetTypeId": "RD",
        "placeName": "SCARBOROUGH",
        "streetNameDisplayText": "PITFIELD RD, SCARBOROUGH"
      }
    ]
  },
  {
    "postal": "M1S1C0",
    "result": []
  },
  {
    "postal": "M1S2J2",
    "result": [
      {
        "electoralDistricts": [
          {
            "election": null,
            "id": 96,
            "name": "Scarborough North"
          }
        ],
        "pollDivisionIds": [
          10141709
        ],
        "postalCode": "M1S2J2",
        "streetName": "MORAN",
        "streetDirectionId": null,
        "streetTypeId": "RD",
        "placeName": "SCARBOROUGH",
        "streetNameDisplayText": "MORAN RD, SCARBOROUGH"
      }
    ]
  },
  {
    "postal": "M1S2J0",
    "result": []
  },
  {
    "postal": "M1S7A3",
    "result": []
  },
  {
    "postal": "M1S8M1",
    "result": []
  },
  {
    "postal": "M1S7T9",
    "result": []
  },
  {
    "postal": "M1S6C0",
    "result": []
  },
  {
    "postal": "M1S7X1",
    "result": []
  },
  {
    "postal": "M1S0G1",
    "result": []
  },
  {
    "postal": "M1S4X2",
    "result": [
      {
        "electoralDistricts": [
          {
            "election": null,
            "id": 96,
            "name": "Scarborough North"
          }
        ],
        "pollDivisionIds": [
          10141714
        ],
        "postalCode": "M1S4X2",
        "streetName": "SPRING FOREST",
        "streetDirectionId": null,
        "streetTypeId": "SQ",
        "placeName": "SCARBOROUGH",
        "streetNameDisplayText": "SPRING FOREST SQ, SCARBOROUGH"
      }
    ]
  },
  {
    "postal": "M1S0N6",
    "result": []
  },
  {
    "postal": "M1S8E3",
    "result": []
  },
  {
    "postal": "M1S5S8",
    "result": []
  },
  {
    "postal": "M1S0R0",
    "result": []
  },
  {
    "postal": "M1S6J6",
    "result": []
  },
  {
    "postal": "M1S4B4",
    "result": [
      {
        "electoralDistricts": [
          {
            "election": null,
            "id": 96,
            "name": "Scarborough North"
          }
        ],
        "pollDivisionIds": [
          10143247
        ],
        "postalCode": "M1S4B4",
        "streetName": "MCCOWAN",
        "streetDirectionId": null,
        "streetTypeId": "RD",
        "placeName": "SCARBOROUGH",
        "streetNameDisplayText": "MCCOWAN RD, SCARBOROUGH"
      }
    ]
  },
  {
    "postal": "M1S7E3",
    "result": []
  },
  {
    "postal": "M1S3N6",
    "result": [
      {
        "electoralDistricts": [
          {
            "election": null,
            "id": 96,
            "name": "Scarborough North"
          }
        ],
        "pollDivisionIds": [
          10143247
        ],
        "postalCode": "M1S3N6",
        "streetName": "SANDHURST",
        "streetDirectionId": null,
        "streetTypeId": "CIR",
        "placeName": "SCARBOROUGH",
        "streetNameDisplayText": "SANDHURST CIR, SCARBOROUGH"
      }
    ]
  },
  {
    "postal": "M1S3X6",
    "result": [
      {
        "electoralDistricts": [
          {
            "election": null,
            "id": 96,
            "name": "Scarborough North"
          }
        ],
        "pollDivisionIds": [
          10143248
        ],
        "postalCode": "M1S3X6",
        "streetName": "REDBUD",
        "streetDirectionId": null,
        "streetTypeId": "CRES",
        "placeName": "SCARBOROUGH",
        "streetNameDisplayText": "REDBUD CRES, SCARBOROUGH"
      }
    ]
  },
  {
    "postal": "M1S8L0",
    "result": []
  },
  {
    "postal": "M1S8N1",
    "result": []
  },
  {
    "postal": "M1S4J0",
    "result": []
  },
  {
    "postal": "M1S0X7",
    "result": []
  },
  {
    "postal": "M1S6S4",
    "result": []
  },
  {
    "postal": "M1S0Z0",
    "result": []
  },
  {
    "postal": "M1S9X8",
    "result": []
  },
  {
    "postal": "M1S3H3",
    "result": [
      {
        "electoralDistricts": [
          {
            "election": null,
            "id": 93,
            "name": "Scarborough—Agincourt"
          }
        ],
        "pollDivisionIds": [
          10141540
        ],
        "postalCode": "M1S3H3",
        "streetName": "SHEPPARD",
        "streetDirectionId": "E",
        "streetTypeId": "AVE",
        "placeName": "SCARBOROUGH",
        "streetNameDisplayText": "SHEPPARD AVE E, SCARBOROUGH"
      }
    ]
  },
  {
    "postal": "M1S7S2",
    "result": []
  },
  {
    "postal": "M1S3T3",
    "result": [
      {
        "electoralDistricts": [
          {
            "election": null,
            "id": 96,
            "name": "Scarborough North"
          }
        ],
        "pollDivisionIds": [
          10143248
        ],
        "postalCode": "M1S3T3",
        "streetName": "CLEETHORPES",
        "streetDirectionId": null,
        "streetTypeId": "BLVD",
        "placeName": "SCARBOROUGH",
        "streetNameDisplayText": "CLEETHORPES BLVD, SCARBOROUGH"
      }
    ]
  },
  {
    "postal": "M1S9P3",
    "result": []
  },
  {
    "postal": "M1S4H8",
    "result": [
      {
        "electoralDistricts": [
          {
            "election": null,
            "id": 96,
            "name": "Scarborough North"
          }
        ],
        "pollDivisionIds": [
          10141711
        ],
        "postalCode": "M1S4H8",
        "streetName": "STATESMAN",
        "streetDirectionId": null,
        "streetTypeId": "SQ",
        "placeName": "SCARBOROUGH",
        "streetNameDisplayText": "STATESMAN SQ, SCARBOROUGH"
      }
    ]
  },
  {
    "postal": "M1S6R1",
    "result": []
  },
  {
    "postal": "M1S1S0",
    "result": []
  },
  {
    "postal": "M1S3W8",
    "result": [
      {
        "electoralDistricts": [
          {
            "election": null,
            "id": 96,
            "name": "Scarborough North"
          }
        ],
        "pollDivisionIds": [
          10141711
        ],
        "postalCode": "M1S3W8",
        "streetName": "MARRAKESH",
        "streetDirectionId": null,
        "streetTypeId": "DR",
        "placeName": "SCARBOROUGH",
        "streetNameDisplayText": "MARRAKESH DR, SCARBOROUGH"
      }
    ]
  },
  {
    "postal": "M1S4S3",
    "result": []
  },
  {
    "postal": "M1S1B6",
    "result": [
      {
        "electoralDistricts": [
          {
            "election": null,
            "id": 93,
            "name": "Scarborough—Agincourt"
          }
        ],
        "pollDivisionIds": [
          10141534
        ],
        "postalCode": "M1S1B6",
        "streetName": "REIDMOUNT",
        "streetDirectionId": null,
        "streetTypeId": "AVE",
        "placeName": "SCARBOROUGH",
        "streetNameDisplayText": "REIDMOUNT AVE, SCARBOROUGH"
      }
    ]
  },
  {
    "postal": "M1S8R3",
    "result": []
  },
  {
    "postal": "M1S4V9",
    "result": [
      {
        "electoralDistricts": [
          {
            "election": null,
            "id": 96,
            "name": "Scarborough North"
          }
        ],
        "pollDivisionIds": [
          10141714
        ],
        "postalCode": "M1S4V9",
        "streetName": "CROWN ACRES",
        "streetDirectionId": null,
        "streetTypeId": "CRT",
        "placeName": "SCARBOROUGH",
        "streetNameDisplayText": "CROWN ACRES CRT, SCARBOROUGH"
      }
    ]
  },
  {
    "postal": "M1S9W4",
    "result": []
  },
  {
    "postal": "M1S3T4",
    "result": [
      {
        "electoralDistricts": [
          {
            "election": null,
            "id": 96,
            "name": "Scarborough North"
          }
        ],
        "pollDivisionIds": [
          10143248
        ],
        "postalCode": "M1S3T4",
        "streetName": "SNOWHILL",
        "streetDirectionId": null,
        "streetTypeId": "CRES",
        "placeName": "SCARBOROUGH",
        "streetNameDisplayText": "SNOWHILL CRES, SCARBOROUGH"
      }
    ]
  },
  {
    "postal": "M1S5C7",
    "result": []
  },
  {
    "postal": "M1S3Y1",
    "result": [
      {
        "electoralDistricts": [
          {
            "election": null,
            "id": 96,
            "name": "Scarborough North"
          }
        ],
        "pollDivisionIds": [
          10141711
        ],
        "postalCode": "M1S3Y1",
        "streetName": "KENHATCH",
        "streetDirectionId": null,
        "streetTypeId": "BLVD",
        "placeName": "SCARBOROUGH",
        "streetNameDisplayText": "KENHATCH BLVD, SCARBOROUGH"
      }
    ]
  },
  {
    "postal": "M1S5V0",
    "result": []
  },
  {
    "postal": "M1S8G8",
    "result": []
  },
  {
    "postal": "M1S8B1",
    "result": []
  },
  {
    "postal": "M1S4P5",
    "result": [
      {
        "electoralDistricts": [
          {
            "election": null,
            "id": 96,
            "name": "Scarborough North"
          }
        ],
        "pollDivisionIds": [
          10143247
        ],
        "postalCode": "M1S4P5",
        "streetName": "MCCOWAN",
        "streetDirectionId": null,
        "streetTypeId": "RD",
        "placeName": "SCARBOROUGH",
        "streetNameDisplayText": "MCCOWAN RD, SCARBOROUGH"
      }
    ]
  },
  {
    "postal": "M1S7B2",
    "result": []
  },
  {
    "postal": "M1S0R2",
    "result": []
  },
  {
    "postal": "M1S4M4",
    "result": []
  },
  {
    "postal": "M1S7M4",
    "result": []
  },
  {
    "postal": "M1S9S7",
    "result": []
  },
  {
    "postal": "M1S5Z7",
    "result": []
  },
  {
    "postal": "M1S7J7",
    "result": []
  },
  {
    "postal": "M1S8R8",
    "result": []
  },
  {
    "postal": "M1S9X1",
    "result": []
  },
  {
    "postal": "M1S5M9",
    "result": [
      {
        "electoralDistricts": [
          {
            "election": null,
            "id": 96,
            "name": "Scarborough North"
          }
        ],
        "pollDivisionIds": [
          10141711
        ],
        "postalCode": "M1S5M9",
        "streetName": "SHEPPARD",
        "streetDirectionId": "E",
        "streetTypeId": "AVE",
        "placeName": "SCARBOROUGH",
        "streetNameDisplayText": "SHEPPARD AVE E, SCARBOROUGH"
      }
    ]
  },
  {
    "postal": "M1S9B4",
    "result": []
  },
  {
    "postal": "M1S0L9",
    "result": []
  },
  {
    "postal": "M1S9G4",
    "result": []
  },
  {
    "postal": "M1S1J4",
    "result": [
      {
        "electoralDistricts": [
          {
            "election": null,
            "id": 93,
            "name": "Scarborough—Agincourt"
          }
        ],
        "pollDivisionIds": [
          10141530
        ],
        "postalCode": "M1S1J4",
        "streetName": "DEBLYN",
        "streetDirectionId": null,
        "streetTypeId": "DR",
        "placeName": "SCARBOROUGH",
        "streetNameDisplayText": "DEBLYN DR, SCARBOROUGH"
      }
    ]
  },
  {
    "postal": "M1S0W6",
    "result": []
  }
]
