[
  {
    "postal": "L7T9J6",
    "result": []
  },
  {
    "postal": "L7T9Z5",
    "result": []
  },
  {
    "postal": "L7T7H8",
    "result": []
  },
  {
    "postal": "L7T0P6",
    "result": []
  },
  {
    "postal": "L7T0S7",
    "result": []
  },
  {
    "postal": "L7T8B9",
    "result": []
  },
  {
    "postal": "L7T2A6",
    "result": [
      {
        "electoralDistricts": [
          {
            "election": null,
            "id": 15,
            "name": "Burlington"
          }
        ],
        "pollDivisionIds": [
          10137359
        ],
        "postalCode": "L7T2A6",
        "streetName": "TOWNSEND",
        "streetDirectionId": null,
        "streetTypeId": "AVE",
        "placeName": "BURLINGTON",
        "streetNameDisplayText": "TOWNSEND AVE, BURLINGTON"
      }
    ]
  },
  {
    "postal": "L7T7V2",
    "result": []
  },
  {
    "postal": "L7T9P4",
    "result": []
  },
  {
    "postal": "L7T6G0",
    "result": []
  },
  {
    "postal": "L7T2K0",
    "result": []
  },
  {
    "postal": "L7T7N6",
    "result": []
  },
  {
    "postal": "L7T5R3",
    "result": []
  },
  {
    "postal": "L7T7K0",
    "result": []
  },
  {
    "postal": "L7T3R2",
    "result": [
      {
        "electoralDistricts": [
          {
            "election": null,
            "id": 15,
            "name": "Burlington"
          }
        ],
        "pollDivisionIds": [
          10137356
        ],
        "postalCode": "L7T3R2",
        "streetName": "SHEPHERD'S",
        "streetDirectionId": null,
        "streetTypeId": "DR",
        "placeName": "BURLINGTON",
        "streetNameDisplayText": "SHEPHERD'S DR, BURLINGTON"
      }
    ]
  },
  {
    "postal": "L7T0J1",
    "result": []
  },
  {
    "postal": "L7T0B0",
    "result": []
  },
  {
    "postal": "L7T5Z2",
    "result": []
  },
  {
    "postal": "L7T7P3",
    "result": []
  },
  {
    "postal": "L7T2K3",
    "result": [
      {
        "electoralDistricts": [
          {
            "election": null,
            "id": 15,
            "name": "Burlington"
          }
        ],
        "pollDivisionIds": [
          10137360
        ],
        "postalCode": "L7T2K3",
        "streetName": "BEDFORD",
        "streetDirectionId": null,
        "streetTypeId": "AVE",
        "placeName": "BURLINGTON",
        "streetNameDisplayText": "BEDFORD AVE, BURLINGTON"
      }
    ]
  },
  {
    "postal": "L7T7Y6",
    "result": []
  },
  {
    "postal": "L7T1L9",
    "result": [
      {
        "electoralDistricts": [
          {
            "election": null,
            "id": 15,
            "name": "Burlington"
          }
        ],
        "pollDivisionIds": [
          10137362
        ],
        "postalCode": "L7T1L9",
        "streetName": "EDGE MOOR",
        "streetDirectionId": null,
        "streetTypeId": "AVE",
        "placeName": "BURLINGTON",
        "streetNameDisplayText": "EDGE MOOR AVE, BURLINGTON"
      },
      {
        "electoralDistricts": [
          {
            "election": null,
            "id": 15,
            "name": "Burlington"
          }
        ],
        "pollDivisionIds": [
          10137362
        ],
        "postalCode": "L7T1L9",
        "streetName": "EDGEMOOR",
        "streetDirectionId": null,
        "streetTypeId": "AVE",
        "placeName": "BURLINGTON",
        "streetNameDisplayText": "EDGEMOOR AVE, BURLINGTON"
      }
    ]
  },
  {
    "postal": "L7T8T0",
    "result": []
  },
  {
    "postal": "L7T3K8",
    "result": [
      {
        "electoralDistricts": [
          {
            "election": null,
            "id": 15,
            "name": "Burlington"
          }
        ],
        "pollDivisionIds": [
          10137356
        ],
        "postalCode": "L7T3K8",
        "streetName": "KING",
        "streetDirectionId": null,
        "streetTypeId": "RD",
        "placeName": "BURLINGTON",
        "streetNameDisplayText": "KING RD, BURLINGTON"
      }
    ]
  },
  {
    "postal": "L7T5W9",
    "result": []
  },
  {
    "postal": "L7T6T9",
    "result": []
  },
  {
    "postal": "L7T4H1",
    "result": [
      {
        "electoralDistricts": [
          {
            "election": null,
            "id": 15,
            "name": "Burlington"
          }
        ],
        "pollDivisionIds": [
          10137362
        ],
        "postalCode": "L7T4H1",
        "streetName": "PLAINS",
        "streetDirectionId": "W",
        "streetTypeId": "RD",
        "placeName": "BURLINGTON",
        "streetNameDisplayText": "PLAINS RD W, BURLINGTON"
      }
    ]
  },
  {
    "postal": "L7T7A2",
    "result": []
  },
  {
    "postal": "L7T5G0",
    "result": []
  },
  {
    "postal": "L7T8V5",
    "result": []
  },
  {
    "postal": "L7T2Y8",
    "result": [
      {
        "electoralDistricts": [
          {
            "election": null,
            "id": 15,
            "name": "Burlington"
          }
        ],
        "pollDivisionIds": [
          10137360
        ],
        "postalCode": "L7T2Y8",
        "streetName": "TEAL",
        "streetDirectionId": null,
        "streetTypeId": "DR",
        "placeName": "BURLINGTON",
        "streetNameDisplayText": "TEAL DR, BURLINGTON"
      }
    ]
  },
  {
    "postal": "L7T2B6",
    "result": [
      {
        "electoralDistricts": [
          {
            "election": null,
            "id": 15,
            "name": "Burlington"
          }
        ],
        "pollDivisionIds": [
          10137360
        ],
        "postalCode": "L7T2B6",
        "streetName": "FAIRWOOD",
        "streetDirectionId": "E",
        "streetTypeId": "PL",
        "placeName": "BURLINGTON",
        "streetNameDisplayText": "FAIRWOOD PL E, BURLINGTON"
      }
    ]
  },
  {
    "postal": "L7T4W8",
    "result": []
  },
  {
    "postal": "L7T8H7",
    "result": []
  },
  {
    "postal": "L7T5P1",
    "result": []
  },
  {
    "postal": "L7T2B8",
    "result": [
      {
        "electoralDistricts": [
          {
            "election": null,
            "id": 15,
            "name": "Burlington"
          }
        ],
        "pollDivisionIds": [
          10137360
        ],
        "postalCode": "L7T2B8",
        "streetName": "PLAINS",
        "streetDirectionId": "E",
        "streetTypeId": "RD",
        "placeName": "BURLINGTON",
        "streetNameDisplayText": "PLAINS RD E, BURLINGTON"
      }
    ]
  },
  {
    "postal": "L7T0P2",
    "result": []
  },
  {
    "postal": "L7T9M1",
    "result": []
  },
  {
    "postal": "L7T3G0",
    "result": []
  },
  {
    "postal": "L7T9Z2",
    "result": []
  },
  {
    "postal": "L7T2A0",
    "result": []
  },
  {
    "postal": "L7T6Y0",
    "result": []
  },
  {
    "postal": "L7T2Z8",
    "result": [
      {
        "electoralDistricts": [
          {
            "election": null,
            "id": 15,
            "name": "Burlington"
          }
        ],
        "pollDivisionIds": [
          10137360
        ],
        "postalCode": "L7T2Z8",
        "streetName": "EAGLE",
        "streetDirectionId": null,
        "streetTypeId": "DR",
        "placeName": "BURLINGTON",
        "streetNameDisplayText": "EAGLE DR, BURLINGTON"
      }
    ]
  },
  {
    "postal": "L7T7Y3",
    "result": []
  },
  {
    "postal": "L7T6Z5",
    "result": []
  },
  {
    "postal": "L7T6E0",
    "result": []
  },
  {
    "postal": "L7T9B7",
    "result": []
  },
  {
    "postal": "L7T9S5",
    "result": []
  },
  {
    "postal": "L7T3X3",
    "result": [
      {
        "electoralDistricts": [
          {
            "election": null,
            "id": 15,
            "name": "Burlington"
          }
        ],
        "pollDivisionIds": [
          10137356
        ],
        "postalCode": "L7T3X3",
        "streetName": "SUNSET",
        "streetDirectionId": null,
        "streetTypeId": "RD",
        "placeName": "BURLINGTON",
        "streetNameDisplayText": "SUNSET RD, BURLINGTON"
      }
    ]
  },
  {
    "postal": "L7T7R5",
    "result": []
  },
  {
    "postal": "L7T2X3",
    "result": [
      {
        "electoralDistricts": [
          {
            "election": null,
            "id": 15,
            "name": "Burlington"
          }
        ],
        "pollDivisionIds": [
          10137358
        ],
        "postalCode": "L7T2X3",
        "streetName": "DORCHESTER",
        "streetDirectionId": null,
        "streetTypeId": "CRES",
        "placeName": "BURLINGTON",
        "streetNameDisplayText": "DORCHESTER CRES, BURLINGTON"
      }
    ]
  },
  {
    "postal": "L7T8Z9",
    "result": []
  },
  {
    "postal": "L7T0N4",
    "result": []
  },
  {
    "postal": "L7T1K1",
    "result": [
      {
        "electoralDistricts": [
          {
            "election": null,
            "id": 15,
            "name": "Burlington"
          }
        ],
        "pollDivisionIds": [
          10137362
        ],
        "postalCode": "L7T1K1",
        "streetName": "PATRICIA",
        "streetDirectionId": null,
        "streetTypeId": "DR",
        "placeName": "BURLINGTON",
        "streetNameDisplayText": "PATRICIA DR, BURLINGTON"
      }
    ]
  },
  {
    "postal": "L7T1S3",
    "result": [
      {
        "electoralDistricts": [
          {
            "election": null,
            "id": 15,
            "name": "Burlington"
          }
        ],
        "pollDivisionIds": [
          10137362
        ],
        "postalCode": "L7T1S3",
        "streetName": "GORTON",
        "streetDirectionId": null,
        "streetTypeId": "AVE",
        "placeName": "BURLINGTON",
        "streetNameDisplayText": "GORTON AVE, BURLINGTON"
      }
    ]
  },
  {
    "postal": "L7T6M4",
    "result": []
  },
  {
    "postal": "L7T9A9",
    "result": []
  },
  {
    "postal": "L7T9Z9",
    "result": []
  },
  {
    "postal": "L7T6T4",
    "result": []
  },
  {
    "postal": "L7T0B2",
    "result": []
  },
  {
    "postal": "L7T2L9",
    "result": [
      {
        "electoralDistricts": [
          {
            "election": null,
            "id": 15,
            "name": "Burlington"
          }
        ],
        "pollDivisionIds": [
          10137360
        ],
        "postalCode": "L7T2L9",
        "streetName": "MANORWOOD",
        "streetDirectionId": null,
        "streetTypeId": "DR",
        "placeName": "BURLINGTON",
        "streetNameDisplayText": "MANORWOOD DR, BURLINGTON"
      }
    ]
  },
  {
    "postal": "L7T8K9",
    "result": []
  },
  {
    "postal": "L7T2H9",
    "result": [
      {
        "electoralDistricts": [
          {
            "election": null,
            "id": 15,
            "name": "Burlington"
          }
        ],
        "pollDivisionIds": [
          10137360
        ],
        "postalCode": "L7T2H9",
        "streetName": "CLEARVIEW",
        "streetDirectionId": null,
        "streetTypeId": "AVE",
        "placeName": "BURLINGTON",
        "streetNameDisplayText": "CLEARVIEW AVE, BURLINGTON"
      }
    ]
  },
  {
    "postal": "L7T3Z6",
    "result": [
      {
        "electoralDistricts": [
          {
            "election": null,
            "id": 15,
            "name": "Burlington"
          }
        ],
        "pollDivisionIds": [
          10137357
        ],
        "postalCode": "L7T3Z6",
        "streetName": "WARWICK",
        "streetDirectionId": null,
        "streetTypeId": "CRT",
        "placeName": "BURLINGTON",
        "streetNameDisplayText": "WARWICK CRT, BURLINGTON"
      }
    ]
  },
  {
    "postal": "L7T3B0",
    "result": []
  },
  {
    "postal": "L7T2H8",
    "result": [
      {
        "electoralDistricts": [
          {
            "election": null,
            "id": 15,
            "name": "Burlington"
          }
        ],
        "pollDivisionIds": [
          10137360
        ],
        "postalCode": "L7T2H8",
        "streetName": "BIRCHWOOD",
        "streetDirectionId": null,
        "streetTypeId": "AVE",
        "placeName": "BURLINGTON",
        "streetNameDisplayText": "BIRCHWOOD AVE, BURLINGTON"
      }
    ]
  },
  {
    "postal": "L7T3X2",
    "result": [
      {
        "electoralDistricts": [
          {
            "election": null,
            "id": 15,
            "name": "Burlington"
          }
        ],
        "pollDivisionIds": [
          10137356
        ],
        "postalCode": "L7T3X2",
        "streetName": "SUNSET",
        "streetDirectionId": null,
        "streetTypeId": "RD",
        "placeName": "BURLINGTON",
        "streetNameDisplayText": "SUNSET RD, BURLINGTON"
      }
    ]
  },
  {
    "postal": "L7T2E9",
    "result": [
      {
        "electoralDistricts": [
          {
            "election": null,
            "id": 15,
            "name": "Burlington"
          }
        ],
        "pollDivisionIds": [
          10137358
        ],
        "postalCode": "L7T2E9",
        "streetName": "PLAINS",
        "streetDirectionId": "E",
        "streetTypeId": "RD",
        "placeName": "BURLINGTON",
        "streetNameDisplayText": "PLAINS RD E, BURLINGTON"
      }
    ]
  },
  {
    "postal": "L7T9P6",
    "result": []
  },
  {
    "postal": "L7T9E2",
    "result": []
  },
  {
    "postal": "L7T9H2",
    "result": []
  },
  {
    "postal": "L7T1S8",
    "result": [
      {
        "electoralDistricts": [
          {
            "election": null,
            "id": 15,
            "name": "Burlington"
          }
        ],
        "pollDivisionIds": [
          10137362
        ],
        "postalCode": "L7T1S8",
        "streetName": "DANFORTH",
        "streetDirectionId": null,
        "streetTypeId": "AVE",
        "placeName": "BURLINGTON",
        "streetNameDisplayText": "DANFORTH AVE, BURLINGTON"
      }
    ]
  },
  {
    "postal": "L7T3M6",
    "result": [
      {
        "electoralDistricts": [
          {
            "election": null,
            "id": 15,
            "name": "Burlington"
          }
        ],
        "pollDivisionIds": [
          10137356
        ],
        "postalCode": "L7T3M6",
        "streetName": "MOHAWK",
        "streetDirectionId": null,
        "streetTypeId": "RD",
        "placeName": "BURLINGTON",
        "streetNameDisplayText": "MOHAWK RD, BURLINGTON"
      }
    ]
  },
  {
    "postal": "L7T6Z8",
    "result": []
  },
  {
    "postal": "L7T4J2",
    "result": []
  },
  {
    "postal": "L7T9Y1",
    "result": []
  },
  {
    "postal": "L7T8V6",
    "result": []
  },
  {
    "postal": "L7T6B2",
    "result": []
  },
  {
    "postal": "L7T1P8",
    "result": [
      {
        "electoralDistricts": [
          {
            "election": null,
            "id": 15,
            "name": "Burlington"
          }
        ],
        "pollDivisionIds": [
          10137361
        ],
        "postalCode": "L7T1P8",
        "streetName": "EASTERBROOK",
        "streetDirectionId": null,
        "streetTypeId": "AVE",
        "placeName": "BURLINGTON",
        "streetNameDisplayText": "EASTERBROOK AVE, BURLINGTON"
      }
    ]
  },
  {
    "postal": "L7T0V8",
    "result": []
  },
  {
    "postal": "L7T4Y0",
    "result": []
  },
  {
    "postal": "L7T2T4",
    "result": [
      {
        "electoralDistricts": [
          {
            "election": null,
            "id": 15,
            "name": "Burlington"
          }
        ],
        "pollDivisionIds": [
          10137359
        ],
        "postalCode": "L7T2T4",
        "streetName": "MALLARD",
        "streetDirectionId": null,
        "streetTypeId": "AVE",
        "placeName": "BURLINGTON",
        "streetNameDisplayText": "MALLARD AVE, BURLINGTON"
      }
    ]
  },
  {
    "postal": "L7T2S3",
    "result": [
      {
        "electoralDistricts": [
          {
            "election": null,
            "id": 15,
            "name": "Burlington"
          }
        ],
        "pollDivisionIds": [
          10137359
        ],
        "postalCode": "L7T2S3",
        "streetName": "RAVEN",
        "streetDirectionId": null,
        "streetTypeId": "AVE",
        "placeName": "BURLINGTON",
        "streetNameDisplayText": "RAVEN AVE, BURLINGTON"
      }
    ]
  },
  {
    "postal": "L7T0K0",
    "result": []
  },
  {
    "postal": "L7T5N1",
    "result": []
  },
  {
    "postal": "L7T7T0",
    "result": []
  },
  {
    "postal": "L7T9N2",
    "result": []
  },
  {
    "postal": "L7T5L1",
    "result": []
  },
  {
    "postal": "L7T7G5",
    "result": []
  },
  {
    "postal": "L7T6K2",
    "result": []
  },
  {
    "postal": "L7T6P9",
    "result": []
  },
  {
    "postal": "L7T0E6",
    "result": []
  },
  {
    "postal": "L7T8R9",
    "result": []
  },
  {
    "postal": "L7T3G9",
    "result": [
      {
        "electoralDistricts": [
          {
            "election": null,
            "id": 15,
            "name": "Burlington"
          }
        ],
        "pollDivisionIds": [
          10137359
        ],
        "postalCode": "L7T3G9",
        "streetName": "SANFORD",
        "streetDirectionId": null,
        "streetTypeId": "DR",
        "placeName": "BURLINGTON",
        "streetNameDisplayText": "SANFORD DR, BURLINGTON"
      }
    ]
  },
  {
    "postal": "L7T0V7",
    "result": []
  },
  {
    "postal": "L7T2Z1",
    "result": [
      {
        "electoralDistricts": [
          {
            "election": null,
            "id": 15,
            "name": "Burlington"
          }
        ],
        "pollDivisionIds": [
          10137359
        ],
        "postalCode": "L7T2Z1",
        "streetName": "TEAL",
        "streetDirectionId": null,
        "streetTypeId": "DR",
        "placeName": "BURLINGTON",
        "streetNameDisplayText": "TEAL DR, BURLINGTON"
      }
    ]
  },
  {
    "postal": "L7T7N1",
    "result": []
  },
  {
    "postal": "L7T3C6",
    "result": [
      {
        "electoralDistricts": [
          {
            "election": null,
            "id": 15,
            "name": "Burlington"
          }
        ],
        "pollDivisionIds": [
          10137358
        ],
        "postalCode": "L7T3C6",
        "streetName": "DOVERCOURT",
        "streetDirectionId": null,
        "streetTypeId": "AVE",
        "placeName": "BURLINGTON",
        "streetNameDisplayText": "DOVERCOURT AVE, BURLINGTON"
      }
    ]
  },
  {
    "postal": "L7T4M1",
    "result": [
      {
        "electoralDistricts": [
          {
            "election": null,
            "id": 15,
            "name": "Burlington"
          }
        ],
        "pollDivisionIds": [
          10137361
        ],
        "postalCode": "L7T4M1",
        "streetName": "PLAINS",
        "streetDirectionId": "W",
        "streetTypeId": "RD",
        "placeName": "BURLINGTON",
        "streetNameDisplayText": "PLAINS RD W, BURLINGTON"
      }
    ]
  },
  {
    "postal": "L7T9K2",
    "result": []
  },
  {
    "postal": "L7T9S6",
    "result": []
  },
  {
    "postal": "L7T4X1",
    "result": []
  },
  {
    "postal": "L7T8W2",
    "result": []
  },
  {
    "postal": "L7T7N2",
    "result": []
  },
  {
    "postal": "L7T8S3",
    "result": []
  },
  {
    "postal": "L7T4V0",
    "result": []
  },
  {
    "postal": "L7T6W4",
    "result": []
  },
  {
    "postal": "L7T5M1",
    "result": []
  },
  {
    "postal": "L7T0S4",
    "result": []
  },
  {
    "postal": "L7T5X6",
    "result": []
  },
  {
    "postal": "L7T8L5",
    "result": []
  },
  {
    "postal": "L7T5M8",
    "result": []
  },
  {
    "postal": "L7T2G3",
    "result": [
      {
        "electoralDistricts": [
          {
            "election": null,
            "id": 15,
            "name": "Burlington"
          }
        ],
        "pollDivisionIds": [
          10137360
        ],
        "postalCode": "L7T2G3",
        "streetName": "OLD ORCHARD",
        "streetDirectionId": null,
        "streetTypeId": "RD",
        "placeName": "BURLINGTON",
        "streetNameDisplayText": "OLD ORCHARD RD, BURLINGTON"
      }
    ]
  },
  {
    "postal": "L7T8E4",
    "result": []
  },
  {
    "postal": "L7T7S9",
    "result": []
  },
  {
    "postal": "L7T1K3",
    "result": [
      {
        "electoralDistricts": [
          {
            "election": null,
            "id": 15,
            "name": "Burlington"
          }
        ],
        "pollDivisionIds": [
          10137362
        ],
        "postalCode": "L7T1K3",
        "streetName": "HIGHWAY",
        "streetDirectionId": null,
        "streetTypeId": "AVE",
        "placeName": "BURLINGTON",
        "streetNameDisplayText": "HIGHWAY AVE, BURLINGTON"
      }
    ]
  },
  {
    "postal": "L7T4E1",
    "result": [
      {
        "electoralDistricts": [
          {
            "election": null,
            "id": 15,
            "name": "Burlington"
          }
        ],
        "pollDivisionIds": [
          10137358
        ],
        "postalCode": "L7T4E1",
        "streetName": "GAGE",
        "streetDirectionId": null,
        "streetTypeId": "CRT",
        "placeName": "BURLINGTON",
        "streetNameDisplayText": "GAGE CRT, BURLINGTON"
      }
    ]
  },
  {
    "postal": "L7T4R2",
    "result": []
  },
  {
    "postal": "L7T6T0",
    "result": []
  },
  {
    "postal": "L7T3K5",
    "result": [
      {
        "electoralDistricts": [
          {
            "election": null,
            "id": 15,
            "name": "Burlington"
          }
        ],
        "pollDivisionIds": [
          10137356
        ],
        "postalCode": "L7T3K5",
        "streetName": "KING",
        "streetDirectionId": null,
        "streetTypeId": "RD",
        "placeName": "BURLINGTON",
        "streetNameDisplayText": "KING RD, BURLINGTON"
      }
    ]
  },
  {
    "postal": "L7T3S3",
    "result": [
      {
        "electoralDistricts": [
          {
            "election": null,
            "id": 15,
            "name": "Burlington"
          }
        ],
        "pollDivisionIds": [
          10137357
        ],
        "postalCode": "L7T3S3",
        "streetName": "MARLEY",
        "streetDirectionId": null,
        "streetTypeId": "CRES",
        "placeName": "BURLINGTON",
        "streetNameDisplayText": "MARLEY CRES, BURLINGTON"
      }
    ]
  },
  {
    "postal": "L7T3L4",
    "result": [
      {
        "electoralDistricts": [
          {
            "election": null,
            "id": 15,
            "name": "Burlington"
          }
        ],
        "pollDivisionIds": [
          10137358
        ],
        "postalCode": "L7T3L4",
        "streetName": "KING",
        "streetDirectionId": null,
        "streetTypeId": "RD",
        "placeName": "BURLINGTON",
        "streetNameDisplayText": "KING RD, BURLINGTON"
      }
    ]
  },
  {
    "postal": "L7T9Y2",
    "result": []
  },
  {
    "postal": "L7T1E0",
    "result": []
  },
  {
    "postal": "L7T9A4",
    "result": []
  },
  {
    "postal": "L7T1L3",
    "result": [
      {
        "electoralDistricts": [
          {
            "election": null,
            "id": 15,
            "name": "Burlington"
          }
        ],
        "pollDivisionIds": [
          10137362
        ],
        "postalCode": "L7T1L3",
        "streetName": "HILLSDALE",
        "streetDirectionId": null,
        "streetTypeId": "AVE",
        "placeName": "BURLINGTON",
        "streetNameDisplayText": "HILLSDALE AVE, BURLINGTON"
      }
    ]
  },
  {
    "postal": "L7T6N1",
    "result": []
  },
  {
    "postal": "L7T6G7",
    "result": []
  },
  {
    "postal": "L7T7W1",
    "result": []
  },
  {
    "postal": "L7T4M6",
    "result": []
  },
  {
    "postal": "L7T1K0",
    "result": []
  },
  {
    "postal": "L7T3E2",
    "result": [
      {
        "electoralDistricts": [
          {
            "election": null,
            "id": 15,
            "name": "Burlington"
          }
        ],
        "pollDivisionIds": [
          10137358
        ],
        "postalCode": "L7T3E2",
        "streetName": "CONRAD",
        "streetDirectionId": null,
        "streetTypeId": "CRT",
        "placeName": "BURLINGTON",
        "streetNameDisplayText": "CONRAD CRT, BURLINGTON"
      }
    ]
  },
  {
    "postal": "L7T5H4",
    "result": []
  },
  {
    "postal": "L7T1K7",
    "result": [
      {
        "electoralDistricts": [
          {
            "election": null,
            "id": 15,
            "name": "Burlington"
          }
        ],
        "pollDivisionIds": [
          10137362
        ],
        "postalCode": "L7T1K7",
        "streetName": "GARDENVIEW",
        "streetDirectionId": null,
        "streetTypeId": "DR",
        "placeName": "BURLINGTON",
        "streetNameDisplayText": "GARDENVIEW DR, BURLINGTON"
      }
    ]
  },
  {
    "postal": "L7T0H0",
    "result": []
  },
  {
    "postal": "L7T0J3",
    "result": []
  },
  {
    "postal": "L7T1X6",
    "result": [
      {
        "electoralDistricts": [
          {
            "election": null,
            "id": 15,
            "name": "Burlington"
          }
        ],
        "pollDivisionIds": [
          10137356
        ],
        "postalCode": "L7T1X6",
        "streetName": "NORTH SHORE",
        "streetDirectionId": "E",
        "streetTypeId": "BLVD",
        "placeName": "BURLINGTON",
        "streetNameDisplayText": "NORTH SHORE BLVD E, BURLINGTON"
      }
    ]
  },
  {
    "postal": "L7T2Z6",
    "result": [
      {
        "electoralDistricts": [
          {
            "election": null,
            "id": 15,
            "name": "Burlington"
          }
        ],
        "pollDivisionIds": [
          10137359
        ],
        "postalCode": "L7T2Z6",
        "streetName": "PARTRIDGE",
        "streetDirectionId": null,
        "streetTypeId": "DR",
        "placeName": "BURLINGTON",
        "streetNameDisplayText": "PARTRIDGE DR, BURLINGTON"
      }
    ]
  },
  {
    "postal": "L7T4R9",
    "result": []
  },
  {
    "postal": "L7T0W8",
    "result": []
  },
  {
    "postal": "L7T1L4",
    "result": [
      {
        "electoralDistricts": [
          {
            "election": null,
            "id": 15,
            "name": "Burlington"
          }
        ],
        "pollDivisionIds": [
          10137362
        ],
        "postalCode": "L7T1L4",
        "streetName": "OAKDALE",
        "streetDirectionId": null,
        "streetTypeId": "AVE",
        "placeName": "BURLINGTON",
        "streetNameDisplayText": "OAKDALE AVE, BURLINGTON"
      }
    ]
  },
  {
    "postal": "L7T0C8",
    "result": []
  },
  {
    "postal": "L7T9X7",
    "result": []
  },
  {
    "postal": "L7T4T1",
    "result": []
  },
  {
    "postal": "L7T0M0",
    "result": []
  },
  {
    "postal": "L7T6A2",
    "result": []
  },
  {
    "postal": "L7T9S8",
    "result": []
  },
  {
    "postal": "L7T9T4",
    "result": []
  },
  {
    "postal": "L7T9Y4",
    "result": []
  },
  {
    "postal": "L7T6G5",
    "result": []
  },
  {
    "postal": "L7T6H9",
    "result": []
  },
  {
    "postal": "L7T2P3",
    "result": [
      {
        "electoralDistricts": [
          {
            "election": null,
            "id": 15,
            "name": "Burlington"
          }
        ],
        "pollDivisionIds": [
          10137359
        ],
        "postalCode": "L7T2P3",
        "streetName": "CARDINAL",
        "streetDirectionId": null,
        "streetTypeId": "AVE",
        "placeName": "BURLINGTON",
        "streetNameDisplayText": "CARDINAL AVE, BURLINGTON"
      }
    ]
  },
  {
    "postal": "L7T1T6",
    "result": [
      {
        "electoralDistricts": [
          {
            "election": null,
            "id": 15,
            "name": "Burlington"
          }
        ],
        "pollDivisionIds": [
          10137362
        ],
        "postalCode": "L7T1T6",
        "streetName": "BONNIEVIEW",
        "streetDirectionId": null,
        "streetTypeId": "AVE",
        "placeName": "BURLINGTON",
        "streetNameDisplayText": "BONNIEVIEW AVE, BURLINGTON"
      }
    ]
  },
  {
    "postal": "L7T4P6",
    "result": []
  },
  {
    "postal": "L7T3K1",
    "result": [
      {
        "electoralDistricts": [
          {
            "election": null,
            "id": 15,
            "name": "Burlington"
          }
        ],
        "pollDivisionIds": [
          10137359
        ],
        "postalCode": "L7T3K1",
        "streetName": "LONG",
        "streetDirectionId": null,
        "streetTypeId": "DR",
        "placeName": "BURLINGTON",
        "streetNameDisplayText": "LONG DR, BURLINGTON"
      }
    ]
  },
  {
    "postal": "L7T6X4",
    "result": []
  },
  {
    "postal": "L7T4M8",
    "result": []
  },
  {
    "postal": "L7T2Y1",
    "result": [
      {
        "electoralDistricts": [
          {
            "election": null,
            "id": 15,
            "name": "Burlington"
          }
        ],
        "pollDivisionIds": [
          10137360
        ],
        "postalCode": "L7T2Y1",
        "streetName": "TANAGER",
        "streetDirectionId": null,
        "streetTypeId": "AVE",
        "placeName": "BURLINGTON",
        "streetNameDisplayText": "TANAGER AVE, BURLINGTON"
      }
    ]
  },
  {
    "postal": "L7T6M1",
    "result": []
  },
  {
    "postal": "L7T5L8",
    "result": []
  },
  {
    "postal": "L7T3P6",
    "result": [
      {
        "electoralDistricts": [
          {
            "election": null,
            "id": 15,
            "name": "Burlington"
          }
        ],
        "pollDivisionIds": [
          10137356
        ],
        "postalCode": "L7T3P6",
        "streetName": "GREENWOOD",
        "streetDirectionId": null,
        "streetTypeId": "DR",
        "placeName": "BURLINGTON",
        "streetNameDisplayText": "GREENWOOD DR, BURLINGTON"
      }
    ]
  },
  {
    "postal": "L7T9A5",
    "result": []
  },
  {
    "postal": "L7T7K1",
    "result": []
  },
  {
    "postal": "L7T3J4",
    "result": [
      {
        "electoralDistricts": [
          {
            "election": null,
            "id": 15,
            "name": "Burlington"
          }
        ],
        "pollDivisionIds": [
          10137358
        ],
        "postalCode": "L7T3J4",
        "streetName": "CEDARWOOD",
        "streetDirectionId": null,
        "streetTypeId": "PL",
        "placeName": "BURLINGTON",
        "streetNameDisplayText": "CEDARWOOD PL, BURLINGTON"
      }
    ]
  },
  {
    "postal": "L7T5E7",
    "result": []
  },
  {
    "postal": "L7T3A7",
    "result": [
      {
        "electoralDistricts": [
          {
            "election": null,
            "id": 15,
            "name": "Burlington"
          }
        ],
        "pollDivisionIds": [
          10137359
        ],
        "postalCode": "L7T3A7",
        "streetName": "CONDOR",
        "streetDirectionId": null,
        "streetTypeId": "DR",
        "placeName": "BURLINGTON",
        "streetNameDisplayText": "CONDOR DR, BURLINGTON"
      }
    ]
  },
  {
    "postal": "L7T1B9",
    "result": [
      {
        "electoralDistricts": [
          {
            "election": null,
            "id": 15,
            "name": "Burlington"
          }
        ],
        "pollDivisionIds": [
          10137362
        ],
        "postalCode": "L7T1B9",
        "streetName": "WEST OVAL",
        "streetDirectionId": null,
        "streetTypeId": "DR",
        "placeName": "BURLINGTON",
        "streetNameDisplayText": "WEST OVAL DR, BURLINGTON"
      }
    ]
  },
  {
    "postal": "L7T9E8",
    "result": []
  },
  {
    "postal": "L7T1C9",
    "result": [
      {
        "electoralDistricts": [
          {
            "election": null,
            "id": 15,
            "name": "Burlington"
          }
        ],
        "pollDivisionIds": [
          10137362
        ],
        "postalCode": "L7T1C9",
        "streetName": "HENDRIE",
        "streetDirectionId": null,
        "streetTypeId": "AVE",
        "placeName": "BURLINGTON",
        "streetNameDisplayText": "HENDRIE AVE, BURLINGTON"
      }
    ]
  },
  {
    "postal": "L7T3B5",
    "result": [
      {
        "electoralDistricts": [
          {
            "election": null,
            "id": 15,
            "name": "Burlington"
          }
        ],
        "pollDivisionIds": [
          10137359
        ],
        "postalCode": "L7T3B5",
        "streetName": "FALCON",
        "streetDirectionId": null,
        "streetTypeId": "BLVD",
        "placeName": "BURLINGTON",
        "streetNameDisplayText": "FALCON BLVD, BURLINGTON"
      }
    ]
  },
  {
    "postal": "L7T8R0",
    "result": []
  },
  {
    "postal": "L7T3P2",
    "result": [
      {
        "electoralDistricts": [
          {
            "election": null,
            "id": 15,
            "name": "Burlington"
          }
        ],
        "pollDivisionIds": [
          10137356
        ],
        "postalCode": "L7T3P2",
        "streetName": "GREENWOOD",
        "streetDirectionId": null,
        "streetTypeId": "DR",
        "placeName": "BURLINGTON",
        "streetNameDisplayText": "GREENWOOD DR, BURLINGTON"
      }
    ]
  },
  {
    "postal": "L7T5V4",
    "result": []
  },
  {
    "postal": "L7T4H0",
    "result": []
  },
  {
    "postal": "L7T4S7",
    "result": []
  },
  {
    "postal": "L7T6C2",
    "result": []
  },
  {
    "postal": "L7T8W3",
    "result": []
  },
  {
    "postal": "L7T4M5",
    "result": []
  },
  {
    "postal": "L7T5T1",
    "result": []
  },
  {
    "postal": "L7T3B3",
    "result": [
      {
        "electoralDistricts": [
          {
            "election": null,
            "id": 15,
            "name": "Burlington"
          }
        ],
        "pollDivisionIds": [
          10137359
        ],
        "postalCode": "L7T3B3",
        "streetName": "FALCON",
        "streetDirectionId": null,
        "streetTypeId": "BLVD",
        "placeName": "BURLINGTON",
        "streetNameDisplayText": "FALCON BLVD, BURLINGTON"
      }
    ]
  },
  {
    "postal": "L7T6C6",
    "result": []
  },
  {
    "postal": "L7T7N8",
    "result": []
  },
  {
    "postal": "L7T2Y3",
    "result": [
      {
        "electoralDistricts": [
          {
            "election": null,
            "id": 15,
            "name": "Burlington"
          }
        ],
        "pollDivisionIds": [
          10137360
        ],
        "postalCode": "L7T2Y3",
        "streetName": "TANAGER",
        "streetDirectionId": null,
        "streetTypeId": "AVE",
        "placeName": "BURLINGTON",
        "streetNameDisplayText": "TANAGER AVE, BURLINGTON"
      }
    ]
  },
  {
    "postal": "L7T2R6",
    "result": [
      {
        "electoralDistricts": [
          {
            "election": null,
            "id": 15,
            "name": "Burlington"
          }
        ],
        "pollDivisionIds": [
          10137356,
          10137357
        ],
        "postalCode": "L7T2R6",
        "streetName": "CEDAR",
        "streetDirectionId": null,
        "streetTypeId": "AVE",
        "placeName": "BURLINGTON",
        "streetNameDisplayText": "CEDAR AVE, BURLINGTON"
      }
    ]
  },
  {
    "postal": "L7T7N3",
    "result": []
  },
  {
    "postal": "L7T8J2",
    "result": []
  },
  {
    "postal": "L7T6A9",
    "result": []
  },
  {
    "postal": "L7T3V2",
    "result": [
      {
        "electoralDistricts": [
          {
            "election": null,
            "id": 15,
            "name": "Burlington"
          }
        ],
        "pollDivisionIds": [
          10137356
        ],
        "postalCode": "L7T3V2",
        "streetName": "ONEIDA",
        "streetDirectionId": null,
        "streetTypeId": "DR",
        "placeName": "BURLINGTON",
        "streetNameDisplayText": "ONEIDA DR, BURLINGTON"
      }
    ]
  },
  {
    "postal": "L7T2N3",
    "result": [
      {
        "electoralDistricts": [
          {
            "election": null,
            "id": 15,
            "name": "Burlington"
          }
        ],
        "pollDivisionIds": [
          10137360
        ],
        "postalCode": "L7T2N3",
        "streetName": "SHOREVIEW",
        "streetDirectionId": null,
        "streetTypeId": "RD",
        "placeName": "BURLINGTON",
        "streetNameDisplayText": "SHOREVIEW RD, BURLINGTON"
      }
    ]
  },
  {
    "postal": "L7T1S5",
    "result": [
      {
        "electoralDistricts": [
          {
            "election": null,
            "id": 15,
            "name": "Burlington"
          }
        ],
        "pollDivisionIds": [
          10137362
        ],
        "postalCode": "L7T1S5",
        "streetName": "GORTON",
        "streetDirectionId": null,
        "streetTypeId": "AVE",
        "placeName": "BURLINGTON",
        "streetNameDisplayText": "GORTON AVE, BURLINGTON"
      }
    ]
  },
  {
    "postal": "L7T4T7",
    "result": []
  },
  {
    "postal": "L7T6Y7",
    "result": []
  },
  {
    "postal": "L7T0W7",
    "result": []
  },
  {
    "postal": "L7T2W9",
    "result": [
      {
        "electoralDistricts": [
          {
            "election": null,
            "id": 15,
            "name": "Burlington"
          }
        ],
        "pollDivisionIds": [
          10137358
        ],
        "postalCode": "L7T2W9",
        "streetName": "SPRINGBANK",
        "streetDirectionId": null,
        "streetTypeId": "CRES",
        "placeName": "BURLINGTON",
        "streetNameDisplayText": "SPRINGBANK CRES, BURLINGTON"
      }
    ]
  },
  {
    "postal": "L7T8V0",
    "result": []
  },
  {
    "postal": "L7T0H4",
    "result": []
  },
  {
    "postal": "L7T2T1",
    "result": [
      {
        "electoralDistricts": [
          {
            "election": null,
            "id": 15,
            "name": "Burlington"
          }
        ],
        "pollDivisionIds": [
          10137359
        ],
        "postalCode": "L7T2T1",
        "streetName": "LARK",
        "streetDirectionId": null,
        "streetTypeId": "AVE",
        "placeName": "BURLINGTON",
        "streetNameDisplayText": "LARK AVE, BURLINGTON"
      }
    ]
  },
  {
    "postal": "L7T1B1",
    "result": [
      {
        "electoralDistricts": [
          {
            "election": null,
            "id": 15,
            "name": "Burlington"
          }
        ],
        "pollDivisionIds": [
          10137362
        ],
        "postalCode": "L7T1B1",
        "streetName": "NORTH SHORE",
        "streetDirectionId": "W",
        "streetTypeId": "BLVD",
        "placeName": "BURLINGTON",
        "streetNameDisplayText": "NORTH SHORE BLVD W, BURLINGTON"
      },
      {
        "electoralDistricts": [
          {
            "election": null,
            "id": 15,
            "name": "Burlington"
          }
        ],
        "pollDivisionIds": [
          10137362
        ],
        "postalCode": "L7T1B1",
        "streetName": "NORTHSHORE",
        "streetDirectionId": "W",
        "streetTypeId": "BLVD",
        "placeName": "BURLINGTON",
        "streetNameDisplayText": "NORTHSHORE BLVD W, BURLINGTON"
      },
      {
        "electoralDistricts": [
          {
            "election": null,
            "id": 15,
            "name": "Burlington"
          }
        ],
        "pollDivisionIds": [
          10137325
        ],
        "postalCode": "L7T1B1",
        "streetName": "NORTHSHORE BLVD.",
        "streetDirectionId": "W",
        "streetTypeId": "BLVD",
        "placeName": "BURLINGTON",
        "streetNameDisplayText": "NORTHSHORE BLVD. BLVD W, BURLINGTON"
      }
    ]
  },
  {
    "postal": "L7T8B6",
    "result": []
  },
  {
    "postal": "L7T6H1",
    "result": []
  },
  {
    "postal": "L7T8T8",
    "result": []
  },
  {
    "postal": "L7T0T4",
    "result": []
  },
  {
    "postal": "L7T2C4",
    "result": [
      {
        "electoralDistricts": [
          {
            "election": null,
            "id": 15,
            "name": "Burlington"
          }
        ],
        "pollDivisionIds": [
          10137360
        ],
        "postalCode": "L7T2C4",
        "streetName": "PLAINS",
        "streetDirectionId": "E",
        "streetTypeId": "RD",
        "placeName": "BURLINGTON",
        "streetNameDisplayText": "PLAINS RD E, BURLINGTON"
      }
    ]
  },
  {
    "postal": "L7T8N3",
    "result": []
  },
  {
    "postal": "L7T4L8",
    "result": [
      {
        "electoralDistricts": [
          {
            "election": null,
            "id": 15,
            "name": "Burlington"
          }
        ],
        "pollDivisionIds": [
          10137362
        ],
        "postalCode": "L7T4L8",
        "streetName": "GENISTA",
        "streetDirectionId": null,
        "streetTypeId": "DR",
        "placeName": "BURLINGTON",
        "streetNameDisplayText": "GENISTA DR, BURLINGTON"
      },
      {
        "electoralDistricts": [
          {
            "election": null,
            "id": 15,
            "name": "Burlington"
          }
        ],
        "pollDivisionIds": [
          10137362
        ],
        "postalCode": "L7T4L8",
        "streetName": "LARKSPUR",
        "streetDirectionId": null,
        "streetTypeId": "LANE",
        "placeName": "BURLINGTON",
        "streetNameDisplayText": "LARKSPUR LANE, BURLINGTON"
      },
      {
        "electoralDistricts": [
          {
            "election": null,
            "id": 15,
            "name": "Burlington"
          }
        ],
        "pollDivisionIds": [
          10137362
        ],
        "postalCode": "L7T4L8",
        "streetName": "SANDCHERRY",
        "streetDirectionId": null,
        "streetTypeId": "DR",
        "placeName": "BURLINGTON",
        "streetNameDisplayText": "SANDCHERRY DR, BURLINGTON"
      }
    ]
  },
  {
    "postal": "L7T2B5",
    "result": [
      {
        "electoralDistricts": [
          {
            "election": null,
            "id": 15,
            "name": "Burlington"
          }
        ],
        "pollDivisionIds": [
          10137359
        ],
        "postalCode": "L7T2B5",
        "streetName": "TOWNSEND",
        "streetDirectionId": null,
        "streetTypeId": "AVE",
        "placeName": "BURLINGTON",
        "streetNameDisplayText": "TOWNSEND AVE, BURLINGTON"
      }
    ]
  },
  {
    "postal": "L7T3H1",
    "result": [
      {
        "electoralDistricts": [
          {
            "election": null,
            "id": 15,
            "name": "Burlington"
          }
        ],
        "pollDivisionIds": [
          10137358
        ],
        "postalCode": "L7T3H1",
        "streetName": "JOAN",
        "streetDirectionId": null,
        "streetTypeId": "DR",
        "placeName": "BURLINGTON",
        "streetNameDisplayText": "JOAN DR, BURLINGTON"
      }
    ]
  },
  {
    "postal": "L7T4Y1",
    "result": []
  },
  {
    "postal": "L7T7E2",
    "result": []
  },
  {
    "postal": "L7T2P5",
    "result": [
      {
        "electoralDistricts": [
          {
            "election": null,
            "id": 15,
            "name": "Burlington"
          }
        ],
        "pollDivisionIds": [
          10137359
        ],
        "postalCode": "L7T2P5",
        "streetName": "LEONARD",
        "streetDirectionId": null,
        "streetTypeId": "CRT",
        "placeName": "BURLINGTON",
        "streetNameDisplayText": "LEONARD CRT, BURLINGTON"
      }
    ]
  },
  {
    "postal": "L7T8R7",
    "result": []
  },
  {
    "postal": "L7T9P1",
    "result": []
  },
  {
    "postal": "L7T3B8",
    "result": [
      {
        "electoralDistricts": [
          {
            "election": null,
            "id": 15,
            "name": "Burlington"
          }
        ],
        "pollDivisionIds": [
          10137359
        ],
        "postalCode": "L7T3B8",
        "streetName": "FALCON",
        "streetDirectionId": null,
        "streetTypeId": "BLVD",
        "placeName": "BURLINGTON",
        "streetNameDisplayText": "FALCON BLVD, BURLINGTON"
      }
    ]
  },
  {
    "postal": "L7T3P7",
    "result": [
      {
        "electoralDistricts": [
          {
            "election": null,
            "id": 15,
            "name": "Burlington"
          }
        ],
        "pollDivisionIds": [
          10137356
        ],
        "postalCode": "L7T3P7",
        "streetName": "GREENWOOD",
        "streetDirectionId": null,
        "streetTypeId": "DR",
        "placeName": "BURLINGTON",
        "streetNameDisplayText": "GREENWOOD DR, BURLINGTON"
      }
    ]
  },
  {
    "postal": "L7T9B2",
    "result": []
  },
  {
    "postal": "L7T6Z3",
    "result": []
  },
  {
    "postal": "L7T4N5",
    "result": []
  },
  {
    "postal": "L7T8T3",
    "result": []
  },
  {
    "postal": "L7T1V2",
    "result": [
      {
        "electoralDistricts": [
          {
            "election": null,
            "id": 15,
            "name": "Burlington"
          }
        ],
        "pollDivisionIds": [
          10137362
        ],
        "postalCode": "L7T1V2",
        "streetName": "BOTANICAL",
        "streetDirectionId": null,
        "streetTypeId": "DR",
        "placeName": "BURLINGTON",
        "streetNameDisplayText": "BOTANICAL DR, BURLINGTON"
      }
    ]
  },
  {
    "postal": "L7T1Y0",
    "result": []
  },
  {
    "postal": "L7T3G6",
    "result": [
      {
        "electoralDistricts": [
          {
            "election": null,
            "id": 15,
            "name": "Burlington"
          }
        ],
        "pollDivisionIds": [
          10137359
        ],
        "postalCode": "L7T3G6",
        "streetName": "SANFORD",
        "streetDirectionId": null,
        "streetTypeId": "DR",
        "placeName": "BURLINGTON",
        "streetNameDisplayText": "SANFORD DR, BURLINGTON"
      }
    ]
  },
  {
    "postal": "L7T3H7",
    "result": [
      {
        "electoralDistricts": [
          {
            "election": null,
            "id": 15,
            "name": "Burlington"
          }
        ],
        "pollDivisionIds": [
          10137359
        ],
        "postalCode": "L7T3H7",
        "streetName": "KINGSWAY",
        "streetDirectionId": null,
        "streetTypeId": "DR",
        "placeName": "BURLINGTON",
        "streetNameDisplayText": "KINGSWAY DR, BURLINGTON"
      }
    ]
  },
  {
    "postal": "L7T7X8",
    "result": []
  },
  {
    "postal": "L7T0C7",
    "result": []
  },
  {
    "postal": "L7T0W9",
    "result": []
  },
  {
    "postal": "L7T8E6",
    "result": []
  },
  {
    "postal": "L7T9Z8",
    "result": []
  },
  {
    "postal": "L7T3P4",
    "result": [
      {
        "electoralDistricts": [
          {
            "election": null,
            "id": 15,
            "name": "Burlington"
          }
        ],
        "pollDivisionIds": [
          10137356
        ],
        "postalCode": "L7T3P4",
        "streetName": "GREENWOOD",
        "streetDirectionId": null,
        "streetTypeId": "DR",
        "placeName": "BURLINGTON",
        "streetNameDisplayText": "GREENWOOD DR, BURLINGTON"
      }
    ]
  },
  {
    "postal": "L7T6L8",
    "result": []
  },
  {
    "postal": "L7T2R4",
    "result": [
      {
        "electoralDistricts": [
          {
            "election": null,
            "id": 15,
            "name": "Burlington"
          }
        ],
        "pollDivisionIds": [
          10137356
        ],
        "postalCode": "L7T2R4",
        "streetName": "CEDAR",
        "streetDirectionId": null,
        "streetTypeId": "AVE",
        "placeName": "BURLINGTON",
        "streetNameDisplayText": "CEDAR AVE, BURLINGTON"
      }
    ]
  },
  {
    "postal": "L7T2W1",
    "result": [
      {
        "electoralDistricts": [
          {
            "election": null,
            "id": 15,
            "name": "Burlington"
          }
        ],
        "pollDivisionIds": [
          10137358
        ],
        "postalCode": "L7T2W1",
        "streetName": "DORSET",
        "streetDirectionId": null,
        "streetTypeId": "AVE",
        "placeName": "BURLINGTON",
        "streetNameDisplayText": "DORSET AVE, BURLINGTON"
      }
    ]
  },
  {
    "postal": "L7T9H8",
    "result": []
  },
  {
    "postal": "L7T8X9",
    "result": []
  },
  {
    "postal": "L7T7H4",
    "result": []
  },
  {
    "postal": "L7T3J1",
    "result": [
      {
        "electoralDistricts": [
          {
            "election": null,
            "id": 15,
            "name": "Burlington"
          }
        ],
        "pollDivisionIds": [
          10137359
        ],
        "postalCode": "L7T3J1",
        "streetName": "KINGSWAY",
        "streetDirectionId": null,
        "streetTypeId": "DR",
        "placeName": "BURLINGTON",
        "streetNameDisplayText": "KINGSWAY DR, BURLINGTON"
      }
    ]
  },
  {
    "postal": "L7T1P4",
    "result": [
      {
        "electoralDistricts": [
          {
            "election": null,
            "id": 15,
            "name": "Burlington"
          }
        ],
        "pollDivisionIds": [
          10137361
        ],
        "postalCode": "L7T1P4",
        "streetName": "BOOTHMAN",
        "streetDirectionId": null,
        "streetTypeId": "AVE",
        "placeName": "BURLINGTON",
        "streetNameDisplayText": "BOOTHMAN AVE, BURLINGTON"
      }
    ]
  },
  {
    "postal": "L7T2A3",
    "result": [
      {
        "electoralDistricts": [
          {
            "election": null,
            "id": 15,
            "name": "Burlington"
          }
        ],
        "pollDivisionIds": [
          10137359
        ],
        "postalCode": "L7T2A3",
        "streetName": "TOWNSEND",
        "streetDirectionId": null,
        "streetTypeId": "AVE",
        "placeName": "BURLINGTON",
        "streetNameDisplayText": "TOWNSEND AVE, BURLINGTON"
      }
    ]
  },
  {
    "postal": "L7T0Z1",
    "result": []
  },
  {
    "postal": "L7T1C1",
    "result": [
      {
        "electoralDistricts": [
          {
            "election": null,
            "id": 15,
            "name": "Burlington"
          }
        ],
        "pollDivisionIds": [
          10137362
        ],
        "postalCode": "L7T1C1",
        "streetName": "WEST OVAL",
        "streetDirectionId": null,
        "streetTypeId": "DR",
        "placeName": "BURLINGTON",
        "streetNameDisplayText": "WEST OVAL DR, BURLINGTON"
      }
    ]
  },
  {
    "postal": "L7T0H3",
    "result": []
  },
  {
    "postal": "L7T7B0",
    "result": []
  },
  {
    "postal": "L7T5K2",
    "result": []
  },
  {
    "postal": "L7T1E9",
    "result": [
      {
        "electoralDistricts": [
          {
            "election": null,
            "id": 15,
            "name": "Burlington"
          }
        ],
        "pollDivisionIds": [
          10137360,
          10137361,
          10143416
        ],
        "postalCode": "L7T1E9",
        "streetName": "PLAINS",
        "streetDirectionId": "W",
        "streetTypeId": "RD",
        "placeName": "BURLINGTON",
        "streetNameDisplayText": "PLAINS RD W, BURLINGTON"
      }
    ]
  },
  {
    "postal": "L7T9W7",
    "result": []
  },
  {
    "postal": "L7T5W6",
    "result": []
  },
  {
    "postal": "L7T6S6",
    "result": []
  },
  {
    "postal": "L7T2P8",
    "result": [
      {
        "electoralDistricts": [
          {
            "election": null,
            "id": 15,
            "name": "Burlington"
          }
        ],
        "pollDivisionIds": [
          10137359
        ],
        "postalCode": "L7T2P8",
        "streetName": "ORIOLE",
        "streetDirectionId": null,
        "streetTypeId": "CRT",
        "placeName": "BURLINGTON",
        "streetNameDisplayText": "ORIOLE CRT, BURLINGTON"
      }
    ]
  },
  {
    "postal": "L7T4P8",
    "result": []
  },
  {
    "postal": "L7T0V9",
    "result": []
  },
  {
    "postal": "L7T5Y2",
    "result": []
  },
  {
    "postal": "L7T7Z7",
    "result": []
  },
  {
    "postal": "L7T6Y8",
    "result": []
  },
  {
    "postal": "L7T2G7",
    "result": [
      {
        "electoralDistricts": [
          {
            "election": null,
            "id": 15,
            "name": "Burlington"
          }
        ],
        "pollDivisionIds": [
          10137360,
          10137339
        ],
        "postalCode": "L7T2G7",
        "streetName": "QUEEN MARY",
        "streetDirectionId": null,
        "streetTypeId": "AVE",
        "placeName": "BURLINGTON",
        "streetNameDisplayText": "QUEEN MARY AVE, BURLINGTON"
      }
    ]
  },
  {
    "postal": "L7T8C1",
    "result": []
  },
  {
    "postal": "L7T5C5",
    "result": []
  },
  {
    "postal": "L7T2X8",
    "result": [
      {
        "electoralDistricts": [
          {
            "election": null,
            "id": 15,
            "name": "Burlington"
          }
        ],
        "pollDivisionIds": [
          10137358
        ],
        "postalCode": "L7T2X8",
        "streetName": "ENFIELD",
        "streetDirectionId": null,
        "streetTypeId": "RD",
        "placeName": "BURLINGTON",
        "streetNameDisplayText": "ENFIELD RD, BURLINGTON"
      }
    ]
  },
  {
    "postal": "L7T1W5",
    "result": [
      {
        "electoralDistricts": [
          {
            "election": null,
            "id": 15,
            "name": "Burlington"
          }
        ],
        "pollDivisionIds": [
          10137360
        ],
        "postalCode": "L7T1W5",
        "streetName": "NORTH SHORE",
        "streetDirectionId": "E",
        "streetTypeId": "BLVD",
        "placeName": "BURLINGTON",
        "streetNameDisplayText": "NORTH SHORE BLVD E, BURLINGTON"
      }
    ]
  },
  {
    "postal": "L7T7G0",
    "result": []
  },
  {
    "postal": "L7T8J8",
    "result": []
  },
  {
    "postal": "L7T3Y0",
    "result": []
  },
  {
    "postal": "L7T9T7",
    "result": []
  },
  {
    "postal": "L7T5P4",
    "result": []
  },
  {
    "postal": "L7T4B0",
    "result": []
  },
  {
    "postal": "L7T9N8",
    "result": []
  },
  {
    "postal": "L7T4A7",
    "result": [
      {
        "electoralDistricts": [
          {
            "election": null,
            "id": 15,
            "name": "Burlington"
          }
        ],
        "pollDivisionIds": [
          10137361
        ],
        "postalCode": "L7T4A7",
        "streetName": "COLEMAN",
        "streetDirectionId": null,
        "streetTypeId": "CRT",
        "placeName": "BURLINGTON",
        "streetNameDisplayText": "COLEMAN CRT, BURLINGTON"
      }
    ]
  },
  {
    "postal": "L7T4H9",
    "result": [
      {
        "electoralDistricts": [
          {
            "election": null,
            "id": 15,
            "name": "Burlington"
          }
        ],
        "pollDivisionIds": [
          10137358
        ],
        "postalCode": "L7T4H9",
        "streetName": "PENNY",
        "streetDirectionId": null,
        "streetTypeId": "LANE",
        "placeName": "BURLINGTON",
        "streetNameDisplayText": "PENNY LANE, BURLINGTON"
      }
    ]
  },
  {
    "postal": "L7T6X1",
    "result": []
  },
  {
    "postal": "L7T9Y7",
    "result": []
  },
  {
    "postal": "L7T2Y5",
    "result": [
      {
        "electoralDistricts": [
          {
            "election": null,
            "id": 15,
            "name": "Burlington"
          }
        ],
        "pollDivisionIds": [
          10137360
        ],
        "postalCode": "L7T2Y5",
        "streetName": "CRANSTON",
        "streetDirectionId": null,
        "streetTypeId": "CRT",
        "placeName": "BURLINGTON",
        "streetNameDisplayText": "CRANSTON CRT, BURLINGTON"
      }
    ]
  },
  {
    "postal": "L7T8L7",
    "result": []
  },
  {
    "postal": "L7T2A8",
    "result": [
      {
        "electoralDistricts": [
          {
            "election": null,
            "id": 15,
            "name": "Burlington"
          }
        ],
        "pollDivisionIds": [
          10137359
        ],
        "postalCode": "L7T2A8",
        "streetName": "TOWNSEND",
        "streetDirectionId": null,
        "streetTypeId": "AVE",
        "placeName": "BURLINGTON",
        "streetNameDisplayText": "TOWNSEND AVE, BURLINGTON"
      }
    ]
  },
  {
    "postal": "L7T2K9",
    "result": [
      {
        "electoralDistricts": [
          {
            "election": null,
            "id": 15,
            "name": "Burlington"
          }
        ],
        "pollDivisionIds": [
          10137360
        ],
        "postalCode": "L7T2K9",
        "streetName": "DALEWOOD",
        "streetDirectionId": null,
        "streetTypeId": "AVE",
        "placeName": "BURLINGTON",
        "streetNameDisplayText": "DALEWOOD AVE, BURLINGTON"
      }
    ]
  },
  {
    "postal": "L7T3E5",
    "result": [
      {
        "electoralDistricts": [
          {
            "election": null,
            "id": 15,
            "name": "Burlington"
          }
        ],
        "pollDivisionIds": [
          10137359
        ],
        "postalCode": "L7T3E5",
        "streetName": "NORA",
        "streetDirectionId": null,
        "streetTypeId": "DR",
        "placeName": "BURLINGTON",
        "streetNameDisplayText": "NORA DR, BURLINGTON"
      }
    ]
  },
  {
    "postal": "L7T8N6",
    "result": []
  },
  {
    "postal": "L7T8J4",
    "result": []
  },
  {
    "postal": "L7T4R7",
    "result": []
  },
  {
    "postal": "L7T9K1",
    "result": []
  },
  {
    "postal": "L7T8E1",
    "result": []
  },
  {
    "postal": "L7T0R1",
    "result": []
  },
  {
    "postal": "L7T4J3",
    "result": [
      {
        "electoralDistricts": [
          {
            "election": null,
            "id": 15,
            "name": "Burlington"
          }
        ],
        "pollDivisionIds": [
          10137356
        ],
        "postalCode": "L7T4J3",
        "streetName": "GREENWOOD",
        "streetDirectionId": null,
        "streetTypeId": "PL",
        "placeName": "BURLINGTON",
        "streetNameDisplayText": "GREENWOOD PL, BURLINGTON"
      }
    ]
  },
  {
    "postal": "L7T7E7",
    "result": []
  },
  {
    "postal": "L7T0J0",
    "result": []
  },
  {
    "postal": "L7T7R8",
    "result": []
  },
  {
    "postal": "L7T9X0",
    "result": []
  },
  {
    "postal": "L7T7P6",
    "result": []
  },
  {
    "postal": "L7T0R7",
    "result": []
  },
  {
    "postal": "L7T5W1",
    "result": []
  },
  {
    "postal": "L7T0K4",
    "result": []
  },
  {
    "postal": "L7T7N9",
    "result": []
  },
  {
    "postal": "L7T1N0",
    "result": []
  },
  {
    "postal": "L7T6P3",
    "result": []
  },
  {
    "postal": "L7T5A1",
    "result": []
  },
  {
    "postal": "L7T9M9",
    "result": []
  },
  {
    "postal": "L7T7T6",
    "result": []
  },
  {
    "postal": "L7T3X0",
    "result": []
  },
  {
    "postal": "L7T2T0",
    "result": []
  },
  {
    "postal": "L7T5X9",
    "result": []
  },
  {
    "postal": "L7T2R3",
    "result": [
      {
        "electoralDistricts": [
          {
            "election": null,
            "id": 15,
            "name": "Burlington"
          }
        ],
        "pollDivisionIds": [
          10137359
        ],
        "postalCode": "L7T2R3",
        "streetName": "CEDAR",
        "streetDirectionId": null,
        "streetTypeId": "AVE",
        "placeName": "BURLINGTON",
        "streetNameDisplayText": "CEDAR AVE, BURLINGTON"
      }
    ]
  },
  {
    "postal": "L7T5N2",
    "result": []
  },
  {
    "postal": "L7T4Y7",
    "result": []
  },
  {
    "postal": "L7T7M0",
    "result": []
  },
  {
    "postal": "L7T8P3",
    "result": []
  },
  {
    "postal": "L7T3N3",
    "result": [
      {
        "electoralDistricts": [
          {
            "election": null,
            "id": 15,
            "name": "Burlington"
          }
        ],
        "pollDivisionIds": [
          10137356
        ],
        "postalCode": "L7T3N3",
        "streetName": "HOLT",
        "streetDirectionId": null,
        "streetTypeId": "DR",
        "placeName": "BURLINGTON",
        "streetNameDisplayText": "HOLT DR, BURLINGTON"
      }
    ]
  },
  {
    "postal": "L7T7S3",
    "result": []
  },
  {
    "postal": "L7T3V9",
    "result": [
      {
        "electoralDistricts": [
          {
            "election": null,
            "id": 15,
            "name": "Burlington"
          }
        ],
        "pollDivisionIds": [
          10137356
        ],
        "postalCode": "L7T3V9",
        "streetName": "GAYNE",
        "streetDirectionId": null,
        "streetTypeId": "BLVD",
        "placeName": "BURLINGTON",
        "streetNameDisplayText": "GAYNE BLVD, BURLINGTON"
      }
    ]
  },
  {
    "postal": "L7T9N7",
    "result": []
  },
  {
    "postal": "L7T0G4",
    "result": []
  },
  {
    "postal": "L7T2E2",
    "result": [
      {
        "electoralDistricts": [
          {
            "election": null,
            "id": 15,
            "name": "Burlington"
          }
        ],
        "pollDivisionIds": [
          10137358
        ],
        "postalCode": "L7T2E2",
        "streetName": "PLAINS",
        "streetDirectionId": "E",
        "streetTypeId": "RD",
        "placeName": "BURLINGTON",
        "streetNameDisplayText": "PLAINS RD E, BURLINGTON"
      }
    ]
  },
  {
    "postal": "L7T7W8",
    "result": []
  },
  {
    "postal": "L7T7M5",
    "result": []
  },
  {
    "postal": "L7T5W8",
    "result": []
  },
  {
    "postal": "L7T5E5",
    "result": []
  },
  {
    "postal": "L7T1P9",
    "result": [
      {
        "electoralDistricts": [
          {
            "election": null,
            "id": 15,
            "name": "Burlington"
          }
        ],
        "pollDivisionIds": [
          10137361
        ],
        "postalCode": "L7T1P9",
        "streetName": "EASTERBROOK",
        "streetDirectionId": null,
        "streetTypeId": "AVE",
        "placeName": "BURLINGTON",
        "streetNameDisplayText": "EASTERBROOK AVE, BURLINGTON"
      }
    ]
  },
  {
    "postal": "L7T8V8",
    "result": []
  },
  {
    "postal": "L7T9G8",
    "result": []
  },
  {
    "postal": "L7T8H9",
    "result": []
  },
  {
    "postal": "L7T1Z1",
    "result": [
      {
        "electoralDistricts": [
          {
            "election": null,
            "id": 15,
            "name": "Burlington"
          }
        ],
        "pollDivisionIds": [
          10137360
        ],
        "postalCode": "L7T1Z1",
        "streetName": "TOWNSEND",
        "streetDirectionId": null,
        "streetTypeId": "AVE",
        "placeName": "BURLINGTON",
        "streetNameDisplayText": "TOWNSEND AVE, BURLINGTON"
      }
    ]
  },
  {
    "postal": "L7T8M3",
    "result": []
  },
  {
    "postal": "L7T5H6",
    "result": []
  },
  {
    "postal": "L7T7W7",
    "result": []
  },
  {
    "postal": "L7T4L0",
    "result": []
  },
  {
    "postal": "L7T2N1",
    "result": [
      {
        "electoralDistricts": [
          {
            "election": null,
            "id": 15,
            "name": "Burlington"
          }
        ],
        "pollDivisionIds": [
          10137356
        ],
        "postalCode": "L7T2N1",
        "streetName": "DEBORAH",
        "streetDirectionId": null,
        "streetTypeId": "CRES",
        "placeName": "BURLINGTON",
        "streetNameDisplayText": "DEBORAH CRES, BURLINGTON"
      }
    ]
  },
  {
    "postal": "L7T2H4",
    "result": [
      {
        "electoralDistricts": [
          {
            "election": null,
            "id": 15,
            "name": "Burlington"
          }
        ],
        "pollDivisionIds": [
          10137360
        ],
        "postalCode": "L7T2H4",
        "streetName": "GROVE PARK",
        "streetDirectionId": null,
        "streetTypeId": "DR",
        "placeName": "BURLINGTON",
        "streetNameDisplayText": "GROVE PARK DR, BURLINGTON"
      }
    ]
  },
  {
    "postal": "L7T5C8",
    "result": []
  },
  {
    "postal": "L7T8B0",
    "result": []
  },
  {
    "postal": "L7T1T4",
    "result": [
      {
        "electoralDistricts": [
          {
            "election": null,
            "id": 15,
            "name": "Burlington"
          }
        ],
        "pollDivisionIds": [
          10137362
        ],
        "postalCode": "L7T1T4",
        "streetName": "BAYSHORE",
        "streetDirectionId": null,
        "streetTypeId": "BLVD",
        "placeName": "BURLINGTON",
        "streetNameDisplayText": "BAYSHORE BLVD, BURLINGTON"
      }
    ]
  },
  {
    "postal": "L7T7N7",
    "result": []
  },
  {
    "postal": "L7T4L3",
    "result": [
      {
        "electoralDistricts": [
          {
            "election": null,
            "id": 15,
            "name": "Burlington"
          }
        ],
        "pollDivisionIds": [
          10137361
        ],
        "postalCode": "L7T4L3",
        "streetName": "PLAINS",
        "streetDirectionId": "W",
        "streetTypeId": "RD",
        "placeName": "BURLINGTON",
        "streetNameDisplayText": "PLAINS RD W, BURLINGTON"
      }
    ]
  },
  {
    "postal": "L7T2N2",
    "result": [
      {
        "electoralDistricts": [
          {
            "election": null,
            "id": 15,
            "name": "Burlington"
          }
        ],
        "pollDivisionIds": [
          10137356
        ],
        "postalCode": "L7T2N2",
        "streetName": "DEBORAH",
        "streetDirectionId": null,
        "streetTypeId": "CRES",
        "placeName": "BURLINGTON",
        "streetNameDisplayText": "DEBORAH CRES, BURLINGTON"
      }
    ]
  },
  {
    "postal": "L7T4N8",
    "result": []
  },
  {
    "postal": "L7T3M5",
    "result": [
      {
        "electoralDistricts": [
          {
            "election": null,
            "id": 15,
            "name": "Burlington"
          }
        ],
        "pollDivisionIds": [
          10137356
        ],
        "postalCode": "L7T3M5",
        "streetName": "MOHAWK",
        "streetDirectionId": null,
        "streetTypeId": "RD",
        "placeName": "BURLINGTON",
        "streetNameDisplayText": "MOHAWK RD, BURLINGTON"
      }
    ]
  },
  {
    "postal": "L7T6H7",
    "result": []
  },
  {
    "postal": "L7T8Y8",
    "result": []
  },
  {
    "postal": "L7T5R9",
    "result": []
  },
  {
    "postal": "L7T8G3",
    "result": []
  },
  {
    "postal": "L7T4N7",
    "result": []
  },
  {
    "postal": "L7T0B9",
    "result": [
      {
        "electoralDistricts": [
          {
            "election": null,
            "id": 15,
            "name": "Burlington"
          }
        ],
        "pollDivisionIds": [
          10137360
        ],
        "postalCode": "L7T0B9",
        "streetName": "PLAINS",
        "streetDirectionId": "E",
        "streetTypeId": "RD",
        "placeName": "BURLINGTON",
        "streetNameDisplayText": "PLAINS RD E, BURLINGTON"
      }
    ]
  },
  {
    "postal": "L7T9K7",
    "result": []
  },
  {
    "postal": "L7T9K9",
    "result": []
  },
  {
    "postal": "L7T3Z2",
    "result": [
      {
        "electoralDistricts": [
          {
            "election": null,
            "id": 15,
            "name": "Burlington"
          }
        ],
        "pollDivisionIds": [
          10137357
        ],
        "postalCode": "L7T3Z2",
        "streetName": "SURREY",
        "streetDirectionId": null,
        "streetTypeId": "LANE",
        "placeName": "BURLINGTON",
        "streetNameDisplayText": "SURREY LANE, BURLINGTON"
      }
    ]
  },
  {
    "postal": "L7T6W7",
    "result": []
  },
  {
    "postal": "L7T0P1",
    "result": []
  },
  {
    "postal": "L7T3A0",
    "result": []
  },
  {
    "postal": "L7T8L9",
    "result": []
  },
  {
    "postal": "L7T6X0",
    "result": []
  },
  {
    "postal": "L7T3E9",
    "result": [
      {
        "electoralDistricts": [
          {
            "election": null,
            "id": 15,
            "name": "Burlington"
          }
        ],
        "pollDivisionIds": [
          10137359
        ],
        "postalCode": "L7T3E9",
        "streetName": "HARVEY",
        "streetDirectionId": null,
        "streetTypeId": "PL",
        "placeName": "BURLINGTON",
        "streetNameDisplayText": "HARVEY PL, BURLINGTON"
      }
    ]
  },
  {
    "postal": "L7T0S5",
    "result": []
  },
  {
    "postal": "L7T1A2",
    "result": [
      {
        "electoralDistricts": [
          {
            "election": null,
            "id": 15,
            "name": "Burlington"
          }
        ],
        "pollDivisionIds": [
          10137361
        ],
        "postalCode": "L7T1A2",
        "streetName": "NORTH SHORE",
        "streetDirectionId": "W",
        "streetTypeId": "BLVD",
        "placeName": "BURLINGTON",
        "streetNameDisplayText": "NORTH SHORE BLVD W, BURLINGTON"
      }
    ]
  },
  {
    "postal": "L7T5V8",
    "result": []
  },
  {
    "postal": "L7T8C5",
    "result": []
  },
  {
    "postal": "L7T6N0",
    "result": []
  },
  {
    "postal": "L7T9E6",
    "result": []
  },
  {
    "postal": "L7T5J7",
    "result": []
  },
  {
    "postal": "L7T2R2",
    "result": [
      {
        "electoralDistricts": [
          {
            "election": null,
            "id": 15,
            "name": "Burlington"
          }
        ],
        "pollDivisionIds": [
          10137359
        ],
        "postalCode": "L7T2R2",
        "streetName": "CEDAR",
        "streetDirectionId": null,
        "streetTypeId": "AVE",
        "placeName": "BURLINGTON",
        "streetNameDisplayText": "CEDAR AVE, BURLINGTON"
      }
    ]
  },
  {
    "postal": "L7T0P5",
    "result": []
  },
  {
    "postal": "L7T5A7",
    "result": []
  },
  {
    "postal": "L7T1G1",
    "result": [
      {
        "electoralDistricts": [
          {
            "election": null,
            "id": 15,
            "name": "Burlington"
          }
        ],
        "pollDivisionIds": [
          10137362
        ],
        "postalCode": "L7T1G1",
        "streetName": "FERNRIDGE",
        "streetDirectionId": null,
        "streetTypeId": "COMMON",
        "placeName": "BURLINGTON",
        "streetNameDisplayText": "FERNRIDGE COMMON, BURLINGTON"
      },
      {
        "electoralDistricts": [
          {
            "election": null,
            "id": 15,
            "name": "Burlington"
          }
        ],
        "pollDivisionIds": [
          10143437,
          10137361,
          10137362
        ],
        "postalCode": "L7T1G1",
        "streetName": "PLAINS",
        "streetDirectionId": "W",
        "streetTypeId": "RD",
        "placeName": "BURLINGTON",
        "streetNameDisplayText": "PLAINS RD W, BURLINGTON"
      }
    ]
  },
  {
    "postal": "L7T9R6",
    "result": []
  },
  {
    "postal": "L7T4Z9",
    "result": []
  },
  {
    "postal": "L7T1V5",
    "result": [
      {
        "electoralDistricts": [
          {
            "election": null,
            "id": 15,
            "name": "Burlington"
          }
        ],
        "pollDivisionIds": [
          10137362
        ],
        "postalCode": "L7T1V5",
        "streetName": "PLAINS VIEW",
        "streetDirectionId": null,
        "streetTypeId": "AVE",
        "placeName": "BURLINGTON",
        "streetNameDisplayText": "PLAINS VIEW AVE, BURLINGTON"
      }
    ]
  },
  {
    "postal": "L7T9Y5",
    "result": []
  },
  {
    "postal": "L7T1P2",
    "result": [
      {
        "electoralDistricts": [
          {
            "election": null,
            "id": 15,
            "name": "Burlington"
          }
        ],
        "pollDivisionIds": [
          10137361
        ],
        "postalCode": "L7T1P2",
        "streetName": "DARYL",
        "streetDirectionId": null,
        "streetTypeId": "DR",
        "placeName": "BURLINGTON",
        "streetNameDisplayText": "DARYL DR, BURLINGTON"
      }
    ]
  },
  {
    "postal": "L7T5X0",
    "result": []
  },
  {
    "postal": "L7T7B8",
    "result": []
  },
  {
    "postal": "L7T0C6",
    "result": []
  },
  {
    "postal": "L7T6G1",
    "result": []
  },
  {
    "postal": "L7T3K3",
    "result": [
      {
        "electoralDistricts": [
          {
            "election": null,
            "id": 15,
            "name": "Burlington"
          }
        ],
        "pollDivisionIds": [
          10137356
        ],
        "postalCode": "L7T3K3",
        "streetName": "KING",
        "streetDirectionId": null,
        "streetTypeId": "RD",
        "placeName": "BURLINGTON",
        "streetNameDisplayText": "KING RD, BURLINGTON"
      }
    ]
  },
  {
    "postal": "L7T9R0",
    "result": []
  },
  {
    "postal": "L7T4R8",
    "result": []
  },
  {
    "postal": "L7T5P9",
    "result": []
  },
  {
    "postal": "L7T8N4",
    "result": []
  },
  {
    "postal": "L7T8H4",
    "result": []
  },
  {
    "postal": "L7T4V1",
    "result": []
  },
  {
    "postal": "L7T1K5",
    "result": [
      {
        "electoralDistricts": [
          {
            "election": null,
            "id": 15,
            "name": "Burlington"
          }
        ],
        "pollDivisionIds": [
          10137362
        ],
        "postalCode": "L7T1K5",
        "streetName": "GARDENVIEW",
        "streetDirectionId": null,
        "streetTypeId": "DR",
        "placeName": "BURLINGTON",
        "streetNameDisplayText": "GARDENVIEW DR, BURLINGTON"
      }
    ]
  },
  {
    "postal": "L7T1Z5",
    "result": [
      {
        "electoralDistricts": [
          {
            "election": null,
            "id": 15,
            "name": "Burlington"
          }
        ],
        "pollDivisionIds": [
          10137360
        ],
        "postalCode": "L7T1Z5",
        "streetName": "TOWNSEND",
        "streetDirectionId": null,
        "streetTypeId": "AVE",
        "placeName": "BURLINGTON",
        "streetNameDisplayText": "TOWNSEND AVE, BURLINGTON"
      }
    ]
  },
  {
    "postal": "L7T9L9",
    "result": []
  },
  {
    "postal": "L7T5L2",
    "result": []
  },
  {
    "postal": "L7T0M2",
    "result": []
  },
  {
    "postal": "L7T1K8",
    "result": [
      {
        "electoralDistricts": [
          {
            "election": null,
            "id": 15,
            "name": "Burlington"
          }
        ],
        "pollDivisionIds": [
          10137362
        ],
        "postalCode": "L7T1K8",
        "streetName": "GARDENVIEW",
        "streetDirectionId": null,
        "streetTypeId": "DR",
        "placeName": "BURLINGTON",
        "streetNameDisplayText": "GARDENVIEW DR, BURLINGTON"
      }
    ]
  },
  {
    "postal": "L7T3M7",
    "result": [
      {
        "electoralDistricts": [
          {
            "election": null,
            "id": 15,
            "name": "Burlington"
          }
        ],
        "pollDivisionIds": [
          10137356
        ],
        "postalCode": "L7T3M7",
        "streetName": "STILLWATER",
        "streetDirectionId": null,
        "streetTypeId": "CRES",
        "placeName": "BURLINGTON",
        "streetNameDisplayText": "STILLWATER CRES, BURLINGTON"
      }
    ]
  },
  {
    "postal": "L7T1B2",
    "result": [
      {
        "electoralDistricts": [
          {
            "election": null,
            "id": 15,
            "name": "Burlington"
          }
        ],
        "pollDivisionIds": [
          10137362
        ],
        "postalCode": "L7T1B2",
        "streetName": "NORTH SHORE",
        "streetDirectionId": "W",
        "streetTypeId": "BLVD",
        "placeName": "BURLINGTON",
        "streetNameDisplayText": "NORTH SHORE BLVD W, BURLINGTON"
      }
    ]
  },
  {
    "postal": "L7T0H9",
    "result": []
  },
  {
    "postal": "L7T8M4",
    "result": []
  },
  {
    "postal": "L7T2M5",
    "result": [
      {
        "electoralDistricts": [
          {
            "election": null,
            "id": 15,
            "name": "Burlington"
          }
        ],
        "pollDivisionIds": [
          10137360
        ],
        "postalCode": "L7T2M5",
        "streetName": "SHADELAND",
        "streetDirectionId": null,
        "streetTypeId": "AVE",
        "placeName": "BURLINGTON",
        "streetNameDisplayText": "SHADELAND AVE, BURLINGTON"
      }
    ]
  },
  {
    "postal": "L7T0T9",
    "result": []
  },
  {
    "postal": "L7T3P1",
    "result": [
      {
        "electoralDistricts": [
          {
            "election": null,
            "id": 15,
            "name": "Burlington"
          }
        ],
        "pollDivisionIds": [
          10137356
        ],
        "postalCode": "L7T3P1",
        "streetName": "ELLENGALE",
        "streetDirectionId": null,
        "streetTypeId": "RD",
        "placeName": "BURLINGTON",
        "streetNameDisplayText": "ELLENGALE RD, BURLINGTON"
      }
    ]
  },
  {
    "postal": "L7T1R6",
    "result": [
      {
        "electoralDistricts": [
          {
            "election": null,
            "id": 15,
            "name": "Burlington"
          }
        ],
        "pollDivisionIds": [
          10137362
        ],
        "postalCode": "L7T1R6",
        "streetName": "UNSWORTH",
        "streetDirectionId": null,
        "streetTypeId": "AVE",
        "placeName": "BURLINGTON",
        "streetNameDisplayText": "UNSWORTH AVE, BURLINGTON"
      }
    ]
  },
  {
    "postal": "L7T9V5",
    "result": []
  },
  {
    "postal": "L7T9T0",
    "result": []
  },
  {
    "postal": "L7T0A9",
    "result": [
      {
        "electoralDistricts": [
          {
            "election": null,
            "id": 15,
            "name": "Burlington"
          }
        ],
        "pollDivisionIds": [
          10143417
        ],
        "postalCode": "L7T0A9",
        "streetName": "PLAINS",
        "streetDirectionId": "W",
        "streetTypeId": "RD",
        "placeName": "BURLINGTON",
        "streetNameDisplayText": "PLAINS RD W, BURLINGTON"
      }
    ]
  },
  {
    "postal": "L7T1M3",
    "result": []
  },
  {
    "postal": "L7T1W8",
    "result": [
      {
        "electoralDistricts": [
          {
            "election": null,
            "id": 15,
            "name": "Burlington"
          }
        ],
        "pollDivisionIds": [
          10137360
        ],
        "postalCode": "L7T1W8",
        "streetName": "NORTH SHORE",
        "streetDirectionId": "E",
        "streetTypeId": "BLVD",
        "placeName": "BURLINGTON",
        "streetNameDisplayText": "NORTH SHORE BLVD E, BURLINGTON"
      },
      {
        "electoralDistricts": [
          {
            "election": null,
            "id": 15,
            "name": "Burlington"
          }
        ],
        "pollDivisionIds": [
          10137358
        ],
        "postalCode": "L7T1W8",
        "streetName": "NORTHSHORE BLVD.",
        "streetDirectionId": "W",
        "streetTypeId": "BLVD",
        "placeName": "BURLINGTON",
        "streetNameDisplayText": "NORTHSHORE BLVD. BLVD W, BURLINGTON"
      }
    ]
  },
  {
    "postal": "L7T9J1",
    "result": []
  },
  {
    "postal": "L7T8N5",
    "result": []
  },
  {
    "postal": "L7T5X1",
    "result": []
  },
  {
    "postal": "L7T6S2",
    "result": []
  },
  {
    "postal": "L7T2A2",
    "result": [
      {
        "electoralDistricts": [
          {
            "election": null,
            "id": 15,
            "name": "Burlington"
          }
        ],
        "pollDivisionIds": [
          10137359
        ],
        "postalCode": "L7T2A2",
        "streetName": "TOWNSEND",
        "streetDirectionId": null,
        "streetTypeId": "AVE",
        "placeName": "BURLINGTON",
        "streetNameDisplayText": "TOWNSEND AVE, BURLINGTON"
      }
    ]
  },
  {
    "postal": "L7T6A6",
    "result": []
  },
  {
    "postal": "L7T0S3",
    "result": []
  },
  {
    "postal": "L7T3E7",
    "result": [
      {
        "electoralDistricts": [
          {
            "election": null,
            "id": 15,
            "name": "Burlington"
          }
        ],
        "pollDivisionIds": [
          10137359
        ],
        "postalCode": "L7T3E7",
        "streetName": "NORA",
        "streetDirectionId": null,
        "streetTypeId": "DR",
        "placeName": "BURLINGTON",
        "streetNameDisplayText": "NORA DR, BURLINGTON"
      }
    ]
  },
  {
    "postal": "L7T5R7",
    "result": []
  },
  {
    "postal": "L7T3R6",
    "result": [
      {
        "electoralDistricts": [
          {
            "election": null,
            "id": 15,
            "name": "Burlington"
          }
        ],
        "pollDivisionIds": [
          10137356
        ],
        "postalCode": "L7T3R6",
        "streetName": "WAYNE",
        "streetDirectionId": null,
        "streetTypeId": "PL",
        "placeName": "BURLINGTON",
        "streetNameDisplayText": "WAYNE PL, BURLINGTON"
      }
    ]
  },
  {
    "postal": "L7T6K4",
    "result": []
  },
  {
    "postal": "L7T2W5",
    "result": [
      {
        "electoralDistricts": [
          {
            "election": null,
            "id": 15,
            "name": "Burlington"
          }
        ],
        "pollDivisionIds": [
          10137358
        ],
        "postalCode": "L7T2W5",
        "streetName": "KINGSWOOD",
        "streetDirectionId": null,
        "streetTypeId": "PL",
        "placeName": "BURLINGTON",
        "streetNameDisplayText": "KINGSWOOD PL, BURLINGTON"
      }
    ]
  },
  {
    "postal": "L7T8W4",
    "result": []
  },
  {
    "postal": "L7T9C2",
    "result": []
  },
  {
    "postal": "L7T2C0",
    "result": []
  },
  {
    "postal": "L7T0E1",
    "result": []
  },
  {
    "postal": "L7T1K9",
    "result": [
      {
        "electoralDistricts": [
          {
            "election": null,
            "id": 15,
            "name": "Burlington"
          }
        ],
        "pollDivisionIds": [
          10137362
        ],
        "postalCode": "L7T1K9",
        "streetName": "GRAND VIEW",
        "streetDirectionId": null,
        "streetTypeId": "AVE",
        "placeName": "BURLINGTON",
        "streetNameDisplayText": "GRAND VIEW AVE, BURLINGTON"
      }
    ]
  },
  {
    "postal": "L7T1G7",
    "result": [
      {
        "electoralDistricts": [
          {
            "election": null,
            "id": 15,
            "name": "Burlington"
          }
        ],
        "pollDivisionIds": [
          10137362
        ],
        "postalCode": "L7T1G7",
        "streetName": "PLAINS",
        "streetDirectionId": "W",
        "streetTypeId": "RD",
        "placeName": "BURLINGTON",
        "streetNameDisplayText": "PLAINS RD W, BURLINGTON"
      }
    ]
  },
  {
    "postal": "L7T4E9",
    "result": [
      {
        "electoralDistricts": [
          {
            "election": null,
            "id": 15,
            "name": "Burlington"
          }
        ],
        "pollDivisionIds": [
          10137358
        ],
        "postalCode": "L7T4E9",
        "streetName": "DOWLAND",
        "streetDirectionId": null,
        "streetTypeId": "CRES",
        "placeName": "BURLINGTON",
        "streetNameDisplayText": "DOWLAND CRES, BURLINGTON"
      }
    ]
  },
  {
    "postal": "L7T9P0",
    "result": []
  },
  {
    "postal": "L7T5H3",
    "result": []
  },
  {
    "postal": "L7T9X6",
    "result": []
  },
  {
    "postal": "L7T5N7",
    "result": []
  },
  {
    "postal": "L7T5A6",
    "result": []
  },
  {
    "postal": "L7T4M0",
    "result": []
  },
  {
    "postal": "L7T3V6",
    "result": [
      {
        "electoralDistricts": [
          {
            "election": null,
            "id": 15,
            "name": "Burlington"
          }
        ],
        "pollDivisionIds": [
          10137356
        ],
        "postalCode": "L7T3V6",
        "streetName": "GAYNE",
        "streetDirectionId": null,
        "streetTypeId": "BLVD",
        "placeName": "BURLINGTON",
        "streetNameDisplayText": "GAYNE BLVD, BURLINGTON"
      }
    ]
  },
  {
    "postal": "L7T1L7",
    "result": [
      {
        "electoralDistricts": [
          {
            "election": null,
            "id": 15,
            "name": "Burlington"
          }
        ],
        "pollDivisionIds": [
          10137362
        ],
        "postalCode": "L7T1L7",
        "streetName": "GLENBROOK",
        "streetDirectionId": null,
        "streetTypeId": "AVE",
        "placeName": "BURLINGTON",
        "streetNameDisplayText": "GLENBROOK AVE, BURLINGTON"
      }
    ]
  },
  {
    "postal": "L7T2P9",
    "result": [
      {
        "electoralDistricts": [
          {
            "election": null,
            "id": 15,
            "name": "Burlington"
          }
        ],
        "pollDivisionIds": [
          10137359
        ],
        "postalCode": "L7T2P9",
        "streetName": "ORIOLE",
        "streetDirectionId": null,
        "streetTypeId": "CRT",
        "placeName": "BURLINGTON",
        "streetNameDisplayText": "ORIOLE CRT, BURLINGTON"
      }
    ]
  },
  {
    "postal": "L7T5T4",
    "result": []
  },
  {
    "postal": "L7T5Z1",
    "result": []
  },
  {
    "postal": "L7T2X0",
    "result": []
  },
  {
    "postal": "L7T6Z2",
    "result": []
  },
  {
    "postal": "L7T0E0",
    "result": []
  },
  {
    "postal": "L7T3Z5",
    "result": [
      {
        "electoralDistricts": [
          {
            "election": null,
            "id": 15,
            "name": "Burlington"
          }
        ],
        "pollDivisionIds": [
          10137357
        ],
        "postalCode": "L7T3Z5",
        "streetName": "WARWICK",
        "streetDirectionId": null,
        "streetTypeId": "CRT",
        "placeName": "BURLINGTON",
        "streetNameDisplayText": "WARWICK CRT, BURLINGTON"
      }
    ]
  },
  {
    "postal": "L7T8H3",
    "result": []
  },
  {
    "postal": "L7T7S6",
    "result": []
  },
  {
    "postal": "L7T4C1",
    "result": [
      {
        "electoralDistricts": [
          {
            "election": null,
            "id": 15,
            "name": "Burlington"
          }
        ],
        "pollDivisionIds": [
          10137361
        ],
        "postalCode": "L7T4C1",
        "streetName": "DARYL",
        "streetDirectionId": null,
        "streetTypeId": "DR",
        "placeName": "BURLINGTON",
        "streetNameDisplayText": "DARYL DR, BURLINGTON"
      }
    ]
  },
  {
    "postal": "L7T3K2",
    "result": [
      {
        "electoralDistricts": [
          {
            "election": null,
            "id": 15,
            "name": "Burlington"
          }
        ],
        "pollDivisionIds": [
          10137359
        ],
        "postalCode": "L7T3K2",
        "streetName": "LONG",
        "streetDirectionId": null,
        "streetTypeId": "DR",
        "placeName": "BURLINGTON",
        "streetNameDisplayText": "LONG DR, BURLINGTON"
      }
    ]
  },
  {
    "postal": "L7T1Y5",
    "result": [
      {
        "electoralDistricts": [
          {
            "election": null,
            "id": 15,
            "name": "Burlington"
          }
        ],
        "pollDivisionIds": [
          10137360
        ],
        "postalCode": "L7T1Y5",
        "streetName": "TOWNSEND",
        "streetDirectionId": null,
        "streetTypeId": "AVE",
        "placeName": "BURLINGTON",
        "streetNameDisplayText": "TOWNSEND AVE, BURLINGTON"
      }
    ]
  },
  {
    "postal": "L7T6P6",
    "result": []
  },
  {
    "postal": "L7T3N9",
    "result": [
      {
        "electoralDistricts": [
          {
            "election": null,
            "id": 15,
            "name": "Burlington"
          }
        ],
        "pollDivisionIds": [
          10137356
        ],
        "postalCode": "L7T3N9",
        "streetName": "ELLENGALE",
        "streetDirectionId": null,
        "streetTypeId": "RD",
        "placeName": "BURLINGTON",
        "streetNameDisplayText": "ELLENGALE RD, BURLINGTON"
      }
    ]
  },
  {
    "postal": "L7T3W2",
    "result": [
      {
        "electoralDistricts": [
          {
            "election": null,
            "id": 15,
            "name": "Burlington"
          }
        ],
        "pollDivisionIds": [
          10137356
        ],
        "postalCode": "L7T3W2",
        "streetName": "GAYNE",
        "streetDirectionId": null,
        "streetTypeId": "BLVD",
        "placeName": "BURLINGTON",
        "streetNameDisplayText": "GAYNE BLVD, BURLINGTON"
      }
    ]
  },
  {
    "postal": "L7T6H8",
    "result": []
  },
  {
    "postal": "L7T9T3",
    "result": []
  },
  {
    "postal": "L7T5L9",
    "result": []
  },
  {
    "postal": "L7T7X7",
    "result": []
  },
  {
    "postal": "L7T3J5",
    "result": []
  },
  {
    "postal": "L7T4J5",
    "result": [
      {
        "electoralDistricts": [
          {
            "election": null,
            "id": 15,
            "name": "Burlington"
          }
        ],
        "pollDivisionIds": [
          10137358
        ],
        "postalCode": "L7T4J5",
        "streetName": "PLAINS",
        "streetDirectionId": "E",
        "streetTypeId": "RD",
        "placeName": "BURLINGTON",
        "streetNameDisplayText": "PLAINS RD E, BURLINGTON"
      }
    ]
  },
  {
    "postal": "L7T6J2",
    "result": []
  },
  {
    "postal": "L7T5V6",
    "result": []
  },
  {
    "postal": "L7T3N2",
    "result": [
      {
        "electoralDistricts": [
          {
            "election": null,
            "id": 15,
            "name": "Burlington"
          }
        ],
        "pollDivisionIds": [
          10137356
        ],
        "postalCode": "L7T3N2",
        "streetName": "WANDA",
        "streetDirectionId": null,
        "streetTypeId": "DR",
        "placeName": "BURLINGTON",
        "streetNameDisplayText": "WANDA DR, BURLINGTON"
      }
    ]
  },
  {
    "postal": "L7T3B1",
    "result": [
      {
        "electoralDistricts": [
          {
            "election": null,
            "id": 15,
            "name": "Burlington"
          }
        ],
        "pollDivisionIds": [
          10137359
        ],
        "postalCode": "L7T3B1",
        "streetName": "CONDOR",
        "streetDirectionId": null,
        "streetTypeId": "DR",
        "placeName": "BURLINGTON",
        "streetNameDisplayText": "CONDOR DR, BURLINGTON"
      }
    ]
  },
  {
    "postal": "L7T8B5",
    "result": []
  },
  {
    "postal": "L7T0K1",
    "result": []
  },
  {
    "postal": "L7T7M7",
    "result": []
  },
  {
    "postal": "L7T2M2",
    "result": [
      {
        "electoralDistricts": [
          {
            "election": null,
            "id": 15,
            "name": "Burlington"
          }
        ],
        "pollDivisionIds": [
          10137360
        ],
        "postalCode": "L7T2M2",
        "streetName": "SHADELAND",
        "streetDirectionId": null,
        "streetTypeId": "AVE",
        "placeName": "BURLINGTON",
        "streetNameDisplayText": "SHADELAND AVE, BURLINGTON"
      }
    ]
  },
  {
    "postal": "L7T9N3",
    "result": []
  },
  {
    "postal": "L7T4Y8",
    "result": []
  },
  {
    "postal": "L7T3V7",
    "result": [
      {
        "electoralDistricts": [
          {
            "election": null,
            "id": 15,
            "name": "Burlington"
          }
        ],
        "pollDivisionIds": [
          10137356
        ],
        "postalCode": "L7T3V7",
        "streetName": "GAYNE",
        "streetDirectionId": null,
        "streetTypeId": "BLVD",
        "placeName": "BURLINGTON",
        "streetNameDisplayText": "GAYNE BLVD, BURLINGTON"
      }
    ]
  },
  {
    "postal": "L7T8Z1",
    "result": []
  },
  {
    "postal": "L7T7B3",
    "result": []
  },
  {
    "postal": "L7T3A8",
    "result": [
      {
        "electoralDistricts": [
          {
            "election": null,
            "id": 15,
            "name": "Burlington"
          }
        ],
        "pollDivisionIds": [
          10137359
        ],
        "postalCode": "L7T3A8",
        "streetName": "CONDOR",
        "streetDirectionId": null,
        "streetTypeId": "DR",
        "placeName": "BURLINGTON",
        "streetNameDisplayText": "CONDOR DR, BURLINGTON"
      }
    ]
  },
  {
    "postal": "L7T7V5",
    "result": []
  },
  {
    "postal": "L7T2T2",
    "result": [
      {
        "electoralDistricts": [
          {
            "election": null,
            "id": 15,
            "name": "Burlington"
          }
        ],
        "pollDivisionIds": [
          10137359
        ],
        "postalCode": "L7T2T2",
        "streetName": "LARK",
        "streetDirectionId": null,
        "streetTypeId": "AVE",
        "placeName": "BURLINGTON",
        "streetNameDisplayText": "LARK AVE, BURLINGTON"
      }
    ]
  },
  {
    "postal": "L7T6L3",
    "result": []
  },
  {
    "postal": "L7T0L2",
    "result": []
  },
  {
    "postal": "L7T5Y8",
    "result": []
  },
  {
    "postal": "L7T0B8",
    "result": [
      {
        "electoralDistricts": [
          {
            "election": null,
            "id": 15,
            "name": "Burlington"
          }
        ],
        "pollDivisionIds": [
          10137358
        ],
        "postalCode": "L7T0B8",
        "streetName": "PLAINS",
        "streetDirectionId": "E",
        "streetTypeId": "RD",
        "placeName": "BURLINGTON",
        "streetNameDisplayText": "PLAINS RD E, BURLINGTON"
      }
    ]
  },
  {
    "postal": "L7T6R5",
    "result": []
  },
  {
    "postal": "L7T8W6",
    "result": []
  },
  {
    "postal": "L7T8G6",
    "result": []
  },
  {
    "postal": "L7T6X3",
    "result": []
  },
  {
    "postal": "L7T7R7",
    "result": []
  },
  {
    "postal": "L7T4B6",
    "result": [
      {
        "electoralDistricts": [
          {
            "election": null,
            "id": 15,
            "name": "Burlington"
          }
        ],
        "pollDivisionIds": [
          10137361
        ],
        "postalCode": "L7T4B6",
        "streetName": "FAIRWOOD",
        "streetDirectionId": "W",
        "streetTypeId": "PL",
        "placeName": "BURLINGTON",
        "streetNameDisplayText": "FAIRWOOD PL W, BURLINGTON"
      }
    ]
  },
  {
    "postal": "L7T3P9",
    "result": [
      {
        "electoralDistricts": [
          {
            "election": null,
            "id": 15,
            "name": "Burlington"
          }
        ],
        "pollDivisionIds": [
          10137356
        ],
        "postalCode": "L7T3P9",
        "streetName": "EARL",
        "streetDirectionId": null,
        "streetTypeId": "CRES",
        "placeName": "BURLINGTON",
        "streetNameDisplayText": "EARL CRES, BURLINGTON"
      }
    ]
  },
  {
    "postal": "L7T2T3",
    "result": [
      {
        "electoralDistricts": [
          {
            "election": null,
            "id": 15,
            "name": "Burlington"
          }
        ],
        "pollDivisionIds": [
          10137359
        ],
        "postalCode": "L7T2T3",
        "streetName": "MALLARD",
        "streetDirectionId": null,
        "streetTypeId": "AVE",
        "placeName": "BURLINGTON",
        "streetNameDisplayText": "MALLARD AVE, BURLINGTON"
      }
    ]
  },
  {
    "postal": "L7T1M4",
    "result": []
  },
  {
    "postal": "L7T0H1",
    "result": []
  },
  {
    "postal": "L7T9W3",
    "result": []
  },
  {
    "postal": "L7T6P1",
    "result": []
  },
  {
    "postal": "L7T7G2",
    "result": []
  },
  {
    "postal": "L7T4J9",
    "result": []
  },
  {
    "postal": "L7T9E4",
    "result": []
  },
  {
    "postal": "L7T8H0",
    "result": []
  },
  {
    "postal": "L7T4M7",
    "result": []
  },
  {
    "postal": "L7T2G9",
    "result": [
      {
        "electoralDistricts": [
          {
            "election": null,
            "id": 15,
            "name": "Burlington"
          }
        ],
        "pollDivisionIds": [
          10137360
        ],
        "postalCode": "L7T2G9",
        "streetName": "PLUMTREE",
        "streetDirectionId": null,
        "streetTypeId": "DR",
        "placeName": "BURLINGTON",
        "streetNameDisplayText": "PLUMTREE DR, BURLINGTON"
      }
    ]
  },
  {
    "postal": "L7T8T2",
    "result": []
  },
  {
    "postal": "L7T7G7",
    "result": []
  },
  {
    "postal": "L7T4Z3",
    "result": []
  },
  {
    "postal": "L7T5B3",
    "result": []
  },
  {
    "postal": "L7T1S7",
    "result": [
      {
        "electoralDistricts": [
          {
            "election": null,
            "id": 15,
            "name": "Burlington"
          }
        ],
        "pollDivisionIds": [
          10137362
        ],
        "postalCode": "L7T1S7",
        "streetName": "DANFORTH",
        "streetDirectionId": null,
        "streetTypeId": "AVE",
        "placeName": "BURLINGTON",
        "streetNameDisplayText": "DANFORTH AVE, BURLINGTON"
      }
    ]
  },
  {
    "postal": "L7T2N7",
    "result": [
      {
        "electoralDistricts": [
          {
            "election": null,
            "id": 15,
            "name": "Burlington"
          }
        ],
        "pollDivisionIds": [
          10137356,
          10137359
        ],
        "postalCode": "L7T2N7",
        "streetName": "SHARALIN",
        "streetDirectionId": null,
        "streetTypeId": "CRT",
        "placeName": "BURLINGTON",
        "streetNameDisplayText": "SHARALIN CRT, BURLINGTON"
      }
    ]
  },
  {
    "postal": "L7T0H8",
    "result": []
  },
  {
    "postal": "L7T7Z4",
    "result": []
  },
  {
    "postal": "L7T7B1",
    "result": []
  },
  {
    "postal": "L7T7P8",
    "result": []
  },
  {
    "postal": "L7T7N0",
    "result": []
  },
  {
    "postal": "L7T3Y5",
    "result": [
      {
        "electoralDistricts": [
          {
            "election": null,
            "id": 15,
            "name": "Burlington"
          }
        ],
        "pollDivisionIds": [
          10137357
        ],
        "postalCode": "L7T3Y5",
        "streetName": "WARWICK",
        "streetDirectionId": null,
        "streetTypeId": "DR",
        "placeName": "BURLINGTON",
        "streetNameDisplayText": "WARWICK DR, BURLINGTON"
      }
    ]
  },
  {
    "postal": "L7T6K1",
    "result": []
  },
  {
    "postal": "L7T9X5",
    "result": []
  },
  {
    "postal": "L7T7S5",
    "result": []
  },
  {
    "postal": "L7T0A4",
    "result": [
      {
        "electoralDistricts": [
          {
            "election": null,
            "id": 15,
            "name": "Burlington"
          }
        ],
        "pollDivisionIds": [
          10137358
        ],
        "postalCode": "L7T0A4",
        "streetName": "PLAINS",
        "streetDirectionId": "E",
        "streetTypeId": "RD",
        "placeName": "BURLINGTON",
        "streetNameDisplayText": "PLAINS RD E, BURLINGTON"
      }
    ]
  },
  {
    "postal": "L7T4T5",
    "result": []
  },
  {
    "postal": "L7T5K1",
    "result": []
  },
  {
    "postal": "L7T0Z9",
    "result": []
  },
  {
    "postal": "L7T7T2",
    "result": []
  },
  {
    "postal": "L7T1L5",
    "result": [
      {
        "electoralDistricts": [
          {
            "election": null,
            "id": 15,
            "name": "Burlington"
          }
        ],
        "pollDivisionIds": [
          10137362
        ],
        "postalCode": "L7T1L5",
        "streetName": "OAKDALE",
        "streetDirectionId": null,
        "streetTypeId": "AVE",
        "placeName": "BURLINGTON",
        "streetNameDisplayText": "OAKDALE AVE, BURLINGTON"
      }
    ]
  },
  {
    "postal": "L7T3N5",
    "result": [
      {
        "electoralDistricts": [
          {
            "election": null,
            "id": 15,
            "name": "Burlington"
          }
        ],
        "pollDivisionIds": [
          10137356
        ],
        "postalCode": "L7T3N5",
        "streetName": "HOLT",
        "streetDirectionId": null,
        "streetTypeId": "DR",
        "placeName": "BURLINGTON",
        "streetNameDisplayText": "HOLT DR, BURLINGTON"
      }
    ]
  },
  {
    "postal": "L7T6H4",
    "result": []
  },
  {
    "postal": "L7T5A5",
    "result": []
  },
  {
    "postal": "L7T3R9",
    "result": [
      {
        "electoralDistricts": [
          {
            "election": null,
            "id": 15,
            "name": "Burlington"
          }
        ],
        "pollDivisionIds": [
          10137356
        ],
        "postalCode": "L7T3R9",
        "streetName": "MARLEY",
        "streetDirectionId": null,
        "streetTypeId": "RD",
        "placeName": "BURLINGTON",
        "streetNameDisplayText": "MARLEY RD, BURLINGTON"
      }
    ]
  },
  {
    "postal": "L7T7L8",
    "result": []
  },
  {
    "postal": "L7T6T6",
    "result": []
  },
  {
    "postal": "L7T7Y7",
    "result": []
  },
  {
    "postal": "L7T3M8",
    "result": [
      {
        "electoralDistricts": [
          {
            "election": null,
            "id": 15,
            "name": "Burlington"
          }
        ],
        "pollDivisionIds": [
          10137356
        ],
        "postalCode": "L7T3M8",
        "streetName": "STILLWATER",
        "streetDirectionId": null,
        "streetTypeId": "CRES",
        "placeName": "BURLINGTON",
        "streetNameDisplayText": "STILLWATER CRES, BURLINGTON"
      }
    ]
  },
  {
    "postal": "L7T2E0",
    "result": []
  },
  {
    "postal": "L7T4B5",
    "result": [
      {
        "electoralDistricts": [
          {
            "election": null,
            "id": 15,
            "name": "Burlington"
          }
        ],
        "pollDivisionIds": [
          10137361
        ],
        "postalCode": "L7T4B5",
        "streetName": "FAIRWOOD",
        "streetDirectionId": "W",
        "streetTypeId": "PL",
        "placeName": "BURLINGTON",
        "streetNameDisplayText": "FAIRWOOD PL W, BURLINGTON"
      }
    ]
  },
  {
    "postal": "L7T1J3",
    "result": [
      {
        "electoralDistricts": [
          {
            "election": null,
            "id": 15,
            "name": "Burlington"
          }
        ],
        "pollDivisionIds": [
          10137362
        ],
        "postalCode": "L7T1J3",
        "streetName": "SPRING GARDENS",
        "streetDirectionId": null,
        "streetTypeId": "RD",
        "placeName": "BURLINGTON",
        "streetNameDisplayText": "SPRING GARDENS RD, BURLINGTON"
      }
    ]
  },
  {
    "postal": "L7T5S6",
    "result": []
  },
  {
    "postal": "L7T8P7",
    "result": []
  },
  {
    "postal": "L7T7S7",
    "result": []
  },
  {
    "postal": "L7T4C2",
    "result": [
      {
        "electoralDistricts": [
          {
            "election": null,
            "id": 15,
            "name": "Burlington"
          }
        ],
        "pollDivisionIds": [
          10137361
        ],
        "postalCode": "L7T4C2",
        "streetName": "HENDRIE",
        "streetDirectionId": null,
        "streetTypeId": "AVE",
        "placeName": "BURLINGTON",
        "streetNameDisplayText": "HENDRIE AVE, BURLINGTON"
      }
    ]
  },
  {
    "postal": "L7T5Y0",
    "result": []
  },
  {
    "postal": "L7T2V7",
    "result": [
      {
        "electoralDistricts": [
          {
            "election": null,
            "id": 15,
            "name": "Burlington"
          }
        ],
        "pollDivisionIds": [
          10137358
        ],
        "postalCode": "L7T2V7",
        "streetName": "DORSET",
        "streetDirectionId": null,
        "streetTypeId": "AVE",
        "placeName": "BURLINGTON",
        "streetNameDisplayText": "DORSET AVE, BURLINGTON"
      }
    ]
  },
  {
    "postal": "L7T8P5",
    "result": []
  },
  {
    "postal": "L7T5P5",
    "result": []
  },
  {
    "postal": "L7T5Z0",
    "result": []
  },
  {
    "postal": "L7T9B0",
    "result": []
  },
  {
    "postal": "L7T1L0",
    "result": []
  },
  {
    "postal": "L7T0B5",
    "result": [
      {
        "electoralDistricts": [
          {
            "election": null,
            "id": 15,
            "name": "Burlington"
          }
        ],
        "pollDivisionIds": [
          10137361
        ],
        "postalCode": "L7T0B5",
        "streetName": "SUMACH",
        "streetDirectionId": null,
        "streetTypeId": "DR",
        "placeName": "BURLINGTON",
        "streetNameDisplayText": "SUMACH DR, BURLINGTON"
      }
    ]
  },
  {
    "postal": "L7T3L2",
    "result": [
      {
        "electoralDistricts": [
          {
            "election": null,
            "id": 15,
            "name": "Burlington"
          }
        ],
        "pollDivisionIds": [
          10137358
        ],
        "postalCode": "L7T3L2",
        "streetName": "KING",
        "streetDirectionId": null,
        "streetTypeId": "RD",
        "placeName": "BURLINGTON",
        "streetNameDisplayText": "KING RD, BURLINGTON"
      }
    ]
  },
  {
    "postal": "L7T3B7",
    "result": [
      {
        "electoralDistricts": [
          {
            "election": null,
            "id": 15,
            "name": "Burlington"
          }
        ],
        "pollDivisionIds": [
          10137359
        ],
        "postalCode": "L7T3B7",
        "streetName": "FALCON",
        "streetDirectionId": null,
        "streetTypeId": "BLVD",
        "placeName": "BURLINGTON",
        "streetNameDisplayText": "FALCON BLVD, BURLINGTON"
      }
    ]
  },
  {
    "postal": "L7T8L1",
    "result": []
  },
  {
    "postal": "L7T5M4",
    "result": []
  },
  {
    "postal": "L7T4G9",
    "result": [
      {
        "electoralDistricts": [
          {
            "election": null,
            "id": 15,
            "name": "Burlington"
          }
        ],
        "pollDivisionIds": [
          10137360
        ],
        "postalCode": "L7T4G9",
        "streetName": "LASALLE PARK",
        "streetDirectionId": null,
        "streetTypeId": "RD",
        "placeName": "BURLINGTON",
        "streetNameDisplayText": "LASALLE PARK RD, BURLINGTON"
      },
      {
        "electoralDistricts": [
          {
            "election": null,
            "id": 15,
            "name": "Burlington"
          }
        ],
        "pollDivisionIds": [
          10137360
        ],
        "postalCode": "L7T4G9",
        "streetName": "NORTH SHORE",
        "streetDirectionId": "E",
        "streetTypeId": "BLVD",
        "placeName": "BURLINGTON",
        "streetNameDisplayText": "NORTH SHORE BLVD E, BURLINGTON"
      },
      {
        "electoralDistricts": [
          {
            "election": null,
            "id": 15,
            "name": "Burlington"
          }
        ],
        "pollDivisionIds": [
          10137361
        ],
        "postalCode": "L7T4G9",
        "streetName": "OAKLANDS PARK",
        "streetDirectionId": null,
        "streetTypeId": "CRT",
        "placeName": "BURLINGTON",
        "streetNameDisplayText": "OAKLANDS PARK CRT, BURLINGTON"
      }
    ]
  },
  {
    "postal": "L7T0P0",
    "result": []
  },
  {
    "postal": "L7T8G2",
    "result": []
  },
  {
    "postal": "L7T1V9",
    "result": [
      {
        "electoralDistricts": [
          {
            "election": null,
            "id": 15,
            "name": "Burlington"
          }
        ],
        "pollDivisionIds": [
          10137362
        ],
        "postalCode": "L7T1V9",
        "streetName": "NORWOOD",
        "streetDirectionId": null,
        "streetTypeId": "AVE",
        "placeName": "BURLINGTON",
        "streetNameDisplayText": "NORWOOD AVE, BURLINGTON"
      }
    ]
  },
  {
    "postal": "L7T8N8",
    "result": []
  },
  {
    "postal": "L7T6S8",
    "result": []
  },
  {
    "postal": "L7T8H2",
    "result": []
  },
  {
    "postal": "L7T5R8",
    "result": []
  },
  {
    "postal": "L7T5L4",
    "result": []
  },
  {
    "postal": "L7T9E1",
    "result": []
  },
  {
    "postal": "L7T1C4",
    "result": [
      {
        "electoralDistricts": [
          {
            "election": null,
            "id": 15,
            "name": "Burlington"
          }
        ],
        "pollDivisionIds": [
          10137361
        ],
        "postalCode": "L7T1C4",
        "streetName": "HENDRIE",
        "streetDirectionId": null,
        "streetTypeId": "AVE",
        "placeName": "BURLINGTON",
        "streetNameDisplayText": "HENDRIE AVE, BURLINGTON"
      }
    ]
  },
  {
    "postal": "L7T8W5",
    "result": []
  },
  {
    "postal": "L7T1Y4",
    "result": [
      {
        "electoralDistricts": [
          {
            "election": null,
            "id": 15,
            "name": "Burlington"
          }
        ],
        "pollDivisionIds": [
          10137360
        ],
        "postalCode": "L7T1Y4",
        "streetName": "ASCOT",
        "streetDirectionId": null,
        "streetTypeId": "PL",
        "placeName": "BURLINGTON",
        "streetNameDisplayText": "ASCOT PL, BURLINGTON"
      }
    ]
  },
  {
    "postal": "L7T1C0",
    "result": []
  },
  {
    "postal": "L7T2J2",
    "result": [
      {
        "electoralDistricts": [
          {
            "election": null,
            "id": 15,
            "name": "Burlington"
          }
        ],
        "pollDivisionIds": [
          10137360
        ],
        "postalCode": "L7T2J2",
        "streetName": "CLEARVIEW",
        "streetDirectionId": null,
        "streetTypeId": "AVE",
        "placeName": "BURLINGTON",
        "streetNameDisplayText": "CLEARVIEW AVE, BURLINGTON"
      }
    ]
  },
  {
    "postal": "L7T2J0",
    "result": []
  },
  {
    "postal": "L7T7A3",
    "result": []
  },
  {
    "postal": "L7T8M1",
    "result": []
  },
  {
    "postal": "L7T7T9",
    "result": []
  },
  {
    "postal": "L7T6C0",
    "result": []
  },
  {
    "postal": "L7T7X1",
    "result": []
  },
  {
    "postal": "L7T0G1",
    "result": []
  },
  {
    "postal": "L7T4X2",
    "result": []
  },
  {
    "postal": "L7T0N6",
    "result": []
  },
  {
    "postal": "L7T8E3",
    "result": []
  },
  {
    "postal": "L7T5S8",
    "result": []
  },
  {
    "postal": "L7T0R0",
    "result": []
  },
  {
    "postal": "L7T6J6",
    "result": []
  },
  {
    "postal": "L7T4B4",
    "result": []
  },
  {
    "postal": "L7T7E3",
    "result": []
  },
  {
    "postal": "L7T3N6",
    "result": [
      {
        "electoralDistricts": [
          {
            "election": null,
            "id": 15,
            "name": "Burlington"
          }
        ],
        "pollDivisionIds": [
          10137356
        ],
        "postalCode": "L7T3N6",
        "streetName": "HOLT",
        "streetDirectionId": null,
        "streetTypeId": "DR",
        "placeName": "BURLINGTON",
        "streetNameDisplayText": "HOLT DR, BURLINGTON"
      }
    ]
  },
  {
    "postal": "L7T3X6",
    "result": [
      {
        "electoralDistricts": [
          {
            "election": null,
            "id": 15,
            "name": "Burlington"
          }
        ],
        "pollDivisionIds": [
          10137356
        ],
        "postalCode": "L7T3X6",
        "streetName": "FRANCIS",
        "streetDirectionId": null,
        "streetTypeId": "RD",
        "placeName": "BURLINGTON",
        "streetNameDisplayText": "FRANCIS RD, BURLINGTON"
      }
    ]
  },
  {
    "postal": "L7T8L0",
    "result": []
  },
  {
    "postal": "L7T8N1",
    "result": []
  },
  {
    "postal": "L7T4J0",
    "result": []
  },
  {
    "postal": "L7T0X7",
    "result": []
  },
  {
    "postal": "L7T6S4",
    "result": []
  },
  {
    "postal": "L7T0Z0",
    "result": []
  },
  {
    "postal": "L7T9X8",
    "result": []
  },
  {
    "postal": "L7T3H3",
    "result": [
      {
        "electoralDistricts": [
          {
            "election": null,
            "id": 15,
            "name": "Burlington"
          }
        ],
        "pollDivisionIds": [
          10137358
        ],
        "postalCode": "L7T3H3",
        "streetName": "JOAN",
        "streetDirectionId": null,
        "streetTypeId": "DR",
        "placeName": "BURLINGTON",
        "streetNameDisplayText": "JOAN DR, BURLINGTON"
      }
    ]
  },
  {
    "postal": "L7T7S2",
    "result": []
  },
  {
    "postal": "L7T3T3",
    "result": [
      {
        "electoralDistricts": [
          {
            "election": null,
            "id": 15,
            "name": "Burlington"
          }
        ],
        "pollDivisionIds": [
          10137356
        ],
        "postalCode": "L7T3T3",
        "streetName": "INDIAN",
        "streetDirectionId": null,
        "streetTypeId": "RD",
        "placeName": "BURLINGTON",
        "streetNameDisplayText": "INDIAN RD, BURLINGTON"
      }
    ]
  },
  {
    "postal": "L7T9P3",
    "result": []
  },
  {
    "postal": "L7T4H8",
    "result": [
      {
        "electoralDistricts": [
          {
            "election": null,
            "id": 15,
            "name": "Burlington"
          }
        ],
        "pollDivisionIds": [
          10137358
        ],
        "postalCode": "L7T4H8",
        "streetName": "DOWNSVIEW",
        "streetDirectionId": null,
        "streetTypeId": "DR",
        "placeName": "BURLINGTON",
        "streetNameDisplayText": "DOWNSVIEW DR, BURLINGTON"
      }
    ]
  },
  {
    "postal": "L7T6R1",
    "result": []
  },
  {
    "postal": "L7T1S0",
    "result": []
  },
  {
    "postal": "L7T3W8",
    "result": [
      {
        "electoralDistricts": [
          {
            "election": null,
            "id": 15,
            "name": "Burlington"
          }
        ],
        "pollDivisionIds": [
          10137356
        ],
        "postalCode": "L7T3W8",
        "streetName": "VANDERBURGH",
        "streetDirectionId": null,
        "streetTypeId": "DR",
        "placeName": "BURLINGTON",
        "streetNameDisplayText": "VANDERBURGH DR, BURLINGTON"
      }
    ]
  },
  {
    "postal": "L7T4S3",
    "result": []
  },
  {
    "postal": "L7T1B6",
    "result": [
      {
        "electoralDistricts": [
          {
            "election": null,
            "id": 15,
            "name": "Burlington"
          }
        ],
        "pollDivisionIds": [
          10137361
        ],
        "postalCode": "L7T1B6",
        "streetName": "WILLIAM",
        "streetDirectionId": null,
        "streetTypeId": "CRT",
        "placeName": "BURLINGTON",
        "streetNameDisplayText": "WILLIAM CRT, BURLINGTON"
      }
    ]
  },
  {
    "postal": "L7T8R3",
    "result": []
  },
  {
    "postal": "L7T4V9",
    "result": []
  },
  {
    "postal": "L7T9W4",
    "result": []
  },
  {
    "postal": "L7T3T4",
    "result": [
      {
        "electoralDistricts": [
          {
            "election": null,
            "id": 15,
            "name": "Burlington"
          }
        ],
        "pollDivisionIds": [
          10137356
        ],
        "postalCode": "L7T3T4",
        "streetName": "INDIAN",
        "streetDirectionId": null,
        "streetTypeId": "RD",
        "placeName": "BURLINGTON",
        "streetNameDisplayText": "INDIAN RD, BURLINGTON"
      }
    ]
  },
  {
    "postal": "L7T5C7",
    "result": []
  },
  {
    "postal": "L7T3Y1",
    "result": [
      {
        "electoralDistricts": [
          {
            "election": null,
            "id": 15,
            "name": "Burlington"
          }
        ],
        "pollDivisionIds": [
          10137357
        ],
        "postalCode": "L7T3Y1",
        "streetName": "FRANCIS",
        "streetDirectionId": null,
        "streetTypeId": "RD",
        "placeName": "BURLINGTON",
        "streetNameDisplayText": "FRANCIS RD, BURLINGTON"
      }
    ]
  },
  {
    "postal": "L7T5V0",
    "result": []
  },
  {
    "postal": "L7T8G8",
    "result": []
  },
  {
    "postal": "L7T8B1",
    "result": []
  },
  {
    "postal": "L7T4P5",
    "result": []
  },
  {
    "postal": "L7T7B2",
    "result": []
  },
  {
    "postal": "L7T0R2",
    "result": []
  },
  {
    "postal": "L7T4M4",
    "result": []
  },
  {
    "postal": "L7T7M4",
    "result": []
  },
  {
    "postal": "L7T9S7",
    "result": []
  },
  {
    "postal": "L7T5Z7",
    "result": []
  },
  {
    "postal": "L7T7J7",
    "result": []
  },
  {
    "postal": "L7T8R8",
    "result": []
  },
  {
    "postal": "L7T9X1",
    "result": []
  },
  {
    "postal": "L7T5M9",
    "result": []
  },
  {
    "postal": "L7T9B4",
    "result": []
  },
  {
    "postal": "L7T0L9",
    "result": []
  },
  {
    "postal": "L7T9G4",
    "result": []
  },
  {
    "postal": "L7T1J4",
    "result": [
      {
        "electoralDistricts": [
          {
            "election": null,
            "id": 15,
            "name": "Burlington"
          }
        ],
        "pollDivisionIds": [
          10137362
        ],
        "postalCode": "L7T1J4",
        "streetName": "SPRING GARDENS",
        "streetDirectionId": null,
        "streetTypeId": "RD",
        "placeName": "BURLINGTON",
        "streetNameDisplayText": "SPRING GARDENS RD, BURLINGTON"
      }
    ]
  },
  {
    "postal": "L7T0W6",
    "result": []
  }
]
