[
  {
    "postal": "L6Z9J6",
    "result": []
  },
  {
    "postal": "L6Z9Z5",
    "result": []
  },
  {
    "postal": "L6Z7H8",
    "result": []
  },
  {
    "postal": "L6Z0P6",
    "result": []
  },
  {
    "postal": "L6Z0S7",
    "result": []
  },
  {
    "postal": "L6Z8B9",
    "result": []
  },
  {
    "postal": "L6Z2A6",
    "result": [
      {
        "electoralDistricts": [
          {
            "election": null,
            "id": 10,
            "name": "Brampton North"
          }
        ],
        "pollDivisionIds": [
          10126609
        ],
        "postalCode": "L6Z2A6",
        "streetName": "WINDHAM",
        "streetDirectionId": null,
        "streetTypeId": "PL",
        "placeName": "BRAMPTON",
        "streetNameDisplayText": "WINDHAM PL, BRAMPTON"
      }
    ]
  },
  {
    "postal": "L6Z7V2",
    "result": []
  },
  {
    "postal": "L6Z9P4",
    "result": []
  },
  {
    "postal": "L6Z6G0",
    "result": []
  },
  {
    "postal": "L6Z2K0",
    "result": []
  },
  {
    "postal": "L6Z7N6",
    "result": []
  },
  {
    "postal": "L6Z5R3",
    "result": []
  },
  {
    "postal": "L6Z7K0",
    "result": []
  },
  {
    "postal": "L6Z3R2",
    "result": [
      {
        "electoralDistricts": [
          {
            "election": null,
            "id": 10,
            "name": "Brampton North"
          }
        ],
        "pollDivisionIds": [
          10126615
        ],
        "postalCode": "L6Z3R2",
        "streetName": "COLCHESTER",
        "streetDirectionId": null,
        "streetTypeId": "AVE",
        "placeName": "BRAMPTON",
        "streetNameDisplayText": "COLCHESTER AVE, BRAMPTON"
      },
      {
        "electoralDistricts": [
          {
            "election": null,
            "id": 10,
            "name": "Brampton North"
          }
        ],
        "pollDivisionIds": [
          10126615
        ],
        "postalCode": "L6Z3R2",
        "streetName": "DORKING",
        "streetDirectionId": null,
        "streetTypeId": "DR",
        "placeName": "BRAMPTON",
        "streetNameDisplayText": "DORKING DR, BRAMPTON"
      }
    ]
  },
  {
    "postal": "L6Z0J1",
    "result": [
      {
        "electoralDistricts": [
          {
            "election": null,
            "id": 10,
            "name": "Brampton North"
          }
        ],
        "pollDivisionIds": [
          10126618
        ],
        "postalCode": "L6Z0J1",
        "streetName": "HOBART",
        "streetDirectionId": null,
        "streetTypeId": "GDNS",
        "placeName": "BRAMPTON",
        "streetNameDisplayText": "HOBART GDNS, BRAMPTON"
      },
      {
        "electoralDistricts": [
          {
            "election": null,
            "id": 10,
            "name": "Brampton North"
          }
        ],
        "pollDivisionIds": [
          10126618
        ],
        "postalCode": "L6Z0J1",
        "streetName": "NEW PINES",
        "streetDirectionId": null,
        "streetTypeId": "TRAIL",
        "placeName": "BRAMPTON",
        "streetNameDisplayText": "NEW PINES TRAIL, BRAMPTON"
      },
      {
        "electoralDistricts": [
          {
            "election": null,
            "id": 10,
            "name": "Brampton North"
          }
        ],
        "pollDivisionIds": [
          10126618
        ],
        "postalCode": "L6Z0J1",
        "streetName": "TOLLGATE",
        "streetDirectionId": null,
        "streetTypeId": "ST",
        "placeName": "BRAMPTON",
        "streetNameDisplayText": "TOLLGATE ST, BRAMPTON"
      }
    ]
  },
  {
    "postal": "L6Z0B0",
    "result": []
  },
  {
    "postal": "L6Z5Z2",
    "result": []
  },
  {
    "postal": "L6Z7P3",
    "result": []
  },
  {
    "postal": "L6Z2K3",
    "result": []
  },
  {
    "postal": "L6Z7Y6",
    "result": []
  },
  {
    "postal": "L6Z1L9",
    "result": [
      {
        "electoralDistricts": [
          {
            "election": null,
            "id": 10,
            "name": "Brampton North"
          }
        ],
        "pollDivisionIds": [
          10126614
        ],
        "postalCode": "L6Z1L9",
        "streetName": "REYNIER",
        "streetDirectionId": null,
        "streetTypeId": "DR",
        "placeName": "BRAMPTON",
        "streetNameDisplayText": "REYNIER DR, BRAMPTON"
      }
    ]
  },
  {
    "postal": "L6Z8T0",
    "result": []
  },
  {
    "postal": "L6Z3K8",
    "result": [
      {
        "electoralDistricts": [
          {
            "election": null,
            "id": 10,
            "name": "Brampton North"
          }
        ],
        "pollDivisionIds": [
          10126608
        ],
        "postalCode": "L6Z3K8",
        "streetName": "BIRDSALL",
        "streetDirectionId": null,
        "streetTypeId": "CRT",
        "placeName": "BRAMPTON",
        "streetNameDisplayText": "BIRDSALL CRT, BRAMPTON"
      },
      {
        "electoralDistricts": [
          {
            "election": null,
            "id": 10,
            "name": "Brampton North"
          }
        ],
        "pollDivisionIds": [
          10126608
        ],
        "postalCode": "L6Z3K8",
        "streetName": "BLUEBIRD",
        "streetDirectionId": null,
        "streetTypeId": "CRT",
        "placeName": "BRAMPTON",
        "streetNameDisplayText": "BLUEBIRD CRT, BRAMPTON"
      }
    ]
  },
  {
    "postal": "L6Z5W9",
    "result": []
  },
  {
    "postal": "L6Z6T9",
    "result": []
  },
  {
    "postal": "L6Z4H1",
    "result": [
      {
        "electoralDistricts": [
          {
            "election": null,
            "id": 10,
            "name": "Brampton North"
          }
        ],
        "pollDivisionIds": [
          10126618
        ],
        "postalCode": "L6Z4H1",
        "streetName": "CHEVIOT",
        "streetDirectionId": null,
        "streetTypeId": "CRES",
        "placeName": "BRAMPTON",
        "streetNameDisplayText": "CHEVIOT CRES, BRAMPTON"
      }
    ]
  },
  {
    "postal": "L6Z7A2",
    "result": []
  },
  {
    "postal": "L6Z5G0",
    "result": []
  },
  {
    "postal": "L6Z8V5",
    "result": []
  },
  {
    "postal": "L6Z2Y8",
    "result": [
      {
        "electoralDistricts": [
          {
            "election": null,
            "id": 10,
            "name": "Brampton North"
          }
        ],
        "pollDivisionIds": [
          10126611
        ],
        "postalCode": "L6Z2Y8",
        "streetName": "CASHEL",
        "streetDirectionId": null,
        "streetTypeId": "ST",
        "placeName": "BRAMPTON",
        "streetNameDisplayText": "CASHEL ST, BRAMPTON"
      },
      {
        "electoralDistricts": [
          {
            "election": null,
            "id": 10,
            "name": "Brampton North"
          }
        ],
        "pollDivisionIds": [
          10126611
        ],
        "postalCode": "L6Z2Y8",
        "streetName": "SHENSTONE",
        "streetDirectionId": null,
        "streetTypeId": "AVE",
        "placeName": "BRAMPTON",
        "streetNameDisplayText": "SHENSTONE AVE, BRAMPTON"
      }
    ]
  },
  {
    "postal": "L6Z2B6",
    "result": [
      {
        "electoralDistricts": [
          {
            "election": null,
            "id": 10,
            "name": "Brampton North"
          }
        ],
        "pollDivisionIds": [
          10126610
        ],
        "postalCode": "L6Z2B6",
        "streetName": "SUNFOREST",
        "streetDirectionId": null,
        "streetTypeId": "DR",
        "placeName": "BRAMPTON",
        "streetNameDisplayText": "SUNFOREST DR, BRAMPTON"
      }
    ]
  },
  {
    "postal": "L6Z4W8",
    "result": [
      {
        "electoralDistricts": [
          {
            "election": null,
            "id": 10,
            "name": "Brampton North"
          }
        ],
        "pollDivisionIds": [
          10126618
        ],
        "postalCode": "L6Z4W8",
        "streetName": "RICHVALE",
        "streetDirectionId": "S",
        "streetTypeId": "DR",
        "placeName": "BRAMPTON",
        "streetNameDisplayText": "RICHVALE DR S, BRAMPTON"
      }
    ]
  },
  {
    "postal": "L6Z8H7",
    "result": []
  },
  {
    "postal": "L6Z5P1",
    "result": []
  },
  {
    "postal": "L6Z2B8",
    "result": [
      {
        "electoralDistricts": [
          {
            "election": null,
            "id": 10,
            "name": "Brampton North"
          }
        ],
        "pollDivisionIds": [
          10126610
        ],
        "postalCode": "L6Z2B8",
        "streetName": "SUNSHADE",
        "streetDirectionId": null,
        "streetTypeId": "PL",
        "placeName": "BRAMPTON",
        "streetNameDisplayText": "SUNSHADE PL, BRAMPTON"
      }
    ]
  },
  {
    "postal": "L6Z0P2",
    "result": []
  },
  {
    "postal": "L6Z9M1",
    "result": []
  },
  {
    "postal": "L6Z3G0",
    "result": []
  },
  {
    "postal": "L6Z9Z2",
    "result": []
  },
  {
    "postal": "L6Z2A0",
    "result": []
  },
  {
    "postal": "L6Z6Y0",
    "result": []
  },
  {
    "postal": "L6Z2Z8",
    "result": [
      {
        "electoralDistricts": [
          {
            "election": null,
            "id": 10,
            "name": "Brampton North"
          }
        ],
        "pollDivisionIds": [
          10126610
        ],
        "postalCode": "L6Z2Z8",
        "streetName": "CRANMORE",
        "streetDirectionId": null,
        "streetTypeId": "CRT",
        "placeName": "BRAMPTON",
        "streetNameDisplayText": "CRANMORE CRT, BRAMPTON"
      }
    ]
  },
  {
    "postal": "L6Z7Y3",
    "result": []
  },
  {
    "postal": "L6Z6Z5",
    "result": []
  },
  {
    "postal": "L6Z6E0",
    "result": []
  },
  {
    "postal": "L6Z9B7",
    "result": []
  },
  {
    "postal": "L6Z9S5",
    "result": []
  },
  {
    "postal": "L6Z3X3",
    "result": [
      {
        "electoralDistricts": [
          {
            "election": null,
            "id": 10,
            "name": "Brampton North"
          }
        ],
        "pollDivisionIds": [
          10126615
        ],
        "postalCode": "L6Z3X3",
        "streetName": "RUTH",
        "streetDirectionId": null,
        "streetTypeId": "AVE",
        "placeName": "BRAMPTON",
        "streetNameDisplayText": "RUTH AVE, BRAMPTON"
      }
    ]
  },
  {
    "postal": "L6Z7R5",
    "result": []
  },
  {
    "postal": "L6Z2X3",
    "result": [
      {
        "electoralDistricts": [
          {
            "election": null,
            "id": 10,
            "name": "Brampton North"
          }
        ],
        "pollDivisionIds": [
          10126611
        ],
        "postalCode": "L6Z2X3",
        "streetName": "DARNOCK",
        "streetDirectionId": null,
        "streetTypeId": "CRT",
        "placeName": "BRAMPTON",
        "streetNameDisplayText": "DARNOCK CRT, BRAMPTON"
      },
      {
        "electoralDistricts": [
          {
            "election": null,
            "id": 10,
            "name": "Brampton North"
          }
        ],
        "pollDivisionIds": [
          10126611
        ],
        "postalCode": "L6Z2X3",
        "streetName": "DUMFRIES",
        "streetDirectionId": null,
        "streetTypeId": "AVE",
        "placeName": "BRAMPTON",
        "streetNameDisplayText": "DUMFRIES AVE, BRAMPTON"
      },
      {
        "electoralDistricts": [
          {
            "election": null,
            "id": 10,
            "name": "Brampton North"
          }
        ],
        "pollDivisionIds": [
          10126611
        ],
        "postalCode": "L6Z2X3",
        "streetName": "TRALEE",
        "streetDirectionId": null,
        "streetTypeId": "ST",
        "placeName": "BRAMPTON",
        "streetNameDisplayText": "TRALEE ST, BRAMPTON"
      }
    ]
  },
  {
    "postal": "L6Z8Z9",
    "result": []
  },
  {
    "postal": "L6Z0N4",
    "result": []
  },
  {
    "postal": "L6Z1K1",
    "result": [
      {
        "electoralDistricts": [
          {
            "election": null,
            "id": 10,
            "name": "Brampton North"
          }
        ],
        "pollDivisionIds": [
          10126614
        ],
        "postalCode": "L6Z1K1",
        "streetName": "MOUNT PLEASANT",
        "streetDirectionId": null,
        "streetTypeId": "DR",
        "placeName": "BRAMPTON",
        "streetNameDisplayText": "MOUNT PLEASANT DR, BRAMPTON"
      }
    ]
  },
  {
    "postal": "L6Z1S3",
    "result": [
      {
        "electoralDistricts": [
          {
            "election": null,
            "id": 10,
            "name": "Brampton North"
          }
        ],
        "pollDivisionIds": [
          10126607
        ],
        "postalCode": "L6Z1S3",
        "streetName": "LAKECREST",
        "streetDirectionId": null,
        "streetTypeId": "TRAIL",
        "placeName": "BRAMPTON",
        "streetNameDisplayText": "LAKECREST TRAIL, BRAMPTON"
      }
    ]
  },
  {
    "postal": "L6Z6M4",
    "result": []
  },
  {
    "postal": "L6Z9A9",
    "result": []
  },
  {
    "postal": "L6Z9Z9",
    "result": []
  },
  {
    "postal": "L6Z6T4",
    "result": []
  },
  {
    "postal": "L6Z0B2",
    "result": [
      {
        "electoralDistricts": [
          {
            "election": null,
            "id": 10,
            "name": "Brampton North"
          }
        ],
        "pollDivisionIds": [
          10126612
        ],
        "postalCode": "L6Z0B2",
        "streetName": "HEART LAKE",
        "streetDirectionId": null,
        "streetTypeId": "RD",
        "placeName": "BRAMPTON",
        "streetNameDisplayText": "HEART LAKE RD, BRAMPTON"
      }
    ]
  },
  {
    "postal": "L6Z2L9",
    "result": []
  },
  {
    "postal": "L6Z8K9",
    "result": []
  },
  {
    "postal": "L6Z2H9",
    "result": []
  },
  {
    "postal": "L6Z3Z6",
    "result": [
      {
        "electoralDistricts": [
          {
            "election": null,
            "id": 10,
            "name": "Brampton North"
          }
        ],
        "pollDivisionIds": [
          10126611
        ],
        "postalCode": "L6Z3Z6",
        "streetName": "CORONATION",
        "streetDirectionId": null,
        "streetTypeId": "CIR",
        "placeName": "BRAMPTON",
        "streetNameDisplayText": "CORONATION CIR, BRAMPTON"
      }
    ]
  },
  {
    "postal": "L6Z3B0",
    "result": []
  },
  {
    "postal": "L6Z2H8",
    "result": []
  },
  {
    "postal": "L6Z3X2",
    "result": [
      {
        "electoralDistricts": [
          {
            "election": null,
            "id": 10,
            "name": "Brampton North"
          }
        ],
        "pollDivisionIds": [
          10126615
        ],
        "postalCode": "L6Z3X2",
        "streetName": "MUSKOKA",
        "streetDirectionId": null,
        "streetTypeId": "ST",
        "placeName": "BRAMPTON",
        "streetNameDisplayText": "MUSKOKA ST, BRAMPTON"
      },
      {
        "electoralDistricts": [
          {
            "election": null,
            "id": 10,
            "name": "Brampton North"
          }
        ],
        "pollDivisionIds": [
          10126615
        ],
        "postalCode": "L6Z3X2",
        "streetName": "RUTH",
        "streetDirectionId": null,
        "streetTypeId": "AVE",
        "placeName": "BRAMPTON",
        "streetNameDisplayText": "RUTH AVE, BRAMPTON"
      }
    ]
  },
  {
    "postal": "L6Z2E9",
    "result": []
  },
  {
    "postal": "L6Z9P6",
    "result": []
  },
  {
    "postal": "L6Z9E2",
    "result": []
  },
  {
    "postal": "L6Z9H2",
    "result": []
  },
  {
    "postal": "L6Z1S8",
    "result": [
      {
        "electoralDistricts": [
          {
            "election": null,
            "id": 10,
            "name": "Brampton North"
          }
        ],
        "pollDivisionIds": [
          10126608
        ],
        "postalCode": "L6Z1S8",
        "streetName": "AXMINSTER",
        "streetDirectionId": null,
        "streetTypeId": "RD",
        "placeName": "BRAMPTON",
        "streetNameDisplayText": "AXMINSTER RD, BRAMPTON"
      }
    ]
  },
  {
    "postal": "L6Z3M6",
    "result": [
      {
        "electoralDistricts": [
          {
            "election": null,
            "id": 10,
            "name": "Brampton North"
          }
        ],
        "pollDivisionIds": [
          10126608
        ],
        "postalCode": "L6Z3M6",
        "streetName": "RAVINDER",
        "streetDirectionId": null,
        "streetTypeId": "CRT",
        "placeName": "BRAMPTON",
        "streetNameDisplayText": "RAVINDER CRT, BRAMPTON"
      }
    ]
  },
  {
    "postal": "L6Z6Z8",
    "result": []
  },
  {
    "postal": "L6Z4J2",
    "result": [
      {
        "electoralDistricts": [
          {
            "election": null,
            "id": 10,
            "name": "Brampton North"
          }
        ],
        "pollDivisionIds": [
          10126618
        ],
        "postalCode": "L6Z4J2",
        "streetName": "ALLENHEAD",
        "streetDirectionId": null,
        "streetTypeId": "CRES",
        "placeName": "BRAMPTON",
        "streetNameDisplayText": "ALLENHEAD CRES, BRAMPTON"
      }
    ]
  },
  {
    "postal": "L6Z9Y1",
    "result": []
  },
  {
    "postal": "L6Z8V6",
    "result": []
  },
  {
    "postal": "L6Z6B2",
    "result": []
  },
  {
    "postal": "L6Z1P8",
    "result": [
      {
        "electoralDistricts": [
          {
            "election": null,
            "id": 10,
            "name": "Brampton North"
          }
        ],
        "pollDivisionIds": [
          10126612
        ],
        "postalCode": "L6Z1P8",
        "streetName": "ROYAL PALM",
        "streetDirectionId": null,
        "streetTypeId": "DR",
        "placeName": "BRAMPTON",
        "streetNameDisplayText": "ROYAL PALM DR, BRAMPTON"
      }
    ]
  },
  {
    "postal": "L6Z0V8",
    "result": []
  },
  {
    "postal": "L6Z4Y0",
    "result": []
  },
  {
    "postal": "L6Z2T4",
    "result": [
      {
        "electoralDistricts": [
          {
            "election": null,
            "id": 10,
            "name": "Brampton North"
          }
        ],
        "pollDivisionIds": [
          10126615,
          10126611
        ],
        "postalCode": "L6Z2T4",
        "streetName": "CONESTOGA",
        "streetDirectionId": null,
        "streetTypeId": "DR",
        "placeName": "BRAMPTON",
        "streetNameDisplayText": "CONESTOGA DR, BRAMPTON"
      },
      {
        "electoralDistricts": [
          {
            "election": null,
            "id": 10,
            "name": "Brampton North"
          }
        ],
        "pollDivisionIds": [
          10126611
        ],
        "postalCode": "L6Z2T4",
        "streetName": "WEXFORD",
        "streetDirectionId": null,
        "streetTypeId": "RD",
        "placeName": "BRAMPTON",
        "streetNameDisplayText": "WEXFORD RD, BRAMPTON"
      }
    ]
  },
  {
    "postal": "L6Z2S3",
    "result": [
      {
        "electoralDistricts": [
          {
            "election": null,
            "id": 10,
            "name": "Brampton North"
          }
        ],
        "pollDivisionIds": [
          10126615
        ],
        "postalCode": "L6Z2S3",
        "streetName": "ADAM",
        "streetDirectionId": null,
        "streetTypeId": "ST",
        "placeName": "BRAMPTON",
        "streetNameDisplayText": "ADAM ST, BRAMPTON"
      }
    ]
  },
  {
    "postal": "L6Z0K0",
    "result": []
  },
  {
    "postal": "L6Z5N1",
    "result": []
  },
  {
    "postal": "L6Z7T0",
    "result": []
  },
  {
    "postal": "L6Z9N2",
    "result": []
  },
  {
    "postal": "L6Z5L1",
    "result": []
  },
  {
    "postal": "L6Z7G5",
    "result": []
  },
  {
    "postal": "L6Z6K2",
    "result": []
  },
  {
    "postal": "L6Z6P9",
    "result": []
  },
  {
    "postal": "L6Z0E6",
    "result": [
      {
        "electoralDistricts": [
          {
            "election": null,
            "id": 10,
            "name": "Brampton North"
          }
        ],
        "pollDivisionIds": [
          10126611
        ],
        "postalCode": "L6Z0E6",
        "streetName": "HURONTARIO",
        "streetDirectionId": null,
        "streetTypeId": "ST",
        "placeName": "BRAMPTON",
        "streetNameDisplayText": "HURONTARIO ST, BRAMPTON"
      }
    ]
  },
  {
    "postal": "L6Z8R9",
    "result": []
  },
  {
    "postal": "L6Z3G9",
    "result": [
      {
        "electoralDistricts": [
          {
            "election": null,
            "id": 10,
            "name": "Brampton North"
          }
        ],
        "pollDivisionIds": [
          10126608
        ],
        "postalCode": "L6Z3G9",
        "streetName": "CHALMERS",
        "streetDirectionId": null,
        "streetTypeId": "CRT",
        "placeName": "BRAMPTON",
        "streetNameDisplayText": "CHALMERS CRT, BRAMPTON"
      }
    ]
  },
  {
    "postal": "L6Z0V7",
    "result": []
  },
  {
    "postal": "L6Z2Z1",
    "result": [
      {
        "electoralDistricts": [
          {
            "election": null,
            "id": 10,
            "name": "Brampton North"
          }
        ],
        "pollDivisionIds": [
          10126611
        ],
        "postalCode": "L6Z2Z1",
        "streetName": "CASHEL",
        "streetDirectionId": null,
        "streetTypeId": "ST",
        "placeName": "BRAMPTON",
        "streetNameDisplayText": "CASHEL ST, BRAMPTON"
      },
      {
        "electoralDistricts": [
          {
            "election": null,
            "id": 10,
            "name": "Brampton North"
          }
        ],
        "pollDivisionIds": [
          10126611
        ],
        "postalCode": "L6Z2Z1",
        "streetName": "SUNFOREST",
        "streetDirectionId": null,
        "streetTypeId": "DR",
        "placeName": "BRAMPTON",
        "streetNameDisplayText": "SUNFOREST DR, BRAMPTON"
      }
    ]
  },
  {
    "postal": "L6Z7N1",
    "result": []
  },
  {
    "postal": "L6Z3C6",
    "result": [
      {
        "electoralDistricts": [
          {
            "election": null,
            "id": 10,
            "name": "Brampton North"
          }
        ],
        "pollDivisionIds": [
          10126614
        ],
        "postalCode": "L6Z3C6",
        "streetName": "ESKER",
        "streetDirectionId": null,
        "streetTypeId": "DR",
        "placeName": "BRAMPTON",
        "streetNameDisplayText": "ESKER DR, BRAMPTON"
      }
    ]
  },
  {
    "postal": "L6Z4M1",
    "result": [
      {
        "electoralDistricts": [
          {
            "election": null,
            "id": 10,
            "name": "Brampton North"
          }
        ],
        "pollDivisionIds": [
          10126607
        ],
        "postalCode": "L6Z4M1",
        "streetName": "BRAIDWOOD LAKE",
        "streetDirectionId": null,
        "streetTypeId": "RD",
        "placeName": "BRAMPTON",
        "streetNameDisplayText": "BRAIDWOOD LAKE RD, BRAMPTON"
      },
      {
        "electoralDistricts": [
          {
            "election": null,
            "id": 10,
            "name": "Brampton North"
          }
        ],
        "pollDivisionIds": [
          10126607
        ],
        "postalCode": "L6Z4M1",
        "streetName": "SHADYWOOD",
        "streetDirectionId": null,
        "streetTypeId": "RD",
        "placeName": "BRAMPTON",
        "streetNameDisplayText": "SHADYWOOD RD, BRAMPTON"
      }
    ]
  },
  {
    "postal": "L6Z9K2",
    "result": []
  },
  {
    "postal": "L6Z9S6",
    "result": []
  },
  {
    "postal": "L6Z4X1",
    "result": [
      {
        "electoralDistricts": [
          {
            "election": null,
            "id": 10,
            "name": "Brampton North"
          }
        ],
        "pollDivisionIds": [
          10126609
        ],
        "postalCode": "L6Z4X1",
        "streetName": "SANDALWOOD",
        "streetDirectionId": "E",
        "streetTypeId": "PKY",
        "placeName": "BRAMPTON",
        "streetNameDisplayText": "SANDALWOOD PKY E, BRAMPTON"
      }
    ]
  },
  {
    "postal": "L6Z8W2",
    "result": []
  },
  {
    "postal": "L6Z7N2",
    "result": []
  },
  {
    "postal": "L6Z8S3",
    "result": []
  },
  {
    "postal": "L6Z4V0",
    "result": []
  },
  {
    "postal": "L6Z6W4",
    "result": []
  },
  {
    "postal": "L6Z5M1",
    "result": []
  },
  {
    "postal": "L6Z0S4",
    "result": []
  },
  {
    "postal": "L6Z5X6",
    "result": []
  },
  {
    "postal": "L6Z8L5",
    "result": []
  },
  {
    "postal": "L6Z5M8",
    "result": []
  },
  {
    "postal": "L6Z2G3",
    "result": []
  },
  {
    "postal": "L6Z8E4",
    "result": []
  },
  {
    "postal": "L6Z7S9",
    "result": []
  },
  {
    "postal": "L6Z1K3",
    "result": []
  },
  {
    "postal": "L6Z4E1",
    "result": [
      {
        "electoralDistricts": [
          {
            "election": null,
            "id": 10,
            "name": "Brampton North"
          }
        ],
        "pollDivisionIds": [
          10126607
        ],
        "postalCode": "L6Z4E1",
        "streetName": "SAPPHIRE",
        "streetDirectionId": null,
        "streetTypeId": "CRES",
        "placeName": "BRAMPTON",
        "streetNameDisplayText": "SAPPHIRE CRES, BRAMPTON"
      }
    ]
  },
  {
    "postal": "L6Z4R2",
    "result": [
      {
        "electoralDistricts": [
          {
            "election": null,
            "id": 10,
            "name": "Brampton North"
          }
        ],
        "pollDivisionIds": [
          10126615
        ],
        "postalCode": "L6Z4R2",
        "streetName": "RUTH",
        "streetDirectionId": null,
        "streetTypeId": "AVE",
        "placeName": "BRAMPTON",
        "streetNameDisplayText": "RUTH AVE, BRAMPTON"
      }
    ]
  },
  {
    "postal": "L6Z6T0",
    "result": []
  },
  {
    "postal": "L6Z3K5",
    "result": [
      {
        "electoralDistricts": [
          {
            "election": null,
            "id": 10,
            "name": "Brampton North"
          }
        ],
        "pollDivisionIds": [
          10126608
        ],
        "postalCode": "L6Z3K5",
        "streetName": "KENPARK",
        "streetDirectionId": null,
        "streetTypeId": "AVE",
        "placeName": "BRAMPTON",
        "streetNameDisplayText": "KENPARK AVE, BRAMPTON"
      }
    ]
  },
  {
    "postal": "L6Z3S3",
    "result": [
      {
        "electoralDistricts": [
          {
            "election": null,
            "id": 10,
            "name": "Brampton North"
          }
        ],
        "pollDivisionIds": [
          10126615
        ],
        "postalCode": "L6Z3S3",
        "streetName": "WHITEHAVEN",
        "streetDirectionId": null,
        "streetTypeId": "DR",
        "placeName": "BRAMPTON",
        "streetNameDisplayText": "WHITEHAVEN DR, BRAMPTON"
      }
    ]
  },
  {
    "postal": "L6Z3L4",
    "result": [
      {
        "electoralDistricts": [
          {
            "election": null,
            "id": 10,
            "name": "Brampton North"
          }
        ],
        "pollDivisionIds": [
          10126608
        ],
        "postalCode": "L6Z3L4",
        "streetName": "KENPARK",
        "streetDirectionId": null,
        "streetTypeId": "AVE",
        "placeName": "BRAMPTON",
        "streetNameDisplayText": "KENPARK AVE, BRAMPTON"
      }
    ]
  },
  {
    "postal": "L6Z9Y2",
    "result": []
  },
  {
    "postal": "L6Z1E0",
    "result": []
  },
  {
    "postal": "L6Z9A4",
    "result": []
  },
  {
    "postal": "L6Z1L3",
    "result": [
      {
        "electoralDistricts": [
          {
            "election": null,
            "id": 10,
            "name": "Brampton North"
          }
        ],
        "pollDivisionIds": [
          10126614
        ],
        "postalCode": "L6Z1L3",
        "streetName": "REYNIER",
        "streetDirectionId": null,
        "streetTypeId": "DR",
        "placeName": "BRAMPTON",
        "streetNameDisplayText": "REYNIER DR, BRAMPTON"
      }
    ]
  },
  {
    "postal": "L6Z6N1",
    "result": []
  },
  {
    "postal": "L6Z6G7",
    "result": []
  },
  {
    "postal": "L6Z7W1",
    "result": []
  },
  {
    "postal": "L6Z4M6",
    "result": [
      {
        "electoralDistricts": [
          {
            "election": null,
            "id": 10,
            "name": "Brampton North"
          }
        ],
        "pollDivisionIds": [
          10126607
        ],
        "postalCode": "L6Z4M6",
        "streetName": "SHADYWOOD",
        "streetDirectionId": null,
        "streetTypeId": "RD",
        "placeName": "BRAMPTON",
        "streetNameDisplayText": "SHADYWOOD RD, BRAMPTON"
      }
    ]
  },
  {
    "postal": "L6Z1K0",
    "result": []
  },
  {
    "postal": "L6Z3E2",
    "result": [
      {
        "electoralDistricts": [
          {
            "election": null,
            "id": 10,
            "name": "Brampton North"
          }
        ],
        "pollDivisionIds": [
          10126614
        ],
        "postalCode": "L6Z3E2",
        "streetName": "BARR",
        "streetDirectionId": null,
        "streetTypeId": "CRES",
        "placeName": "BRAMPTON",
        "streetNameDisplayText": "BARR CRES, BRAMPTON"
      }
    ]
  },
  {
    "postal": "L6Z5H4",
    "result": []
  },
  {
    "postal": "L6Z1K7",
    "result": [
      {
        "electoralDistricts": [
          {
            "election": null,
            "id": 10,
            "name": "Brampton North"
          }
        ],
        "pollDivisionIds": [
          10126614
        ],
        "postalCode": "L6Z1K7",
        "streetName": "PIEDMONT",
        "streetDirectionId": null,
        "streetTypeId": "DR",
        "placeName": "BRAMPTON",
        "streetNameDisplayText": "PIEDMONT DR, BRAMPTON"
      }
    ]
  },
  {
    "postal": "L6Z0H0",
    "result": []
  },
  {
    "postal": "L6Z0J3",
    "result": [
      {
        "electoralDistricts": [
          {
            "election": null,
            "id": 10,
            "name": "Brampton North"
          }
        ],
        "pollDivisionIds": [
          10126618
        ],
        "postalCode": "L6Z0J3",
        "streetName": "HOBART",
        "streetDirectionId": null,
        "streetTypeId": "GDNS",
        "placeName": "BRAMPTON",
        "streetNameDisplayText": "HOBART GDNS, BRAMPTON"
      },
      {
        "electoralDistricts": [
          {
            "election": null,
            "id": 10,
            "name": "Brampton North"
          }
        ],
        "pollDivisionIds": [
          10126618
        ],
        "postalCode": "L6Z0J3",
        "streetName": "SHIPMATE",
        "streetDirectionId": null,
        "streetTypeId": "AVE",
        "placeName": "BRAMPTON",
        "streetNameDisplayText": "SHIPMATE AVE, BRAMPTON"
      },
      {
        "electoralDistricts": [
          {
            "election": null,
            "id": 10,
            "name": "Brampton North"
          }
        ],
        "pollDivisionIds": [
          10126618
        ],
        "postalCode": "L6Z0J3",
        "streetName": "SPRUCEWOOD",
        "streetDirectionId": null,
        "streetTypeId": "RD",
        "placeName": "BRAMPTON",
        "streetNameDisplayText": "SPRUCEWOOD RD, BRAMPTON"
      }
    ]
  },
  {
    "postal": "L6Z1X6",
    "result": [
      {
        "electoralDistricts": [
          {
            "election": null,
            "id": 10,
            "name": "Brampton North"
          }
        ],
        "pollDivisionIds": [
          10126607
        ],
        "postalCode": "L6Z1X6",
        "streetName": "BRAIDWOOD LAKE",
        "streetDirectionId": null,
        "streetTypeId": "RD",
        "placeName": "BRAMPTON",
        "streetNameDisplayText": "BRAIDWOOD LAKE RD, BRAMPTON"
      }
    ]
  },
  {
    "postal": "L6Z2Z6",
    "result": [
      {
        "electoralDistricts": [
          {
            "election": null,
            "id": 10,
            "name": "Brampton North"
          }
        ],
        "pollDivisionIds": [
          10126611
        ],
        "postalCode": "L6Z2Z6",
        "streetName": "TRALEE",
        "streetDirectionId": null,
        "streetTypeId": "ST",
        "placeName": "BRAMPTON",
        "streetNameDisplayText": "TRALEE ST, BRAMPTON"
      }
    ]
  },
  {
    "postal": "L6Z4R9",
    "result": [
      {
        "electoralDistricts": [
          {
            "election": null,
            "id": 10,
            "name": "Brampton North"
          }
        ],
        "pollDivisionIds": [
          10126618
        ],
        "postalCode": "L6Z4R9",
        "streetName": "TOBA",
        "streetDirectionId": null,
        "streetTypeId": "CRES",
        "placeName": "BRAMPTON",
        "streetNameDisplayText": "TOBA CRES, BRAMPTON"
      }
    ]
  },
  {
    "postal": "L6Z0W8",
    "result": []
  },
  {
    "postal": "L6Z1L4",
    "result": [
      {
        "electoralDistricts": [
          {
            "election": null,
            "id": 10,
            "name": "Brampton North"
          }
        ],
        "pollDivisionIds": [
          10126614
        ],
        "postalCode": "L6Z1L4",
        "streetName": "REYNIER",
        "streetDirectionId": null,
        "streetTypeId": "DR",
        "placeName": "BRAMPTON",
        "streetNameDisplayText": "REYNIER DR, BRAMPTON"
      }
    ]
  },
  {
    "postal": "L6Z0C8",
    "result": [
      {
        "electoralDistricts": [
          {
            "election": null,
            "id": 10,
            "name": "Brampton North"
          }
        ],
        "pollDivisionIds": [
          10126612
        ],
        "postalCode": "L6Z0C8",
        "streetName": "BAILEY",
        "streetDirectionId": null,
        "streetTypeId": "PL",
        "placeName": "BRAMPTON",
        "streetNameDisplayText": "BAILEY PL, BRAMPTON"
      },
      {
        "electoralDistricts": [
          {
            "election": null,
            "id": 10,
            "name": "Brampton North"
          }
        ],
        "pollDivisionIds": [
          10126612
        ],
        "postalCode": "L6Z0C8",
        "streetName": "COPPERFIELD",
        "streetDirectionId": null,
        "streetTypeId": "RD",
        "placeName": "BRAMPTON",
        "streetNameDisplayText": "COPPERFIELD RD, BRAMPTON"
      }
    ]
  },
  {
    "postal": "L6Z9X7",
    "result": []
  },
  {
    "postal": "L6Z4T1",
    "result": [
      {
        "electoralDistricts": [
          {
            "election": null,
            "id": 10,
            "name": "Brampton North"
          }
        ],
        "pollDivisionIds": [
          10126610
        ],
        "postalCode": "L6Z4T1",
        "streetName": "TOWNLEY",
        "streetDirectionId": null,
        "streetTypeId": "CRES",
        "placeName": "BRAMPTON",
        "streetNameDisplayText": "TOWNLEY CRES, BRAMPTON"
      }
    ]
  },
  {
    "postal": "L6Z0M0",
    "result": []
  },
  {
    "postal": "L6Z6A2",
    "result": []
  },
  {
    "postal": "L6Z9S8",
    "result": []
  },
  {
    "postal": "L6Z9T4",
    "result": []
  },
  {
    "postal": "L6Z9Y4",
    "result": []
  },
  {
    "postal": "L6Z6G5",
    "result": []
  },
  {
    "postal": "L6Z6H9",
    "result": []
  },
  {
    "postal": "L6Z2P3",
    "result": [
      {
        "electoralDistricts": [
          {
            "election": null,
            "id": 10,
            "name": "Brampton North"
          }
        ],
        "pollDivisionIds": [
          10126614
        ],
        "postalCode": "L6Z2P3",
        "streetName": "MOUNT PLEASANT",
        "streetDirectionId": null,
        "streetTypeId": "DR",
        "placeName": "BRAMPTON",
        "streetNameDisplayText": "MOUNT PLEASANT DR, BRAMPTON"
      }
    ]
  },
  {
    "postal": "L6Z1T6",
    "result": [
      {
        "electoralDistricts": [
          {
            "election": null,
            "id": 10,
            "name": "Brampton North"
          }
        ],
        "pollDivisionIds": [
          10126609
        ],
        "postalCode": "L6Z1T6",
        "streetName": "CAIRNMORE",
        "streetDirectionId": null,
        "streetTypeId": "CRT",
        "placeName": "BRAMPTON",
        "streetNameDisplayText": "CAIRNMORE CRT, BRAMPTON"
      }
    ]
  },
  {
    "postal": "L6Z4P6",
    "result": [
      {
        "electoralDistricts": [
          {
            "election": null,
            "id": 10,
            "name": "Brampton North"
          }
        ],
        "pollDivisionIds": [
          10126614,
          10126618
        ],
        "postalCode": "L6Z4P6",
        "streetName": "RICHVALE",
        "streetDirectionId": "S",
        "streetTypeId": "DR",
        "placeName": "BRAMPTON",
        "streetNameDisplayText": "RICHVALE DR S, BRAMPTON"
      }
    ]
  },
  {
    "postal": "L6Z3K1",
    "result": [
      {
        "electoralDistricts": [
          {
            "election": null,
            "id": 10,
            "name": "Brampton North"
          }
        ],
        "pollDivisionIds": [
          10126608
        ],
        "postalCode": "L6Z3K1",
        "streetName": "KENPARK",
        "streetDirectionId": null,
        "streetTypeId": "AVE",
        "placeName": "BRAMPTON",
        "streetNameDisplayText": "KENPARK AVE, BRAMPTON"
      },
      {
        "electoralDistricts": [
          {
            "election": null,
            "id": 10,
            "name": "Brampton North"
          }
        ],
        "pollDivisionIds": [
          10126608
        ],
        "postalCode": "L6Z3K1",
        "streetName": "MINTWOOD",
        "streetDirectionId": null,
        "streetTypeId": "CRT",
        "placeName": "BRAMPTON",
        "streetNameDisplayText": "MINTWOOD CRT, BRAMPTON"
      }
    ]
  },
  {
    "postal": "L6Z6X4",
    "result": []
  },
  {
    "postal": "L6Z4M8",
    "result": [
      {
        "electoralDistricts": [
          {
            "election": null,
            "id": 10,
            "name": "Brampton North"
          }
        ],
        "pollDivisionIds": [
          10126607
        ],
        "postalCode": "L6Z4M8",
        "streetName": "SHADYWOOD",
        "streetDirectionId": null,
        "streetTypeId": "RD",
        "placeName": "BRAMPTON",
        "streetNameDisplayText": "SHADYWOOD RD, BRAMPTON"
      },
      {
        "electoralDistricts": [
          {
            "election": null,
            "id": 10,
            "name": "Brampton North"
          }
        ],
        "pollDivisionIds": [
          10126607
        ],
        "postalCode": "L6Z4M8",
        "streetName": "VOGUE",
        "streetDirectionId": null,
        "streetTypeId": "CRES",
        "placeName": "BRAMPTON",
        "streetNameDisplayText": "VOGUE CRES, BRAMPTON"
      }
    ]
  },
  {
    "postal": "L6Z2Y1",
    "result": [
      {
        "electoralDistricts": [
          {
            "election": null,
            "id": 10,
            "name": "Brampton North"
          }
        ],
        "pollDivisionIds": [
          10126611
        ],
        "postalCode": "L6Z2Y1",
        "streetName": "LANGHOLM",
        "streetDirectionId": null,
        "streetTypeId": "CRT",
        "placeName": "BRAMPTON",
        "streetNameDisplayText": "LANGHOLM CRT, BRAMPTON"
      }
    ]
  },
  {
    "postal": "L6Z6M1",
    "result": []
  },
  {
    "postal": "L6Z5L8",
    "result": []
  },
  {
    "postal": "L6Z3P6",
    "result": [
      {
        "electoralDistricts": [
          {
            "election": null,
            "id": 10,
            "name": "Brampton North"
          }
        ],
        "pollDivisionIds": [
          10126615
        ],
        "postalCode": "L6Z3P6",
        "streetName": "BERWICK",
        "streetDirectionId": null,
        "streetTypeId": "AVE",
        "placeName": "BRAMPTON",
        "streetNameDisplayText": "BERWICK AVE, BRAMPTON"
      }
    ]
  },
  {
    "postal": "L6Z9A5",
    "result": []
  },
  {
    "postal": "L6Z7K1",
    "result": []
  },
  {
    "postal": "L6Z3J4",
    "result": [
      {
        "electoralDistricts": [
          {
            "election": null,
            "id": 10,
            "name": "Brampton North"
          }
        ],
        "pollDivisionIds": [
          10126608
        ],
        "postalCode": "L6Z3J4",
        "streetName": "ARCHER",
        "streetDirectionId": null,
        "streetTypeId": "CRT",
        "placeName": "BRAMPTON",
        "streetNameDisplayText": "ARCHER CRT, BRAMPTON"
      },
      {
        "electoralDistricts": [
          {
            "election": null,
            "id": 10,
            "name": "Brampton North"
          }
        ],
        "pollDivisionIds": [
          10126608
        ],
        "postalCode": "L6Z3J4",
        "streetName": "CHRISTIE",
        "streetDirectionId": null,
        "streetTypeId": "DR",
        "placeName": "BRAMPTON",
        "streetNameDisplayText": "CHRISTIE DR, BRAMPTON"
      }
    ]
  },
  {
    "postal": "L6Z5E7",
    "result": []
  },
  {
    "postal": "L6Z3A7",
    "result": [
      {
        "electoralDistricts": [
          {
            "election": null,
            "id": 10,
            "name": "Brampton North"
          }
        ],
        "pollDivisionIds": [
          10126610
        ],
        "postalCode": "L6Z3A7",
        "streetName": "STEVEN",
        "streetDirectionId": null,
        "streetTypeId": "CRT",
        "placeName": "BRAMPTON",
        "streetNameDisplayText": "STEVEN CRT, BRAMPTON"
      }
    ]
  },
  {
    "postal": "L6Z1B9",
    "result": [
      {
        "electoralDistricts": [
          {
            "election": null,
            "id": 10,
            "name": "Brampton North"
          }
        ],
        "pollDivisionIds": [
          10126609
        ],
        "postalCode": "L6Z1B9",
        "streetName": "NOTTAWASAGA",
        "streetDirectionId": null,
        "streetTypeId": "CRES",
        "placeName": "BRAMPTON",
        "streetNameDisplayText": "NOTTAWASAGA CRES, BRAMPTON"
      }
    ]
  },
  {
    "postal": "L6Z9E8",
    "result": []
  },
  {
    "postal": "L6Z1C9",
    "result": [
      {
        "electoralDistricts": [
          {
            "election": null,
            "id": 10,
            "name": "Brampton North"
          }
        ],
        "pollDivisionIds": [
          10126609
        ],
        "postalCode": "L6Z1C9",
        "streetName": "TRAVERSTON",
        "streetDirectionId": null,
        "streetTypeId": "CRT",
        "placeName": "BRAMPTON",
        "streetNameDisplayText": "TRAVERSTON CRT, BRAMPTON"
      }
    ]
  },
  {
    "postal": "L6Z3B5",
    "result": [
      {
        "electoralDistricts": [
          {
            "election": null,
            "id": 10,
            "name": "Brampton North"
          }
        ],
        "pollDivisionIds": [
          10126614
        ],
        "postalCode": "L6Z3B5",
        "streetName": "KILLARNEY",
        "streetDirectionId": null,
        "streetTypeId": "CRT",
        "placeName": "BRAMPTON",
        "streetNameDisplayText": "KILLARNEY CRT, BRAMPTON"
      }
    ]
  },
  {
    "postal": "L6Z8R0",
    "result": []
  },
  {
    "postal": "L6Z3P2",
    "result": [
      {
        "electoralDistricts": [
          {
            "election": null,
            "id": 10,
            "name": "Brampton North"
          }
        ],
        "pollDivisionIds": [
          10126608
        ],
        "postalCode": "L6Z3P2",
        "streetName": "FERNBROOK",
        "streetDirectionId": null,
        "streetTypeId": "CRES",
        "placeName": "BRAMPTON",
        "streetNameDisplayText": "FERNBROOK CRES, BRAMPTON"
      }
    ]
  },
  {
    "postal": "L6Z5V4",
    "result": []
  },
  {
    "postal": "L6Z4H0",
    "result": []
  },
  {
    "postal": "L6Z4S7",
    "result": [
      {
        "electoralDistricts": [
          {
            "election": null,
            "id": 10,
            "name": "Brampton North"
          }
        ],
        "pollDivisionIds": [
          10126610
        ],
        "postalCode": "L6Z4S7",
        "streetName": "SUNFOREST",
        "streetDirectionId": null,
        "streetTypeId": "DR",
        "placeName": "BRAMPTON",
        "streetNameDisplayText": "SUNFOREST DR, BRAMPTON"
      },
      {
        "electoralDistricts": [
          {
            "election": null,
            "id": 10,
            "name": "Brampton North"
          }
        ],
        "pollDivisionIds": [
          10126610
        ],
        "postalCode": "L6Z4S7",
        "streetName": "TOWNLEY",
        "streetDirectionId": null,
        "streetTypeId": "CRES",
        "placeName": "BRAMPTON",
        "streetNameDisplayText": "TOWNLEY CRES, BRAMPTON"
      }
    ]
  },
  {
    "postal": "L6Z6C2",
    "result": []
  },
  {
    "postal": "L6Z8W3",
    "result": []
  },
  {
    "postal": "L6Z4M5",
    "result": [
      {
        "electoralDistricts": [
          {
            "election": null,
            "id": 10,
            "name": "Brampton North"
          }
        ],
        "pollDivisionIds": [
          10126607
        ],
        "postalCode": "L6Z4M5",
        "streetName": "SAPPHIRE",
        "streetDirectionId": null,
        "streetTypeId": "CRES",
        "placeName": "BRAMPTON",
        "streetNameDisplayText": "SAPPHIRE CRES, BRAMPTON"
      },
      {
        "electoralDistricts": [
          {
            "election": null,
            "id": 10,
            "name": "Brampton North"
          }
        ],
        "pollDivisionIds": [
          10126607
        ],
        "postalCode": "L6Z4M5",
        "streetName": "SHADYWOOD",
        "streetDirectionId": null,
        "streetTypeId": "RD",
        "placeName": "BRAMPTON",
        "streetNameDisplayText": "SHADYWOOD RD, BRAMPTON"
      }
    ]
  },
  {
    "postal": "L6Z5T1",
    "result": []
  },
  {
    "postal": "L6Z3B3",
    "result": [
      {
        "electoralDistricts": [
          {
            "election": null,
            "id": 10,
            "name": "Brampton North"
          }
        ],
        "pollDivisionIds": [
          10126607
        ],
        "postalCode": "L6Z3B3",
        "streetName": "ELDERBANK",
        "streetDirectionId": null,
        "streetTypeId": "CRT",
        "placeName": "BRAMPTON",
        "streetNameDisplayText": "ELDERBANK CRT, BRAMPTON"
      }
    ]
  },
  {
    "postal": "L6Z6C6",
    "result": []
  },
  {
    "postal": "L6Z7N8",
    "result": []
  },
  {
    "postal": "L6Z2Y3",
    "result": [
      {
        "electoralDistricts": [
          {
            "election": null,
            "id": 10,
            "name": "Brampton North"
          }
        ],
        "pollDivisionIds": [
          10126611
        ],
        "postalCode": "L6Z2Y3",
        "streetName": "DUMFRIES",
        "streetDirectionId": null,
        "streetTypeId": "AVE",
        "placeName": "BRAMPTON",
        "streetNameDisplayText": "DUMFRIES AVE, BRAMPTON"
      },
      {
        "electoralDistricts": [
          {
            "election": null,
            "id": 10,
            "name": "Brampton North"
          }
        ],
        "pollDivisionIds": [
          10126611
        ],
        "postalCode": "L6Z2Y3",
        "streetName": "KINTYRE",
        "streetDirectionId": null,
        "streetTypeId": "ST",
        "placeName": "BRAMPTON",
        "streetNameDisplayText": "KINTYRE ST, BRAMPTON"
      }
    ]
  },
  {
    "postal": "L6Z2R6",
    "result": [
      {
        "electoralDistricts": [
          {
            "election": null,
            "id": 10,
            "name": "Brampton North"
          }
        ],
        "pollDivisionIds": [
          10126615
        ],
        "postalCode": "L6Z2R6",
        "streetName": "ADAM",
        "streetDirectionId": null,
        "streetTypeId": "ST",
        "placeName": "BRAMPTON",
        "streetNameDisplayText": "ADAM ST, BRAMPTON"
      },
      {
        "electoralDistricts": [
          {
            "election": null,
            "id": 10,
            "name": "Brampton North"
          }
        ],
        "pollDivisionIds": [
          10126615
        ],
        "postalCode": "L6Z2R6",
        "streetName": "BEISEL",
        "streetDirectionId": null,
        "streetTypeId": "CRT",
        "placeName": "BRAMPTON",
        "streetNameDisplayText": "BEISEL CRT, BRAMPTON"
      }
    ]
  },
  {
    "postal": "L6Z7N3",
    "result": []
  },
  {
    "postal": "L6Z8J2",
    "result": []
  },
  {
    "postal": "L6Z6A9",
    "result": []
  },
  {
    "postal": "L6Z3V2",
    "result": [
      {
        "electoralDistricts": [
          {
            "election": null,
            "id": 10,
            "name": "Brampton North"
          }
        ],
        "pollDivisionIds": [
          10126615
        ],
        "postalCode": "L6Z3V2",
        "streetName": "DONNA",
        "streetDirectionId": null,
        "streetTypeId": "DR",
        "placeName": "BRAMPTON",
        "streetNameDisplayText": "DONNA DR, BRAMPTON"
      }
    ]
  },
  {
    "postal": "L6Z2N3",
    "result": []
  },
  {
    "postal": "L6Z1S5",
    "result": [
      {
        "electoralDistricts": [
          {
            "election": null,
            "id": 10,
            "name": "Brampton North"
          }
        ],
        "pollDivisionIds": [
          10126607
        ],
        "postalCode": "L6Z1S5",
        "streetName": "LAKECREST",
        "streetDirectionId": null,
        "streetTypeId": "TRAIL",
        "placeName": "BRAMPTON",
        "streetNameDisplayText": "LAKECREST TRAIL, BRAMPTON"
      }
    ]
  },
  {
    "postal": "L6Z4T7",
    "result": [
      {
        "electoralDistricts": [
          {
            "election": null,
            "id": 10,
            "name": "Brampton North"
          }
        ],
        "pollDivisionIds": [
          10126606
        ],
        "postalCode": "L6Z4T7",
        "streetName": "HIGHWOOD",
        "streetDirectionId": null,
        "streetTypeId": "RD",
        "placeName": "BRAMPTON",
        "streetNameDisplayText": "HIGHWOOD RD, BRAMPTON"
      },
      {
        "electoralDistricts": [
          {
            "election": null,
            "id": 10,
            "name": "Brampton North"
          }
        ],
        "pollDivisionIds": [
          10126606
        ],
        "postalCode": "L6Z4T7",
        "streetName": "HILLPATH",
        "streetDirectionId": null,
        "streetTypeId": "CRES",
        "placeName": "BRAMPTON",
        "streetNameDisplayText": "HILLPATH CRES, BRAMPTON"
      }
    ]
  },
  {
    "postal": "L6Z6Y7",
    "result": []
  },
  {
    "postal": "L6Z0W7",
    "result": []
  },
  {
    "postal": "L6Z2W9",
    "result": [
      {
        "electoralDistricts": [
          {
            "election": null,
            "id": 10,
            "name": "Brampton North"
          }
        ],
        "pollDivisionIds": [
          10126611
        ],
        "postalCode": "L6Z2W9",
        "streetName": "DUMFRIES",
        "streetDirectionId": null,
        "streetTypeId": "AVE",
        "placeName": "BRAMPTON",
        "streetNameDisplayText": "DUMFRIES AVE, BRAMPTON"
      }
    ]
  },
  {
    "postal": "L6Z8V0",
    "result": []
  },
  {
    "postal": "L6Z0H4",
    "result": []
  },
  {
    "postal": "L6Z2T1",
    "result": [
      {
        "electoralDistricts": [
          {
            "election": null,
            "id": 10,
            "name": "Brampton North"
          }
        ],
        "pollDivisionIds": [
          10126615
        ],
        "postalCode": "L6Z2T1",
        "streetName": "CONESTOGA",
        "streetDirectionId": null,
        "streetTypeId": "DR",
        "placeName": "BRAMPTON",
        "streetNameDisplayText": "CONESTOGA DR, BRAMPTON"
      }
    ]
  },
  {
    "postal": "L6Z1B1",
    "result": [
      {
        "electoralDistricts": [
          {
            "election": null,
            "id": 10,
            "name": "Brampton North"
          }
        ],
        "pollDivisionIds": [
          10126609
        ],
        "postalCode": "L6Z1B1",
        "streetName": "FANSHAWE",
        "streetDirectionId": null,
        "streetTypeId": "DR",
        "placeName": "BRAMPTON",
        "streetNameDisplayText": "FANSHAWE DR, BRAMPTON"
      }
    ]
  },
  {
    "postal": "L6Z8B6",
    "result": []
  },
  {
    "postal": "L6Z6H1",
    "result": []
  },
  {
    "postal": "L6Z8T8",
    "result": []
  },
  {
    "postal": "L6Z0T4",
    "result": []
  },
  {
    "postal": "L6Z2C4",
    "result": [
      {
        "electoralDistricts": [
          {
            "election": null,
            "id": 10,
            "name": "Brampton North"
          }
        ],
        "pollDivisionIds": [
          10126612
        ],
        "postalCode": "L6Z2C4",
        "streetName": "DRIFTWOOD",
        "streetDirectionId": null,
        "streetTypeId": "CRES",
        "placeName": "BRAMPTON",
        "streetNameDisplayText": "DRIFTWOOD CRES, BRAMPTON"
      }
    ]
  },
  {
    "postal": "L6Z8N3",
    "result": []
  },
  {
    "postal": "L6Z4L8",
    "result": [
      {
        "electoralDistricts": [
          {
            "election": null,
            "id": 10,
            "name": "Brampton North"
          }
        ],
        "pollDivisionIds": [
          10126607
        ],
        "postalCode": "L6Z4L8",
        "streetName": "SETTLER",
        "streetDirectionId": null,
        "streetTypeId": "CRT",
        "placeName": "BRAMPTON",
        "streetNameDisplayText": "SETTLER CRT, BRAMPTON"
      }
    ]
  },
  {
    "postal": "L6Z2B5",
    "result": [
      {
        "electoralDistricts": [
          {
            "election": null,
            "id": 10,
            "name": "Brampton North"
          }
        ],
        "pollDivisionIds": [
          10126610
        ],
        "postalCode": "L6Z2B5",
        "streetName": "SUNFOREST",
        "streetDirectionId": null,
        "streetTypeId": "DR",
        "placeName": "BRAMPTON",
        "streetNameDisplayText": "SUNFOREST DR, BRAMPTON"
      }
    ]
  },
  {
    "postal": "L6Z3H1",
    "result": [
      {
        "electoralDistricts": [
          {
            "election": null,
            "id": 10,
            "name": "Brampton North"
          }
        ],
        "pollDivisionIds": [
          10126608
        ],
        "postalCode": "L6Z3H1",
        "streetName": "CHALMERS",
        "streetDirectionId": null,
        "streetTypeId": "CRT",
        "placeName": "BRAMPTON",
        "streetNameDisplayText": "CHALMERS CRT, BRAMPTON"
      },
      {
        "electoralDistricts": [
          {
            "election": null,
            "id": 10,
            "name": "Brampton North"
          }
        ],
        "pollDivisionIds": [
          10126608
        ],
        "postalCode": "L6Z3H1",
        "streetName": "MONTGOMERY",
        "streetDirectionId": null,
        "streetTypeId": "SQ",
        "placeName": "BRAMPTON",
        "streetNameDisplayText": "MONTGOMERY SQ, BRAMPTON"
      }
    ]
  },
  {
    "postal": "L6Z4Y1",
    "result": []
  },
  {
    "postal": "L6Z7E2",
    "result": []
  },
  {
    "postal": "L6Z2P5",
    "result": [
      {
        "electoralDistricts": [
          {
            "election": null,
            "id": 10,
            "name": "Brampton North"
          }
        ],
        "pollDivisionIds": [
          10126611
        ],
        "postalCode": "L6Z2P5",
        "streetName": "SHERINGHAM",
        "streetDirectionId": null,
        "streetTypeId": "ST",
        "placeName": "BRAMPTON",
        "streetNameDisplayText": "SHERINGHAM ST, BRAMPTON"
      }
    ]
  },
  {
    "postal": "L6Z8R7",
    "result": []
  },
  {
    "postal": "L6Z9P1",
    "result": []
  },
  {
    "postal": "L6Z3B8",
    "result": [
      {
        "electoralDistricts": [
          {
            "election": null,
            "id": 10,
            "name": "Brampton North"
          }
        ],
        "pollDivisionIds": [
          10126614
        ],
        "postalCode": "L6Z3B8",
        "streetName": "PINELLAS",
        "streetDirectionId": null,
        "streetTypeId": "DR",
        "placeName": "BRAMPTON",
        "streetNameDisplayText": "PINELLAS DR, BRAMPTON"
      }
    ]
  },
  {
    "postal": "L6Z3P7",
    "result": [
      {
        "electoralDistricts": [
          {
            "election": null,
            "id": 10,
            "name": "Brampton North"
          }
        ],
        "pollDivisionIds": [
          10126615
        ],
        "postalCode": "L6Z3P7",
        "streetName": "BERWICK",
        "streetDirectionId": null,
        "streetTypeId": "AVE",
        "placeName": "BRAMPTON",
        "streetNameDisplayText": "BERWICK AVE, BRAMPTON"
      },
      {
        "electoralDistricts": [
          {
            "election": null,
            "id": 10,
            "name": "Brampton North"
          }
        ],
        "pollDivisionIds": [
          10126611
        ],
        "postalCode": "L6Z3P7",
        "streetName": "SHERINGHAM",
        "streetDirectionId": null,
        "streetTypeId": "ST",
        "placeName": "BRAMPTON",
        "streetNameDisplayText": "SHERINGHAM ST, BRAMPTON"
      }
    ]
  },
  {
    "postal": "L6Z9B2",
    "result": []
  },
  {
    "postal": "L6Z6Z3",
    "result": []
  },
  {
    "postal": "L6Z4N5",
    "result": [
      {
        "electoralDistricts": [
          {
            "election": null,
            "id": 10,
            "name": "Brampton North"
          }
        ],
        "pollDivisionIds": [
          10126609
        ],
        "postalCode": "L6Z4N5",
        "streetName": "CONESTOGA",
        "streetDirectionId": null,
        "streetTypeId": "DR",
        "placeName": "BRAMPTON",
        "streetNameDisplayText": "CONESTOGA DR, BRAMPTON"
      }
    ]
  },
  {
    "postal": "L6Z8T3",
    "result": []
  },
  {
    "postal": "L6Z1V2",
    "result": [
      {
        "electoralDistricts": [
          {
            "election": null,
            "id": 10,
            "name": "Brampton North"
          }
        ],
        "pollDivisionIds": [
          10126609
        ],
        "postalCode": "L6Z1V2",
        "streetName": "CARNFORTH",
        "streetDirectionId": null,
        "streetTypeId": "DR",
        "placeName": "BRAMPTON",
        "streetNameDisplayText": "CARNFORTH DR, BRAMPTON"
      }
    ]
  },
  {
    "postal": "L6Z1Y0",
    "result": []
  },
  {
    "postal": "L6Z3G6",
    "result": [
      {
        "electoralDistricts": [
          {
            "election": null,
            "id": 10,
            "name": "Brampton North"
          }
        ],
        "pollDivisionIds": [
          10126608
        ],
        "postalCode": "L6Z3G6",
        "streetName": "REGENTVIEW",
        "streetDirectionId": null,
        "streetTypeId": "DR",
        "placeName": "BRAMPTON",
        "streetNameDisplayText": "REGENTVIEW DR, BRAMPTON"
      }
    ]
  },
  {
    "postal": "L6Z3H7",
    "result": [
      {
        "electoralDistricts": [
          {
            "election": null,
            "id": 10,
            "name": "Brampton North"
          }
        ],
        "pollDivisionIds": [
          10126608
        ],
        "postalCode": "L6Z3H7",
        "streetName": "CHRISTIE",
        "streetDirectionId": null,
        "streetTypeId": "DR",
        "placeName": "BRAMPTON",
        "streetNameDisplayText": "CHRISTIE DR, BRAMPTON"
      },
      {
        "electoralDistricts": [
          {
            "election": null,
            "id": 10,
            "name": "Brampton North"
          }
        ],
        "pollDivisionIds": [
          10126608
        ],
        "postalCode": "L6Z3H7",
        "streetName": "IRIS",
        "streetDirectionId": null,
        "streetTypeId": "CRES",
        "placeName": "BRAMPTON",
        "streetNameDisplayText": "IRIS CRES, BRAMPTON"
      }
    ]
  },
  {
    "postal": "L6Z7X8",
    "result": []
  },
  {
    "postal": "L6Z0C7",
    "result": [
      {
        "electoralDistricts": [
          {
            "election": null,
            "id": 10,
            "name": "Brampton North"
          }
        ],
        "pollDivisionIds": [
          10126612
        ],
        "postalCode": "L6Z0C7",
        "streetName": "COPPERFIELD",
        "streetDirectionId": null,
        "streetTypeId": "RD",
        "placeName": "BRAMPTON",
        "streetNameDisplayText": "COPPERFIELD RD, BRAMPTON"
      },
      {
        "electoralDistricts": [
          {
            "election": null,
            "id": 10,
            "name": "Brampton North"
          }
        ],
        "pollDivisionIds": [
          10126612
        ],
        "postalCode": "L6Z0C7",
        "streetName": "HEARTVIEW",
        "streetDirectionId": null,
        "streetTypeId": "RD",
        "placeName": "BRAMPTON",
        "streetNameDisplayText": "HEARTVIEW RD, BRAMPTON"
      }
    ]
  },
  {
    "postal": "L6Z0W9",
    "result": []
  },
  {
    "postal": "L6Z8E6",
    "result": []
  },
  {
    "postal": "L6Z9Z8",
    "result": []
  },
  {
    "postal": "L6Z3P4",
    "result": [
      {
        "electoralDistricts": [
          {
            "election": null,
            "id": 10,
            "name": "Brampton North"
          }
        ],
        "pollDivisionIds": [
          10126608
        ],
        "postalCode": "L6Z3P4",
        "streetName": "KENPARK",
        "streetDirectionId": null,
        "streetTypeId": "AVE",
        "placeName": "BRAMPTON",
        "streetNameDisplayText": "KENPARK AVE, BRAMPTON"
      }
    ]
  },
  {
    "postal": "L6Z6L8",
    "result": []
  },
  {
    "postal": "L6Z2R4",
    "result": [
      {
        "electoralDistricts": [
          {
            "election": null,
            "id": 10,
            "name": "Brampton North"
          }
        ],
        "pollDivisionIds": [
          10126615
        ],
        "postalCode": "L6Z2R4",
        "streetName": "ROSEPAC",
        "streetDirectionId": null,
        "streetTypeId": "AVE",
        "placeName": "BRAMPTON",
        "streetNameDisplayText": "ROSEPAC AVE, BRAMPTON"
      },
      {
        "electoralDistricts": [
          {
            "election": null,
            "id": 10,
            "name": "Brampton North"
          }
        ],
        "pollDivisionIds": [
          10126615
        ],
        "postalCode": "L6Z2R4",
        "streetName": "WHITEHAVEN",
        "streetDirectionId": null,
        "streetTypeId": "DR",
        "placeName": "BRAMPTON",
        "streetNameDisplayText": "WHITEHAVEN DR, BRAMPTON"
      }
    ]
  },
  {
    "postal": "L6Z2W1",
    "result": [
      {
        "electoralDistricts": [
          {
            "election": null,
            "id": 10,
            "name": "Brampton North"
          }
        ],
        "pollDivisionIds": [
          10126611
        ],
        "postalCode": "L6Z2W1",
        "streetName": "WEXFORD",
        "streetDirectionId": null,
        "streetTypeId": "RD",
        "placeName": "BRAMPTON",
        "streetNameDisplayText": "WEXFORD RD, BRAMPTON"
      }
    ]
  },
  {
    "postal": "L6Z9H8",
    "result": []
  },
  {
    "postal": "L6Z8X9",
    "result": []
  },
  {
    "postal": "L6Z7H4",
    "result": []
  },
  {
    "postal": "L6Z3J1",
    "result": [
      {
        "electoralDistricts": [
          {
            "election": null,
            "id": 10,
            "name": "Brampton North"
          }
        ],
        "pollDivisionIds": [
          10126608
        ],
        "postalCode": "L6Z3J1",
        "streetName": "FENDLEY",
        "streetDirectionId": null,
        "streetTypeId": "CRT",
        "placeName": "BRAMPTON",
        "streetNameDisplayText": "FENDLEY CRT, BRAMPTON"
      },
      {
        "electoralDistricts": [
          {
            "election": null,
            "id": 10,
            "name": "Brampton North"
          }
        ],
        "pollDivisionIds": [
          10126608
        ],
        "postalCode": "L6Z3J1",
        "streetName": "HACIENDA",
        "streetDirectionId": null,
        "streetTypeId": "CRT",
        "placeName": "BRAMPTON",
        "streetNameDisplayText": "HACIENDA CRT, BRAMPTON"
      }
    ]
  },
  {
    "postal": "L6Z1P4",
    "result": [
      {
        "electoralDistricts": [
          {
            "election": null,
            "id": 10,
            "name": "Brampton North"
          }
        ],
        "pollDivisionIds": [
          10126612
        ],
        "postalCode": "L6Z1P4",
        "streetName": "ROYAL PALM",
        "streetDirectionId": null,
        "streetTypeId": "DR",
        "placeName": "BRAMPTON",
        "streetNameDisplayText": "ROYAL PALM DR, BRAMPTON"
      }
    ]
  },
  {
    "postal": "L6Z2A3",
    "result": [
      {
        "electoralDistricts": [
          {
            "election": null,
            "id": 10,
            "name": "Brampton North"
          }
        ],
        "pollDivisionIds": [
          10126609
        ],
        "postalCode": "L6Z2A3",
        "streetName": "DAWNRIDGE",
        "streetDirectionId": null,
        "streetTypeId": "TRAIL",
        "placeName": "BRAMPTON",
        "streetNameDisplayText": "DAWNRIDGE TRAIL, BRAMPTON"
      }
    ]
  },
  {
    "postal": "L6Z0Z1",
    "result": []
  },
  {
    "postal": "L6Z1C1",
    "result": [
      {
        "electoralDistricts": [
          {
            "election": null,
            "id": 10,
            "name": "Brampton North"
          }
        ],
        "pollDivisionIds": [
          10126609
        ],
        "postalCode": "L6Z1C1",
        "streetName": "PONTIAC",
        "streetDirectionId": null,
        "streetTypeId": "CRT",
        "placeName": "BRAMPTON",
        "streetNameDisplayText": "PONTIAC CRT, BRAMPTON"
      }
    ]
  },
  {
    "postal": "L6Z0H3",
    "result": [
      {
        "electoralDistricts": [
          {
            "election": null,
            "id": 10,
            "name": "Brampton North"
          }
        ],
        "pollDivisionIds": [
          10126607
        ],
        "postalCode": "L6Z0H3",
        "streetName": "VIEWMOUNT",
        "streetDirectionId": null,
        "streetTypeId": "CRES",
        "placeName": "BRAMPTON",
        "streetNameDisplayText": "VIEWMOUNT CRES, BRAMPTON"
      }
    ]
  },
  {
    "postal": "L6Z7B0",
    "result": []
  },
  {
    "postal": "L6Z5K2",
    "result": []
  },
  {
    "postal": "L6Z1E9",
    "result": [
      {
        "electoralDistricts": [
          {
            "election": null,
            "id": 10,
            "name": "Brampton North"
          }
        ],
        "pollDivisionIds": [
          10126610
        ],
        "postalCode": "L6Z1E9",
        "streetName": "MENOKE",
        "streetDirectionId": null,
        "streetTypeId": "CRT",
        "placeName": "BRAMPTON",
        "streetNameDisplayText": "MENOKE CRT, BRAMPTON"
      }
    ]
  },
  {
    "postal": "L6Z9W7",
    "result": []
  },
  {
    "postal": "L6Z5W6",
    "result": []
  },
  {
    "postal": "L6Z6S6",
    "result": []
  },
  {
    "postal": "L6Z2P8",
    "result": [
      {
        "electoralDistricts": [
          {
            "election": null,
            "id": 10,
            "name": "Brampton North"
          }
        ],
        "pollDivisionIds": [
          10126611
        ],
        "postalCode": "L6Z2P8",
        "streetName": "WEXFORD",
        "streetDirectionId": null,
        "streetTypeId": "RD",
        "placeName": "BRAMPTON",
        "streetNameDisplayText": "WEXFORD RD, BRAMPTON"
      }
    ]
  },
  {
    "postal": "L6Z4P8",
    "result": [
      {
        "electoralDistricts": [
          {
            "election": null,
            "id": 10,
            "name": "Brampton North"
          }
        ],
        "pollDivisionIds": [
          10126606
        ],
        "postalCode": "L6Z4P8",
        "streetName": "HURONTARIO",
        "streetDirectionId": null,
        "streetTypeId": "ST",
        "placeName": "BRAMPTON",
        "streetNameDisplayText": "HURONTARIO ST, BRAMPTON"
      },
      {
        "electoralDistricts": [
          {
            "election": null,
            "id": 10,
            "name": "Brampton North"
          }
        ],
        "pollDivisionIds": [
          10126606
        ],
        "postalCode": "L6Z4P8",
        "streetName": "MAYFIELD",
        "streetDirectionId": null,
        "streetTypeId": "RD",
        "placeName": "BRAMPTON",
        "streetNameDisplayText": "MAYFIELD RD, BRAMPTON"
      }
    ]
  },
  {
    "postal": "L6Z0V9",
    "result": []
  },
  {
    "postal": "L6Z5Y2",
    "result": []
  },
  {
    "postal": "L6Z7Z7",
    "result": []
  },
  {
    "postal": "L6Z6Y8",
    "result": []
  },
  {
    "postal": "L6Z2G7",
    "result": []
  },
  {
    "postal": "L6Z8C1",
    "result": []
  },
  {
    "postal": "L6Z5C5",
    "result": []
  },
  {
    "postal": "L6Z2X8",
    "result": [
      {
        "electoralDistricts": [
          {
            "election": null,
            "id": 10,
            "name": "Brampton North"
          }
        ],
        "pollDivisionIds": [
          10126611
        ],
        "postalCode": "L6Z2X8",
        "streetName": "DUMFRIES",
        "streetDirectionId": null,
        "streetTypeId": "AVE",
        "placeName": "BRAMPTON",
        "streetNameDisplayText": "DUMFRIES AVE, BRAMPTON"
      }
    ]
  },
  {
    "postal": "L6Z1W5",
    "result": [
      {
        "electoralDistricts": [
          {
            "election": null,
            "id": 10,
            "name": "Brampton North"
          }
        ],
        "pollDivisionIds": [
          10126609
        ],
        "postalCode": "L6Z1W5",
        "streetName": "TWEEDSMUIR",
        "streetDirectionId": null,
        "streetTypeId": "CRT",
        "placeName": "BRAMPTON",
        "streetNameDisplayText": "TWEEDSMUIR CRT, BRAMPTON"
      }
    ]
  },
  {
    "postal": "L6Z7G0",
    "result": []
  },
  {
    "postal": "L6Z8J8",
    "result": []
  },
  {
    "postal": "L6Z3Y0",
    "result": []
  },
  {
    "postal": "L6Z9T7",
    "result": []
  },
  {
    "postal": "L6Z5P4",
    "result": []
  },
  {
    "postal": "L6Z4B0",
    "result": []
  },
  {
    "postal": "L6Z9N8",
    "result": []
  },
  {
    "postal": "L6Z4A7",
    "result": [
      {
        "electoralDistricts": [
          {
            "election": null,
            "id": 10,
            "name": "Brampton North"
          }
        ],
        "pollDivisionIds": [
          10126611
        ],
        "postalCode": "L6Z4A7",
        "streetName": "CORONATION",
        "streetDirectionId": null,
        "streetTypeId": "CIR",
        "placeName": "BRAMPTON",
        "streetNameDisplayText": "CORONATION CIR, BRAMPTON"
      }
    ]
  },
  {
    "postal": "L6Z4H9",
    "result": [
      {
        "electoralDistricts": [
          {
            "election": null,
            "id": 10,
            "name": "Brampton North"
          }
        ],
        "pollDivisionIds": [
          10126618
        ],
        "postalCode": "L6Z4H9",
        "streetName": "ALLENHEAD",
        "streetDirectionId": null,
        "streetTypeId": "CRES",
        "placeName": "BRAMPTON",
        "streetNameDisplayText": "ALLENHEAD CRES, BRAMPTON"
      }
    ]
  },
  {
    "postal": "L6Z6X1",
    "result": []
  },
  {
    "postal": "L6Z9Y7",
    "result": []
  },
  {
    "postal": "L6Z2Y5",
    "result": [
      {
        "electoralDistricts": [
          {
            "election": null,
            "id": 10,
            "name": "Brampton North"
          }
        ],
        "pollDivisionIds": [
          10126611
        ],
        "postalCode": "L6Z2Y5",
        "streetName": "DUMFRIES",
        "streetDirectionId": null,
        "streetTypeId": "AVE",
        "placeName": "BRAMPTON",
        "streetNameDisplayText": "DUMFRIES AVE, BRAMPTON"
      }
    ]
  },
  {
    "postal": "L6Z8L7",
    "result": []
  },
  {
    "postal": "L6Z2A8",
    "result": [
      {
        "electoralDistricts": [
          {
            "election": null,
            "id": 10,
            "name": "Brampton North"
          }
        ],
        "pollDivisionIds": [
          10126610
        ],
        "postalCode": "L6Z2A8",
        "streetName": "AURORA",
        "streetDirectionId": null,
        "streetTypeId": "PL",
        "placeName": "BRAMPTON",
        "streetNameDisplayText": "AURORA PL, BRAMPTON"
      }
    ]
  },
  {
    "postal": "L6Z2K9",
    "result": []
  },
  {
    "postal": "L6Z3E5",
    "result": [
      {
        "electoralDistricts": [
          {
            "election": null,
            "id": 10,
            "name": "Brampton North"
          }
        ],
        "pollDivisionIds": [
          10126614
        ],
        "postalCode": "L6Z3E5",
        "streetName": "BARR",
        "streetDirectionId": null,
        "streetTypeId": "CRES",
        "placeName": "BRAMPTON",
        "streetNameDisplayText": "BARR CRES, BRAMPTON"
      }
    ]
  },
  {
    "postal": "L6Z8N6",
    "result": []
  },
  {
    "postal": "L6Z8J4",
    "result": []
  },
  {
    "postal": "L6Z4R7",
    "result": [
      {
        "electoralDistricts": [
          {
            "election": null,
            "id": 10,
            "name": "Brampton North"
          }
        ],
        "pollDivisionIds": [
          10126618,
          10126614
        ],
        "postalCode": "L6Z4R7",
        "streetName": "TOBA",
        "streetDirectionId": null,
        "streetTypeId": "CRES",
        "placeName": "BRAMPTON",
        "streetNameDisplayText": "TOBA CRES, BRAMPTON"
      }
    ]
  },
  {
    "postal": "L6Z9K1",
    "result": []
  },
  {
    "postal": "L6Z8E1",
    "result": []
  },
  {
    "postal": "L6Z0R1",
    "result": []
  },
  {
    "postal": "L6Z4J3",
    "result": [
      {
        "electoralDistricts": [
          {
            "election": null,
            "id": 10,
            "name": "Brampton North"
          }
        ],
        "pollDivisionIds": [
          10126618
        ],
        "postalCode": "L6Z4J3",
        "streetName": "COCHRANE",
        "streetDirectionId": null,
        "streetTypeId": "AVE",
        "placeName": "BRAMPTON",
        "streetNameDisplayText": "COCHRANE AVE, BRAMPTON"
      }
    ]
  },
  {
    "postal": "L6Z7E7",
    "result": []
  },
  {
    "postal": "L6Z0J0",
    "result": []
  },
  {
    "postal": "L6Z7R8",
    "result": []
  },
  {
    "postal": "L6Z9X0",
    "result": []
  },
  {
    "postal": "L6Z7P6",
    "result": []
  },
  {
    "postal": "L6Z0R7",
    "result": []
  },
  {
    "postal": "L6Z5W1",
    "result": []
  },
  {
    "postal": "L6Z0K4",
    "result": []
  },
  {
    "postal": "L6Z7N9",
    "result": []
  },
  {
    "postal": "L6Z1N0",
    "result": []
  },
  {
    "postal": "L6Z6P3",
    "result": []
  },
  {
    "postal": "L6Z5A1",
    "result": []
  },
  {
    "postal": "L6Z9M9",
    "result": []
  },
  {
    "postal": "L6Z7T6",
    "result": []
  },
  {
    "postal": "L6Z3X0",
    "result": []
  },
  {
    "postal": "L6Z2T0",
    "result": []
  },
  {
    "postal": "L6Z5X9",
    "result": []
  },
  {
    "postal": "L6Z2R3",
    "result": [
      {
        "electoralDistricts": [
          {
            "election": null,
            "id": 10,
            "name": "Brampton North"
          }
        ],
        "pollDivisionIds": [
          10126615
        ],
        "postalCode": "L6Z2R3",
        "streetName": "ROSEPAC",
        "streetDirectionId": null,
        "streetTypeId": "AVE",
        "placeName": "BRAMPTON",
        "streetNameDisplayText": "ROSEPAC AVE, BRAMPTON"
      }
    ]
  },
  {
    "postal": "L6Z5N2",
    "result": []
  },
  {
    "postal": "L6Z4Y7",
    "result": []
  },
  {
    "postal": "L6Z7M0",
    "result": []
  },
  {
    "postal": "L6Z8P3",
    "result": []
  },
  {
    "postal": "L6Z3N3",
    "result": [
      {
        "electoralDistricts": [
          {
            "election": null,
            "id": 10,
            "name": "Brampton North"
          }
        ],
        "pollDivisionIds": [
          10126608
        ],
        "postalCode": "L6Z3N3",
        "streetName": "MCARTHUR",
        "streetDirectionId": null,
        "streetTypeId": "HTS",
        "placeName": "BRAMPTON",
        "streetNameDisplayText": "MCARTHUR HTS, BRAMPTON"
      }
    ]
  },
  {
    "postal": "L6Z7S3",
    "result": []
  },
  {
    "postal": "L6Z3V9",
    "result": [
      {
        "electoralDistricts": [
          {
            "election": null,
            "id": 10,
            "name": "Brampton North"
          }
        ],
        "pollDivisionIds": [
          10126615
        ],
        "postalCode": "L6Z3V9",
        "streetName": "JAY",
        "streetDirectionId": null,
        "streetTypeId": "ST",
        "placeName": "BRAMPTON",
        "streetNameDisplayText": "JAY ST, BRAMPTON"
      }
    ]
  },
  {
    "postal": "L6Z9N7",
    "result": []
  },
  {
    "postal": "L6Z0G4",
    "result": [
      {
        "electoralDistricts": [
          {
            "election": null,
            "id": 10,
            "name": "Brampton North"
          }
        ],
        "pollDivisionIds": [
          10126612
        ],
        "postalCode": "L6Z0G4",
        "streetName": "BRUSSELS",
        "streetDirectionId": null,
        "streetTypeId": "AVE",
        "placeName": "BRAMPTON",
        "streetNameDisplayText": "BRUSSELS AVE, BRAMPTON"
      },
      {
        "electoralDistricts": [
          {
            "election": null,
            "id": 10,
            "name": "Brampton North"
          }
        ],
        "pollDivisionIds": [
          10126612
        ],
        "postalCode": "L6Z0G4",
        "streetName": "GULFBROOK",
        "streetDirectionId": null,
        "streetTypeId": "CIR",
        "placeName": "BRAMPTON",
        "streetNameDisplayText": "GULFBROOK CIR, BRAMPTON"
      }
    ]
  },
  {
    "postal": "L6Z2E2",
    "result": []
  },
  {
    "postal": "L6Z7W8",
    "result": []
  },
  {
    "postal": "L6Z7M5",
    "result": []
  },
  {
    "postal": "L6Z5W8",
    "result": []
  },
  {
    "postal": "L6Z5E5",
    "result": []
  },
  {
    "postal": "L6Z1P9",
    "result": [
      {
        "electoralDistricts": [
          {
            "election": null,
            "id": 10,
            "name": "Brampton North"
          }
        ],
        "pollDivisionIds": [
          10126612
        ],
        "postalCode": "L6Z1P9",
        "streetName": "ROYAL PALM",
        "streetDirectionId": null,
        "streetTypeId": "DR",
        "placeName": "BRAMPTON",
        "streetNameDisplayText": "ROYAL PALM DR, BRAMPTON"
      }
    ]
  },
  {
    "postal": "L6Z8V8",
    "result": []
  },
  {
    "postal": "L6Z9G8",
    "result": []
  },
  {
    "postal": "L6Z8H9",
    "result": []
  },
  {
    "postal": "L6Z1Z1",
    "result": [
      {
        "electoralDistricts": [
          {
            "election": null,
            "id": 10,
            "name": "Brampton North"
          }
        ],
        "pollDivisionIds": [
          10126612
        ],
        "postalCode": "L6Z1Z1",
        "streetName": "CASSANDER",
        "streetDirectionId": null,
        "streetTypeId": "CRES",
        "placeName": "BRAMPTON",
        "streetNameDisplayText": "CASSANDER CRES, BRAMPTON"
      }
    ]
  },
  {
    "postal": "L6Z8M3",
    "result": []
  },
  {
    "postal": "L6Z5H6",
    "result": []
  },
  {
    "postal": "L6Z7W7",
    "result": []
  },
  {
    "postal": "L6Z4L0",
    "result": []
  },
  {
    "postal": "L6Z2N1",
    "result": [
      {
        "electoralDistricts": [
          {
            "election": null,
            "id": 10,
            "name": "Brampton North"
          }
        ],
        "pollDivisionIds": [
          10126614
        ],
        "postalCode": "L6Z2N1",
        "streetName": "SCRIBNER",
        "streetDirectionId": null,
        "streetTypeId": "CRT",
        "placeName": "BRAMPTON",
        "streetNameDisplayText": "SCRIBNER CRT, BRAMPTON"
      }
    ]
  },
  {
    "postal": "L6Z2H4",
    "result": []
  },
  {
    "postal": "L6Z5C8",
    "result": []
  },
  {
    "postal": "L6Z8B0",
    "result": []
  },
  {
    "postal": "L6Z1T4",
    "result": [
      {
        "electoralDistricts": [
          {
            "election": null,
            "id": 10,
            "name": "Brampton North"
          }
        ],
        "pollDivisionIds": [
          10126608
        ],
        "postalCode": "L6Z1T4",
        "streetName": "BOREHAM",
        "streetDirectionId": null,
        "streetTypeId": "CIR",
        "placeName": "BRAMPTON",
        "streetNameDisplayText": "BOREHAM CIR, BRAMPTON"
      }
    ]
  },
  {
    "postal": "L6Z7N7",
    "result": []
  },
  {
    "postal": "L6Z4L3",
    "result": [
      {
        "electoralDistricts": [
          {
            "election": null,
            "id": 10,
            "name": "Brampton North"
          }
        ],
        "pollDivisionIds": [
          10126607
        ],
        "postalCode": "L6Z4L3",
        "streetName": "BRAIDWOOD LAKE",
        "streetDirectionId": null,
        "streetTypeId": "RD",
        "placeName": "BRAMPTON",
        "streetNameDisplayText": "BRAIDWOOD LAKE RD, BRAMPTON"
      }
    ]
  },
  {
    "postal": "L6Z2N2",
    "result": []
  },
  {
    "postal": "L6Z4N8",
    "result": [
      {
        "electoralDistricts": [
          {
            "election": null,
            "id": 10,
            "name": "Brampton North"
          }
        ],
        "pollDivisionIds": [
          10126607
        ],
        "postalCode": "L6Z4N8",
        "streetName": "COLONEL BERTRAM",
        "streetDirectionId": null,
        "streetTypeId": "RD",
        "placeName": "BRAMPTON",
        "streetNameDisplayText": "COLONEL BERTRAM RD, BRAMPTON"
      },
      {
        "electoralDistricts": [
          {
            "election": null,
            "id": 10,
            "name": "Brampton North"
          }
        ],
        "pollDivisionIds": [
          10126607
        ],
        "postalCode": "L6Z4N8",
        "streetName": "HAMBLEY",
        "streetDirectionId": null,
        "streetTypeId": "CRT",
        "placeName": "BRAMPTON",
        "streetNameDisplayText": "HAMBLEY CRT, BRAMPTON"
      },
      {
        "electoralDistricts": [
          {
            "election": null,
            "id": 10,
            "name": "Brampton North"
          }
        ],
        "pollDivisionIds": [
          10126607
        ],
        "postalCode": "L6Z4N8",
        "streetName": "HURONTARIO",
        "streetDirectionId": null,
        "streetTypeId": "ST",
        "placeName": "BRAMPTON",
        "streetNameDisplayText": "HURONTARIO ST, BRAMPTON"
      }
    ]
  },
  {
    "postal": "L6Z3M5",
    "result": [
      {
        "electoralDistricts": [
          {
            "election": null,
            "id": 10,
            "name": "Brampton North"
          }
        ],
        "pollDivisionIds": [
          10126608
        ],
        "postalCode": "L6Z3M5",
        "streetName": "INDER HEIGHTS",
        "streetDirectionId": null,
        "streetTypeId": "DR",
        "placeName": "BRAMPTON",
        "streetNameDisplayText": "INDER HEIGHTS DR, BRAMPTON"
      }
    ]
  },
  {
    "postal": "L6Z6H7",
    "result": []
  },
  {
    "postal": "L6Z8Y8",
    "result": []
  },
  {
    "postal": "L6Z5R9",
    "result": []
  },
  {
    "postal": "L6Z8G3",
    "result": []
  },
  {
    "postal": "L6Z4N7",
    "result": [
      {
        "electoralDistricts": [
          {
            "election": null,
            "id": 10,
            "name": "Brampton North"
          }
        ],
        "pollDivisionIds": [
          10126615,
          10126632,
          10126614,
          10126631
        ],
        "postalCode": "L6Z4N7",
        "streetName": "KENNEDY",
        "streetDirectionId": null,
        "streetTypeId": "RD",
        "placeName": "BRAMPTON",
        "streetNameDisplayText": "KENNEDY RD, BRAMPTON"
      },
      {
        "electoralDistricts": [
          {
            "election": null,
            "id": 10,
            "name": "Brampton North"
          }
        ],
        "pollDivisionIds": [
          10126615
        ],
        "postalCode": "L6Z4N7",
        "streetName": "WEXFORD",
        "streetDirectionId": null,
        "streetTypeId": "RD",
        "placeName": "BRAMPTON",
        "streetNameDisplayText": "WEXFORD RD, BRAMPTON"
      }
    ]
  },
  {
    "postal": "L6Z0B9",
    "result": [
      {
        "electoralDistricts": [
          {
            "election": null,
            "id": 10,
            "name": "Brampton North"
          }
        ],
        "pollDivisionIds": [
          10126608
        ],
        "postalCode": "L6Z0B9",
        "streetName": "CONSERVATION",
        "streetDirectionId": null,
        "streetTypeId": "DR",
        "placeName": "BRAMPTON",
        "streetNameDisplayText": "CONSERVATION DR, BRAMPTON"
      }
    ]
  },
  {
    "postal": "L6Z9K7",
    "result": []
  },
  {
    "postal": "L6Z9K9",
    "result": []
  },
  {
    "postal": "L6Z3Z2",
    "result": [
      {
        "electoralDistricts": [
          {
            "election": null,
            "id": 10,
            "name": "Brampton North"
          }
        ],
        "pollDivisionIds": [
          10126611
        ],
        "postalCode": "L6Z3Z2",
        "streetName": "GLENMANOR",
        "streetDirectionId": null,
        "streetTypeId": "DR",
        "placeName": "BRAMPTON",
        "streetNameDisplayText": "GLENMANOR DR, BRAMPTON"
      },
      {
        "electoralDistricts": [
          {
            "election": null,
            "id": 10,
            "name": "Brampton North"
          }
        ],
        "pollDivisionIds": [
          10126611
        ],
        "postalCode": "L6Z3Z2",
        "streetName": "STANWELL",
        "streetDirectionId": null,
        "streetTypeId": "DR",
        "placeName": "BRAMPTON",
        "streetNameDisplayText": "STANWELL DR, BRAMPTON"
      }
    ]
  },
  {
    "postal": "L6Z6W7",
    "result": []
  },
  {
    "postal": "L6Z0P1",
    "result": []
  },
  {
    "postal": "L6Z3A0",
    "result": []
  },
  {
    "postal": "L6Z8L9",
    "result": []
  },
  {
    "postal": "L6Z6X0",
    "result": []
  },
  {
    "postal": "L6Z3E9",
    "result": [
      {
        "electoralDistricts": [
          {
            "election": null,
            "id": 10,
            "name": "Brampton North"
          }
        ],
        "pollDivisionIds": [
          10126612
        ],
        "postalCode": "L6Z3E9",
        "streetName": "PALERMO",
        "streetDirectionId": null,
        "streetTypeId": "CRT",
        "placeName": "BRAMPTON",
        "streetNameDisplayText": "PALERMO CRT, BRAMPTON"
      }
    ]
  },
  {
    "postal": "L6Z0S5",
    "result": []
  },
  {
    "postal": "L6Z1A2",
    "result": [
      {
        "electoralDistricts": [
          {
            "election": null,
            "id": 10,
            "name": "Brampton North"
          }
        ],
        "pollDivisionIds": [
          10126609
        ],
        "postalCode": "L6Z1A2",
        "streetName": "BLUERIDGE",
        "streetDirectionId": null,
        "streetTypeId": "SQ",
        "placeName": "BRAMPTON",
        "streetNameDisplayText": "BLUERIDGE SQ, BRAMPTON"
      }
    ]
  },
  {
    "postal": "L6Z5V8",
    "result": []
  },
  {
    "postal": "L6Z8C5",
    "result": []
  },
  {
    "postal": "L6Z6N0",
    "result": []
  },
  {
    "postal": "L6Z9E6",
    "result": []
  },
  {
    "postal": "L6Z5J7",
    "result": []
  },
  {
    "postal": "L6Z2R2",
    "result": [
      {
        "electoralDistricts": [
          {
            "election": null,
            "id": 10,
            "name": "Brampton North"
          }
        ],
        "pollDivisionIds": [
          10126611,
          10126615
        ],
        "postalCode": "L6Z2R2",
        "streetName": "WEXFORD",
        "streetDirectionId": null,
        "streetTypeId": "RD",
        "placeName": "BRAMPTON",
        "streetNameDisplayText": "WEXFORD RD, BRAMPTON"
      },
      {
        "electoralDistricts": [
          {
            "election": null,
            "id": 10,
            "name": "Brampton North"
          }
        ],
        "pollDivisionIds": [
          10126615
        ],
        "postalCode": "L6Z2R2",
        "streetName": "WHITEHAVEN",
        "streetDirectionId": null,
        "streetTypeId": "DR",
        "placeName": "BRAMPTON",
        "streetNameDisplayText": "WHITEHAVEN DR, BRAMPTON"
      }
    ]
  },
  {
    "postal": "L6Z0P5",
    "result": []
  },
  {
    "postal": "L6Z5A7",
    "result": []
  },
  {
    "postal": "L6Z1G1",
    "result": [
      {
        "electoralDistricts": [
          {
            "election": null,
            "id": 10,
            "name": "Brampton North"
          }
        ],
        "pollDivisionIds": [
          10126610
        ],
        "postalCode": "L6Z1G1",
        "streetName": "SUTTER",
        "streetDirectionId": null,
        "streetTypeId": "AVE",
        "placeName": "BRAMPTON",
        "streetNameDisplayText": "SUTTER AVE, BRAMPTON"
      }
    ]
  },
  {
    "postal": "L6Z9R6",
    "result": []
  },
  {
    "postal": "L6Z4Z9",
    "result": []
  },
  {
    "postal": "L6Z1V5",
    "result": [
      {
        "electoralDistricts": [
          {
            "election": null,
            "id": 10,
            "name": "Brampton North"
          }
        ],
        "pollDivisionIds": [
          10126609
        ],
        "postalCode": "L6Z1V5",
        "streetName": "CARNFORTH",
        "streetDirectionId": null,
        "streetTypeId": "DR",
        "placeName": "BRAMPTON",
        "streetNameDisplayText": "CARNFORTH DR, BRAMPTON"
      }
    ]
  },
  {
    "postal": "L6Z9Y5",
    "result": []
  },
  {
    "postal": "L6Z1P2",
    "result": [
      {
        "electoralDistricts": [
          {
            "election": null,
            "id": 10,
            "name": "Brampton North"
          }
        ],
        "pollDivisionIds": [
          10126612
        ],
        "postalCode": "L6Z1P2",
        "streetName": "ROYAL PALM",
        "streetDirectionId": null,
        "streetTypeId": "DR",
        "placeName": "BRAMPTON",
        "streetNameDisplayText": "ROYAL PALM DR, BRAMPTON"
      }
    ]
  },
  {
    "postal": "L6Z5X0",
    "result": []
  },
  {
    "postal": "L6Z7B8",
    "result": []
  },
  {
    "postal": "L6Z0C6",
    "result": [
      {
        "electoralDistricts": [
          {
            "election": null,
            "id": 10,
            "name": "Brampton North"
          }
        ],
        "pollDivisionIds": [
          10126612
        ],
        "postalCode": "L6Z0C6",
        "streetName": "BRUSSELS",
        "streetDirectionId": null,
        "streetTypeId": "AVE",
        "placeName": "BRAMPTON",
        "streetNameDisplayText": "BRUSSELS AVE, BRAMPTON"
      },
      {
        "electoralDistricts": [
          {
            "election": null,
            "id": 10,
            "name": "Brampton North"
          }
        ],
        "pollDivisionIds": [
          10126612
        ],
        "postalCode": "L6Z0C6",
        "streetName": "HEARTVIEW",
        "streetDirectionId": null,
        "streetTypeId": "RD",
        "placeName": "BRAMPTON",
        "streetNameDisplayText": "HEARTVIEW RD, BRAMPTON"
      },
      {
        "electoralDistricts": [
          {
            "election": null,
            "id": 10,
            "name": "Brampton North"
          }
        ],
        "pollDivisionIds": [
          10126612
        ],
        "postalCode": "L6Z0C6",
        "streetName": "SAMANTHA",
        "streetDirectionId": null,
        "streetTypeId": "CRES",
        "placeName": "BRAMPTON",
        "streetNameDisplayText": "SAMANTHA CRES, BRAMPTON"
      }
    ]
  },
  {
    "postal": "L6Z6G1",
    "result": []
  },
  {
    "postal": "L6Z3K3",
    "result": [
      {
        "electoralDistricts": [
          {
            "election": null,
            "id": 10,
            "name": "Brampton North"
          }
        ],
        "pollDivisionIds": [
          10126608
        ],
        "postalCode": "L6Z3K3",
        "streetName": "BURTREE",
        "streetDirectionId": null,
        "streetTypeId": "DR",
        "placeName": "BRAMPTON",
        "streetNameDisplayText": "BURTREE DR, BRAMPTON"
      },
      {
        "electoralDistricts": [
          {
            "election": null,
            "id": 10,
            "name": "Brampton North"
          }
        ],
        "pollDivisionIds": [
          10126608
        ],
        "postalCode": "L6Z3K3",
        "streetName": "CRANBROOKE",
        "streetDirectionId": null,
        "streetTypeId": "CRT",
        "placeName": "BRAMPTON",
        "streetNameDisplayText": "CRANBROOKE CRT, BRAMPTON"
      }
    ]
  },
  {
    "postal": "L6Z9R0",
    "result": []
  },
  {
    "postal": "L6Z4R8",
    "result": [
      {
        "electoralDistricts": [
          {
            "election": null,
            "id": 10,
            "name": "Brampton North"
          }
        ],
        "pollDivisionIds": [
          10126618
        ],
        "postalCode": "L6Z4R8",
        "streetName": "TOBA",
        "streetDirectionId": null,
        "streetTypeId": "CRES",
        "placeName": "BRAMPTON",
        "streetNameDisplayText": "TOBA CRES, BRAMPTON"
      }
    ]
  },
  {
    "postal": "L6Z5P9",
    "result": []
  },
  {
    "postal": "L6Z8N4",
    "result": []
  },
  {
    "postal": "L6Z8H4",
    "result": []
  },
  {
    "postal": "L6Z4V1",
    "result": [
      {
        "electoralDistricts": [
          {
            "election": null,
            "id": 10,
            "name": "Brampton North"
          }
        ],
        "pollDivisionIds": [
          10126606
        ],
        "postalCode": "L6Z4V1",
        "streetName": "HILLPATH",
        "streetDirectionId": null,
        "streetTypeId": "CRES",
        "placeName": "BRAMPTON",
        "streetNameDisplayText": "HILLPATH CRES, BRAMPTON"
      },
      {
        "electoralDistricts": [
          {
            "election": null,
            "id": 10,
            "name": "Brampton North"
          }
        ],
        "pollDivisionIds": [
          10126606
        ],
        "postalCode": "L6Z4V1",
        "streetName": "SUMMER VALLEY",
        "streetDirectionId": null,
        "streetTypeId": "DR",
        "placeName": "BRAMPTON",
        "streetNameDisplayText": "SUMMER VALLEY DR, BRAMPTON"
      }
    ]
  },
  {
    "postal": "L6Z1K5",
    "result": [
      {
        "electoralDistricts": [
          {
            "election": null,
            "id": 10,
            "name": "Brampton North"
          }
        ],
        "pollDivisionIds": [
          10126614
        ],
        "postalCode": "L6Z1K5",
        "streetName": "OMEGA",
        "streetDirectionId": null,
        "streetTypeId": "SQ",
        "placeName": "BRAMPTON",
        "streetNameDisplayText": "OMEGA SQ, BRAMPTON"
      }
    ]
  },
  {
    "postal": "L6Z1Z5",
    "result": [
      {
        "electoralDistricts": [
          {
            "election": null,
            "id": 10,
            "name": "Brampton North"
          }
        ],
        "pollDivisionIds": [
          10126612
        ],
        "postalCode": "L6Z1Z5",
        "streetName": "CASSANDER",
        "streetDirectionId": null,
        "streetTypeId": "CRES",
        "placeName": "BRAMPTON",
        "streetNameDisplayText": "CASSANDER CRES, BRAMPTON"
      }
    ]
  },
  {
    "postal": "L6Z9L9",
    "result": []
  },
  {
    "postal": "L6Z5L2",
    "result": []
  },
  {
    "postal": "L6Z0M2",
    "result": []
  },
  {
    "postal": "L6Z1K8",
    "result": []
  },
  {
    "postal": "L6Z3M7",
    "result": [
      {
        "electoralDistricts": [
          {
            "election": null,
            "id": 10,
            "name": "Brampton North"
          }
        ],
        "pollDivisionIds": [
          10126608
        ],
        "postalCode": "L6Z3M7",
        "streetName": "INDER HEIGHTS",
        "streetDirectionId": null,
        "streetTypeId": "DR",
        "placeName": "BRAMPTON",
        "streetNameDisplayText": "INDER HEIGHTS DR, BRAMPTON"
      }
    ]
  },
  {
    "postal": "L6Z1B2",
    "result": [
      {
        "electoralDistricts": [
          {
            "election": null,
            "id": 10,
            "name": "Brampton North"
          }
        ],
        "pollDivisionIds": [
          10126609
        ],
        "postalCode": "L6Z1B2",
        "streetName": "KINDLE",
        "streetDirectionId": null,
        "streetTypeId": "CRT",
        "placeName": "BRAMPTON",
        "streetNameDisplayText": "KINDLE CRT, BRAMPTON"
      }
    ]
  },
  {
    "postal": "L6Z0H9",
    "result": [
      {
        "electoralDistricts": [
          {
            "election": null,
            "id": 10,
            "name": "Brampton North"
          }
        ],
        "pollDivisionIds": [
          10126618
        ],
        "postalCode": "L6Z0H9",
        "streetName": "KAYAK",
        "streetDirectionId": null,
        "streetTypeId": "HTS",
        "placeName": "BRAMPTON",
        "streetNameDisplayText": "KAYAK HTS, BRAMPTON"
      },
      {
        "electoralDistricts": [
          {
            "election": null,
            "id": 10,
            "name": "Brampton North"
          }
        ],
        "pollDivisionIds": [
          10126618
        ],
        "postalCode": "L6Z0H9",
        "streetName": "TELEGRAPH",
        "streetDirectionId": null,
        "streetTypeId": "ST",
        "placeName": "BRAMPTON",
        "streetNameDisplayText": "TELEGRAPH ST, BRAMPTON"
      },
      {
        "electoralDistricts": [
          {
            "election": null,
            "id": 10,
            "name": "Brampton North"
          }
        ],
        "pollDivisionIds": [
          10126618
        ],
        "postalCode": "L6Z0H9",
        "streetName": "TOLLGATE",
        "streetDirectionId": null,
        "streetTypeId": "ST",
        "placeName": "BRAMPTON",
        "streetNameDisplayText": "TOLLGATE ST, BRAMPTON"
      }
    ]
  },
  {
    "postal": "L6Z8M4",
    "result": []
  },
  {
    "postal": "L6Z2M5",
    "result": []
  },
  {
    "postal": "L6Z0T9",
    "result": []
  },
  {
    "postal": "L6Z3P1",
    "result": [
      {
        "electoralDistricts": [
          {
            "election": null,
            "id": 10,
            "name": "Brampton North"
          }
        ],
        "pollDivisionIds": [
          10126608
        ],
        "postalCode": "L6Z3P1",
        "streetName": "FERNBROOK",
        "streetDirectionId": null,
        "streetTypeId": "CRES",
        "placeName": "BRAMPTON",
        "streetNameDisplayText": "FERNBROOK CRES, BRAMPTON"
      }
    ]
  },
  {
    "postal": "L6Z1R6",
    "result": [
      {
        "electoralDistricts": [
          {
            "election": null,
            "id": 10,
            "name": "Brampton North"
          }
        ],
        "pollDivisionIds": [
          10126607
        ],
        "postalCode": "L6Z1R6",
        "streetName": "BRAIDWOOD LAKE",
        "streetDirectionId": null,
        "streetTypeId": "RD",
        "placeName": "BRAMPTON",
        "streetNameDisplayText": "BRAIDWOOD LAKE RD, BRAMPTON"
      }
    ]
  },
  {
    "postal": "L6Z9V5",
    "result": []
  },
  {
    "postal": "L6Z9T0",
    "result": []
  },
  {
    "postal": "L6Z0A9",
    "result": [
      {
        "electoralDistricts": [
          {
            "election": null,
            "id": 10,
            "name": "Brampton North"
          }
        ],
        "pollDivisionIds": [
          10126611
        ],
        "postalCode": "L6Z0A9",
        "streetName": "HURONTARIO",
        "streetDirectionId": null,
        "streetTypeId": "ST",
        "placeName": "BRAMPTON",
        "streetNameDisplayText": "HURONTARIO ST, BRAMPTON"
      }
    ]
  },
  {
    "postal": "L6Z1M3",
    "result": [
      {
        "electoralDistricts": [
          {
            "election": null,
            "id": 10,
            "name": "Brampton North"
          }
        ],
        "pollDivisionIds": [
          10126614
        ],
        "postalCode": "L6Z1M3",
        "streetName": "RICHVALE",
        "streetDirectionId": "S",
        "streetTypeId": "DR",
        "placeName": "BRAMPTON",
        "streetNameDisplayText": "RICHVALE DR S, BRAMPTON"
      }
    ]
  },
  {
    "postal": "L6Z1W8",
    "result": [
      {
        "electoralDistricts": [
          {
            "election": null,
            "id": 10,
            "name": "Brampton North"
          }
        ],
        "pollDivisionIds": [
          10126609
        ],
        "postalCode": "L6Z1W8",
        "streetName": "MOUNT FOREST",
        "streetDirectionId": null,
        "streetTypeId": "DR",
        "placeName": "BRAMPTON",
        "streetNameDisplayText": "MOUNT FOREST DR, BRAMPTON"
      }
    ]
  },
  {
    "postal": "L6Z9J1",
    "result": []
  },
  {
    "postal": "L6Z8N5",
    "result": []
  },
  {
    "postal": "L6Z5X1",
    "result": []
  },
  {
    "postal": "L6Z6S2",
    "result": []
  },
  {
    "postal": "L6Z2A2",
    "result": [
      {
        "electoralDistricts": [
          {
            "election": null,
            "id": 10,
            "name": "Brampton North"
          }
        ],
        "pollDivisionIds": [
          10126609
        ],
        "postalCode": "L6Z2A2",
        "streetName": "DAWNRIDGE",
        "streetDirectionId": null,
        "streetTypeId": "TRAIL",
        "placeName": "BRAMPTON",
        "streetNameDisplayText": "DAWNRIDGE TRAIL, BRAMPTON"
      }
    ]
  },
  {
    "postal": "L6Z6A6",
    "result": []
  },
  {
    "postal": "L6Z0S3",
    "result": []
  },
  {
    "postal": "L6Z3E7",
    "result": [
      {
        "electoralDistricts": [
          {
            "election": null,
            "id": 10,
            "name": "Brampton North"
          }
        ],
        "pollDivisionIds": [
          10126612
        ],
        "postalCode": "L6Z3E7",
        "streetName": "PEGGY",
        "streetDirectionId": null,
        "streetTypeId": "CRT",
        "placeName": "BRAMPTON",
        "streetNameDisplayText": "PEGGY CRT, BRAMPTON"
      }
    ]
  },
  {
    "postal": "L6Z5R7",
    "result": []
  },
  {
    "postal": "L6Z3R6",
    "result": [
      {
        "electoralDistricts": [
          {
            "election": null,
            "id": 10,
            "name": "Brampton North"
          }
        ],
        "pollDivisionIds": [
          10126608
        ],
        "postalCode": "L6Z3R6",
        "streetName": "KENPARK",
        "streetDirectionId": null,
        "streetTypeId": "AVE",
        "placeName": "BRAMPTON",
        "streetNameDisplayText": "KENPARK AVE, BRAMPTON"
      },
      {
        "electoralDistricts": [
          {
            "election": null,
            "id": 10,
            "name": "Brampton North"
          }
        ],
        "pollDivisionIds": [
          10126608
        ],
        "postalCode": "L6Z3R6",
        "streetName": "SANDPIPER",
        "streetDirectionId": null,
        "streetTypeId": "CRT",
        "placeName": "BRAMPTON",
        "streetNameDisplayText": "SANDPIPER CRT, BRAMPTON"
      }
    ]
  },
  {
    "postal": "L6Z6K4",
    "result": []
  },
  {
    "postal": "L6Z2W5",
    "result": [
      {
        "electoralDistricts": [
          {
            "election": null,
            "id": 10,
            "name": "Brampton North"
          }
        ],
        "pollDivisionIds": [
          10126611
        ],
        "postalCode": "L6Z2W5",
        "streetName": "DUMFRIES",
        "streetDirectionId": null,
        "streetTypeId": "AVE",
        "placeName": "BRAMPTON",
        "streetNameDisplayText": "DUMFRIES AVE, BRAMPTON"
      }
    ]
  },
  {
    "postal": "L6Z8W4",
    "result": []
  },
  {
    "postal": "L6Z9C2",
    "result": []
  },
  {
    "postal": "L6Z2C0",
    "result": []
  },
  {
    "postal": "L6Z0E1",
    "result": [
      {
        "electoralDistricts": [
          {
            "election": null,
            "id": 10,
            "name": "Brampton North"
          }
        ],
        "pollDivisionIds": [
          10126612
        ],
        "postalCode": "L6Z0E1",
        "streetName": "BRUSSELS",
        "streetDirectionId": null,
        "streetTypeId": "AVE",
        "placeName": "BRAMPTON",
        "streetNameDisplayText": "BRUSSELS AVE, BRAMPTON"
      },
      {
        "electoralDistricts": [
          {
            "election": null,
            "id": 10,
            "name": "Brampton North"
          }
        ],
        "pollDivisionIds": [
          10126612
        ],
        "postalCode": "L6Z0E1",
        "streetName": "HEARTVIEW",
        "streetDirectionId": null,
        "streetTypeId": "RD",
        "placeName": "BRAMPTON",
        "streetNameDisplayText": "HEARTVIEW RD, BRAMPTON"
      }
    ]
  },
  {
    "postal": "L6Z1K9",
    "result": [
      {
        "electoralDistricts": [
          {
            "election": null,
            "id": 10,
            "name": "Brampton North"
          }
        ],
        "pollDivisionIds": [
          10126614
        ],
        "postalCode": "L6Z1K9",
        "streetName": "REYNIER",
        "streetDirectionId": null,
        "streetTypeId": "DR",
        "placeName": "BRAMPTON",
        "streetNameDisplayText": "REYNIER DR, BRAMPTON"
      }
    ]
  },
  {
    "postal": "L6Z1G7",
    "result": [
      {
        "electoralDistricts": [
          {
            "election": null,
            "id": 10,
            "name": "Brampton North"
          }
        ],
        "pollDivisionIds": [
          10126610
        ],
        "postalCode": "L6Z1G7",
        "streetName": "SUTTER",
        "streetDirectionId": null,
        "streetTypeId": "AVE",
        "placeName": "BRAMPTON",
        "streetNameDisplayText": "SUTTER AVE, BRAMPTON"
      }
    ]
  },
  {
    "postal": "L6Z4E9",
    "result": [
      {
        "electoralDistricts": [
          {
            "election": null,
            "id": 10,
            "name": "Brampton North"
          }
        ],
        "pollDivisionIds": [
          10126614
        ],
        "postalCode": "L6Z4E9",
        "streetName": "DRAYGLASS",
        "streetDirectionId": null,
        "streetTypeId": "CRT",
        "placeName": "BRAMPTON",
        "streetNameDisplayText": "DRAYGLASS CRT, BRAMPTON"
      },
      {
        "electoralDistricts": [
          {
            "election": null,
            "id": 10,
            "name": "Brampton North"
          }
        ],
        "pollDivisionIds": [
          10126614
        ],
        "postalCode": "L6Z4E9",
        "streetName": "RICHVALE",
        "streetDirectionId": "S",
        "streetTypeId": "DR",
        "placeName": "BRAMPTON",
        "streetNameDisplayText": "RICHVALE DR S, BRAMPTON"
      }
    ]
  },
  {
    "postal": "L6Z9P0",
    "result": []
  },
  {
    "postal": "L6Z5H3",
    "result": []
  },
  {
    "postal": "L6Z9X6",
    "result": []
  },
  {
    "postal": "L6Z5N7",
    "result": []
  },
  {
    "postal": "L6Z5A6",
    "result": []
  },
  {
    "postal": "L6Z4M0",
    "result": []
  },
  {
    "postal": "L6Z3V6",
    "result": [
      {
        "electoralDistricts": [
          {
            "election": null,
            "id": 10,
            "name": "Brampton North"
          }
        ],
        "pollDivisionIds": [
          10126615
        ],
        "postalCode": "L6Z3V6",
        "streetName": "JAY",
        "streetDirectionId": null,
        "streetTypeId": "ST",
        "placeName": "BRAMPTON",
        "streetNameDisplayText": "JAY ST, BRAMPTON"
      }
    ]
  },
  {
    "postal": "L6Z1L7",
    "result": [
      {
        "electoralDistricts": [
          {
            "election": null,
            "id": 10,
            "name": "Brampton North"
          }
        ],
        "pollDivisionIds": [
          10126614
        ],
        "postalCode": "L6Z1L7",
        "streetName": "REYNIER",
        "streetDirectionId": null,
        "streetTypeId": "DR",
        "placeName": "BRAMPTON",
        "streetNameDisplayText": "REYNIER DR, BRAMPTON"
      }
    ]
  },
  {
    "postal": "L6Z2P9",
    "result": [
      {
        "electoralDistricts": [
          {
            "election": null,
            "id": 10,
            "name": "Brampton North"
          }
        ],
        "pollDivisionIds": [
          10126615
        ],
        "postalCode": "L6Z2P9",
        "streetName": "BERWICK",
        "streetDirectionId": null,
        "streetTypeId": "AVE",
        "placeName": "BRAMPTON",
        "streetNameDisplayText": "BERWICK AVE, BRAMPTON"
      },
      {
        "electoralDistricts": [
          {
            "election": null,
            "id": 10,
            "name": "Brampton North"
          }
        ],
        "pollDivisionIds": [
          10126615
        ],
        "postalCode": "L6Z2P9",
        "streetName": "WEXFORD",
        "streetDirectionId": null,
        "streetTypeId": "RD",
        "placeName": "BRAMPTON",
        "streetNameDisplayText": "WEXFORD RD, BRAMPTON"
      }
    ]
  },
  {
    "postal": "L6Z5T4",
    "result": []
  },
  {
    "postal": "L6Z5Z1",
    "result": []
  },
  {
    "postal": "L6Z2X0",
    "result": []
  },
  {
    "postal": "L6Z6Z2",
    "result": []
  },
  {
    "postal": "L6Z0E0",
    "result": []
  },
  {
    "postal": "L6Z3Z5",
    "result": [
      {
        "electoralDistricts": [
          {
            "election": null,
            "id": 10,
            "name": "Brampton North"
          }
        ],
        "pollDivisionIds": [
          10126611
        ],
        "postalCode": "L6Z3Z5",
        "streetName": "GLENMANOR",
        "streetDirectionId": null,
        "streetTypeId": "DR",
        "placeName": "BRAMPTON",
        "streetNameDisplayText": "GLENMANOR DR, BRAMPTON"
      },
      {
        "electoralDistricts": [
          {
            "election": null,
            "id": 10,
            "name": "Brampton North"
          }
        ],
        "pollDivisionIds": [
          10126611
        ],
        "postalCode": "L6Z3Z5",
        "streetName": "SUNFOREST",
        "streetDirectionId": null,
        "streetTypeId": "DR",
        "placeName": "BRAMPTON",
        "streetNameDisplayText": "SUNFOREST DR, BRAMPTON"
      }
    ]
  },
  {
    "postal": "L6Z8H3",
    "result": []
  },
  {
    "postal": "L6Z7S6",
    "result": []
  },
  {
    "postal": "L6Z4C1",
    "result": [
      {
        "electoralDistricts": [
          {
            "election": null,
            "id": 10,
            "name": "Brampton North"
          }
        ],
        "pollDivisionIds": [
          10126611
        ],
        "postalCode": "L6Z4C1",
        "streetName": "CORONATION",
        "streetDirectionId": null,
        "streetTypeId": "CIR",
        "placeName": "BRAMPTON",
        "streetNameDisplayText": "CORONATION CIR, BRAMPTON"
      }
    ]
  },
  {
    "postal": "L6Z3K2",
    "result": [
      {
        "electoralDistricts": [
          {
            "election": null,
            "id": 10,
            "name": "Brampton North"
          }
        ],
        "pollDivisionIds": [
          10126608
        ],
        "postalCode": "L6Z3K2",
        "streetName": "MINTWOOD",
        "streetDirectionId": null,
        "streetTypeId": "CRT",
        "placeName": "BRAMPTON",
        "streetNameDisplayText": "MINTWOOD CRT, BRAMPTON"
      }
    ]
  },
  {
    "postal": "L6Z1Y5",
    "result": [
      {
        "electoralDistricts": [
          {
            "election": null,
            "id": 10,
            "name": "Brampton North"
          }
        ],
        "pollDivisionIds": [
          10126609
        ],
        "postalCode": "L6Z1Y5",
        "streetName": "SANDALWOOD",
        "streetDirectionId": "E",
        "streetTypeId": "PKY",
        "placeName": "BRAMPTON",
        "streetNameDisplayText": "SANDALWOOD PKY E, BRAMPTON"
      }
    ]
  },
  {
    "postal": "L6Z6P6",
    "result": []
  },
  {
    "postal": "L6Z3N9",
    "result": [
      {
        "electoralDistricts": [
          {
            "election": null,
            "id": 10,
            "name": "Brampton North"
          }
        ],
        "pollDivisionIds": [
          10126608
        ],
        "postalCode": "L6Z3N9",
        "streetName": "FERNBROOK",
        "streetDirectionId": null,
        "streetTypeId": "CRES",
        "placeName": "BRAMPTON",
        "streetNameDisplayText": "FERNBROOK CRES, BRAMPTON"
      },
      {
        "electoralDistricts": [
          {
            "election": null,
            "id": 10,
            "name": "Brampton North"
          }
        ],
        "pollDivisionIds": [
          10126608
        ],
        "postalCode": "L6Z3N9",
        "streetName": "HIGHBUSH",
        "streetDirectionId": null,
        "streetTypeId": "CRT",
        "placeName": "BRAMPTON",
        "streetNameDisplayText": "HIGHBUSH CRT, BRAMPTON"
      }
    ]
  },
  {
    "postal": "L6Z3W2",
    "result": [
      {
        "electoralDistricts": [
          {
            "election": null,
            "id": 10,
            "name": "Brampton North"
          }
        ],
        "pollDivisionIds": [
          10126615
        ],
        "postalCode": "L6Z3W2",
        "streetName": "FAIRLIGHT",
        "streetDirectionId": null,
        "streetTypeId": "ST",
        "placeName": "BRAMPTON",
        "streetNameDisplayText": "FAIRLIGHT ST, BRAMPTON"
      },
      {
        "electoralDistricts": [
          {
            "election": null,
            "id": 10,
            "name": "Brampton North"
          }
        ],
        "pollDivisionIds": [
          10126615
        ],
        "postalCode": "L6Z3W2",
        "streetName": "JAY",
        "streetDirectionId": null,
        "streetTypeId": "ST",
        "placeName": "BRAMPTON",
        "streetNameDisplayText": "JAY ST, BRAMPTON"
      },
      {
        "electoralDistricts": [
          {
            "election": null,
            "id": 10,
            "name": "Brampton North"
          }
        ],
        "pollDivisionIds": [
          10126615
        ],
        "postalCode": "L6Z3W2",
        "streetName": "MUSKOKA",
        "streetDirectionId": null,
        "streetTypeId": "ST",
        "placeName": "BRAMPTON",
        "streetNameDisplayText": "MUSKOKA ST, BRAMPTON"
      }
    ]
  },
  {
    "postal": "L6Z6H8",
    "result": []
  },
  {
    "postal": "L6Z9T3",
    "result": []
  },
  {
    "postal": "L6Z5L9",
    "result": []
  },
  {
    "postal": "L6Z7X7",
    "result": []
  },
  {
    "postal": "L6Z3J5",
    "result": [
      {
        "electoralDistricts": [
          {
            "election": null,
            "id": 10,
            "name": "Brampton North"
          }
        ],
        "pollDivisionIds": [
          10126608
        ],
        "postalCode": "L6Z3J5",
        "streetName": "CHRISTIE",
        "streetDirectionId": null,
        "streetTypeId": "DR",
        "placeName": "BRAMPTON",
        "streetNameDisplayText": "CHRISTIE DR, BRAMPTON"
      },
      {
        "electoralDistricts": [
          {
            "election": null,
            "id": 10,
            "name": "Brampton North"
          }
        ],
        "pollDivisionIds": [
          10126608
        ],
        "postalCode": "L6Z3J5",
        "streetName": "IRIS",
        "streetDirectionId": null,
        "streetTypeId": "CRES",
        "placeName": "BRAMPTON",
        "streetNameDisplayText": "IRIS CRES, BRAMPTON"
      }
    ]
  },
  {
    "postal": "L6Z4J5",
    "result": [
      {
        "electoralDistricts": [
          {
            "election": null,
            "id": 10,
            "name": "Brampton North"
          }
        ],
        "pollDivisionIds": [
          10126618
        ],
        "postalCode": "L6Z4J5",
        "streetName": "LANERCOST",
        "streetDirectionId": null,
        "streetTypeId": "WAY",
        "placeName": "BRAMPTON",
        "streetNameDisplayText": "LANERCOST WAY, BRAMPTON"
      }
    ]
  },
  {
    "postal": "L6Z6J2",
    "result": []
  },
  {
    "postal": "L6Z5V6",
    "result": []
  },
  {
    "postal": "L6Z3N2",
    "result": [
      {
        "electoralDistricts": [
          {
            "election": null,
            "id": 10,
            "name": "Brampton North"
          }
        ],
        "pollDivisionIds": [
          10126608
        ],
        "postalCode": "L6Z3N2",
        "streetName": "INDER HEIGHTS",
        "streetDirectionId": null,
        "streetTypeId": "DR",
        "placeName": "BRAMPTON",
        "streetNameDisplayText": "INDER HEIGHTS DR, BRAMPTON"
      },
      {
        "electoralDistricts": [
          {
            "election": null,
            "id": 10,
            "name": "Brampton North"
          }
        ],
        "pollDivisionIds": [
          10126608
        ],
        "postalCode": "L6Z3N2",
        "streetName": "MCARTHUR",
        "streetDirectionId": null,
        "streetTypeId": "HTS",
        "placeName": "BRAMPTON",
        "streetNameDisplayText": "MCARTHUR HTS, BRAMPTON"
      }
    ]
  },
  {
    "postal": "L6Z3B1",
    "result": [
      {
        "electoralDistricts": [
          {
            "election": null,
            "id": 12,
            "name": "Brampton West"
          },
          {
            "election": null,
            "id": 10,
            "name": "Brampton North"
          }
        ],
        "pollDivisionIds": [
          10137166,
          10126607
        ],
        "postalCode": "L6Z3B1",
        "streetName": "ELDERBANK",
        "streetDirectionId": null,
        "streetTypeId": "CRT",
        "placeName": "BRAMPTON",
        "streetNameDisplayText": "ELDERBANK CRT, BRAMPTON"
      }
    ]
  },
  {
    "postal": "L6Z8B5",
    "result": []
  },
  {
    "postal": "L6Z0K1",
    "result": []
  },
  {
    "postal": "L6Z7M7",
    "result": []
  },
  {
    "postal": "L6Z2M2",
    "result": [
      {
        "electoralDistricts": [
          {
            "election": null,
            "id": 10,
            "name": "Brampton North"
          }
        ],
        "pollDivisionIds": [
          10126612
        ],
        "postalCode": "L6Z2M2",
        "streetName": "RICHVALE",
        "streetDirectionId": "N",
        "streetTypeId": "DR",
        "placeName": "BRAMPTON",
        "streetNameDisplayText": "RICHVALE DR N, BRAMPTON"
      }
    ]
  },
  {
    "postal": "L6Z9N3",
    "result": []
  },
  {
    "postal": "L6Z4Y8",
    "result": []
  },
  {
    "postal": "L6Z3V7",
    "result": [
      {
        "electoralDistricts": [
          {
            "election": null,
            "id": 10,
            "name": "Brampton North"
          }
        ],
        "pollDivisionIds": [
          10126615
        ],
        "postalCode": "L6Z3V7",
        "streetName": "JAY",
        "streetDirectionId": null,
        "streetTypeId": "ST",
        "placeName": "BRAMPTON",
        "streetNameDisplayText": "JAY ST, BRAMPTON"
      }
    ]
  },
  {
    "postal": "L6Z8Z1",
    "result": []
  },
  {
    "postal": "L6Z7B3",
    "result": []
  },
  {
    "postal": "L6Z3A8",
    "result": [
      {
        "electoralDistricts": [
          {
            "election": null,
            "id": 10,
            "name": "Brampton North"
          }
        ],
        "pollDivisionIds": [
          10126610
        ],
        "postalCode": "L6Z3A8",
        "streetName": "STEVEN",
        "streetDirectionId": null,
        "streetTypeId": "CRT",
        "placeName": "BRAMPTON",
        "streetNameDisplayText": "STEVEN CRT, BRAMPTON"
      }
    ]
  },
  {
    "postal": "L6Z7V5",
    "result": []
  },
  {
    "postal": "L6Z2T2",
    "result": [
      {
        "electoralDistricts": [
          {
            "election": null,
            "id": 10,
            "name": "Brampton North"
          }
        ],
        "pollDivisionIds": [
          10126615
        ],
        "postalCode": "L6Z2T2",
        "streetName": "CONESTOGA",
        "streetDirectionId": null,
        "streetTypeId": "DR",
        "placeName": "BRAMPTON",
        "streetNameDisplayText": "CONESTOGA DR, BRAMPTON"
      },
      {
        "electoralDistricts": [
          {
            "election": null,
            "id": 10,
            "name": "Brampton North"
          }
        ],
        "pollDivisionIds": [
          10126615
        ],
        "postalCode": "L6Z2T2",
        "streetName": "ROSEPAC",
        "streetDirectionId": null,
        "streetTypeId": "AVE",
        "placeName": "BRAMPTON",
        "streetNameDisplayText": "ROSEPAC AVE, BRAMPTON"
      }
    ]
  },
  {
    "postal": "L6Z6L3",
    "result": []
  },
  {
    "postal": "L6Z0L2",
    "result": []
  },
  {
    "postal": "L6Z5Y8",
    "result": []
  },
  {
    "postal": "L6Z0B8",
    "result": [
      {
        "electoralDistricts": [
          {
            "election": null,
            "id": 10,
            "name": "Brampton North"
          }
        ],
        "pollDivisionIds": [
          10126608
        ],
        "postalCode": "L6Z0B8",
        "streetName": "CONSERVATION",
        "streetDirectionId": null,
        "streetTypeId": "DR",
        "placeName": "BRAMPTON",
        "streetNameDisplayText": "CONSERVATION DR, BRAMPTON"
      }
    ]
  },
  {
    "postal": "L6Z6R5",
    "result": []
  },
  {
    "postal": "L6Z8W6",
    "result": []
  },
  {
    "postal": "L6Z8G6",
    "result": []
  },
  {
    "postal": "L6Z6X3",
    "result": []
  },
  {
    "postal": "L6Z7R7",
    "result": []
  },
  {
    "postal": "L6Z4B6",
    "result": [
      {
        "electoralDistricts": [
          {
            "election": null,
            "id": 10,
            "name": "Brampton North"
          }
        ],
        "pollDivisionIds": [
          10126611
        ],
        "postalCode": "L6Z4B6",
        "streetName": "SUNFOREST",
        "streetDirectionId": null,
        "streetTypeId": "DR",
        "placeName": "BRAMPTON",
        "streetNameDisplayText": "SUNFOREST DR, BRAMPTON"
      },
      {
        "electoralDistricts": [
          {
            "election": null,
            "id": 10,
            "name": "Brampton North"
          }
        ],
        "pollDivisionIds": [
          10126611
        ],
        "postalCode": "L6Z4B6",
        "streetName": "TREMBLAY",
        "streetDirectionId": null,
        "streetTypeId": "ST",
        "placeName": "BRAMPTON",
        "streetNameDisplayText": "TREMBLAY ST, BRAMPTON"
      }
    ]
  },
  {
    "postal": "L6Z3P9",
    "result": [
      {
        "electoralDistricts": [
          {
            "election": null,
            "id": 10,
            "name": "Brampton North"
          }
        ],
        "pollDivisionIds": [
          10126615
        ],
        "postalCode": "L6Z3P9",
        "streetName": "BERWICK",
        "streetDirectionId": null,
        "streetTypeId": "AVE",
        "placeName": "BRAMPTON",
        "streetNameDisplayText": "BERWICK AVE, BRAMPTON"
      }
    ]
  },
  {
    "postal": "L6Z2T3",
    "result": [
      {
        "electoralDistricts": [
          {
            "election": null,
            "id": 10,
            "name": "Brampton North"
          }
        ],
        "pollDivisionIds": [
          10126615,
          10126611
        ],
        "postalCode": "L6Z2T3",
        "streetName": "CONESTOGA",
        "streetDirectionId": null,
        "streetTypeId": "DR",
        "placeName": "BRAMPTON",
        "streetNameDisplayText": "CONESTOGA DR, BRAMPTON"
      }
    ]
  },
  {
    "postal": "L6Z1M4",
    "result": [
      {
        "electoralDistricts": [
          {
            "election": null,
            "id": 10,
            "name": "Brampton North"
          }
        ],
        "pollDivisionIds": [
          10126614
        ],
        "postalCode": "L6Z1M4",
        "streetName": "RICHVALE",
        "streetDirectionId": "S",
        "streetTypeId": "DR",
        "placeName": "BRAMPTON",
        "streetNameDisplayText": "RICHVALE DR S, BRAMPTON"
      }
    ]
  },
  {
    "postal": "L6Z0H1",
    "result": []
  },
  {
    "postal": "L6Z9W3",
    "result": []
  },
  {
    "postal": "L6Z6P1",
    "result": []
  },
  {
    "postal": "L6Z7G2",
    "result": []
  },
  {
    "postal": "L6Z4J9",
    "result": [
      {
        "electoralDistricts": [
          {
            "election": null,
            "id": 10,
            "name": "Brampton North"
          }
        ],
        "pollDivisionIds": [
          10126614
        ],
        "postalCode": "L6Z4J9",
        "streetName": "KIRKPATRICK",
        "streetDirectionId": null,
        "streetTypeId": "ST",
        "placeName": "BRAMPTON",
        "streetNameDisplayText": "KIRKPATRICK ST, BRAMPTON"
      },
      {
        "electoralDistricts": [
          {
            "election": null,
            "id": 10,
            "name": "Brampton North"
          }
        ],
        "pollDivisionIds": [
          10126614
        ],
        "postalCode": "L6Z4J9",
        "streetName": "MOOREHEAD",
        "streetDirectionId": null,
        "streetTypeId": "CRES",
        "placeName": "BRAMPTON",
        "streetNameDisplayText": "MOOREHEAD CRES, BRAMPTON"
      }
    ]
  },
  {
    "postal": "L6Z9E4",
    "result": []
  },
  {
    "postal": "L6Z8H0",
    "result": []
  },
  {
    "postal": "L6Z4M7",
    "result": [
      {
        "electoralDistricts": [
          {
            "election": null,
            "id": 10,
            "name": "Brampton North"
          }
        ],
        "pollDivisionIds": [
          10126607
        ],
        "postalCode": "L6Z4M7",
        "streetName": "VOGUE",
        "streetDirectionId": null,
        "streetTypeId": "CRES",
        "placeName": "BRAMPTON",
        "streetNameDisplayText": "VOGUE CRES, BRAMPTON"
      }
    ]
  },
  {
    "postal": "L6Z2G9",
    "result": []
  },
  {
    "postal": "L6Z8T2",
    "result": []
  },
  {
    "postal": "L6Z7G7",
    "result": []
  },
  {
    "postal": "L6Z4Z3",
    "result": []
  },
  {
    "postal": "L6Z5B3",
    "result": []
  },
  {
    "postal": "L6Z1S7",
    "result": [
      {
        "electoralDistricts": [
          {
            "election": null,
            "id": 10,
            "name": "Brampton North"
          }
        ],
        "pollDivisionIds": [
          10126607
        ],
        "postalCode": "L6Z1S7",
        "streetName": "LAWNVIEW",
        "streetDirectionId": null,
        "streetTypeId": "CRT",
        "placeName": "BRAMPTON",
        "streetNameDisplayText": "LAWNVIEW CRT, BRAMPTON"
      }
    ]
  },
  {
    "postal": "L6Z2N7",
    "result": []
  },
  {
    "postal": "L6Z0H8",
    "result": [
      {
        "electoralDistricts": [
          {
            "election": null,
            "id": 10,
            "name": "Brampton North"
          }
        ],
        "pollDivisionIds": [
          10126618
        ],
        "postalCode": "L6Z0H8",
        "streetName": "KAYAK",
        "streetDirectionId": null,
        "streetTypeId": "HTS",
        "placeName": "BRAMPTON",
        "streetNameDisplayText": "KAYAK HTS, BRAMPTON"
      },
      {
        "electoralDistricts": [
          {
            "election": null,
            "id": 10,
            "name": "Brampton North"
          }
        ],
        "pollDivisionIds": [
          10126618
        ],
        "postalCode": "L6Z0H8",
        "streetName": "NEW PINES",
        "streetDirectionId": null,
        "streetTypeId": "TRAIL",
        "placeName": "BRAMPTON",
        "streetNameDisplayText": "NEW PINES TRAIL, BRAMPTON"
      }
    ]
  },
  {
    "postal": "L6Z7Z4",
    "result": []
  },
  {
    "postal": "L6Z7B1",
    "result": []
  },
  {
    "postal": "L6Z7P8",
    "result": []
  },
  {
    "postal": "L6Z7N0",
    "result": []
  },
  {
    "postal": "L6Z3Y5",
    "result": [
      {
        "electoralDistricts": [
          {
            "election": null,
            "id": 10,
            "name": "Brampton North"
          }
        ],
        "pollDivisionIds": [
          10126611
        ],
        "postalCode": "L6Z3Y5",
        "streetName": "STANWELL",
        "streetDirectionId": null,
        "streetTypeId": "DR",
        "placeName": "BRAMPTON",
        "streetNameDisplayText": "STANWELL DR, BRAMPTON"
      },
      {
        "electoralDistricts": [
          {
            "election": null,
            "id": 10,
            "name": "Brampton North"
          }
        ],
        "pollDivisionIds": [
          10126611
        ],
        "postalCode": "L6Z3Y5",
        "streetName": "SUNFOREST",
        "streetDirectionId": null,
        "streetTypeId": "DR",
        "placeName": "BRAMPTON",
        "streetNameDisplayText": "SUNFOREST DR, BRAMPTON"
      }
    ]
  },
  {
    "postal": "L6Z6K1",
    "result": []
  },
  {
    "postal": "L6Z9X5",
    "result": []
  },
  {
    "postal": "L6Z7S5",
    "result": []
  },
  {
    "postal": "L6Z0A4",
    "result": [
      {
        "electoralDistricts": [
          {
            "election": null,
            "id": 10,
            "name": "Brampton North"
          }
        ],
        "pollDivisionIds": [
          10126614
        ],
        "postalCode": "L6Z0A4",
        "streetName": "KENNEDY",
        "streetDirectionId": null,
        "streetTypeId": "RD",
        "placeName": "BRAMPTON",
        "streetNameDisplayText": "KENNEDY RD, BRAMPTON"
      }
    ]
  },
  {
    "postal": "L6Z4T5",
    "result": [
      {
        "electoralDistricts": [
          {
            "election": null,
            "id": 10,
            "name": "Brampton North"
          }
        ],
        "pollDivisionIds": [
          10126612
        ],
        "postalCode": "L6Z4T5",
        "streetName": "DEER CREEK",
        "streetDirectionId": null,
        "streetTypeId": "PL",
        "placeName": "BRAMPTON",
        "streetNameDisplayText": "DEER CREEK PL, BRAMPTON"
      },
      {
        "electoralDistricts": [
          {
            "election": null,
            "id": 10,
            "name": "Brampton North"
          }
        ],
        "pollDivisionIds": [
          10126612
        ],
        "postalCode": "L6Z4T5",
        "streetName": "FORESTGROVE",
        "streetDirectionId": null,
        "streetTypeId": "CIR",
        "placeName": "BRAMPTON",
        "streetNameDisplayText": "FORESTGROVE CIR, BRAMPTON"
      }
    ]
  },
  {
    "postal": "L6Z5K1",
    "result": []
  },
  {
    "postal": "L6Z0Z9",
    "result": []
  },
  {
    "postal": "L6Z7T2",
    "result": []
  },
  {
    "postal": "L6Z1L5",
    "result": [
      {
        "electoralDistricts": [
          {
            "election": null,
            "id": 10,
            "name": "Brampton North"
          }
        ],
        "pollDivisionIds": [
          10126614
        ],
        "postalCode": "L6Z1L5",
        "streetName": "REYNIER",
        "streetDirectionId": null,
        "streetTypeId": "DR",
        "placeName": "BRAMPTON",
        "streetNameDisplayText": "REYNIER DR, BRAMPTON"
      }
    ]
  },
  {
    "postal": "L6Z3N5",
    "result": [
      {
        "electoralDistricts": [
          {
            "election": null,
            "id": 10,
            "name": "Brampton North"
          }
        ],
        "pollDivisionIds": [
          10126608
        ],
        "postalCode": "L6Z3N5",
        "streetName": "INDER HEIGHTS",
        "streetDirectionId": null,
        "streetTypeId": "DR",
        "placeName": "BRAMPTON",
        "streetNameDisplayText": "INDER HEIGHTS DR, BRAMPTON"
      },
      {
        "electoralDistricts": [
          {
            "election": null,
            "id": 10,
            "name": "Brampton North"
          }
        ],
        "pollDivisionIds": [
          10126608
        ],
        "postalCode": "L6Z3N5",
        "streetName": "MOHAN",
        "streetDirectionId": null,
        "streetTypeId": "CRT",
        "placeName": "BRAMPTON",
        "streetNameDisplayText": "MOHAN CRT, BRAMPTON"
      }
    ]
  },
  {
    "postal": "L6Z6H4",
    "result": []
  },
  {
    "postal": "L6Z5A5",
    "result": []
  },
  {
    "postal": "L6Z3R9",
    "result": [
      {
        "electoralDistricts": [
          {
            "election": null,
            "id": 10,
            "name": "Brampton North"
          }
        ],
        "pollDivisionIds": [
          10126615
        ],
        "postalCode": "L6Z3R9",
        "streetName": "METZAK",
        "streetDirectionId": null,
        "streetTypeId": "DR",
        "placeName": "BRAMPTON",
        "streetNameDisplayText": "METZAK DR, BRAMPTON"
      },
      {
        "electoralDistricts": [
          {
            "election": null,
            "id": 10,
            "name": "Brampton North"
          }
        ],
        "pollDivisionIds": [
          10126615
        ],
        "postalCode": "L6Z3R9",
        "streetName": "ROSEPAC",
        "streetDirectionId": null,
        "streetTypeId": "AVE",
        "placeName": "BRAMPTON",
        "streetNameDisplayText": "ROSEPAC AVE, BRAMPTON"
      }
    ]
  },
  {
    "postal": "L6Z7L8",
    "result": []
  },
  {
    "postal": "L6Z6T6",
    "result": []
  },
  {
    "postal": "L6Z7Y7",
    "result": []
  },
  {
    "postal": "L6Z3M8",
    "result": [
      {
        "electoralDistricts": [
          {
            "election": null,
            "id": 10,
            "name": "Brampton North"
          }
        ],
        "pollDivisionIds": [
          10126608
        ],
        "postalCode": "L6Z3M8",
        "streetName": "INDER HEIGHTS",
        "streetDirectionId": null,
        "streetTypeId": "DR",
        "placeName": "BRAMPTON",
        "streetNameDisplayText": "INDER HEIGHTS DR, BRAMPTON"
      },
      {
        "electoralDistricts": [
          {
            "election": null,
            "id": 10,
            "name": "Brampton North"
          }
        ],
        "pollDivisionIds": [
          10126608
        ],
        "postalCode": "L6Z3M8",
        "streetName": "RAVINDER",
        "streetDirectionId": null,
        "streetTypeId": "CRT",
        "placeName": "BRAMPTON",
        "streetNameDisplayText": "RAVINDER CRT, BRAMPTON"
      }
    ]
  },
  {
    "postal": "L6Z2E0",
    "result": []
  },
  {
    "postal": "L6Z4B5",
    "result": [
      {
        "electoralDistricts": [
          {
            "election": null,
            "id": 10,
            "name": "Brampton North"
          }
        ],
        "pollDivisionIds": [
          10126611
        ],
        "postalCode": "L6Z4B5",
        "streetName": "SANDMERE",
        "streetDirectionId": null,
        "streetTypeId": "AVE",
        "placeName": "BRAMPTON",
        "streetNameDisplayText": "SANDMERE AVE, BRAMPTON"
      },
      {
        "electoralDistricts": [
          {
            "election": null,
            "id": 10,
            "name": "Brampton North"
          }
        ],
        "pollDivisionIds": [
          10126611
        ],
        "postalCode": "L6Z4B5",
        "streetName": "TREMBLAY",
        "streetDirectionId": null,
        "streetTypeId": "ST",
        "placeName": "BRAMPTON",
        "streetNameDisplayText": "TREMBLAY ST, BRAMPTON"
      }
    ]
  },
  {
    "postal": "L6Z1J3",
    "result": [
      {
        "electoralDistricts": [
          {
            "election": null,
            "id": 10,
            "name": "Brampton North"
          }
        ],
        "pollDivisionIds": [
          10126614
        ],
        "postalCode": "L6Z1J3",
        "streetName": "COURTLEIGH",
        "streetDirectionId": null,
        "streetTypeId": "SQ",
        "placeName": "BRAMPTON",
        "streetNameDisplayText": "COURTLEIGH SQ, BRAMPTON"
      }
    ]
  },
  {
    "postal": "L6Z5S6",
    "result": []
  },
  {
    "postal": "L6Z8P7",
    "result": []
  },
  {
    "postal": "L6Z7S7",
    "result": []
  },
  {
    "postal": "L6Z4C2",
    "result": [
      {
        "electoralDistricts": [
          {
            "election": null,
            "id": 10,
            "name": "Brampton North"
          }
        ],
        "pollDivisionIds": [
          10126611
        ],
        "postalCode": "L6Z4C2",
        "streetName": "CORONATION",
        "streetDirectionId": null,
        "streetTypeId": "CIR",
        "placeName": "BRAMPTON",
        "streetNameDisplayText": "CORONATION CIR, BRAMPTON"
      }
    ]
  },
  {
    "postal": "L6Z5Y0",
    "result": []
  },
  {
    "postal": "L6Z2V7",
    "result": [
      {
        "electoralDistricts": [
          {
            "election": null,
            "id": 10,
            "name": "Brampton North"
          }
        ],
        "pollDivisionIds": [
          10126611
        ],
        "postalCode": "L6Z2V7",
        "streetName": "WEXFORD",
        "streetDirectionId": null,
        "streetTypeId": "RD",
        "placeName": "BRAMPTON",
        "streetNameDisplayText": "WEXFORD RD, BRAMPTON"
      }
    ]
  },
  {
    "postal": "L6Z8P5",
    "result": []
  },
  {
    "postal": "L6Z5P5",
    "result": []
  },
  {
    "postal": "L6Z5Z0",
    "result": []
  },
  {
    "postal": "L6Z9B0",
    "result": []
  },
  {
    "postal": "L6Z1L0",
    "result": []
  },
  {
    "postal": "L6Z0B5",
    "result": [
      {
        "electoralDistricts": [
          {
            "election": null,
            "id": 10,
            "name": "Brampton North"
          }
        ],
        "pollDivisionIds": [
          10126613
        ],
        "postalCode": "L6Z0B5",
        "streetName": "HEART LAKE",
        "streetDirectionId": null,
        "streetTypeId": "RD",
        "placeName": "BRAMPTON",
        "streetNameDisplayText": "HEART LAKE RD, BRAMPTON"
      }
    ]
  },
  {
    "postal": "L6Z3L2",
    "result": [
      {
        "electoralDistricts": [
          {
            "election": null,
            "id": 10,
            "name": "Brampton North"
          }
        ],
        "pollDivisionIds": [
          10126608
        ],
        "postalCode": "L6Z3L2",
        "streetName": "CHICKADEE",
        "streetDirectionId": null,
        "streetTypeId": "CRES",
        "placeName": "BRAMPTON",
        "streetNameDisplayText": "CHICKADEE CRES, BRAMPTON"
      }
    ]
  },
  {
    "postal": "L6Z3B7",
    "result": [
      {
        "electoralDistricts": [
          {
            "election": null,
            "id": 10,
            "name": "Brampton North"
          }
        ],
        "pollDivisionIds": [
          10126614
        ],
        "postalCode": "L6Z3B7",
        "streetName": "KILLARNEY",
        "streetDirectionId": null,
        "streetTypeId": "CRT",
        "placeName": "BRAMPTON",
        "streetNameDisplayText": "KILLARNEY CRT, BRAMPTON"
      },
      {
        "electoralDistricts": [
          {
            "election": null,
            "id": 10,
            "name": "Brampton North"
          }
        ],
        "pollDivisionIds": [
          10126614
        ],
        "postalCode": "L6Z3B7",
        "streetName": "PINELLAS",
        "streetDirectionId": null,
        "streetTypeId": "DR",
        "placeName": "BRAMPTON",
        "streetNameDisplayText": "PINELLAS DR, BRAMPTON"
      }
    ]
  },
  {
    "postal": "L6Z8L1",
    "result": []
  },
  {
    "postal": "L6Z5M4",
    "result": []
  },
  {
    "postal": "L6Z4G9",
    "result": [
      {
        "electoralDistricts": [
          {
            "election": null,
            "id": 10,
            "name": "Brampton North"
          }
        ],
        "pollDivisionIds": [
          10126618
        ],
        "postalCode": "L6Z4G9",
        "streetName": "CHEVIOT",
        "streetDirectionId": null,
        "streetTypeId": "CRES",
        "placeName": "BRAMPTON",
        "streetNameDisplayText": "CHEVIOT CRES, BRAMPTON"
      },
      {
        "electoralDistricts": [
          {
            "election": null,
            "id": 10,
            "name": "Brampton North"
          }
        ],
        "pollDivisionIds": [
          10126618
        ],
        "postalCode": "L6Z4G9",
        "streetName": "LANERCOST",
        "streetDirectionId": null,
        "streetTypeId": "WAY",
        "placeName": "BRAMPTON",
        "streetNameDisplayText": "LANERCOST WAY, BRAMPTON"
      }
    ]
  },
  {
    "postal": "L6Z0P0",
    "result": []
  },
  {
    "postal": "L6Z8G2",
    "result": []
  },
  {
    "postal": "L6Z1V9",
    "result": [
      {
        "electoralDistricts": [
          {
            "election": null,
            "id": 10,
            "name": "Brampton North"
          }
        ],
        "pollDivisionIds": [
          10126609
        ],
        "postalCode": "L6Z1V9",
        "streetName": "LENNOX",
        "streetDirectionId": null,
        "streetTypeId": "CRT",
        "placeName": "BRAMPTON",
        "streetNameDisplayText": "LENNOX CRT, BRAMPTON"
      }
    ]
  },
  {
    "postal": "L6Z8N8",
    "result": []
  },
  {
    "postal": "L6Z6S8",
    "result": []
  },
  {
    "postal": "L6Z8H2",
    "result": []
  },
  {
    "postal": "L6Z5R8",
    "result": []
  },
  {
    "postal": "L6Z5L4",
    "result": []
  },
  {
    "postal": "L6Z9E1",
    "result": []
  },
  {
    "postal": "L6Z1C4",
    "result": [
      {
        "electoralDistricts": [
          {
            "election": null,
            "id": 10,
            "name": "Brampton North"
          }
        ],
        "pollDivisionIds": [
          10126609
        ],
        "postalCode": "L6Z1C4",
        "streetName": "SOMERSET",
        "streetDirectionId": null,
        "streetTypeId": "DR",
        "placeName": "BRAMPTON",
        "streetNameDisplayText": "SOMERSET DR, BRAMPTON"
      }
    ]
  },
  {
    "postal": "L6Z8W5",
    "result": []
  },
  {
    "postal": "L6Z1Y4",
    "result": [
      {
        "electoralDistricts": [
          {
            "election": null,
            "id": 10,
            "name": "Brampton North"
          }
        ],
        "pollDivisionIds": [
          10126609
        ],
        "postalCode": "L6Z1Y4",
        "streetName": "SANDALWOOD",
        "streetDirectionId": "E",
        "streetTypeId": "PKY",
        "placeName": "BRAMPTON",
        "streetNameDisplayText": "SANDALWOOD PKY E, BRAMPTON"
      }
    ]
  },
  {
    "postal": "L6Z1C0",
    "result": []
  },
  {
    "postal": "L6Z2J2",
    "result": []
  },
  {
    "postal": "L6Z2J0",
    "result": []
  },
  {
    "postal": "L6Z7A3",
    "result": []
  },
  {
    "postal": "L6Z8M1",
    "result": []
  },
  {
    "postal": "L6Z7T9",
    "result": []
  },
  {
    "postal": "L6Z6C0",
    "result": []
  },
  {
    "postal": "L6Z7X1",
    "result": []
  },
  {
    "postal": "L6Z0G1",
    "result": [
      {
        "electoralDistricts": [
          {
            "election": null,
            "id": 10,
            "name": "Brampton North"
          }
        ],
        "pollDivisionIds": [
          10126612
        ],
        "postalCode": "L6Z0G1",
        "streetName": "BRUSSELS",
        "streetDirectionId": null,
        "streetTypeId": "AVE",
        "placeName": "BRAMPTON",
        "streetNameDisplayText": "BRUSSELS AVE, BRAMPTON"
      }
    ]
  },
  {
    "postal": "L6Z4X2",
    "result": []
  },
  {
    "postal": "L6Z0N6",
    "result": []
  },
  {
    "postal": "L6Z8E3",
    "result": []
  },
  {
    "postal": "L6Z5S8",
    "result": []
  },
  {
    "postal": "L6Z0R0",
    "result": []
  },
  {
    "postal": "L6Z6J6",
    "result": []
  },
  {
    "postal": "L6Z4B4",
    "result": [
      {
        "electoralDistricts": [
          {
            "election": null,
            "id": 10,
            "name": "Brampton North"
          }
        ],
        "pollDivisionIds": [
          10126611
        ],
        "postalCode": "L6Z4B4",
        "streetName": "SANDMERE",
        "streetDirectionId": null,
        "streetTypeId": "AVE",
        "placeName": "BRAMPTON",
        "streetNameDisplayText": "SANDMERE AVE, BRAMPTON"
      },
      {
        "electoralDistricts": [
          {
            "election": null,
            "id": 10,
            "name": "Brampton North"
          }
        ],
        "pollDivisionIds": [
          10126611
        ],
        "postalCode": "L6Z4B4",
        "streetName": "TREMBLAY",
        "streetDirectionId": null,
        "streetTypeId": "ST",
        "placeName": "BRAMPTON",
        "streetNameDisplayText": "TREMBLAY ST, BRAMPTON"
      }
    ]
  },
  {
    "postal": "L6Z7E3",
    "result": []
  },
  {
    "postal": "L6Z3N6",
    "result": [
      {
        "electoralDistricts": [
          {
            "election": null,
            "id": 10,
            "name": "Brampton North"
          }
        ],
        "pollDivisionIds": [
          10126608
        ],
        "postalCode": "L6Z3N6",
        "streetName": "INDER HEIGHTS",
        "streetDirectionId": null,
        "streetTypeId": "DR",
        "placeName": "BRAMPTON",
        "streetNameDisplayText": "INDER HEIGHTS DR, BRAMPTON"
      },
      {
        "electoralDistricts": [
          {
            "election": null,
            "id": 10,
            "name": "Brampton North"
          }
        ],
        "pollDivisionIds": [
          10126608
        ],
        "postalCode": "L6Z3N6",
        "streetName": "MOHAN",
        "streetDirectionId": null,
        "streetTypeId": "CRT",
        "placeName": "BRAMPTON",
        "streetNameDisplayText": "MOHAN CRT, BRAMPTON"
      }
    ]
  },
  {
    "postal": "L6Z3X6",
    "result": [
      {
        "electoralDistricts": [
          {
            "election": null,
            "id": 10,
            "name": "Brampton North"
          }
        ],
        "pollDivisionIds": [
          10126615
        ],
        "postalCode": "L6Z3X6",
        "streetName": "POLYGON",
        "streetDirectionId": null,
        "streetTypeId": "CRT",
        "placeName": "BRAMPTON",
        "streetNameDisplayText": "POLYGON CRT, BRAMPTON"
      }
    ]
  },
  {
    "postal": "L6Z8L0",
    "result": []
  },
  {
    "postal": "L6Z8N1",
    "result": []
  },
  {
    "postal": "L6Z4J0",
    "result": []
  },
  {
    "postal": "L6Z0X7",
    "result": []
  },
  {
    "postal": "L6Z6S4",
    "result": []
  },
  {
    "postal": "L6Z0Z0",
    "result": []
  },
  {
    "postal": "L6Z9X8",
    "result": []
  },
  {
    "postal": "L6Z3H3",
    "result": [
      {
        "electoralDistricts": [
          {
            "election": null,
            "id": 10,
            "name": "Brampton North"
          }
        ],
        "pollDivisionIds": [
          10126608
        ],
        "postalCode": "L6Z3H3",
        "streetName": "MONTGOMERY",
        "streetDirectionId": null,
        "streetTypeId": "SQ",
        "placeName": "BRAMPTON",
        "streetNameDisplayText": "MONTGOMERY SQ, BRAMPTON"
      }
    ]
  },
  {
    "postal": "L6Z7S2",
    "result": []
  },
  {
    "postal": "L6Z3T3",
    "result": [
      {
        "electoralDistricts": [
          {
            "election": null,
            "id": 10,
            "name": "Brampton North"
          }
        ],
        "pollDivisionIds": [
          10126615
        ],
        "postalCode": "L6Z3T3",
        "streetName": "DONNA",
        "streetDirectionId": null,
        "streetTypeId": "DR",
        "placeName": "BRAMPTON",
        "streetNameDisplayText": "DONNA DR, BRAMPTON"
      }
    ]
  },
  {
    "postal": "L6Z9P3",
    "result": []
  },
  {
    "postal": "L6Z4H8",
    "result": [
      {
        "electoralDistricts": [
          {
            "election": null,
            "id": 10,
            "name": "Brampton North"
          }
        ],
        "pollDivisionIds": [
          10126618
        ],
        "postalCode": "L6Z4H8",
        "streetName": "BLAYDON",
        "streetDirectionId": null,
        "streetTypeId": "CRT",
        "placeName": "BRAMPTON",
        "streetNameDisplayText": "BLAYDON CRT, BRAMPTON"
      },
      {
        "electoralDistricts": [
          {
            "election": null,
            "id": 10,
            "name": "Brampton North"
          }
        ],
        "pollDivisionIds": [
          10126618
        ],
        "postalCode": "L6Z4H8",
        "streetName": "COCHRANE",
        "streetDirectionId": null,
        "streetTypeId": "AVE",
        "placeName": "BRAMPTON",
        "streetNameDisplayText": "COCHRANE AVE, BRAMPTON"
      }
    ]
  },
  {
    "postal": "L6Z6R1",
    "result": []
  },
  {
    "postal": "L6Z1S0",
    "result": []
  },
  {
    "postal": "L6Z3W8",
    "result": [
      {
        "electoralDistricts": [
          {
            "election": null,
            "id": 10,
            "name": "Brampton North"
          }
        ],
        "pollDivisionIds": [
          10126615
        ],
        "postalCode": "L6Z3W8",
        "streetName": "FAIRLIGHT",
        "streetDirectionId": null,
        "streetTypeId": "ST",
        "placeName": "BRAMPTON",
        "streetNameDisplayText": "FAIRLIGHT ST, BRAMPTON"
      }
    ]
  },
  {
    "postal": "L6Z4S3",
    "result": [
      {
        "electoralDistricts": [
          {
            "election": null,
            "id": 10,
            "name": "Brampton North"
          }
        ],
        "pollDivisionIds": [
          10126610
        ],
        "postalCode": "L6Z4S3",
        "streetName": "SANDALWOOD",
        "streetDirectionId": "E",
        "streetTypeId": "PKY",
        "placeName": "BRAMPTON",
        "streetNameDisplayText": "SANDALWOOD PKY E, BRAMPTON"
      }
    ]
  },
  {
    "postal": "L6Z1B6",
    "result": [
      {
        "electoralDistricts": [
          {
            "election": null,
            "id": 10,
            "name": "Brampton North"
          }
        ],
        "pollDivisionIds": [
          10126609
        ],
        "postalCode": "L6Z1B6",
        "streetName": "MOUNT FOREST",
        "streetDirectionId": null,
        "streetTypeId": "DR",
        "placeName": "BRAMPTON",
        "streetNameDisplayText": "MOUNT FOREST DR, BRAMPTON"
      }
    ]
  },
  {
    "postal": "L6Z8R3",
    "result": []
  },
  {
    "postal": "L6Z4V9",
    "result": [
      {
        "electoralDistricts": [
          {
            "election": null,
            "id": 10,
            "name": "Brampton North"
          }
        ],
        "pollDivisionIds": [
          10126618
        ],
        "postalCode": "L6Z4V9",
        "streetName": "NOTRE DAME",
        "streetDirectionId": null,
        "streetTypeId": "AVE",
        "placeName": "BRAMPTON",
        "streetNameDisplayText": "NOTRE DAME AVE, BRAMPTON"
      },
      {
        "electoralDistricts": [
          {
            "election": null,
            "id": 10,
            "name": "Brampton North"
          }
        ],
        "pollDivisionIds": [
          10126618
        ],
        "postalCode": "L6Z4V9",
        "streetName": "UPPER HIGHLANDS",
        "streetDirectionId": null,
        "streetTypeId": "DR",
        "placeName": "BRAMPTON",
        "streetNameDisplayText": "UPPER HIGHLANDS DR, BRAMPTON"
      }
    ]
  },
  {
    "postal": "L6Z9W4",
    "result": []
  },
  {
    "postal": "L6Z3T4",
    "result": [
      {
        "electoralDistricts": [
          {
            "election": null,
            "id": 10,
            "name": "Brampton North"
          }
        ],
        "pollDivisionIds": [
          10126615
        ],
        "postalCode": "L6Z3T4",
        "streetName": "DONNA",
        "streetDirectionId": null,
        "streetTypeId": "DR",
        "placeName": "BRAMPTON",
        "streetNameDisplayText": "DONNA DR, BRAMPTON"
      },
      {
        "electoralDistricts": [
          {
            "election": null,
            "id": 10,
            "name": "Brampton North"
          }
        ],
        "pollDivisionIds": [
          10126615,
          10126611
        ],
        "postalCode": "L6Z3T4",
        "streetName": "EBBY",
        "streetDirectionId": null,
        "streetTypeId": "AVE",
        "placeName": "BRAMPTON",
        "streetNameDisplayText": "EBBY AVE, BRAMPTON"
      }
    ]
  },
  {
    "postal": "L6Z5C7",
    "result": []
  },
  {
    "postal": "L6Z3Y1",
    "result": [
      {
        "electoralDistricts": [
          {
            "election": null,
            "id": 10,
            "name": "Brampton North"
          }
        ],
        "pollDivisionIds": [
          10126610
        ],
        "postalCode": "L6Z3Y1",
        "streetName": "CONESTOGA",
        "streetDirectionId": null,
        "streetTypeId": "DR",
        "placeName": "BRAMPTON",
        "streetNameDisplayText": "CONESTOGA DR, BRAMPTON"
      }
    ]
  },
  {
    "postal": "L6Z5V0",
    "result": []
  },
  {
    "postal": "L6Z8G8",
    "result": []
  },
  {
    "postal": "L6Z8B1",
    "result": []
  },
  {
    "postal": "L6Z4P5",
    "result": [
      {
        "electoralDistricts": [
          {
            "election": null,
            "id": 10,
            "name": "Brampton North"
          }
        ],
        "pollDivisionIds": [
          10126607
        ],
        "postalCode": "L6Z4P5",
        "streetName": "COLONEL BERTRAM",
        "streetDirectionId": null,
        "streetTypeId": "RD",
        "placeName": "BRAMPTON",
        "streetNameDisplayText": "COLONEL BERTRAM RD, BRAMPTON"
      },
      {
        "electoralDistricts": [
          {
            "election": null,
            "id": 10,
            "name": "Brampton North"
          }
        ],
        "pollDivisionIds": [
          10126607
        ],
        "postalCode": "L6Z4P5",
        "streetName": "ROYCREST",
        "streetDirectionId": null,
        "streetTypeId": "ST",
        "placeName": "BRAMPTON",
        "streetNameDisplayText": "ROYCREST ST, BRAMPTON"
      },
      {
        "electoralDistricts": [
          {
            "election": null,
            "id": 10,
            "name": "Brampton North"
          }
        ],
        "pollDivisionIds": [
          10126607
        ],
        "postalCode": "L6Z4P5",
        "streetName": "SULTANA",
        "streetDirectionId": null,
        "streetTypeId": "CRT",
        "placeName": "BRAMPTON",
        "streetNameDisplayText": "SULTANA CRT, BRAMPTON"
      },
      {
        "electoralDistricts": [
          {
            "election": null,
            "id": 10,
            "name": "Brampton North"
          }
        ],
        "pollDivisionIds": [
          10126607
        ],
        "postalCode": "L6Z4P5",
        "streetName": "VIEWMOUNT",
        "streetDirectionId": null,
        "streetTypeId": "CRES",
        "placeName": "BRAMPTON",
        "streetNameDisplayText": "VIEWMOUNT CRES, BRAMPTON"
      }
    ]
  },
  {
    "postal": "L6Z7B2",
    "result": []
  },
  {
    "postal": "L6Z0R2",
    "result": []
  },
  {
    "postal": "L6Z4M4",
    "result": [
      {
        "electoralDistricts": [
          {
            "election": null,
            "id": 10,
            "name": "Brampton North"
          }
        ],
        "pollDivisionIds": [
          10126607
        ],
        "postalCode": "L6Z4M4",
        "streetName": "SAPPHIRE",
        "streetDirectionId": null,
        "streetTypeId": "CRES",
        "placeName": "BRAMPTON",
        "streetNameDisplayText": "SAPPHIRE CRES, BRAMPTON"
      }
    ]
  },
  {
    "postal": "L6Z7M4",
    "result": []
  },
  {
    "postal": "L6Z9S7",
    "result": []
  },
  {
    "postal": "L6Z5Z7",
    "result": []
  },
  {
    "postal": "L6Z7J7",
    "result": []
  },
  {
    "postal": "L6Z8R8",
    "result": []
  },
  {
    "postal": "L6Z9X1",
    "result": []
  },
  {
    "postal": "L6Z5M9",
    "result": []
  },
  {
    "postal": "L6Z9B4",
    "result": []
  },
  {
    "postal": "L6Z0L9",
    "result": []
  },
  {
    "postal": "L6Z9G4",
    "result": []
  },
  {
    "postal": "L6Z1J4",
    "result": []
  },
  {
    "postal": "L6Z0W6",
    "result": []
  }
]
