[
  {
    "postal": "L6L9J6",
    "result": []
  },
  {
    "postal": "L6L9Z5",
    "result": []
  },
  {
    "postal": "L6L7H8",
    "result": []
  },
  {
    "postal": "L6L0P6",
    "result": []
  },
  {
    "postal": "L6L0S7",
    "result": []
  },
  {
    "postal": "L6L8B9",
    "result": []
  },
  {
    "postal": "L6L2A6",
    "result": [
      {
        "electoralDistricts": [
          {
            "election": null,
            "id": 74,
            "name": "Oakville"
          }
        ],
        "pollDivisionIds": [
          10140350
        ],
        "postalCode": "L6L2A6",
        "streetName": "REBECCA",
        "streetDirectionId": null,
        "streetTypeId": "ST",
        "placeName": "OAKVILLE",
        "streetNameDisplayText": "REBECCA ST, OAKVILLE"
      }
    ]
  },
  {
    "postal": "L6L7V2",
    "result": []
  },
  {
    "postal": "L6L9P4",
    "result": []
  },
  {
    "postal": "L6L6G0",
    "result": []
  },
  {
    "postal": "L6L2K0",
    "result": []
  },
  {
    "postal": "L6L7N6",
    "result": []
  },
  {
    "postal": "L6L5R3",
    "result": [
      {
        "electoralDistricts": [
          {
            "election": null,
            "id": 74,
            "name": "Oakville"
          }
        ],
        "pollDivisionIds": [
          10140347
        ],
        "postalCode": "L6L5R3",
        "streetName": "VICTORIA",
        "streetDirectionId": null,
        "streetTypeId": "ST",
        "placeName": "OAKVILLE",
        "streetNameDisplayText": "VICTORIA ST, OAKVILLE"
      }
    ]
  },
  {
    "postal": "L6L7K0",
    "result": []
  },
  {
    "postal": "L6L3R2",
    "result": [
      {
        "electoralDistricts": [
          {
            "election": null,
            "id": 74,
            "name": "Oakville"
          }
        ],
        "pollDivisionIds": [
          10140350
        ],
        "postalCode": "L6L3R2",
        "streetName": "STANFIELD",
        "streetDirectionId": null,
        "streetTypeId": "DR",
        "placeName": "OAKVILLE",
        "streetNameDisplayText": "STANFIELD DR, OAKVILLE"
      }
    ]
  },
  {
    "postal": "L6L0J1",
    "result": []
  },
  {
    "postal": "L6L0B0",
    "result": []
  },
  {
    "postal": "L6L5Z2",
    "result": [
      {
        "electoralDistricts": [
          {
            "election": null,
            "id": 74,
            "name": "Oakville"
          }
        ],
        "pollDivisionIds": [
          10140347
        ],
        "postalCode": "L6L5Z2",
        "streetName": "SHORE",
        "streetDirectionId": null,
        "streetTypeId": "GDNS",
        "placeName": "OAKVILLE",
        "streetNameDisplayText": "SHORE GDNS, OAKVILLE"
      }
    ]
  },
  {
    "postal": "L6L7P3",
    "result": []
  },
  {
    "postal": "L6L2K3",
    "result": [
      {
        "electoralDistricts": [
          {
            "election": null,
            "id": 74,
            "name": "Oakville"
          }
        ],
        "pollDivisionIds": [
          10140350
        ],
        "postalCode": "L6L2K3",
        "streetName": "WAKELY",
        "streetDirectionId": null,
        "streetTypeId": "ST",
        "placeName": "OAKVILLE",
        "streetNameDisplayText": "WAKELY ST, OAKVILLE"
      }
    ]
  },
  {
    "postal": "L6L7Y6",
    "result": []
  },
  {
    "postal": "L6L1L9",
    "result": []
  },
  {
    "postal": "L6L8T0",
    "result": []
  },
  {
    "postal": "L6L3K8",
    "result": [
      {
        "electoralDistricts": [
          {
            "election": null,
            "id": 74,
            "name": "Oakville"
          }
        ],
        "pollDivisionIds": [
          10140349
        ],
        "postalCode": "L6L3K8",
        "streetName": "EAST",
        "streetDirectionId": null,
        "streetTypeId": "ST",
        "placeName": "OAKVILLE",
        "streetNameDisplayText": "EAST ST, OAKVILLE"
      }
    ]
  },
  {
    "postal": "L6L5W9",
    "result": [
      {
        "electoralDistricts": [
          {
            "election": null,
            "id": 74,
            "name": "Oakville"
          }
        ],
        "pollDivisionIds": [
          10140347
        ],
        "postalCode": "L6L5W9",
        "streetName": "SHORELINE",
        "streetDirectionId": null,
        "streetTypeId": "DR",
        "placeName": "OAKVILLE",
        "streetNameDisplayText": "SHORELINE DR, OAKVILLE"
      }
    ]
  },
  {
    "postal": "L6L6T9",
    "result": [
      {
        "electoralDistricts": [
          {
            "election": null,
            "id": 74,
            "name": "Oakville"
          }
        ],
        "pollDivisionIds": [
          10140346
        ],
        "postalCode": "L6L6T9",
        "streetName": "NAUTICAL",
        "streetDirectionId": null,
        "streetTypeId": "BLVD",
        "placeName": "OAKVILLE",
        "streetNameDisplayText": "NAUTICAL BLVD, OAKVILLE"
      },
      {
        "electoralDistricts": [
          {
            "election": null,
            "id": 74,
            "name": "Oakville"
          }
        ],
        "pollDivisionIds": [
          10140346
        ],
        "postalCode": "L6L6T9",
        "streetName": "SPRINGFLOWER",
        "streetDirectionId": null,
        "streetTypeId": "WAY",
        "placeName": "OAKVILLE",
        "streetNameDisplayText": "SPRINGFLOWER WAY, OAKVILLE"
      },
      {
        "electoralDistricts": [
          {
            "election": null,
            "id": 74,
            "name": "Oakville"
          }
        ],
        "pollDivisionIds": [
          10140346
        ],
        "postalCode": "L6L6T9",
        "streetName": "SUMMERSET",
        "streetDirectionId": null,
        "streetTypeId": "CRT",
        "placeName": "OAKVILLE",
        "streetNameDisplayText": "SUMMERSET CRT, OAKVILLE"
      }
    ]
  },
  {
    "postal": "L6L4H1",
    "result": [
      {
        "electoralDistricts": [
          {
            "election": null,
            "id": 74,
            "name": "Oakville"
          }
        ],
        "pollDivisionIds": [
          10140351
        ],
        "postalCode": "L6L4H1",
        "streetName": "TRUDALE",
        "streetDirectionId": null,
        "streetTypeId": "CRT",
        "placeName": "OAKVILLE",
        "streetNameDisplayText": "TRUDALE CRT, OAKVILLE"
      }
    ]
  },
  {
    "postal": "L6L7A2",
    "result": []
  },
  {
    "postal": "L6L5G0",
    "result": []
  },
  {
    "postal": "L6L8V5",
    "result": []
  },
  {
    "postal": "L6L2Y8",
    "result": [
      {
        "electoralDistricts": [
          {
            "election": null,
            "id": 74,
            "name": "Oakville"
          }
        ],
        "pollDivisionIds": [
          10140346,
          10140347
        ],
        "postalCode": "L6L2Y8",
        "streetName": "WEST",
        "streetDirectionId": null,
        "streetTypeId": "ST",
        "placeName": "OAKVILLE",
        "streetNameDisplayText": "WEST ST, OAKVILLE"
      }
    ]
  },
  {
    "postal": "L6L2B6",
    "result": [
      {
        "electoralDistricts": [
          {
            "election": null,
            "id": 74,
            "name": "Oakville"
          }
        ],
        "pollDivisionIds": [
          10140351,
          10140355
        ],
        "postalCode": "L6L2B6",
        "streetName": "BRIDGE",
        "streetDirectionId": null,
        "streetTypeId": "RD",
        "placeName": "OAKVILLE",
        "streetNameDisplayText": "BRIDGE RD, OAKVILLE"
      }
    ]
  },
  {
    "postal": "L6L4W8",
    "result": [
      {
        "electoralDistricts": [
          {
            "election": null,
            "id": 74,
            "name": "Oakville"
          }
        ],
        "pollDivisionIds": [
          10140351
        ],
        "postalCode": "L6L4W8",
        "streetName": "WINSTON",
        "streetDirectionId": null,
        "streetTypeId": "RD",
        "placeName": "OAKVILLE",
        "streetNameDisplayText": "WINSTON RD, OAKVILLE"
      }
    ]
  },
  {
    "postal": "L6L8H7",
    "result": []
  },
  {
    "postal": "L6L5P1",
    "result": [
      {
        "electoralDistricts": [
          {
            "election": null,
            "id": 74,
            "name": "Oakville"
          }
        ],
        "pollDivisionIds": [
          10140345
        ],
        "postalCode": "L6L5P1",
        "streetName": "UNDERWOOD",
        "streetDirectionId": null,
        "streetTypeId": "CRES",
        "placeName": "OAKVILLE",
        "streetNameDisplayText": "UNDERWOOD CRES, OAKVILLE"
      }
    ]
  },
  {
    "postal": "L6L2B8",
    "result": [
      {
        "electoralDistricts": [
          {
            "election": null,
            "id": 74,
            "name": "Oakville"
          }
        ],
        "pollDivisionIds": [
          10140351
        ],
        "postalCode": "L6L2B8",
        "streetName": "BRIDGE",
        "streetDirectionId": null,
        "streetTypeId": "RD",
        "placeName": "OAKVILLE",
        "streetNameDisplayText": "BRIDGE RD, OAKVILLE"
      }
    ]
  },
  {
    "postal": "L6L0P2",
    "result": []
  },
  {
    "postal": "L6L9M1",
    "result": []
  },
  {
    "postal": "L6L3G0",
    "result": []
  },
  {
    "postal": "L6L9Z2",
    "result": []
  },
  {
    "postal": "L6L2A0",
    "result": []
  },
  {
    "postal": "L6L6Y0",
    "result": []
  },
  {
    "postal": "L6L2Z8",
    "result": [
      {
        "electoralDistricts": [
          {
            "election": null,
            "id": 74,
            "name": "Oakville"
          }
        ],
        "pollDivisionIds": [
          10140347
        ],
        "postalCode": "L6L2Z8",
        "streetName": "STRATHCONA",
        "streetDirectionId": null,
        "streetTypeId": "AVE",
        "placeName": "OAKVILLE",
        "streetNameDisplayText": "STRATHCONA AVE, OAKVILLE"
      }
    ]
  },
  {
    "postal": "L6L7Y3",
    "result": []
  },
  {
    "postal": "L6L6Z5",
    "result": []
  },
  {
    "postal": "L6L6E0",
    "result": []
  },
  {
    "postal": "L6L9B7",
    "result": []
  },
  {
    "postal": "L6L9S5",
    "result": []
  },
  {
    "postal": "L6L3X3",
    "result": [
      {
        "electoralDistricts": [
          {
            "election": null,
            "id": 74,
            "name": "Oakville"
          }
        ],
        "pollDivisionIds": [
          10140353
        ],
        "postalCode": "L6L3X3",
        "streetName": "SPENCER",
        "streetDirectionId": null,
        "streetTypeId": "RD",
        "placeName": "OAKVILLE",
        "streetNameDisplayText": "SPENCER RD, OAKVILLE"
      }
    ]
  },
  {
    "postal": "L6L7R5",
    "result": []
  },
  {
    "postal": "L6L2X3",
    "result": [
      {
        "electoralDistricts": [
          {
            "election": null,
            "id": 74,
            "name": "Oakville"
          }
        ],
        "pollDivisionIds": [
          10140351
        ],
        "postalCode": "L6L2X3",
        "streetName": "PINEGROVE",
        "streetDirectionId": null,
        "streetTypeId": "RD",
        "placeName": "OAKVILLE",
        "streetNameDisplayText": "PINEGROVE RD, OAKVILLE"
      }
    ]
  },
  {
    "postal": "L6L8Z9",
    "result": []
  },
  {
    "postal": "L6L0N4",
    "result": []
  },
  {
    "postal": "L6L1K1",
    "result": [
      {
        "electoralDistricts": [
          {
            "election": null,
            "id": 74,
            "name": "Oakville"
          }
        ],
        "pollDivisionIds": [
          10140347
        ],
        "postalCode": "L6L1K1",
        "streetName": "VICTORIA",
        "streetDirectionId": null,
        "streetTypeId": "ST",
        "placeName": "OAKVILLE",
        "streetNameDisplayText": "VICTORIA ST, OAKVILLE"
      }
    ]
  },
  {
    "postal": "L6L1S3",
    "result": [
      {
        "electoralDistricts": [
          {
            "election": null,
            "id": 74,
            "name": "Oakville"
          }
        ],
        "pollDivisionIds": [
          10140353
        ],
        "postalCode": "L6L1S3",
        "streetName": "HIXON",
        "streetDirectionId": null,
        "streetTypeId": "ST",
        "placeName": "OAKVILLE",
        "streetNameDisplayText": "HIXON ST, OAKVILLE"
      }
    ]
  },
  {
    "postal": "L6L6M4",
    "result": [
      {
        "electoralDistricts": [
          {
            "election": null,
            "id": 74,
            "name": "Oakville"
          }
        ],
        "pollDivisionIds": [
          10140345
        ],
        "postalCode": "L6L6M4",
        "streetName": "PACIFIC",
        "streetDirectionId": null,
        "streetTypeId": "RD",
        "placeName": "OAKVILLE",
        "streetNameDisplayText": "PACIFIC RD, OAKVILLE"
      }
    ]
  },
  {
    "postal": "L6L9A9",
    "result": []
  },
  {
    "postal": "L6L9Z9",
    "result": []
  },
  {
    "postal": "L6L6T4",
    "result": [
      {
        "electoralDistricts": [
          {
            "election": null,
            "id": 74,
            "name": "Oakville"
          }
        ],
        "pollDivisionIds": [
          10140346
        ],
        "postalCode": "L6L6T4",
        "streetName": "TAWNY",
        "streetDirectionId": null,
        "streetTypeId": "CRES",
        "placeName": "OAKVILLE",
        "streetNameDisplayText": "TAWNY CRES, OAKVILLE"
      }
    ]
  },
  {
    "postal": "L6L0B2",
    "result": [
      {
        "electoralDistricts": [
          {
            "election": null,
            "id": 74,
            "name": "Oakville"
          }
        ],
        "pollDivisionIds": [
          10140346
        ],
        "postalCode": "L6L0B2",
        "streetName": "WHILABOUT",
        "streetDirectionId": null,
        "streetTypeId": "TERR",
        "placeName": "OAKVILLE",
        "streetNameDisplayText": "WHILABOUT TERR, OAKVILLE"
      }
    ]
  },
  {
    "postal": "L6L2L9",
    "result": [
      {
        "electoralDistricts": [
          {
            "election": null,
            "id": 74,
            "name": "Oakville"
          }
        ],
        "pollDivisionIds": [
          10140352
        ],
        "postalCode": "L6L2L9",
        "streetName": "SUMMERLEA",
        "streetDirectionId": null,
        "streetTypeId": "ST",
        "placeName": "OAKVILLE",
        "streetNameDisplayText": "SUMMERLEA ST, OAKVILLE"
      }
    ]
  },
  {
    "postal": "L6L8K9",
    "result": []
  },
  {
    "postal": "L6L2H9",
    "result": [
      {
        "electoralDistricts": [
          {
            "election": null,
            "id": 74,
            "name": "Oakville"
          }
        ],
        "pollDivisionIds": [
          10140345
        ],
        "postalCode": "L6L2H9",
        "streetName": "YOLANDA",
        "streetDirectionId": null,
        "streetTypeId": "DR",
        "placeName": "OAKVILLE",
        "streetNameDisplayText": "YOLANDA DR, OAKVILLE"
      }
    ]
  },
  {
    "postal": "L6L3Z6",
    "result": [
      {
        "electoralDistricts": [
          {
            "election": null,
            "id": 74,
            "name": "Oakville"
          }
        ],
        "pollDivisionIds": [
          10140349
        ],
        "postalCode": "L6L3Z6",
        "streetName": "THIRD",
        "streetDirectionId": null,
        "streetTypeId": "LINE",
        "placeName": "OAKVILLE",
        "streetNameDisplayText": "THIRD LINE, OAKVILLE"
      }
    ]
  },
  {
    "postal": "L6L3B0",
    "result": []
  },
  {
    "postal": "L6L2H8",
    "result": [
      {
        "electoralDistricts": [
          {
            "election": null,
            "id": 74,
            "name": "Oakville"
          }
        ],
        "pollDivisionIds": [
          10140345
        ],
        "postalCode": "L6L2H8",
        "streetName": "YOLANDA",
        "streetDirectionId": null,
        "streetTypeId": "DR",
        "placeName": "OAKVILLE",
        "streetNameDisplayText": "YOLANDA DR, OAKVILLE"
      }
    ]
  },
  {
    "postal": "L6L3X2",
    "result": [
      {
        "electoralDistricts": [
          {
            "election": null,
            "id": 74,
            "name": "Oakville"
          }
        ],
        "pollDivisionIds": [
          10140353
        ],
        "postalCode": "L6L3X2",
        "streetName": "SHOREVIEW",
        "streetDirectionId": null,
        "streetTypeId": "CIR",
        "placeName": "OAKVILLE",
        "streetNameDisplayText": "SHOREVIEW CIR, OAKVILLE"
      }
    ]
  },
  {
    "postal": "L6L2E9",
    "result": [
      {
        "electoralDistricts": [
          {
            "election": null,
            "id": 74,
            "name": "Oakville"
          }
        ],
        "pollDivisionIds": [
          10140350
        ],
        "postalCode": "L6L2E9",
        "streetName": "BRIDGE",
        "streetDirectionId": null,
        "streetTypeId": "RD",
        "placeName": "OAKVILLE",
        "streetNameDisplayText": "BRIDGE RD, OAKVILLE"
      }
    ]
  },
  {
    "postal": "L6L9P6",
    "result": []
  },
  {
    "postal": "L6L9E2",
    "result": []
  },
  {
    "postal": "L6L9H2",
    "result": []
  },
  {
    "postal": "L6L1S8",
    "result": [
      {
        "electoralDistricts": [
          {
            "election": null,
            "id": 74,
            "name": "Oakville"
          }
        ],
        "pollDivisionIds": [
          10140353
        ],
        "postalCode": "L6L1S8",
        "streetName": "HIXON",
        "streetDirectionId": null,
        "streetTypeId": "ST",
        "placeName": "OAKVILLE",
        "streetNameDisplayText": "HIXON ST, OAKVILLE"
      }
    ]
  },
  {
    "postal": "L6L3M6",
    "result": []
  },
  {
    "postal": "L6L6Z8",
    "result": []
  },
  {
    "postal": "L6L4J2",
    "result": [
      {
        "electoralDistricts": [
          {
            "election": null,
            "id": 74,
            "name": "Oakville"
          }
        ],
        "pollDivisionIds": [
          10140352
        ],
        "postalCode": "L6L4J2",
        "streetName": "SHERIN",
        "streetDirectionId": null,
        "streetTypeId": "DR",
        "placeName": "OAKVILLE",
        "streetNameDisplayText": "SHERIN DR, OAKVILLE"
      }
    ]
  },
  {
    "postal": "L6L9Y1",
    "result": []
  },
  {
    "postal": "L6L8V6",
    "result": []
  },
  {
    "postal": "L6L6B2",
    "result": []
  },
  {
    "postal": "L6L1P8",
    "result": [
      {
        "electoralDistricts": [
          {
            "election": null,
            "id": 74,
            "name": "Oakville"
          }
        ],
        "pollDivisionIds": [
          10140353
        ],
        "postalCode": "L6L1P8",
        "streetName": "SEAFARE",
        "streetDirectionId": null,
        "streetTypeId": "DR",
        "placeName": "OAKVILLE",
        "streetNameDisplayText": "SEAFARE DR, OAKVILLE"
      }
    ]
  },
  {
    "postal": "L6L0V8",
    "result": []
  },
  {
    "postal": "L6L4Y0",
    "result": []
  },
  {
    "postal": "L6L2T4",
    "result": [
      {
        "electoralDistricts": [
          {
            "election": null,
            "id": 74,
            "name": "Oakville"
          }
        ],
        "pollDivisionIds": [
          10140350,
          10140345
        ],
        "postalCode": "L6L2T4",
        "streetName": "WYANDOTTE",
        "streetDirectionId": null,
        "streetTypeId": "DR",
        "placeName": "OAKVILLE",
        "streetNameDisplayText": "WYANDOTTE DR, OAKVILLE"
      }
    ]
  },
  {
    "postal": "L6L2S3",
    "result": [
      {
        "electoralDistricts": [
          {
            "election": null,
            "id": 74,
            "name": "Oakville"
          }
        ],
        "pollDivisionIds": [
          10140352
        ],
        "postalCode": "L6L2S3",
        "streetName": "WAVERLY",
        "streetDirectionId": null,
        "streetTypeId": "AVE",
        "placeName": "OAKVILLE",
        "streetNameDisplayText": "WAVERLY AVE, OAKVILLE"
      }
    ]
  },
  {
    "postal": "L6L0K0",
    "result": []
  },
  {
    "postal": "L6L5N1",
    "result": [
      {
        "electoralDistricts": [
          {
            "election": null,
            "id": 74,
            "name": "Oakville"
          }
        ],
        "pollDivisionIds": [
          10140350
        ],
        "postalCode": "L6L5N1",
        "streetName": "SOUTH SERVICE",
        "streetDirectionId": "W",
        "streetTypeId": "RD",
        "placeName": "OAKVILLE",
        "streetNameDisplayText": "SOUTH SERVICE RD W, OAKVILLE"
      }
    ]
  },
  {
    "postal": "L6L7T0",
    "result": []
  },
  {
    "postal": "L6L9N2",
    "result": []
  },
  {
    "postal": "L6L5L1",
    "result": [
      {
        "electoralDistricts": [
          {
            "election": null,
            "id": 74,
            "name": "Oakville"
          }
        ],
        "pollDivisionIds": [
          10140345
        ],
        "postalCode": "L6L5L1",
        "streetName": "WYATT",
        "streetDirectionId": null,
        "streetTypeId": "ST",
        "placeName": "OAKVILLE",
        "streetNameDisplayText": "WYATT ST, OAKVILLE"
      }
    ]
  },
  {
    "postal": "L6L7G5",
    "result": []
  },
  {
    "postal": "L6L6K2",
    "result": [
      {
        "electoralDistricts": [
          {
            "election": null,
            "id": 74,
            "name": "Oakville"
          }
        ],
        "pollDivisionIds": [
          10140352
        ],
        "postalCode": "L6L6K2",
        "streetName": "HELEN",
        "streetDirectionId": null,
        "streetTypeId": "CRT",
        "placeName": "OAKVILLE",
        "streetNameDisplayText": "HELEN CRT, OAKVILLE"
      }
    ]
  },
  {
    "postal": "L6L6P9",
    "result": [
      {
        "electoralDistricts": [
          {
            "election": null,
            "id": 74,
            "name": "Oakville"
          }
        ],
        "pollDivisionIds": [
          10140347
        ],
        "postalCode": "L6L6P9",
        "streetName": "MOHAWK",
        "streetDirectionId": null,
        "streetTypeId": "AVE",
        "placeName": "OAKVILLE",
        "streetNameDisplayText": "MOHAWK AVE, OAKVILLE"
      },
      {
        "electoralDistricts": [
          {
            "election": null,
            "id": 74,
            "name": "Oakville"
          }
        ],
        "pollDivisionIds": [
          10140347
        ],
        "postalCode": "L6L6P9",
        "streetName": "MOHAWK",
        "streetDirectionId": null,
        "streetTypeId": "RD",
        "placeName": "OAKVILLE",
        "streetNameDisplayText": "MOHAWK RD, OAKVILLE"
      }
    ]
  },
  {
    "postal": "L6L0E6",
    "result": []
  },
  {
    "postal": "L6L8R9",
    "result": []
  },
  {
    "postal": "L6L3G9",
    "result": [
      {
        "electoralDistricts": [
          {
            "election": null,
            "id": 74,
            "name": "Oakville"
          }
        ],
        "pollDivisionIds": [
          10140345
        ],
        "postalCode": "L6L3G9",
        "streetName": "ST DOMINIC",
        "streetDirectionId": null,
        "streetTypeId": "CRES",
        "placeName": "OAKVILLE",
        "streetNameDisplayText": "ST DOMINIC CRES, OAKVILLE"
      }
    ]
  },
  {
    "postal": "L6L0V7",
    "result": []
  },
  {
    "postal": "L6L2Z1",
    "result": [
      {
        "electoralDistricts": [
          {
            "election": null,
            "id": 74,
            "name": "Oakville"
          }
        ],
        "pollDivisionIds": [
          10140347
        ],
        "postalCode": "L6L2Z1",
        "streetName": "MOHAWK",
        "streetDirectionId": null,
        "streetTypeId": "RD",
        "placeName": "OAKVILLE",
        "streetNameDisplayText": "MOHAWK RD, OAKVILLE"
      }
    ]
  },
  {
    "postal": "L6L7N1",
    "result": []
  },
  {
    "postal": "L6L3C6",
    "result": [
      {
        "electoralDistricts": [
          {
            "election": null,
            "id": 74,
            "name": "Oakville"
          }
        ],
        "pollDivisionIds": [
          10143698
        ],
        "postalCode": "L6L3C6",
        "streetName": "BRONTE",
        "streetDirectionId": null,
        "streetTypeId": "RD",
        "placeName": "OAKVILLE",
        "streetNameDisplayText": "BRONTE RD, OAKVILLE"
      }
    ]
  },
  {
    "postal": "L6L4M1",
    "result": [
      {
        "electoralDistricts": [
          {
            "election": null,
            "id": 74,
            "name": "Oakville"
          }
        ],
        "pollDivisionIds": [
          10140352
        ],
        "postalCode": "L6L4M1",
        "streetName": "VALLEY",
        "streetDirectionId": null,
        "streetTypeId": "DR",
        "placeName": "OAKVILLE",
        "streetNameDisplayText": "VALLEY DR, OAKVILLE"
      }
    ]
  },
  {
    "postal": "L6L9K2",
    "result": []
  },
  {
    "postal": "L6L9S6",
    "result": []
  },
  {
    "postal": "L6L4X1",
    "result": [
      {
        "electoralDistricts": [
          {
            "election": null,
            "id": 74,
            "name": "Oakville"
          }
        ],
        "pollDivisionIds": [
          10140354
        ],
        "postalCode": "L6L4X1",
        "streetName": "SMITH",
        "streetDirectionId": null,
        "streetTypeId": "LANE",
        "placeName": "OAKVILLE",
        "streetNameDisplayText": "SMITH LANE, OAKVILLE"
      }
    ]
  },
  {
    "postal": "L6L8W2",
    "result": []
  },
  {
    "postal": "L6L7N2",
    "result": []
  },
  {
    "postal": "L6L8S3",
    "result": []
  },
  {
    "postal": "L6L4V0",
    "result": []
  },
  {
    "postal": "L6L6W4",
    "result": [
      {
        "electoralDistricts": [
          {
            "election": null,
            "id": 74,
            "name": "Oakville"
          }
        ],
        "pollDivisionIds": [
          10140346
        ],
        "postalCode": "L6L6W4",
        "streetName": "FOX RUN",
        "streetDirectionId": null,
        "streetTypeId": "CIR",
        "placeName": "OAKVILLE",
        "streetNameDisplayText": "FOX RUN CIR, OAKVILLE"
      }
    ]
  },
  {
    "postal": "L6L5M1",
    "result": [
      {
        "electoralDistricts": [
          {
            "election": null,
            "id": 74,
            "name": "Oakville"
          }
        ],
        "pollDivisionIds": [
          10140351
        ],
        "postalCode": "L6L5M1",
        "streetName": "SPEERS",
        "streetDirectionId": null,
        "streetTypeId": "RD",
        "placeName": "OAKVILLE",
        "streetNameDisplayText": "SPEERS RD, OAKVILLE"
      }
    ]
  },
  {
    "postal": "L6L0S4",
    "result": []
  },
  {
    "postal": "L6L5X6",
    "result": [
      {
        "electoralDistricts": [
          {
            "election": null,
            "id": 74,
            "name": "Oakville"
          }
        ],
        "pollDivisionIds": [
          10140347
        ],
        "postalCode": "L6L5X6",
        "streetName": "SKIPPER",
        "streetDirectionId": null,
        "streetTypeId": "LANE",
        "placeName": "OAKVILLE",
        "streetNameDisplayText": "SKIPPER LANE, OAKVILLE"
      }
    ]
  },
  {
    "postal": "L6L8L5",
    "result": []
  },
  {
    "postal": "L6L5M8",
    "result": []
  },
  {
    "postal": "L6L2G3",
    "result": [
      {
        "electoralDistricts": [
          {
            "election": null,
            "id": 74,
            "name": "Oakville"
          }
        ],
        "pollDivisionIds": [
          10140350
        ],
        "postalCode": "L6L2G3",
        "streetName": "BRIDGE",
        "streetDirectionId": null,
        "streetTypeId": "RD",
        "placeName": "OAKVILLE",
        "streetNameDisplayText": "BRIDGE RD, OAKVILLE"
      }
    ]
  },
  {
    "postal": "L6L8E4",
    "result": []
  },
  {
    "postal": "L6L7S9",
    "result": []
  },
  {
    "postal": "L6L1K3",
    "result": [
      {
        "electoralDistricts": [
          {
            "election": null,
            "id": 74,
            "name": "Oakville"
          }
        ],
        "pollDivisionIds": [
          10140347
        ],
        "postalCode": "L6L1K3",
        "streetName": "VICTORIA",
        "streetDirectionId": null,
        "streetTypeId": "ST",
        "placeName": "OAKVILLE",
        "streetNameDisplayText": "VICTORIA ST, OAKVILLE"
      }
    ]
  },
  {
    "postal": "L6L4E1",
    "result": [
      {
        "electoralDistricts": [
          {
            "election": null,
            "id": 74,
            "name": "Oakville"
          }
        ],
        "pollDivisionIds": [
          10140353
        ],
        "postalCode": "L6L4E1",
        "streetName": "WALBY",
        "streetDirectionId": null,
        "streetTypeId": "DR",
        "placeName": "OAKVILLE",
        "streetNameDisplayText": "WALBY DR, OAKVILLE"
      }
    ]
  },
  {
    "postal": "L6L4R2",
    "result": [
      {
        "electoralDistricts": [
          {
            "election": null,
            "id": 74,
            "name": "Oakville"
          }
        ],
        "pollDivisionIds": [
          10140352
        ],
        "postalCode": "L6L4R2",
        "streetName": "TOWER",
        "streetDirectionId": null,
        "streetTypeId": "DR",
        "placeName": "OAKVILLE",
        "streetNameDisplayText": "TOWER DR, OAKVILLE"
      }
    ]
  },
  {
    "postal": "L6L6T0",
    "result": []
  },
  {
    "postal": "L6L3K5",
    "result": [
      {
        "electoralDistricts": [
          {
            "election": null,
            "id": 74,
            "name": "Oakville"
          }
        ],
        "pollDivisionIds": [
          10140349
        ],
        "postalCode": "L6L3K5",
        "streetName": "EAST",
        "streetDirectionId": null,
        "streetTypeId": "ST",
        "placeName": "OAKVILLE",
        "streetNameDisplayText": "EAST ST, OAKVILLE"
      }
    ]
  },
  {
    "postal": "L6L3S3",
    "result": [
      {
        "electoralDistricts": [
          {
            "election": null,
            "id": 74,
            "name": "Oakville"
          }
        ],
        "pollDivisionIds": [
          10140350
        ],
        "postalCode": "L6L3S3",
        "streetName": "SANDLEWOOD",
        "streetDirectionId": null,
        "streetTypeId": "RD",
        "placeName": "OAKVILLE",
        "streetNameDisplayText": "SANDLEWOOD RD, OAKVILLE"
      }
    ]
  },
  {
    "postal": "L6L3L4",
    "result": [
      {
        "electoralDistricts": [
          {
            "election": null,
            "id": 74,
            "name": "Oakville"
          }
        ],
        "pollDivisionIds": [
          10140349
        ],
        "postalCode": "L6L3L4",
        "streetName": "SUNRISE",
        "streetDirectionId": null,
        "streetTypeId": "CRES",
        "placeName": "OAKVILLE",
        "streetNameDisplayText": "SUNRISE CRES, OAKVILLE"
      }
    ]
  },
  {
    "postal": "L6L9Y2",
    "result": []
  },
  {
    "postal": "L6L1E0",
    "result": []
  },
  {
    "postal": "L6L9A4",
    "result": []
  },
  {
    "postal": "L6L1L3",
    "result": [
      {
        "electoralDistricts": [
          {
            "election": null,
            "id": 74,
            "name": "Oakville"
          }
        ],
        "pollDivisionIds": [
          10140354
        ],
        "postalCode": "L6L1L3",
        "streetName": "SELGROVE",
        "streetDirectionId": null,
        "streetTypeId": "CRES",
        "placeName": "OAKVILLE",
        "streetNameDisplayText": "SELGROVE CRES, OAKVILLE"
      }
    ]
  },
  {
    "postal": "L6L6N1",
    "result": [
      {
        "electoralDistricts": [
          {
            "election": null,
            "id": 74,
            "name": "Oakville"
          }
        ],
        "pollDivisionIds": [
          10140353
        ],
        "postalCode": "L6L6N1",
        "streetName": "OLD LAKESHORE",
        "streetDirectionId": null,
        "streetTypeId": "RD",
        "placeName": "OAKVILLE",
        "streetNameDisplayText": "OLD LAKESHORE RD, OAKVILLE"
      }
    ]
  },
  {
    "postal": "L6L6G7",
    "result": [
      {
        "electoralDistricts": [
          {
            "election": null,
            "id": 74,
            "name": "Oakville"
          }
        ],
        "pollDivisionIds": [
          10140346
        ],
        "postalCode": "L6L6G7",
        "streetName": "WARNER",
        "streetDirectionId": null,
        "streetTypeId": "DR",
        "placeName": "OAKVILLE",
        "streetNameDisplayText": "WARNER DR, OAKVILLE"
      }
    ]
  },
  {
    "postal": "L6L7W1",
    "result": []
  },
  {
    "postal": "L6L4M6",
    "result": [
      {
        "electoralDistricts": [
          {
            "election": null,
            "id": 74,
            "name": "Oakville"
          }
        ],
        "pollDivisionIds": [
          10140351
        ],
        "postalCode": "L6L4M6",
        "streetName": "SANDBROOK",
        "streetDirectionId": null,
        "streetTypeId": "RD",
        "placeName": "OAKVILLE",
        "streetNameDisplayText": "SANDBROOK RD, OAKVILLE"
      }
    ]
  },
  {
    "postal": "L6L1K0",
    "result": []
  },
  {
    "postal": "L6L3E2",
    "result": [
      {
        "electoralDistricts": [
          {
            "election": null,
            "id": 74,
            "name": "Oakville"
          }
        ],
        "pollDivisionIds": [
          10140345
        ],
        "postalCode": "L6L3E2",
        "streetName": "CHERRYHILL",
        "streetDirectionId": null,
        "streetTypeId": "RD",
        "placeName": "OAKVILLE",
        "streetNameDisplayText": "CHERRYHILL RD, OAKVILLE"
      }
    ]
  },
  {
    "postal": "L6L5H4",
    "result": [
      {
        "electoralDistricts": [
          {
            "election": null,
            "id": 74,
            "name": "Oakville"
          }
        ],
        "pollDivisionIds": [
          10140354
        ],
        "postalCode": "L6L5H4",
        "streetName": "SPRING GARDEN",
        "streetDirectionId": null,
        "streetTypeId": "RD",
        "placeName": "OAKVILLE",
        "streetNameDisplayText": "SPRING GARDEN RD, OAKVILLE"
      }
    ]
  },
  {
    "postal": "L6L1K7",
    "result": [
      {
        "electoralDistricts": [
          {
            "election": null,
            "id": 74,
            "name": "Oakville"
          }
        ],
        "pollDivisionIds": [
          10140353
        ],
        "postalCode": "L6L1K7",
        "streetName": "VENETIA",
        "streetDirectionId": null,
        "streetTypeId": "DR",
        "placeName": "OAKVILLE",
        "streetNameDisplayText": "VENETIA DR, OAKVILLE"
      }
    ]
  },
  {
    "postal": "L6L0H0",
    "result": []
  },
  {
    "postal": "L6L0J3",
    "result": []
  },
  {
    "postal": "L6L1X6",
    "result": [
      {
        "electoralDistricts": [
          {
            "election": null,
            "id": 74,
            "name": "Oakville"
          }
        ],
        "pollDivisionIds": [
          10140354
        ],
        "postalCode": "L6L1X6",
        "streetName": "SEDGEWICK",
        "streetDirectionId": null,
        "streetTypeId": "CRES",
        "placeName": "OAKVILLE",
        "streetNameDisplayText": "SEDGEWICK CRES, OAKVILLE"
      }
    ]
  },
  {
    "postal": "L6L2Z6",
    "result": [
      {
        "electoralDistricts": [
          {
            "election": null,
            "id": 74,
            "name": "Oakville"
          }
        ],
        "pollDivisionIds": [
          10140347
        ],
        "postalCode": "L6L2Z6",
        "streetName": "STRATHCONA",
        "streetDirectionId": null,
        "streetTypeId": "AVE",
        "placeName": "OAKVILLE",
        "streetNameDisplayText": "STRATHCONA AVE, OAKVILLE"
      }
    ]
  },
  {
    "postal": "L6L4R9",
    "result": [
      {
        "electoralDistricts": [
          {
            "election": null,
            "id": 74,
            "name": "Oakville"
          }
        ],
        "pollDivisionIds": [
          10140354,
          10140355
        ],
        "postalCode": "L6L4R9",
        "streetName": "WOLFDALE",
        "streetDirectionId": null,
        "streetTypeId": "AVE",
        "placeName": "OAKVILLE",
        "streetNameDisplayText": "WOLFDALE AVE, OAKVILLE"
      }
    ]
  },
  {
    "postal": "L6L0W8",
    "result": []
  },
  {
    "postal": "L6L1L4",
    "result": [
      {
        "electoralDistricts": [
          {
            "election": null,
            "id": 74,
            "name": "Oakville"
          }
        ],
        "pollDivisionIds": [
          10140347
        ],
        "postalCode": "L6L1L4",
        "streetName": "RIVERVIEW",
        "streetDirectionId": null,
        "streetTypeId": "ST",
        "placeName": "OAKVILLE",
        "streetNameDisplayText": "RIVERVIEW ST, OAKVILLE"
      }
    ]
  },
  {
    "postal": "L6L0C8",
    "result": [
      {
        "electoralDistricts": [
          {
            "election": null,
            "id": 74,
            "name": "Oakville"
          }
        ],
        "pollDivisionIds": [
          10143698
        ],
        "postalCode": "L6L0C8",
        "streetName": "LAKESHORE",
        "streetDirectionId": "W",
        "streetTypeId": "RD",
        "placeName": "OAKVILLE",
        "streetNameDisplayText": "LAKESHORE RD W, OAKVILLE"
      }
    ]
  },
  {
    "postal": "L6L9X7",
    "result": []
  },
  {
    "postal": "L6L4T1",
    "result": [
      {
        "electoralDistricts": [
          {
            "election": null,
            "id": 74,
            "name": "Oakville"
          }
        ],
        "pollDivisionIds": [
          10140352
        ],
        "postalCode": "L6L4T1",
        "streetName": "LEES",
        "streetDirectionId": null,
        "streetTypeId": "LANE",
        "placeName": "OAKVILLE",
        "streetNameDisplayText": "LEES LANE, OAKVILLE"
      }
    ]
  },
  {
    "postal": "L6L0M0",
    "result": []
  },
  {
    "postal": "L6L6A2",
    "result": []
  },
  {
    "postal": "L6L9S8",
    "result": []
  },
  {
    "postal": "L6L9T4",
    "result": []
  },
  {
    "postal": "L6L9Y4",
    "result": []
  },
  {
    "postal": "L6L6G5",
    "result": [
      {
        "electoralDistricts": [
          {
            "election": null,
            "id": 74,
            "name": "Oakville"
          }
        ],
        "pollDivisionIds": [
          10140346
        ],
        "postalCode": "L6L6G5",
        "streetName": "WALDIE",
        "streetDirectionId": null,
        "streetTypeId": "RD",
        "placeName": "OAKVILLE",
        "streetNameDisplayText": "WALDIE RD, OAKVILLE"
      },
      {
        "electoralDistricts": [
          {
            "election": null,
            "id": 74,
            "name": "Oakville"
          }
        ],
        "pollDivisionIds": [
          10140346
        ],
        "postalCode": "L6L6G5",
        "streetName": "WARNER",
        "streetDirectionId": null,
        "streetTypeId": "DR",
        "placeName": "OAKVILLE",
        "streetNameDisplayText": "WARNER DR, OAKVILLE"
      }
    ]
  },
  {
    "postal": "L6L6H9",
    "result": [
      {
        "electoralDistricts": [
          {
            "election": null,
            "id": 74,
            "name": "Oakville"
          }
        ],
        "pollDivisionIds": [
          10140347
        ],
        "postalCode": "L6L6H9",
        "streetName": "SWANSEA",
        "streetDirectionId": null,
        "streetTypeId": "DR",
        "placeName": "OAKVILLE",
        "streetNameDisplayText": "SWANSEA DR, OAKVILLE"
      }
    ]
  },
  {
    "postal": "L6L2P3",
    "result": [
      {
        "electoralDistricts": [
          {
            "election": null,
            "id": 74,
            "name": "Oakville"
          }
        ],
        "pollDivisionIds": [
          10140352
        ],
        "postalCode": "L6L2P3",
        "streetName": "SARTA",
        "streetDirectionId": null,
        "streetTypeId": "RD",
        "placeName": "OAKVILLE",
        "streetNameDisplayText": "SARTA RD, OAKVILLE"
      }
    ]
  },
  {
    "postal": "L6L1T6",
    "result": [
      {
        "electoralDistricts": [
          {
            "election": null,
            "id": 74,
            "name": "Oakville"
          }
        ],
        "pollDivisionIds": [
          10140349
        ],
        "postalCode": "L6L1T6",
        "streetName": "HIXON",
        "streetDirectionId": null,
        "streetTypeId": "ST",
        "placeName": "OAKVILLE",
        "streetNameDisplayText": "HIXON ST, OAKVILLE"
      }
    ]
  },
  {
    "postal": "L6L4P6",
    "result": [
      {
        "electoralDistricts": [
          {
            "election": null,
            "id": 74,
            "name": "Oakville"
          }
        ],
        "pollDivisionIds": [
          10140354
        ],
        "postalCode": "L6L4P6",
        "streetName": "TWEEDSDALE",
        "streetDirectionId": null,
        "streetTypeId": "CRES",
        "placeName": "OAKVILLE",
        "streetNameDisplayText": "TWEEDSDALE CRES, OAKVILLE"
      }
    ]
  },
  {
    "postal": "L6L3K1",
    "result": [
      {
        "electoralDistricts": [
          {
            "election": null,
            "id": 74,
            "name": "Oakville"
          }
        ],
        "pollDivisionIds": [
          10140345
        ],
        "postalCode": "L6L3K1",
        "streetName": "SEYMOUR",
        "streetDirectionId": null,
        "streetTypeId": "DR",
        "placeName": "OAKVILLE",
        "streetNameDisplayText": "SEYMOUR DR, OAKVILLE"
      }
    ]
  },
  {
    "postal": "L6L6X4",
    "result": [
      {
        "electoralDistricts": [
          {
            "election": null,
            "id": 74,
            "name": "Oakville"
          }
        ],
        "pollDivisionIds": [
          10140346
        ],
        "postalCode": "L6L6X4",
        "streetName": "DUSKYWING",
        "streetDirectionId": null,
        "streetTypeId": "WAY",
        "placeName": "OAKVILLE",
        "streetNameDisplayText": "DUSKYWING WAY, OAKVILLE"
      },
      {
        "electoralDistricts": [
          {
            "election": null,
            "id": 74,
            "name": "Oakville"
          }
        ],
        "pollDivisionIds": [
          10140346
        ],
        "postalCode": "L6L6X4",
        "streetName": "GRAYLING",
        "streetDirectionId": null,
        "streetTypeId": "DR",
        "placeName": "OAKVILLE",
        "streetNameDisplayText": "GRAYLING DR, OAKVILLE"
      }
    ]
  },
  {
    "postal": "L6L4M8",
    "result": [
      {
        "electoralDistricts": [
          {
            "election": null,
            "id": 74,
            "name": "Oakville"
          }
        ],
        "pollDivisionIds": [
          10140352
        ],
        "postalCode": "L6L4M8",
        "streetName": "WARMINSTER",
        "streetDirectionId": null,
        "streetTypeId": "DR",
        "placeName": "OAKVILLE",
        "streetNameDisplayText": "WARMINSTER DR, OAKVILLE"
      }
    ]
  },
  {
    "postal": "L6L2Y1",
    "result": [
      {
        "electoralDistricts": [
          {
            "election": null,
            "id": 74,
            "name": "Oakville"
          }
        ],
        "pollDivisionIds": [
          10140351
        ],
        "postalCode": "L6L2Y1",
        "streetName": "WALLACE",
        "streetDirectionId": null,
        "streetTypeId": "RD",
        "placeName": "OAKVILLE",
        "streetNameDisplayText": "WALLACE RD, OAKVILLE"
      }
    ]
  },
  {
    "postal": "L6L6M1",
    "result": [
      {
        "electoralDistricts": [
          {
            "election": null,
            "id": 74,
            "name": "Oakville"
          }
        ],
        "pollDivisionIds": [
          10140350,
          10140345
        ],
        "postalCode": "L6L6M1",
        "streetName": "WYECROFT",
        "streetDirectionId": null,
        "streetTypeId": "RD",
        "placeName": "OAKVILLE",
        "streetNameDisplayText": "WYECROFT RD, OAKVILLE"
      }
    ]
  },
  {
    "postal": "L6L5L8",
    "result": [
      {
        "electoralDistricts": [
          {
            "election": null,
            "id": 74,
            "name": "Oakville"
          }
        ],
        "pollDivisionIds": [
          10140353
        ],
        "postalCode": "L6L5L8",
        "streetName": "BAYVIEW",
        "streetDirectionId": null,
        "streetTypeId": "RD",
        "placeName": "OAKVILLE",
        "streetNameDisplayText": "BAYVIEW RD, OAKVILLE"
      }
    ]
  },
  {
    "postal": "L6L3P6",
    "result": [
      {
        "electoralDistricts": [
          {
            "election": null,
            "id": 74,
            "name": "Oakville"
          }
        ],
        "pollDivisionIds": [
          10140350
        ],
        "postalCode": "L6L3P6",
        "streetName": "STANFIELD",
        "streetDirectionId": null,
        "streetTypeId": "DR",
        "placeName": "OAKVILLE",
        "streetNameDisplayText": "STANFIELD DR, OAKVILLE"
      }
    ]
  },
  {
    "postal": "L6L9A5",
    "result": []
  },
  {
    "postal": "L6L7K1",
    "result": []
  },
  {
    "postal": "L6L3J4",
    "result": [
      {
        "electoralDistricts": [
          {
            "election": null,
            "id": 74,
            "name": "Oakville"
          }
        ],
        "pollDivisionIds": [
          10140349
        ],
        "postalCode": "L6L3J4",
        "streetName": "NELSON",
        "streetDirectionId": null,
        "streetTypeId": "ST",
        "placeName": "OAKVILLE",
        "streetNameDisplayText": "NELSON ST, OAKVILLE"
      }
    ]
  },
  {
    "postal": "L6L5E7",
    "result": [
      {
        "electoralDistricts": [
          {
            "election": null,
            "id": 74,
            "name": "Oakville"
          }
        ],
        "pollDivisionIds": [
          10140345
        ],
        "postalCode": "L6L5E7",
        "streetName": "WATERFORD",
        "streetDirectionId": null,
        "streetTypeId": "ST",
        "placeName": "OAKVILLE",
        "streetNameDisplayText": "WATERFORD ST, OAKVILLE"
      }
    ]
  },
  {
    "postal": "L6L3A7",
    "result": [
      {
        "electoralDistricts": [
          {
            "election": null,
            "id": 74,
            "name": "Oakville"
          }
        ],
        "pollDivisionIds": [
          10140347
        ],
        "postalCode": "L6L3A7",
        "streetName": "MISSISSAGA",
        "streetDirectionId": null,
        "streetTypeId": "ST",
        "placeName": "OAKVILLE",
        "streetNameDisplayText": "MISSISSAGA ST, OAKVILLE"
      }
    ]
  },
  {
    "postal": "L6L1B9",
    "result": []
  },
  {
    "postal": "L6L9E8",
    "result": []
  },
  {
    "postal": "L6L1C9",
    "result": [
      {
        "electoralDistricts": [
          {
            "election": null,
            "id": 74,
            "name": "Oakville"
          }
        ],
        "pollDivisionIds": [
          10140353
        ],
        "postalCode": "L6L1C9",
        "streetName": "WORTHINGTON",
        "streetDirectionId": null,
        "streetTypeId": "DR",
        "placeName": "OAKVILLE",
        "streetNameDisplayText": "WORTHINGTON DR, OAKVILLE"
      }
    ]
  },
  {
    "postal": "L6L3B5",
    "result": [
      {
        "electoralDistricts": [
          {
            "election": null,
            "id": 74,
            "name": "Oakville"
          }
        ],
        "pollDivisionIds": [
          10140347
        ],
        "postalCode": "L6L3B5",
        "streetName": "WEST RIVER",
        "streetDirectionId": null,
        "streetTypeId": "ST",
        "placeName": "OAKVILLE",
        "streetNameDisplayText": "WEST RIVER ST, OAKVILLE"
      }
    ]
  },
  {
    "postal": "L6L8R0",
    "result": []
  },
  {
    "postal": "L6L3P2",
    "result": [
      {
        "electoralDistricts": [
          {
            "election": null,
            "id": 74,
            "name": "Oakville"
          }
        ],
        "pollDivisionIds": [
          10140349
        ],
        "postalCode": "L6L3P2",
        "streetName": "ULSTER",
        "streetDirectionId": null,
        "streetTypeId": "DR",
        "placeName": "OAKVILLE",
        "streetNameDisplayText": "ULSTER DR, OAKVILLE"
      }
    ]
  },
  {
    "postal": "L6L5V4",
    "result": [
      {
        "electoralDistricts": [
          {
            "election": null,
            "id": 74,
            "name": "Oakville"
          }
        ],
        "pollDivisionIds": [
          10140347
        ],
        "postalCode": "L6L5V4",
        "streetName": "HARBOURSIDE",
        "streetDirectionId": null,
        "streetTypeId": "CRT",
        "placeName": "OAKVILLE",
        "streetNameDisplayText": "HARBOURSIDE CRT, OAKVILLE"
      }
    ]
  },
  {
    "postal": "L6L4H0",
    "result": []
  },
  {
    "postal": "L6L4S7",
    "result": [
      {
        "electoralDistricts": [
          {
            "election": null,
            "id": 74,
            "name": "Oakville"
          }
        ],
        "pollDivisionIds": [
          10140352
        ],
        "postalCode": "L6L4S7",
        "streetName": "LEES",
        "streetDirectionId": null,
        "streetTypeId": "LANE",
        "placeName": "OAKVILLE",
        "streetNameDisplayText": "LEES LANE, OAKVILLE"
      }
    ]
  },
  {
    "postal": "L6L6C2",
    "result": []
  },
  {
    "postal": "L6L8W3",
    "result": []
  },
  {
    "postal": "L6L4M5",
    "result": [
      {
        "electoralDistricts": [
          {
            "election": null,
            "id": 74,
            "name": "Oakville"
          }
        ],
        "pollDivisionIds": [
          10140351
        ],
        "postalCode": "L6L4M5",
        "streetName": "STAFFORD",
        "streetDirectionId": null,
        "streetTypeId": "DR",
        "placeName": "OAKVILLE",
        "streetNameDisplayText": "STAFFORD DR, OAKVILLE"
      }
    ]
  },
  {
    "postal": "L6L5T1",
    "result": [
      {
        "electoralDistricts": [
          {
            "election": null,
            "id": 74,
            "name": "Oakville"
          }
        ],
        "pollDivisionIds": [
          10140347
        ],
        "postalCode": "L6L5T1",
        "streetName": "ULMAN",
        "streetDirectionId": null,
        "streetTypeId": "RD",
        "placeName": "OAKVILLE",
        "streetNameDisplayText": "ULMAN RD, OAKVILLE"
      }
    ]
  },
  {
    "postal": "L6L3B3",
    "result": [
      {
        "electoralDistricts": [
          {
            "election": null,
            "id": 74,
            "name": "Oakville"
          }
        ],
        "pollDivisionIds": [
          10140347
        ],
        "postalCode": "L6L3B3",
        "streetName": "WEST RIVER",
        "streetDirectionId": null,
        "streetTypeId": "ST",
        "placeName": "OAKVILLE",
        "streetNameDisplayText": "WEST RIVER ST, OAKVILLE"
      }
    ]
  },
  {
    "postal": "L6L6C6",
    "result": []
  },
  {
    "postal": "L6L7N8",
    "result": []
  },
  {
    "postal": "L6L2Y3",
    "result": [
      {
        "electoralDistricts": [
          {
            "election": null,
            "id": 74,
            "name": "Oakville"
          }
        ],
        "pollDivisionIds": [
          10140351
        ],
        "postalCode": "L6L2Y3",
        "streetName": "WALLACE",
        "streetDirectionId": null,
        "streetTypeId": "RD",
        "placeName": "OAKVILLE",
        "streetNameDisplayText": "WALLACE RD, OAKVILLE"
      }
    ]
  },
  {
    "postal": "L6L2R6",
    "result": [
      {
        "electoralDistricts": [
          {
            "election": null,
            "id": 74,
            "name": "Oakville"
          }
        ],
        "pollDivisionIds": [
          10140354
        ],
        "postalCode": "L6L2R6",
        "streetName": "SHAW",
        "streetDirectionId": null,
        "streetTypeId": "ST",
        "placeName": "OAKVILLE",
        "streetNameDisplayText": "SHAW ST, OAKVILLE"
      }
    ]
  },
  {
    "postal": "L6L7N3",
    "result": []
  },
  {
    "postal": "L6L8J2",
    "result": []
  },
  {
    "postal": "L6L6A9",
    "result": []
  },
  {
    "postal": "L6L3V2",
    "result": [
      {
        "electoralDistricts": [
          {
            "election": null,
            "id": 74,
            "name": "Oakville"
          }
        ],
        "pollDivisionIds": [
          10140353
        ],
        "postalCode": "L6L3V2",
        "streetName": "SARAH",
        "streetDirectionId": null,
        "streetTypeId": "LANE",
        "placeName": "OAKVILLE",
        "streetNameDisplayText": "SARAH LANE, OAKVILLE"
      }
    ]
  },
  {
    "postal": "L6L2N3",
    "result": [
      {
        "electoralDistricts": [
          {
            "election": null,
            "id": 74,
            "name": "Oakville"
          }
        ],
        "pollDivisionIds": [
          10140352
        ],
        "postalCode": "L6L2N3",
        "streetName": "TANSLEY",
        "streetDirectionId": null,
        "streetTypeId": "DR",
        "placeName": "OAKVILLE",
        "streetNameDisplayText": "TANSLEY DR, OAKVILLE"
      }
    ]
  },
  {
    "postal": "L6L1S5",
    "result": [
      {
        "electoralDistricts": [
          {
            "election": null,
            "id": 74,
            "name": "Oakville"
          }
        ],
        "pollDivisionIds": [
          10140353
        ],
        "postalCode": "L6L1S5",
        "streetName": "HIXON",
        "streetDirectionId": null,
        "streetTypeId": "ST",
        "placeName": "OAKVILLE",
        "streetNameDisplayText": "HIXON ST, OAKVILLE"
      }
    ]
  },
  {
    "postal": "L6L4T7",
    "result": [
      {
        "electoralDistricts": [
          {
            "election": null,
            "id": 74,
            "name": "Oakville"
          }
        ],
        "pollDivisionIds": [
          10140351
        ],
        "postalCode": "L6L4T7",
        "streetName": "LEES",
        "streetDirectionId": null,
        "streetTypeId": "LANE",
        "placeName": "OAKVILLE",
        "streetNameDisplayText": "LEES LANE, OAKVILLE"
      }
    ]
  },
  {
    "postal": "L6L6Y7",
    "result": []
  },
  {
    "postal": "L6L0W7",
    "result": []
  },
  {
    "postal": "L6L2W9",
    "result": [
      {
        "electoralDistricts": [
          {
            "election": null,
            "id": 74,
            "name": "Oakville"
          }
        ],
        "pollDivisionIds": [
          10140351
        ],
        "postalCode": "L6L2W9",
        "streetName": "PINEGROVE",
        "streetDirectionId": null,
        "streetTypeId": "RD",
        "placeName": "OAKVILLE",
        "streetNameDisplayText": "PINEGROVE RD, OAKVILLE"
      }
    ]
  },
  {
    "postal": "L6L8V0",
    "result": []
  },
  {
    "postal": "L6L0H4",
    "result": []
  },
  {
    "postal": "L6L2T1",
    "result": [
      {
        "electoralDistricts": [
          {
            "election": null,
            "id": 74,
            "name": "Oakville"
          }
        ],
        "pollDivisionIds": [
          10140352
        ],
        "postalCode": "L6L2T1",
        "streetName": "TISDALE",
        "streetDirectionId": null,
        "streetTypeId": "ST",
        "placeName": "OAKVILLE",
        "streetNameDisplayText": "TISDALE ST, OAKVILLE"
      }
    ]
  },
  {
    "postal": "L6L1B1",
    "result": [
      {
        "electoralDistricts": [
          {
            "election": null,
            "id": 74,
            "name": "Oakville"
          }
        ],
        "pollDivisionIds": [
          10140347
        ],
        "postalCode": "L6L1B1",
        "streetName": "SENECA",
        "streetDirectionId": null,
        "streetTypeId": "DR",
        "placeName": "OAKVILLE",
        "streetNameDisplayText": "SENECA DR, OAKVILLE"
      }
    ]
  },
  {
    "postal": "L6L8B6",
    "result": []
  },
  {
    "postal": "L6L6H1",
    "result": [
      {
        "electoralDistricts": [
          {
            "election": null,
            "id": 74,
            "name": "Oakville"
          }
        ],
        "pollDivisionIds": [
          10140346
        ],
        "postalCode": "L6L6H1",
        "streetName": "STEVENSON",
        "streetDirectionId": null,
        "streetTypeId": "RD",
        "placeName": "OAKVILLE",
        "streetNameDisplayText": "STEVENSON RD, OAKVILLE"
      },
      {
        "electoralDistricts": [
          {
            "election": null,
            "id": 74,
            "name": "Oakville"
          }
        ],
        "pollDivisionIds": [
          10140346
        ],
        "postalCode": "L6L6H1",
        "streetName": "VOGAN",
        "streetDirectionId": null,
        "streetTypeId": "PL",
        "placeName": "OAKVILLE",
        "streetNameDisplayText": "VOGAN PL, OAKVILLE"
      }
    ]
  },
  {
    "postal": "L6L8T8",
    "result": []
  },
  {
    "postal": "L6L0T4",
    "result": []
  },
  {
    "postal": "L6L2C4",
    "result": [
      {
        "electoralDistricts": [
          {
            "election": null,
            "id": 74,
            "name": "Oakville"
          }
        ],
        "pollDivisionIds": [
          10140351
        ],
        "postalCode": "L6L2C4",
        "streetName": "BRIDGE",
        "streetDirectionId": null,
        "streetTypeId": "RD",
        "placeName": "OAKVILLE",
        "streetNameDisplayText": "BRIDGE RD, OAKVILLE"
      }
    ]
  },
  {
    "postal": "L6L8N3",
    "result": []
  },
  {
    "postal": "L6L4L8",
    "result": [
      {
        "electoralDistricts": [
          {
            "election": null,
            "id": 74,
            "name": "Oakville"
          }
        ],
        "pollDivisionIds": [
          10140352
        ],
        "postalCode": "L6L4L8",
        "streetName": "VALLEY",
        "streetDirectionId": null,
        "streetTypeId": "DR",
        "placeName": "OAKVILLE",
        "streetNameDisplayText": "VALLEY DR, OAKVILLE"
      }
    ]
  },
  {
    "postal": "L6L2B5",
    "result": [
      {
        "electoralDistricts": [
          {
            "election": null,
            "id": 74,
            "name": "Oakville"
          }
        ],
        "pollDivisionIds": [
          10140354
        ],
        "postalCode": "L6L2B5",
        "streetName": "BRIDGE",
        "streetDirectionId": null,
        "streetTypeId": "RD",
        "placeName": "OAKVILLE",
        "streetNameDisplayText": "BRIDGE RD, OAKVILLE"
      }
    ]
  },
  {
    "postal": "L6L3H1",
    "result": [
      {
        "electoralDistricts": [
          {
            "election": null,
            "id": 74,
            "name": "Oakville"
          }
        ],
        "pollDivisionIds": [
          10140349
        ],
        "postalCode": "L6L3H1",
        "streetName": "SUSSEX",
        "streetDirectionId": null,
        "streetTypeId": "ST",
        "placeName": "OAKVILLE",
        "streetNameDisplayText": "SUSSEX ST, OAKVILLE"
      }
    ]
  },
  {
    "postal": "L6L4Y1",
    "result": [
      {
        "electoralDistricts": [
          {
            "election": null,
            "id": 74,
            "name": "Oakville"
          }
        ],
        "pollDivisionIds": [
          10140354
        ],
        "postalCode": "L6L4Y1",
        "streetName": "WESTWOOD",
        "streetDirectionId": null,
        "streetTypeId": "DR",
        "placeName": "OAKVILLE",
        "streetNameDisplayText": "WESTWOOD DR, OAKVILLE"
      }
    ]
  },
  {
    "postal": "L6L7E2",
    "result": []
  },
  {
    "postal": "L6L2P5",
    "result": [
      {
        "electoralDistricts": [
          {
            "election": null,
            "id": 74,
            "name": "Oakville"
          }
        ],
        "pollDivisionIds": [
          10140350
        ],
        "postalCode": "L6L2P5",
        "streetName": "SAMWAY",
        "streetDirectionId": null,
        "streetTypeId": "RD",
        "placeName": "OAKVILLE",
        "streetNameDisplayText": "SAMWAY RD, OAKVILLE"
      }
    ]
  },
  {
    "postal": "L6L8R7",
    "result": []
  },
  {
    "postal": "L6L9P1",
    "result": []
  },
  {
    "postal": "L6L3B8",
    "result": []
  },
  {
    "postal": "L6L3P7",
    "result": [
      {
        "electoralDistricts": [
          {
            "election": null,
            "id": 74,
            "name": "Oakville"
          }
        ],
        "pollDivisionIds": [
          10140350
        ],
        "postalCode": "L6L3P7",
        "streetName": "STANFIELD",
        "streetDirectionId": null,
        "streetTypeId": "DR",
        "placeName": "OAKVILLE",
        "streetNameDisplayText": "STANFIELD DR, OAKVILLE"
      }
    ]
  },
  {
    "postal": "L6L9B2",
    "result": []
  },
  {
    "postal": "L6L6Z3",
    "result": []
  },
  {
    "postal": "L6L4N5",
    "result": [
      {
        "electoralDistricts": [
          {
            "election": null,
            "id": 74,
            "name": "Oakville"
          }
        ],
        "pollDivisionIds": [
          10140351
        ],
        "postalCode": "L6L4N5",
        "streetName": "WARMINSTER",
        "streetDirectionId": null,
        "streetTypeId": "DR",
        "placeName": "OAKVILLE",
        "streetNameDisplayText": "WARMINSTER DR, OAKVILLE"
      }
    ]
  },
  {
    "postal": "L6L8T3",
    "result": []
  },
  {
    "postal": "L6L1V2",
    "result": [
      {
        "electoralDistricts": [
          {
            "election": null,
            "id": 74,
            "name": "Oakville"
          }
        ],
        "pollDivisionIds": [
          10140345
        ],
        "postalCode": "L6L1V2",
        "streetName": "HIXON",
        "streetDirectionId": null,
        "streetTypeId": "ST",
        "placeName": "OAKVILLE",
        "streetNameDisplayText": "HIXON ST, OAKVILLE"
      }
    ]
  },
  {
    "postal": "L6L1Y0",
    "result": []
  },
  {
    "postal": "L6L3G6",
    "result": [
      {
        "electoralDistricts": [
          {
            "election": null,
            "id": 74,
            "name": "Oakville"
          }
        ],
        "pollDivisionIds": [
          10140345
        ],
        "postalCode": "L6L3G6",
        "streetName": "JONES",
        "streetDirectionId": null,
        "streetTypeId": "ST",
        "placeName": "OAKVILLE",
        "streetNameDisplayText": "JONES ST, OAKVILLE"
      }
    ]
  },
  {
    "postal": "L6L3H7",
    "result": [
      {
        "electoralDistricts": [
          {
            "election": null,
            "id": 74,
            "name": "Oakville"
          }
        ],
        "pollDivisionIds": [
          10140349
        ],
        "postalCode": "L6L3H7",
        "streetName": "NELSON",
        "streetDirectionId": null,
        "streetTypeId": "ST",
        "placeName": "OAKVILLE",
        "streetNameDisplayText": "NELSON ST, OAKVILLE"
      }
    ]
  },
  {
    "postal": "L6L7X8",
    "result": []
  },
  {
    "postal": "L6L0C7",
    "result": [
      {
        "electoralDistricts": [
          {
            "election": null,
            "id": 74,
            "name": "Oakville"
          }
        ],
        "pollDivisionIds": [
          10140346
        ],
        "postalCode": "L6L0C7",
        "streetName": "ALISON",
        "streetDirectionId": null,
        "streetTypeId": "CRES",
        "placeName": "OAKVILLE",
        "streetNameDisplayText": "ALISON CRES, OAKVILLE"
      }
    ]
  },
  {
    "postal": "L6L0W9",
    "result": []
  },
  {
    "postal": "L6L8E6",
    "result": []
  },
  {
    "postal": "L6L9Z8",
    "result": []
  },
  {
    "postal": "L6L3P4",
    "result": [
      {
        "electoralDistricts": [
          {
            "election": null,
            "id": 74,
            "name": "Oakville"
          }
        ],
        "pollDivisionIds": [
          10140350
        ],
        "postalCode": "L6L3P4",
        "streetName": "STANFIELD",
        "streetDirectionId": null,
        "streetTypeId": "DR",
        "placeName": "OAKVILLE",
        "streetNameDisplayText": "STANFIELD DR, OAKVILLE"
      }
    ]
  },
  {
    "postal": "L6L6L8",
    "result": [
      {
        "electoralDistricts": [
          {
            "election": null,
            "id": 74,
            "name": "Oakville"
          }
        ],
        "pollDivisionIds": [
          10140345
        ],
        "postalCode": "L6L6L8",
        "streetName": "WYECROFT",
        "streetDirectionId": null,
        "streetTypeId": "RD",
        "placeName": "OAKVILLE",
        "streetNameDisplayText": "WYECROFT RD, OAKVILLE"
      }
    ]
  },
  {
    "postal": "L6L2R4",
    "result": [
      {
        "electoralDistricts": [
          {
            "election": null,
            "id": 74,
            "name": "Oakville"
          }
        ],
        "pollDivisionIds": [
          10140352
        ],
        "postalCode": "L6L2R4",
        "streetName": "WOOD",
        "streetDirectionId": null,
        "streetTypeId": "PL",
        "placeName": "OAKVILLE",
        "streetNameDisplayText": "WOOD PL, OAKVILLE"
      }
    ]
  },
  {
    "postal": "L6L2W1",
    "result": [
      {
        "electoralDistricts": [
          {
            "election": null,
            "id": 74,
            "name": "Oakville"
          }
        ],
        "pollDivisionIds": [
          10140351
        ],
        "postalCode": "L6L2W1",
        "streetName": "WARWICK",
        "streetDirectionId": null,
        "streetTypeId": "AVE",
        "placeName": "OAKVILLE",
        "streetNameDisplayText": "WARWICK AVE, OAKVILLE"
      }
    ]
  },
  {
    "postal": "L6L9H8",
    "result": []
  },
  {
    "postal": "L6L8X9",
    "result": []
  },
  {
    "postal": "L6L7H4",
    "result": []
  },
  {
    "postal": "L6L3J1",
    "result": [
      {
        "electoralDistricts": [
          {
            "election": null,
            "id": 74,
            "name": "Oakville"
          }
        ],
        "pollDivisionIds": [
          10140349
        ],
        "postalCode": "L6L3J1",
        "streetName": "NELSON",
        "streetDirectionId": null,
        "streetTypeId": "ST",
        "placeName": "OAKVILLE",
        "streetNameDisplayText": "NELSON ST, OAKVILLE"
      }
    ]
  },
  {
    "postal": "L6L1P4",
    "result": [
      {
        "electoralDistricts": [
          {
            "election": null,
            "id": 74,
            "name": "Oakville"
          }
        ],
        "pollDivisionIds": [
          10140349
        ],
        "postalCode": "L6L1P4",
        "streetName": "SUNNYBROOK",
        "streetDirectionId": null,
        "streetTypeId": "CRT",
        "placeName": "OAKVILLE",
        "streetNameDisplayText": "SUNNYBROOK CRT, OAKVILLE"
      }
    ]
  },
  {
    "postal": "L6L2A3",
    "result": [
      {
        "electoralDistricts": [
          {
            "election": null,
            "id": 74,
            "name": "Oakville"
          }
        ],
        "pollDivisionIds": [
          10140349
        ],
        "postalCode": "L6L2A3",
        "streetName": "REBECCA",
        "streetDirectionId": null,
        "streetTypeId": "ST",
        "placeName": "OAKVILLE",
        "streetNameDisplayText": "REBECCA ST, OAKVILLE"
      }
    ]
  },
  {
    "postal": "L6L0Z1",
    "result": []
  },
  {
    "postal": "L6L1C1",
    "result": [
      {
        "electoralDistricts": [
          {
            "election": null,
            "id": 74,
            "name": "Oakville"
          }
        ],
        "pollDivisionIds": [
          10143698
        ],
        "postalCode": "L6L1C1",
        "streetName": "MARINE",
        "streetDirectionId": null,
        "streetTypeId": "DR",
        "placeName": "OAKVILLE",
        "streetNameDisplayText": "MARINE DR, OAKVILLE"
      }
    ]
  },
  {
    "postal": "L6L0H3",
    "result": []
  },
  {
    "postal": "L6L7B0",
    "result": []
  },
  {
    "postal": "L6L5K2",
    "result": [
      {
        "electoralDistricts": [
          {
            "election": null,
            "id": 74,
            "name": "Oakville"
          }
        ],
        "pollDivisionIds": [
          10140376
        ],
        "postalCode": "L6L5K2",
        "streetName": "EAST",
        "streetDirectionId": null,
        "streetTypeId": "ST",
        "placeName": "OAKVILLE",
        "streetNameDisplayText": "EAST ST, OAKVILLE"
      }
    ]
  },
  {
    "postal": "L6L1E9",
    "result": [
      {
        "electoralDistricts": [
          {
            "election": null,
            "id": 74,
            "name": "Oakville"
          }
        ],
        "pollDivisionIds": [
          10140355
        ],
        "postalCode": "L6L1E9",
        "streetName": "LAKESHORE",
        "streetDirectionId": "W",
        "streetTypeId": "RD",
        "placeName": "OAKVILLE",
        "streetNameDisplayText": "LAKESHORE RD W, OAKVILLE"
      },
      {
        "electoralDistricts": [
          {
            "election": null,
            "id": 74,
            "name": "Oakville"
          }
        ],
        "pollDivisionIds": [
          10140355
        ],
        "postalCode": "L6L1E9",
        "streetName": "LAKESHORE RD WEST",
        "streetDirectionId": "W",
        "streetTypeId": "RD",
        "placeName": "OAKVILLE",
        "streetNameDisplayText": "LAKESHORE RD WEST RD W, OAKVILLE"
      }
    ]
  },
  {
    "postal": "L6L9W7",
    "result": []
  },
  {
    "postal": "L6L5W6",
    "result": [
      {
        "electoralDistricts": [
          {
            "election": null,
            "id": 74,
            "name": "Oakville"
          }
        ],
        "pollDivisionIds": [
          10140347
        ],
        "postalCode": "L6L5W6",
        "streetName": "SANDY",
        "streetDirectionId": null,
        "streetTypeId": "LANE",
        "placeName": "OAKVILLE",
        "streetNameDisplayText": "SANDY LANE, OAKVILLE"
      }
    ]
  },
  {
    "postal": "L6L6S6",
    "result": [
      {
        "electoralDistricts": [
          {
            "election": null,
            "id": 74,
            "name": "Oakville"
          }
        ],
        "pollDivisionIds": [
          10140347
        ],
        "postalCode": "L6L6S6",
        "streetName": "LAKESHORE",
        "streetDirectionId": "W",
        "streetTypeId": "RD",
        "placeName": "OAKVILLE",
        "streetNameDisplayText": "LAKESHORE RD W, OAKVILLE"
      },
      {
        "electoralDistricts": [
          {
            "election": null,
            "id": 74,
            "name": "Oakville"
          }
        ],
        "pollDivisionIds": [
          10140326
        ],
        "postalCode": "L6L6S6",
        "streetName": "LAKESHORE RD WEST",
        "streetDirectionId": "W",
        "streetTypeId": "RD",
        "placeName": "OAKVILLE",
        "streetNameDisplayText": "LAKESHORE RD WEST RD W, OAKVILLE"
      }
    ]
  },
  {
    "postal": "L6L2P8",
    "result": [
      {
        "electoralDistricts": [
          {
            "election": null,
            "id": 74,
            "name": "Oakville"
          }
        ],
        "pollDivisionIds": [
          10140350
        ],
        "postalCode": "L6L2P8",
        "streetName": "SANCROFT",
        "streetDirectionId": null,
        "streetTypeId": "RD",
        "placeName": "OAKVILLE",
        "streetNameDisplayText": "SANCROFT RD, OAKVILLE"
      }
    ]
  },
  {
    "postal": "L6L4P8",
    "result": [
      {
        "electoralDistricts": [
          {
            "election": null,
            "id": 74,
            "name": "Oakville"
          }
        ],
        "pollDivisionIds": [
          10140354
        ],
        "postalCode": "L6L4P8",
        "streetName": "TWEEDSDALE",
        "streetDirectionId": null,
        "streetTypeId": "CRES",
        "placeName": "OAKVILLE",
        "streetNameDisplayText": "TWEEDSDALE CRES, OAKVILLE"
      }
    ]
  },
  {
    "postal": "L6L0V9",
    "result": []
  },
  {
    "postal": "L6L5Y2",
    "result": [
      {
        "electoralDistricts": [
          {
            "election": null,
            "id": 74,
            "name": "Oakville"
          }
        ],
        "pollDivisionIds": [
          10140347
        ],
        "postalCode": "L6L5Y2",
        "streetName": "RIVERVIEW",
        "streetDirectionId": null,
        "streetTypeId": "ST",
        "placeName": "OAKVILLE",
        "streetNameDisplayText": "RIVERVIEW ST, OAKVILLE"
      }
    ]
  },
  {
    "postal": "L6L7Z7",
    "result": []
  },
  {
    "postal": "L6L6Y8",
    "result": []
  },
  {
    "postal": "L6L2G7",
    "result": [
      {
        "electoralDistricts": [
          {
            "election": null,
            "id": 74,
            "name": "Oakville"
          }
        ],
        "pollDivisionIds": [
          10140345
        ],
        "postalCode": "L6L2G7",
        "streetName": "BRIDGE",
        "streetDirectionId": null,
        "streetTypeId": "RD",
        "placeName": "OAKVILLE",
        "streetNameDisplayText": "BRIDGE RD, OAKVILLE"
      }
    ]
  },
  {
    "postal": "L6L8C1",
    "result": []
  },
  {
    "postal": "L6L5C5",
    "result": [
      {
        "electoralDistricts": [
          {
            "election": null,
            "id": 74,
            "name": "Oakville"
          }
        ],
        "pollDivisionIds": [
          10140345
        ],
        "postalCode": "L6L5C5",
        "streetName": "TREVOR",
        "streetDirectionId": null,
        "streetTypeId": "DR",
        "placeName": "OAKVILLE",
        "streetNameDisplayText": "TREVOR DR, OAKVILLE"
      }
    ]
  },
  {
    "postal": "L6L2X8",
    "result": [
      {
        "electoralDistricts": [
          {
            "election": null,
            "id": 74,
            "name": "Oakville"
          }
        ],
        "pollDivisionIds": [
          10140350,
          10140345
        ],
        "postalCode": "L6L2X8",
        "streetName": "SPEERS",
        "streetDirectionId": null,
        "streetTypeId": "RD",
        "placeName": "OAKVILLE",
        "streetNameDisplayText": "SPEERS RD, OAKVILLE"
      }
    ]
  },
  {
    "postal": "L6L1W5",
    "result": [
      {
        "electoralDistricts": [
          {
            "election": null,
            "id": 74,
            "name": "Oakville"
          }
        ],
        "pollDivisionIds": [
          10140349
        ],
        "postalCode": "L6L1W5",
        "streetName": "MILLWARD",
        "streetDirectionId": null,
        "streetTypeId": "AVE",
        "placeName": "OAKVILLE",
        "streetNameDisplayText": "MILLWARD AVE, OAKVILLE"
      }
    ]
  },
  {
    "postal": "L6L7G0",
    "result": []
  },
  {
    "postal": "L6L8J8",
    "result": []
  },
  {
    "postal": "L6L3Y0",
    "result": []
  },
  {
    "postal": "L6L9T7",
    "result": []
  },
  {
    "postal": "L6L5P4",
    "result": [
      {
        "electoralDistricts": [
          {
            "election": null,
            "id": 74,
            "name": "Oakville"
          }
        ],
        "pollDivisionIds": [
          10140347
        ],
        "postalCode": "L6L5P4",
        "streetName": "CHALMERS",
        "streetDirectionId": null,
        "streetTypeId": "ST",
        "placeName": "OAKVILLE",
        "streetNameDisplayText": "CHALMERS ST, OAKVILLE"
      }
    ]
  },
  {
    "postal": "L6L4B0",
    "result": []
  },
  {
    "postal": "L6L9N8",
    "result": []
  },
  {
    "postal": "L6L4A7",
    "result": [
      {
        "electoralDistricts": [
          {
            "election": null,
            "id": 74,
            "name": "Oakville"
          }
        ],
        "pollDivisionIds": [
          10140350
        ],
        "postalCode": "L6L4A7",
        "streetName": "THIRD",
        "streetDirectionId": null,
        "streetTypeId": "LINE",
        "placeName": "OAKVILLE",
        "streetNameDisplayText": "THIRD LINE, OAKVILLE"
      }
    ]
  },
  {
    "postal": "L6L4H9",
    "result": [
      {
        "electoralDistricts": [
          {
            "election": null,
            "id": 74,
            "name": "Oakville"
          }
        ],
        "pollDivisionIds": [
          10140352
        ],
        "postalCode": "L6L4H9",
        "streetName": "SHERIN",
        "streetDirectionId": null,
        "streetTypeId": "DR",
        "placeName": "OAKVILLE",
        "streetNameDisplayText": "SHERIN DR, OAKVILLE"
      }
    ]
  },
  {
    "postal": "L6L6X1",
    "result": [
      {
        "electoralDistricts": [
          {
            "election": null,
            "id": 74,
            "name": "Oakville"
          }
        ],
        "pollDivisionIds": [
          10140346
        ],
        "postalCode": "L6L6X1",
        "streetName": "CREEK PATH",
        "streetDirectionId": null,
        "streetTypeId": "AVE",
        "placeName": "OAKVILLE",
        "streetNameDisplayText": "CREEK PATH AVE, OAKVILLE"
      },
      {
        "electoralDistricts": [
          {
            "election": null,
            "id": 74,
            "name": "Oakville"
          }
        ],
        "pollDivisionIds": [
          10140346
        ],
        "postalCode": "L6L6X1",
        "streetName": "HAYHURST",
        "streetDirectionId": null,
        "streetTypeId": "CRES",
        "placeName": "OAKVILLE",
        "streetNameDisplayText": "HAYHURST CRES, OAKVILLE"
      },
      {
        "electoralDistricts": [
          {
            "election": null,
            "id": 74,
            "name": "Oakville"
          }
        ],
        "pollDivisionIds": [
          10140346
        ],
        "postalCode": "L6L6X1",
        "streetName": "ROBIN HILL",
        "streetDirectionId": null,
        "streetTypeId": "CIR",
        "placeName": "OAKVILLE",
        "streetNameDisplayText": "ROBIN HILL CIR, OAKVILLE"
      }
    ]
  },
  {
    "postal": "L6L9Y7",
    "result": []
  },
  {
    "postal": "L6L2Y5",
    "result": [
      {
        "electoralDistricts": [
          {
            "election": null,
            "id": 74,
            "name": "Oakville"
          }
        ],
        "pollDivisionIds": [
          10140347,
          10140346
        ],
        "postalCode": "L6L2Y5",
        "streetName": "CUDMORE",
        "streetDirectionId": null,
        "streetTypeId": "RD",
        "placeName": "OAKVILLE",
        "streetNameDisplayText": "CUDMORE RD, OAKVILLE"
      }
    ]
  },
  {
    "postal": "L6L8L7",
    "result": []
  },
  {
    "postal": "L6L2A8",
    "result": [
      {
        "electoralDistricts": [
          {
            "election": null,
            "id": 74,
            "name": "Oakville"
          }
        ],
        "pollDivisionIds": [
          10140349
        ],
        "postalCode": "L6L2A8",
        "streetName": "REBECCA",
        "streetDirectionId": null,
        "streetTypeId": "ST",
        "placeName": "OAKVILLE",
        "streetNameDisplayText": "REBECCA ST, OAKVILLE"
      }
    ]
  },
  {
    "postal": "L6L2K9",
    "result": [
      {
        "electoralDistricts": [
          {
            "election": null,
            "id": 74,
            "name": "Oakville"
          }
        ],
        "pollDivisionIds": [
          10140352
        ],
        "postalCode": "L6L2K9",
        "streetName": "SECORD",
        "streetDirectionId": null,
        "streetTypeId": "AVE",
        "placeName": "OAKVILLE",
        "streetNameDisplayText": "SECORD AVE, OAKVILLE"
      }
    ]
  },
  {
    "postal": "L6L3E5",
    "result": [
      {
        "electoralDistricts": [
          {
            "election": null,
            "id": 74,
            "name": "Oakville"
          }
        ],
        "pollDivisionIds": [
          10140375
        ],
        "postalCode": "L6L3E5",
        "streetName": "JONES",
        "streetDirectionId": null,
        "streetTypeId": "ST",
        "placeName": "OAKVILLE",
        "streetNameDisplayText": "JONES ST, OAKVILLE"
      }
    ]
  },
  {
    "postal": "L6L8N6",
    "result": []
  },
  {
    "postal": "L6L8J4",
    "result": []
  },
  {
    "postal": "L6L4R7",
    "result": [
      {
        "electoralDistricts": [
          {
            "election": null,
            "id": 74,
            "name": "Oakville"
          }
        ],
        "pollDivisionIds": [
          10140351
        ],
        "postalCode": "L6L4R7",
        "streetName": "WINGROVE",
        "streetDirectionId": null,
        "streetTypeId": "CRES",
        "placeName": "OAKVILLE",
        "streetNameDisplayText": "WINGROVE CRES, OAKVILLE"
      }
    ]
  },
  {
    "postal": "L6L9K1",
    "result": []
  },
  {
    "postal": "L6L8E1",
    "result": []
  },
  {
    "postal": "L6L0R1",
    "result": []
  },
  {
    "postal": "L6L4J3",
    "result": [
      {
        "electoralDistricts": [
          {
            "election": null,
            "id": 74,
            "name": "Oakville"
          }
        ],
        "pollDivisionIds": [
          10140390,
          10140352
        ],
        "postalCode": "L6L4J3",
        "streetName": "SHERIN",
        "streetDirectionId": null,
        "streetTypeId": "DR",
        "placeName": "OAKVILLE",
        "streetNameDisplayText": "SHERIN DR, OAKVILLE"
      }
    ]
  },
  {
    "postal": "L6L7E7",
    "result": []
  },
  {
    "postal": "L6L0J0",
    "result": []
  },
  {
    "postal": "L6L7R8",
    "result": []
  },
  {
    "postal": "L6L9X0",
    "result": []
  },
  {
    "postal": "L6L7P6",
    "result": []
  },
  {
    "postal": "L6L0R7",
    "result": []
  },
  {
    "postal": "L6L5W1",
    "result": [
      {
        "electoralDistricts": [
          {
            "election": null,
            "id": 74,
            "name": "Oakville"
          }
        ],
        "pollDivisionIds": [
          10140347
        ],
        "postalCode": "L6L5W1",
        "streetName": "SOMERVILLE",
        "streetDirectionId": null,
        "streetTypeId": "PL",
        "placeName": "OAKVILLE",
        "streetNameDisplayText": "SOMERVILLE PL, OAKVILLE"
      }
    ]
  },
  {
    "postal": "L6L0K4",
    "result": []
  },
  {
    "postal": "L6L7N9",
    "result": []
  },
  {
    "postal": "L6L1N0",
    "result": []
  },
  {
    "postal": "L6L6P3",
    "result": [
      {
        "electoralDistricts": [
          {
            "election": null,
            "id": 74,
            "name": "Oakville"
          }
        ],
        "pollDivisionIds": [
          10140355
        ],
        "postalCode": "L6L6P3",
        "streetName": "WESTDALE",
        "streetDirectionId": null,
        "streetTypeId": "RD",
        "placeName": "OAKVILLE",
        "streetNameDisplayText": "WESTDALE RD, OAKVILLE"
      }
    ]
  },
  {
    "postal": "L6L5A1",
    "result": [
      {
        "electoralDistricts": [
          {
            "election": null,
            "id": 74,
            "name": "Oakville"
          }
        ],
        "pollDivisionIds": [
          10140355
        ],
        "postalCode": "L6L5A1",
        "streetName": "WESTDALE",
        "streetDirectionId": null,
        "streetTypeId": "RD",
        "placeName": "OAKVILLE",
        "streetNameDisplayText": "WESTDALE RD, OAKVILLE"
      }
    ]
  },
  {
    "postal": "L6L9M9",
    "result": []
  },
  {
    "postal": "L6L7T6",
    "result": []
  },
  {
    "postal": "L6L3X0",
    "result": []
  },
  {
    "postal": "L6L2T0",
    "result": []
  },
  {
    "postal": "L6L5X9",
    "result": [
      {
        "electoralDistricts": [
          {
            "election": null,
            "id": 74,
            "name": "Oakville"
          }
        ],
        "pollDivisionIds": [
          10140347
        ],
        "postalCode": "L6L5X9",
        "streetName": "VICTORIA",
        "streetDirectionId": null,
        "streetTypeId": "ST",
        "placeName": "OAKVILLE",
        "streetNameDisplayText": "VICTORIA ST, OAKVILLE"
      }
    ]
  },
  {
    "postal": "L6L2R3",
    "result": [
      {
        "electoralDistricts": [
          {
            "election": null,
            "id": 74,
            "name": "Oakville"
          }
        ],
        "pollDivisionIds": [
          10140352
        ],
        "postalCode": "L6L2R3",
        "streetName": "WOOD",
        "streetDirectionId": null,
        "streetTypeId": "PL",
        "placeName": "OAKVILLE",
        "streetNameDisplayText": "WOOD PL, OAKVILLE"
      }
    ]
  },
  {
    "postal": "L6L5N2",
    "result": [
      {
        "electoralDistricts": [
          {
            "election": null,
            "id": 74,
            "name": "Oakville"
          }
        ],
        "pollDivisionIds": [
          10140345
        ],
        "postalCode": "L6L5N2",
        "streetName": "WESTGATE",
        "streetDirectionId": null,
        "streetTypeId": "RD",
        "placeName": "OAKVILLE",
        "streetNameDisplayText": "WESTGATE RD, OAKVILLE"
      }
    ]
  },
  {
    "postal": "L6L4Y7",
    "result": [
      {
        "electoralDistricts": [
          {
            "election": null,
            "id": 74,
            "name": "Oakville"
          }
        ],
        "pollDivisionIds": [
          10140354
        ],
        "postalCode": "L6L4Y7",
        "streetName": "MAPLEHURST",
        "streetDirectionId": null,
        "streetTypeId": "AVE",
        "placeName": "OAKVILLE",
        "streetNameDisplayText": "MAPLEHURST AVE, OAKVILLE"
      }
    ]
  },
  {
    "postal": "L6L7M0",
    "result": []
  },
  {
    "postal": "L6L8P3",
    "result": []
  },
  {
    "postal": "L6L3N3",
    "result": [
      {
        "electoralDistricts": [
          {
            "election": null,
            "id": 74,
            "name": "Oakville"
          }
        ],
        "pollDivisionIds": [
          10140350
        ],
        "postalCode": "L6L3N3",
        "streetName": "SUNSET",
        "streetDirectionId": null,
        "streetTypeId": "DR",
        "placeName": "OAKVILLE",
        "streetNameDisplayText": "SUNSET DR, OAKVILLE"
      }
    ]
  },
  {
    "postal": "L6L7S3",
    "result": []
  },
  {
    "postal": "L6L3V9",
    "result": [
      {
        "electoralDistricts": [
          {
            "election": null,
            "id": 74,
            "name": "Oakville"
          }
        ],
        "pollDivisionIds": [
          10140353
        ],
        "postalCode": "L6L3V9",
        "streetName": "SABEL",
        "streetDirectionId": null,
        "streetTypeId": "ST",
        "placeName": "OAKVILLE",
        "streetNameDisplayText": "SABEL ST, OAKVILLE"
      }
    ]
  },
  {
    "postal": "L6L9N7",
    "result": []
  },
  {
    "postal": "L6L0G4",
    "result": []
  },
  {
    "postal": "L6L2E2",
    "result": [
      {
        "electoralDistricts": [
          {
            "election": null,
            "id": 74,
            "name": "Oakville"
          }
        ],
        "pollDivisionIds": [
          10140351
        ],
        "postalCode": "L6L2E2",
        "streetName": "BRIDGE",
        "streetDirectionId": null,
        "streetTypeId": "RD",
        "placeName": "OAKVILLE",
        "streetNameDisplayText": "BRIDGE RD, OAKVILLE"
      }
    ]
  },
  {
    "postal": "L6L7W8",
    "result": []
  },
  {
    "postal": "L6L7M5",
    "result": []
  },
  {
    "postal": "L6L5W8",
    "result": [
      {
        "electoralDistricts": [
          {
            "election": null,
            "id": 74,
            "name": "Oakville"
          }
        ],
        "pollDivisionIds": [
          10140345
        ],
        "postalCode": "L6L5W8",
        "streetName": "SPEERS",
        "streetDirectionId": null,
        "streetTypeId": "RD",
        "placeName": "OAKVILLE",
        "streetNameDisplayText": "SPEERS RD, OAKVILLE"
      }
    ]
  },
  {
    "postal": "L6L5E5",
    "result": [
      {
        "electoralDistricts": [
          {
            "election": null,
            "id": 74,
            "name": "Oakville"
          }
        ],
        "pollDivisionIds": [
          10140345
        ],
        "postalCode": "L6L5E5",
        "streetName": "WATERFORD",
        "streetDirectionId": null,
        "streetTypeId": "ST",
        "placeName": "OAKVILLE",
        "streetNameDisplayText": "WATERFORD ST, OAKVILLE"
      }
    ]
  },
  {
    "postal": "L6L1P9",
    "result": [
      {
        "electoralDistricts": [
          {
            "election": null,
            "id": 74,
            "name": "Oakville"
          }
        ],
        "pollDivisionIds": [
          10140353
        ],
        "postalCode": "L6L1P9",
        "streetName": "SEARLE",
        "streetDirectionId": null,
        "streetTypeId": "CRT",
        "placeName": "OAKVILLE",
        "streetNameDisplayText": "SEARLE CRT, OAKVILLE"
      }
    ]
  },
  {
    "postal": "L6L8V8",
    "result": []
  },
  {
    "postal": "L6L9G8",
    "result": []
  },
  {
    "postal": "L6L8H9",
    "result": []
  },
  {
    "postal": "L6L1Z1",
    "result": [
      {
        "electoralDistricts": [
          {
            "election": null,
            "id": 74,
            "name": "Oakville"
          }
        ],
        "pollDivisionIds": [
          10140352
        ],
        "postalCode": "L6L1Z1",
        "streetName": "REBECCA",
        "streetDirectionId": null,
        "streetTypeId": "ST",
        "placeName": "OAKVILLE",
        "streetNameDisplayText": "REBECCA ST, OAKVILLE"
      }
    ]
  },
  {
    "postal": "L6L8M3",
    "result": []
  },
  {
    "postal": "L6L5H6",
    "result": [
      {
        "electoralDistricts": [
          {
            "election": null,
            "id": 74,
            "name": "Oakville"
          }
        ],
        "pollDivisionIds": [
          10140354
        ],
        "postalCode": "L6L5H6",
        "streetName": "TANGLEWOOD",
        "streetDirectionId": null,
        "streetTypeId": "CRT",
        "placeName": "OAKVILLE",
        "streetNameDisplayText": "TANGLEWOOD CRT, OAKVILLE"
      }
    ]
  },
  {
    "postal": "L6L7W7",
    "result": []
  },
  {
    "postal": "L6L4L0",
    "result": []
  },
  {
    "postal": "L6L2N1",
    "result": [
      {
        "electoralDistricts": [
          {
            "election": null,
            "id": 74,
            "name": "Oakville"
          }
        ],
        "pollDivisionIds": [
          10140350
        ],
        "postalCode": "L6L2N1",
        "streetName": "SLOANE",
        "streetDirectionId": null,
        "streetTypeId": "DR",
        "placeName": "OAKVILLE",
        "streetNameDisplayText": "SLOANE DR, OAKVILLE"
      }
    ]
  },
  {
    "postal": "L6L2H4",
    "result": [
      {
        "electoralDistricts": [
          {
            "election": null,
            "id": 74,
            "name": "Oakville"
          }
        ],
        "pollDivisionIds": [
          10140349
        ],
        "postalCode": "L6L2H4",
        "streetName": "VENTURA",
        "streetDirectionId": null,
        "streetTypeId": "DR",
        "placeName": "OAKVILLE",
        "streetNameDisplayText": "VENTURA DR, OAKVILLE"
      }
    ]
  },
  {
    "postal": "L6L5C8",
    "result": []
  },
  {
    "postal": "L6L8B0",
    "result": []
  },
  {
    "postal": "L6L1T4",
    "result": [
      {
        "electoralDistricts": [
          {
            "election": null,
            "id": 74,
            "name": "Oakville"
          }
        ],
        "pollDivisionIds": [
          10140349
        ],
        "postalCode": "L6L1T4",
        "streetName": "HIXON",
        "streetDirectionId": null,
        "streetTypeId": "ST",
        "placeName": "OAKVILLE",
        "streetNameDisplayText": "HIXON ST, OAKVILLE"
      }
    ]
  },
  {
    "postal": "L6L7N7",
    "result": []
  },
  {
    "postal": "L6L4L3",
    "result": [
      {
        "electoralDistricts": [
          {
            "election": null,
            "id": 74,
            "name": "Oakville"
          }
        ],
        "pollDivisionIds": [
          10140352
        ],
        "postalCode": "L6L4L3",
        "streetName": "SANDHURST",
        "streetDirectionId": null,
        "streetTypeId": "DR",
        "placeName": "OAKVILLE",
        "streetNameDisplayText": "SANDHURST DR, OAKVILLE"
      }
    ]
  },
  {
    "postal": "L6L2N2",
    "result": [
      {
        "electoralDistricts": [
          {
            "election": null,
            "id": 74,
            "name": "Oakville"
          }
        ],
        "pollDivisionIds": [
          10140350
        ],
        "postalCode": "L6L2N2",
        "streetName": "SLOANE",
        "streetDirectionId": null,
        "streetTypeId": "DR",
        "placeName": "OAKVILLE",
        "streetNameDisplayText": "SLOANE DR, OAKVILLE"
      }
    ]
  },
  {
    "postal": "L6L4N8",
    "result": [
      {
        "electoralDistricts": [
          {
            "election": null,
            "id": 74,
            "name": "Oakville"
          }
        ],
        "pollDivisionIds": [
          10140351
        ],
        "postalCode": "L6L4N8",
        "streetName": "STAFFORD",
        "streetDirectionId": null,
        "streetTypeId": "DR",
        "placeName": "OAKVILLE",
        "streetNameDisplayText": "STAFFORD DR, OAKVILLE"
      },
      {
        "electoralDistricts": [
          {
            "election": null,
            "id": 74,
            "name": "Oakville"
          }
        ],
        "pollDivisionIds": [
          10140351
        ],
        "postalCode": "L6L4N8",
        "streetName": "STONECLIFFE",
        "streetDirectionId": null,
        "streetTypeId": "RD",
        "placeName": "OAKVILLE",
        "streetNameDisplayText": "STONECLIFFE RD, OAKVILLE"
      }
    ]
  },
  {
    "postal": "L6L3M5",
    "result": [
      {
        "electoralDistricts": [
          {
            "election": null,
            "id": 74,
            "name": "Oakville"
          }
        ],
        "pollDivisionIds": [
          10140349
        ],
        "postalCode": "L6L3M5",
        "streetName": "SUNSET",
        "streetDirectionId": null,
        "streetTypeId": "DR",
        "placeName": "OAKVILLE",
        "streetNameDisplayText": "SUNSET DR, OAKVILLE"
      }
    ]
  },
  {
    "postal": "L6L6H7",
    "result": [
      {
        "electoralDistricts": [
          {
            "election": null,
            "id": 74,
            "name": "Oakville"
          }
        ],
        "pollDivisionIds": [
          10140347
        ],
        "postalCode": "L6L6H7",
        "streetName": "SWANSEA",
        "streetDirectionId": null,
        "streetTypeId": "DR",
        "placeName": "OAKVILLE",
        "streetNameDisplayText": "SWANSEA DR, OAKVILLE"
      }
    ]
  },
  {
    "postal": "L6L8Y8",
    "result": []
  },
  {
    "postal": "L6L5R9",
    "result": [
      {
        "electoralDistricts": [
          {
            "election": null,
            "id": 74,
            "name": "Oakville"
          }
        ],
        "pollDivisionIds": [
          10140347
        ],
        "postalCode": "L6L5R9",
        "streetName": "CHALMERS",
        "streetDirectionId": null,
        "streetTypeId": "ST",
        "placeName": "OAKVILLE",
        "streetNameDisplayText": "CHALMERS ST, OAKVILLE"
      }
    ]
  },
  {
    "postal": "L6L8G3",
    "result": []
  },
  {
    "postal": "L6L4N7",
    "result": [
      {
        "electoralDistricts": [
          {
            "election": null,
            "id": 74,
            "name": "Oakville"
          }
        ],
        "pollDivisionIds": [
          10140351
        ],
        "postalCode": "L6L4N7",
        "streetName": "WARMINSTER",
        "streetDirectionId": null,
        "streetTypeId": "DR",
        "placeName": "OAKVILLE",
        "streetNameDisplayText": "WARMINSTER DR, OAKVILLE"
      }
    ]
  },
  {
    "postal": "L6L0B9",
    "result": [
      {
        "electoralDistricts": [
          {
            "election": null,
            "id": 74,
            "name": "Oakville"
          }
        ],
        "pollDivisionIds": [
          10140346
        ],
        "postalCode": "L6L0B9",
        "streetName": "ADMIRAL",
        "streetDirectionId": null,
        "streetTypeId": "DR",
        "placeName": "OAKVILLE",
        "streetNameDisplayText": "ADMIRAL DR, OAKVILLE"
      },
      {
        "electoralDistricts": [
          {
            "election": null,
            "id": 74,
            "name": "Oakville"
          }
        ],
        "pollDivisionIds": [
          10140346
        ],
        "postalCode": "L6L0B9",
        "streetName": "INNVILLE",
        "streetDirectionId": null,
        "streetTypeId": "CRES",
        "placeName": "OAKVILLE",
        "streetNameDisplayText": "INNVILLE CRES, OAKVILLE"
      },
      {
        "electoralDistricts": [
          {
            "election": null,
            "id": 74,
            "name": "Oakville"
          }
        ],
        "pollDivisionIds": [
          10140346
        ],
        "postalCode": "L6L0B9",
        "streetName": "NAUTICAL",
        "streetDirectionId": null,
        "streetTypeId": "BLVD",
        "placeName": "OAKVILLE",
        "streetNameDisplayText": "NAUTICAL BLVD, OAKVILLE"
      }
    ]
  },
  {
    "postal": "L6L9K7",
    "result": []
  },
  {
    "postal": "L6L9K9",
    "result": []
  },
  {
    "postal": "L6L3Z2",
    "result": [
      {
        "electoralDistricts": [
          {
            "election": null,
            "id": 74,
            "name": "Oakville"
          }
        ],
        "pollDivisionIds": [
          10140350
        ],
        "postalCode": "L6L3Z2",
        "streetName": "TENNYSON",
        "streetDirectionId": null,
        "streetTypeId": "DR",
        "placeName": "OAKVILLE",
        "streetNameDisplayText": "TENNYSON DR, OAKVILLE"
      }
    ]
  },
  {
    "postal": "L6L6W7",
    "result": [
      {
        "electoralDistricts": [
          {
            "election": null,
            "id": 74,
            "name": "Oakville"
          }
        ],
        "pollDivisionIds": [
          10140346
        ],
        "postalCode": "L6L6W7",
        "streetName": "FRITILLARY",
        "streetDirectionId": null,
        "streetTypeId": "ST",
        "placeName": "OAKVILLE",
        "streetNameDisplayText": "FRITILLARY ST, OAKVILLE"
      },
      {
        "electoralDistricts": [
          {
            "election": null,
            "id": 74,
            "name": "Oakville"
          }
        ],
        "pollDivisionIds": [
          10140346
        ],
        "postalCode": "L6L6W7",
        "streetName": "NAUTICAL",
        "streetDirectionId": null,
        "streetTypeId": "BLVD",
        "placeName": "OAKVILLE",
        "streetNameDisplayText": "NAUTICAL BLVD, OAKVILLE"
      },
      {
        "electoralDistricts": [
          {
            "election": null,
            "id": 74,
            "name": "Oakville"
          }
        ],
        "pollDivisionIds": [
          10140346
        ],
        "postalCode": "L6L6W7",
        "streetName": "TURNING LEAF",
        "streetDirectionId": null,
        "streetTypeId": "RD",
        "placeName": "OAKVILLE",
        "streetNameDisplayText": "TURNING LEAF RD, OAKVILLE"
      }
    ]
  },
  {
    "postal": "L6L0P1",
    "result": []
  },
  {
    "postal": "L6L3A0",
    "result": []
  },
  {
    "postal": "L6L8L9",
    "result": []
  },
  {
    "postal": "L6L6X0",
    "result": []
  },
  {
    "postal": "L6L3E9",
    "result": [
      {
        "electoralDistricts": [
          {
            "election": null,
            "id": 74,
            "name": "Oakville"
          }
        ],
        "pollDivisionIds": [
          10143698
        ],
        "postalCode": "L6L3E9",
        "streetName": "JONES",
        "streetDirectionId": null,
        "streetTypeId": "ST",
        "placeName": "OAKVILLE",
        "streetNameDisplayText": "JONES ST, OAKVILLE"
      }
    ]
  },
  {
    "postal": "L6L0S5",
    "result": []
  },
  {
    "postal": "L6L1A2",
    "result": [
      {
        "electoralDistricts": [
          {
            "election": null,
            "id": 74,
            "name": "Oakville"
          }
        ],
        "pollDivisionIds": [
          10140353
        ],
        "postalCode": "L6L1A2",
        "streetName": "BAYVIEW",
        "streetDirectionId": null,
        "streetTypeId": "RD",
        "placeName": "OAKVILLE",
        "streetNameDisplayText": "BAYVIEW RD, OAKVILLE"
      }
    ]
  },
  {
    "postal": "L6L5V8",
    "result": [
      {
        "electoralDistricts": [
          {
            "election": null,
            "id": 74,
            "name": "Oakville"
          }
        ],
        "pollDivisionIds": [
          10140347
        ],
        "postalCode": "L6L5V8",
        "streetName": "SHELBURNE",
        "streetDirectionId": null,
        "streetTypeId": "PL",
        "placeName": "OAKVILLE",
        "streetNameDisplayText": "SHELBURNE PL, OAKVILLE"
      }
    ]
  },
  {
    "postal": "L6L8C5",
    "result": []
  },
  {
    "postal": "L6L6N0",
    "result": []
  },
  {
    "postal": "L6L9E6",
    "result": []
  },
  {
    "postal": "L6L5J7",
    "result": [
      {
        "electoralDistricts": [
          {
            "election": null,
            "id": 74,
            "name": "Oakville"
          }
        ],
        "pollDivisionIds": [
          10140347
        ],
        "postalCode": "L6L5J7",
        "streetName": "TORIS",
        "streetDirectionId": null,
        "streetTypeId": "CRT",
        "placeName": "OAKVILLE",
        "streetNameDisplayText": "TORIS CRT, OAKVILLE"
      }
    ]
  },
  {
    "postal": "L6L2R2",
    "result": [
      {
        "electoralDistricts": [
          {
            "election": null,
            "id": 74,
            "name": "Oakville"
          }
        ],
        "pollDivisionIds": [
          10140352
        ],
        "postalCode": "L6L2R2",
        "streetName": "WOOD",
        "streetDirectionId": null,
        "streetTypeId": "PL",
        "placeName": "OAKVILLE",
        "streetNameDisplayText": "WOOD PL, OAKVILLE"
      }
    ]
  },
  {
    "postal": "L6L0P5",
    "result": []
  },
  {
    "postal": "L6L5A7",
    "result": [
      {
        "electoralDistricts": [
          {
            "election": null,
            "id": 74,
            "name": "Oakville"
          }
        ],
        "pollDivisionIds": [
          10140355
        ],
        "postalCode": "L6L5A7",
        "streetName": "FOURTH",
        "streetDirectionId": null,
        "streetTypeId": "LINE",
        "placeName": "OAKVILLE",
        "streetNameDisplayText": "FOURTH LINE, OAKVILLE"
      }
    ]
  },
  {
    "postal": "L6L1G1",
    "result": [
      {
        "electoralDistricts": [
          {
            "election": null,
            "id": 74,
            "name": "Oakville"
          }
        ],
        "pollDivisionIds": [
          10140355,
          10140354
        ],
        "postalCode": "L6L1G1",
        "streetName": "LAKESHORE",
        "streetDirectionId": "W",
        "streetTypeId": "RD",
        "placeName": "OAKVILLE",
        "streetNameDisplayText": "LAKESHORE RD W, OAKVILLE"
      }
    ]
  },
  {
    "postal": "L6L9R6",
    "result": []
  },
  {
    "postal": "L6L4Z9",
    "result": [
      {
        "electoralDistricts": [
          {
            "election": null,
            "id": 74,
            "name": "Oakville"
          }
        ],
        "pollDivisionIds": [
          10140355
        ],
        "postalCode": "L6L4Z9",
        "streetName": "WESTDALE",
        "streetDirectionId": null,
        "streetTypeId": "RD",
        "placeName": "OAKVILLE",
        "streetNameDisplayText": "WESTDALE RD, OAKVILLE"
      }
    ]
  },
  {
    "postal": "L6L1V5",
    "result": [
      {
        "electoralDistricts": [
          {
            "election": null,
            "id": 74,
            "name": "Oakville"
          }
        ],
        "pollDivisionIds": [
          10140345
        ],
        "postalCode": "L6L1V5",
        "streetName": "MEADOWOOD",
        "streetDirectionId": null,
        "streetTypeId": "CRES",
        "placeName": "OAKVILLE",
        "streetNameDisplayText": "MEADOWOOD CRES, OAKVILLE"
      }
    ]
  },
  {
    "postal": "L6L9Y5",
    "result": []
  },
  {
    "postal": "L6L1P2",
    "result": [
      {
        "electoralDistricts": [
          {
            "election": null,
            "id": 74,
            "name": "Oakville"
          }
        ],
        "pollDivisionIds": [
          10143698
        ],
        "postalCode": "L6L1P2",
        "streetName": "BELYEA",
        "streetDirectionId": null,
        "streetTypeId": "ST",
        "placeName": "OAKVILLE",
        "streetNameDisplayText": "BELYEA ST, OAKVILLE"
      }
    ]
  },
  {
    "postal": "L6L5X0",
    "result": []
  },
  {
    "postal": "L6L7B8",
    "result": []
  },
  {
    "postal": "L6L0C6",
    "result": []
  },
  {
    "postal": "L6L6G1",
    "result": [
      {
        "electoralDistricts": [
          {
            "election": null,
            "id": 74,
            "name": "Oakville"
          }
        ],
        "pollDivisionIds": [
          10140346
        ],
        "postalCode": "L6L6G1",
        "streetName": "STEDFORD",
        "streetDirectionId": null,
        "streetTypeId": "RD",
        "placeName": "OAKVILLE",
        "streetNameDisplayText": "STEDFORD RD, OAKVILLE"
      },
      {
        "electoralDistricts": [
          {
            "election": null,
            "id": 74,
            "name": "Oakville"
          }
        ],
        "pollDivisionIds": [
          10140346
        ],
        "postalCode": "L6L6G1",
        "streetName": "WASS",
        "streetDirectionId": null,
        "streetTypeId": "CRES",
        "placeName": "OAKVILLE",
        "streetNameDisplayText": "WASS CRES, OAKVILLE"
      }
    ]
  },
  {
    "postal": "L6L3K3",
    "result": [
      {
        "electoralDistricts": [
          {
            "election": null,
            "id": 74,
            "name": "Oakville"
          }
        ],
        "pollDivisionIds": [
          10143698
        ],
        "postalCode": "L6L3K3",
        "streetName": "EAST",
        "streetDirectionId": null,
        "streetTypeId": "ST",
        "placeName": "OAKVILLE",
        "streetNameDisplayText": "EAST ST, OAKVILLE"
      }
    ]
  },
  {
    "postal": "L6L9R0",
    "result": []
  },
  {
    "postal": "L6L4R8",
    "result": [
      {
        "electoralDistricts": [
          {
            "election": null,
            "id": 74,
            "name": "Oakville"
          }
        ],
        "pollDivisionIds": [
          10140355,
          10140354
        ],
        "postalCode": "L6L4R8",
        "streetName": "WOLFDALE",
        "streetDirectionId": null,
        "streetTypeId": "AVE",
        "placeName": "OAKVILLE",
        "streetNameDisplayText": "WOLFDALE AVE, OAKVILLE"
      }
    ]
  },
  {
    "postal": "L6L5P9",
    "result": [
      {
        "electoralDistricts": [
          {
            "election": null,
            "id": 74,
            "name": "Oakville"
          }
        ],
        "pollDivisionIds": [
          10140347
        ],
        "postalCode": "L6L5P9",
        "streetName": "VICTORIA",
        "streetDirectionId": null,
        "streetTypeId": "ST",
        "placeName": "OAKVILLE",
        "streetNameDisplayText": "VICTORIA ST, OAKVILLE"
      }
    ]
  },
  {
    "postal": "L6L8N4",
    "result": []
  },
  {
    "postal": "L6L8H4",
    "result": []
  },
  {
    "postal": "L6L4V1",
    "result": [
      {
        "electoralDistricts": [
          {
            "election": null,
            "id": 74,
            "name": "Oakville"
          }
        ],
        "pollDivisionIds": [
          10140354
        ],
        "postalCode": "L6L4V1",
        "streetName": "WILLIS",
        "streetDirectionId": null,
        "streetTypeId": "DR",
        "placeName": "OAKVILLE",
        "streetNameDisplayText": "WILLIS DR, OAKVILLE"
      }
    ]
  },
  {
    "postal": "L6L1K5",
    "result": [
      {
        "electoralDistricts": [
          {
            "election": null,
            "id": 74,
            "name": "Oakville"
          }
        ],
        "pollDivisionIds": [
          10140349
        ],
        "postalCode": "L6L1K5",
        "streetName": "THORNLEA",
        "streetDirectionId": null,
        "streetTypeId": "DR",
        "placeName": "OAKVILLE",
        "streetNameDisplayText": "THORNLEA DR, OAKVILLE"
      }
    ]
  },
  {
    "postal": "L6L1Z5",
    "result": [
      {
        "electoralDistricts": [
          {
            "election": null,
            "id": 74,
            "name": "Oakville"
          }
        ],
        "pollDivisionIds": [
          10140353
        ],
        "postalCode": "L6L1Z5",
        "streetName": "REBECCA",
        "streetDirectionId": null,
        "streetTypeId": "ST",
        "placeName": "OAKVILLE",
        "streetNameDisplayText": "REBECCA ST, OAKVILLE"
      }
    ]
  },
  {
    "postal": "L6L9L9",
    "result": []
  },
  {
    "postal": "L6L5L2",
    "result": [
      {
        "electoralDistricts": [
          {
            "election": null,
            "id": 74,
            "name": "Oakville"
          }
        ],
        "pollDivisionIds": [
          10140352
        ],
        "postalCode": "L6L5L2",
        "streetName": "REBECCA",
        "streetDirectionId": null,
        "streetTypeId": "ST",
        "placeName": "OAKVILLE",
        "streetNameDisplayText": "REBECCA ST, OAKVILLE"
      }
    ]
  },
  {
    "postal": "L6L0M2",
    "result": []
  },
  {
    "postal": "L6L1K8",
    "result": [
      {
        "electoralDistricts": [
          {
            "election": null,
            "id": 74,
            "name": "Oakville"
          }
        ],
        "pollDivisionIds": [
          10140353
        ],
        "postalCode": "L6L1K8",
        "streetName": "VENETIA",
        "streetDirectionId": null,
        "streetTypeId": "DR",
        "placeName": "OAKVILLE",
        "streetNameDisplayText": "VENETIA DR, OAKVILLE"
      }
    ]
  },
  {
    "postal": "L6L3M7",
    "result": [
      {
        "electoralDistricts": [
          {
            "election": null,
            "id": 74,
            "name": "Oakville"
          }
        ],
        "pollDivisionIds": [
          10140350
        ],
        "postalCode": "L6L3M7",
        "streetName": "SUNSET",
        "streetDirectionId": null,
        "streetTypeId": "DR",
        "placeName": "OAKVILLE",
        "streetNameDisplayText": "SUNSET DR, OAKVILLE"
      }
    ]
  },
  {
    "postal": "L6L1B2",
    "result": [
      {
        "electoralDistricts": [
          {
            "election": null,
            "id": 74,
            "name": "Oakville"
          }
        ],
        "pollDivisionIds": [
          10140347
        ],
        "postalCode": "L6L1B2",
        "streetName": "SENECA",
        "streetDirectionId": null,
        "streetTypeId": "DR",
        "placeName": "OAKVILLE",
        "streetNameDisplayText": "SENECA DR, OAKVILLE"
      }
    ]
  },
  {
    "postal": "L6L0H9",
    "result": []
  },
  {
    "postal": "L6L8M4",
    "result": []
  },
  {
    "postal": "L6L2M5",
    "result": [
      {
        "electoralDistricts": [
          {
            "election": null,
            "id": 74,
            "name": "Oakville"
          }
        ],
        "pollDivisionIds": [
          10140354
        ],
        "postalCode": "L6L2M5",
        "streetName": "SELBY",
        "streetDirectionId": null,
        "streetTypeId": "AVE",
        "placeName": "OAKVILLE",
        "streetNameDisplayText": "SELBY AVE, OAKVILLE"
      }
    ]
  },
  {
    "postal": "L6L0T9",
    "result": []
  },
  {
    "postal": "L6L3P1",
    "result": [
      {
        "electoralDistricts": [
          {
            "election": null,
            "id": 74,
            "name": "Oakville"
          }
        ],
        "pollDivisionIds": [
          10140349
        ],
        "postalCode": "L6L3P1",
        "streetName": "ULSTER",
        "streetDirectionId": null,
        "streetTypeId": "DR",
        "placeName": "OAKVILLE",
        "streetNameDisplayText": "ULSTER DR, OAKVILLE"
      }
    ]
  },
  {
    "postal": "L6L1R6",
    "result": [
      {
        "electoralDistricts": [
          {
            "election": null,
            "id": 74,
            "name": "Oakville"
          }
        ],
        "pollDivisionIds": [
          10140354
        ],
        "postalCode": "L6L1R6",
        "streetName": "HIXON",
        "streetDirectionId": null,
        "streetTypeId": "ST",
        "placeName": "OAKVILLE",
        "streetNameDisplayText": "HIXON ST, OAKVILLE"
      }
    ]
  },
  {
    "postal": "L6L9V5",
    "result": []
  },
  {
    "postal": "L6L9T0",
    "result": []
  },
  {
    "postal": "L6L0A9",
    "result": []
  },
  {
    "postal": "L6L1M3",
    "result": [
      {
        "electoralDistricts": [
          {
            "election": null,
            "id": 74,
            "name": "Oakville"
          }
        ],
        "pollDivisionIds": [
          10140349
        ],
        "postalCode": "L6L1M3",
        "streetName": "SALMON",
        "streetDirectionId": null,
        "streetTypeId": "RD",
        "placeName": "OAKVILLE",
        "streetNameDisplayText": "SALMON RD, OAKVILLE"
      }
    ]
  },
  {
    "postal": "L6L1W8",
    "result": [
      {
        "electoralDistricts": [
          {
            "election": null,
            "id": 74,
            "name": "Oakville"
          }
        ],
        "pollDivisionIds": [
          10140349
        ],
        "postalCode": "L6L1W8",
        "streetName": "SUNNYVALE",
        "streetDirectionId": null,
        "streetTypeId": "DR",
        "placeName": "OAKVILLE",
        "streetNameDisplayText": "SUNNYVALE DR, OAKVILLE"
      }
    ]
  },
  {
    "postal": "L6L9J1",
    "result": []
  },
  {
    "postal": "L6L8N5",
    "result": []
  },
  {
    "postal": "L6L5X1",
    "result": [
      {
        "electoralDistricts": [
          {
            "election": null,
            "id": 74,
            "name": "Oakville"
          }
        ],
        "pollDivisionIds": [
          10140354
        ],
        "postalCode": "L6L5X1",
        "streetName": "VINOVA",
        "streetDirectionId": null,
        "streetTypeId": "CRT",
        "placeName": "OAKVILLE",
        "streetNameDisplayText": "VINOVA CRT, OAKVILLE"
      }
    ]
  },
  {
    "postal": "L6L6S2",
    "result": [
      {
        "electoralDistricts": [
          {
            "election": null,
            "id": 74,
            "name": "Oakville"
          }
        ],
        "pollDivisionIds": [
          10140345
        ],
        "postalCode": "L6L6S2",
        "streetName": "BRONTE",
        "streetDirectionId": null,
        "streetTypeId": "RD",
        "placeName": "OAKVILLE",
        "streetNameDisplayText": "BRONTE RD, OAKVILLE"
      }
    ]
  },
  {
    "postal": "L6L2A2",
    "result": [
      {
        "electoralDistricts": [
          {
            "election": null,
            "id": 74,
            "name": "Oakville"
          }
        ],
        "pollDivisionIds": [
          10140353
        ],
        "postalCode": "L6L2A2",
        "streetName": "REBECCA",
        "streetDirectionId": null,
        "streetTypeId": "ST",
        "placeName": "OAKVILLE",
        "streetNameDisplayText": "REBECCA ST, OAKVILLE"
      }
    ]
  },
  {
    "postal": "L6L6A6",
    "result": [
      {
        "electoralDistricts": [
          {
            "election": null,
            "id": 74,
            "name": "Oakville"
          }
        ],
        "pollDivisionIds": [
          10140347
        ],
        "postalCode": "L6L6A6",
        "streetName": "CHALMERS",
        "streetDirectionId": null,
        "streetTypeId": "ST",
        "placeName": "OAKVILLE",
        "streetNameDisplayText": "CHALMERS ST, OAKVILLE"
      }
    ]
  },
  {
    "postal": "L6L0S3",
    "result": []
  },
  {
    "postal": "L6L3E7",
    "result": [
      {
        "electoralDistricts": [
          {
            "election": null,
            "id": 74,
            "name": "Oakville"
          }
        ],
        "pollDivisionIds": [
          10143698
        ],
        "postalCode": "L6L3E7",
        "streetName": "JONES",
        "streetDirectionId": null,
        "streetTypeId": "ST",
        "placeName": "OAKVILLE",
        "streetNameDisplayText": "JONES ST, OAKVILLE"
      }
    ]
  },
  {
    "postal": "L6L5R7",
    "result": [
      {
        "electoralDistricts": [
          {
            "election": null,
            "id": 74,
            "name": "Oakville"
          }
        ],
        "pollDivisionIds": [
          10140347
        ],
        "postalCode": "L6L5R7",
        "streetName": "CHALMERS",
        "streetDirectionId": null,
        "streetTypeId": "ST",
        "placeName": "OAKVILLE",
        "streetNameDisplayText": "CHALMERS ST, OAKVILLE"
      }
    ]
  },
  {
    "postal": "L6L3R6",
    "result": [
      {
        "electoralDistricts": [
          {
            "election": null,
            "id": 74,
            "name": "Oakville"
          }
        ],
        "pollDivisionIds": [
          10140349
        ],
        "postalCode": "L6L3R6",
        "streetName": "SUNRAY",
        "streetDirectionId": null,
        "streetTypeId": "RD",
        "placeName": "OAKVILLE",
        "streetNameDisplayText": "SUNRAY RD, OAKVILLE"
      }
    ]
  },
  {
    "postal": "L6L6K4",
    "result": [
      {
        "electoralDistricts": [
          {
            "election": null,
            "id": 74,
            "name": "Oakville"
          }
        ],
        "pollDivisionIds": [
          10140355
        ],
        "postalCode": "L6L6K4",
        "streetName": "SOUTH SERVICE",
        "streetDirectionId": "W",
        "streetTypeId": "RD",
        "placeName": "OAKVILLE",
        "streetNameDisplayText": "SOUTH SERVICE RD W, OAKVILLE"
      }
    ]
  },
  {
    "postal": "L6L2W5",
    "result": [
      {
        "electoralDistricts": [
          {
            "election": null,
            "id": 74,
            "name": "Oakville"
          }
        ],
        "pollDivisionIds": [
          10140351
        ],
        "postalCode": "L6L2W5",
        "streetName": "PINEGROVE",
        "streetDirectionId": null,
        "streetTypeId": "RD",
        "placeName": "OAKVILLE",
        "streetNameDisplayText": "PINEGROVE RD, OAKVILLE"
      }
    ]
  },
  {
    "postal": "L6L8W4",
    "result": []
  },
  {
    "postal": "L6L9C2",
    "result": []
  },
  {
    "postal": "L6L2C0",
    "result": []
  },
  {
    "postal": "L6L0E1",
    "result": [
      {
        "electoralDistricts": [
          {
            "election": null,
            "id": 74,
            "name": "Oakville"
          }
        ],
        "pollDivisionIds": [
          10140375
        ],
        "postalCode": "L6L0E1",
        "streetName": "BRONTE",
        "streetDirectionId": null,
        "streetTypeId": "RD",
        "placeName": "OAKVILLE",
        "streetNameDisplayText": "BRONTE RD, OAKVILLE"
      }
    ]
  },
  {
    "postal": "L6L1K9",
    "result": [
      {
        "electoralDistricts": [
          {
            "election": null,
            "id": 74,
            "name": "Oakville"
          }
        ],
        "pollDivisionIds": [
          10140353
        ],
        "postalCode": "L6L1K9",
        "streetName": "TRENTON",
        "streetDirectionId": null,
        "streetTypeId": "RD",
        "placeName": "OAKVILLE",
        "streetNameDisplayText": "TRENTON RD, OAKVILLE"
      }
    ]
  },
  {
    "postal": "L6L1G7",
    "result": [
      {
        "electoralDistricts": [
          {
            "election": null,
            "id": 74,
            "name": "Oakville"
          }
        ],
        "pollDivisionIds": [
          10140353
        ],
        "postalCode": "L6L1G7",
        "streetName": "LAKESHORE",
        "streetDirectionId": "W",
        "streetTypeId": "RD",
        "placeName": "OAKVILLE",
        "streetNameDisplayText": "LAKESHORE RD W, OAKVILLE"
      }
    ]
  },
  {
    "postal": "L6L4E9",
    "result": [
      {
        "electoralDistricts": [
          {
            "election": null,
            "id": 74,
            "name": "Oakville"
          }
        ],
        "pollDivisionIds": [
          10140351
        ],
        "postalCode": "L6L4E9",
        "streetName": "SEABOURNE",
        "streetDirectionId": null,
        "streetTypeId": "DR",
        "placeName": "OAKVILLE",
        "streetNameDisplayText": "SEABOURNE DR, OAKVILLE"
      }
    ]
  },
  {
    "postal": "L6L9P0",
    "result": []
  },
  {
    "postal": "L6L5H3",
    "result": [
      {
        "electoralDistricts": [
          {
            "election": null,
            "id": 74,
            "name": "Oakville"
          }
        ],
        "pollDivisionIds": [
          10140354
        ],
        "postalCode": "L6L5H3",
        "streetName": "SPRING GARDEN",
        "streetDirectionId": null,
        "streetTypeId": "RD",
        "placeName": "OAKVILLE",
        "streetNameDisplayText": "SPRING GARDEN RD, OAKVILLE"
      }
    ]
  },
  {
    "postal": "L6L9X6",
    "result": []
  },
  {
    "postal": "L6L5N7",
    "result": [
      {
        "electoralDistricts": [
          {
            "election": null,
            "id": 74,
            "name": "Oakville"
          }
        ],
        "pollDivisionIds": [
          10140347
        ],
        "postalCode": "L6L5N7",
        "streetName": "SILVERTHORN",
        "streetDirectionId": null,
        "streetTypeId": "DR",
        "placeName": "OAKVILLE",
        "streetNameDisplayText": "SILVERTHORN DR, OAKVILLE"
      }
    ]
  },
  {
    "postal": "L6L5A6",
    "result": [
      {
        "electoralDistricts": [
          {
            "election": null,
            "id": 74,
            "name": "Oakville"
          }
        ],
        "pollDivisionIds": [
          10140355
        ],
        "postalCode": "L6L5A6",
        "streetName": "FOURTH",
        "streetDirectionId": null,
        "streetTypeId": "LINE",
        "placeName": "OAKVILLE",
        "streetNameDisplayText": "FOURTH LINE, OAKVILLE"
      }
    ]
  },
  {
    "postal": "L6L4M0",
    "result": []
  },
  {
    "postal": "L6L3V6",
    "result": [
      {
        "electoralDistricts": [
          {
            "election": null,
            "id": 74,
            "name": "Oakville"
          }
        ],
        "pollDivisionIds": [
          10140353
        ],
        "postalCode": "L6L3V6",
        "streetName": "SABEL",
        "streetDirectionId": null,
        "streetTypeId": "ST",
        "placeName": "OAKVILLE",
        "streetNameDisplayText": "SABEL ST, OAKVILLE"
      }
    ]
  },
  {
    "postal": "L6L1L7",
    "result": [
      {
        "electoralDistricts": [
          {
            "election": null,
            "id": 74,
            "name": "Oakville"
          }
        ],
        "pollDivisionIds": [
          10143698
        ],
        "postalCode": "L6L1L7",
        "streetName": "SOVEREIGN",
        "streetDirectionId": null,
        "streetTypeId": "ST",
        "placeName": "OAKVILLE",
        "streetNameDisplayText": "SOVEREIGN ST, OAKVILLE"
      }
    ]
  },
  {
    "postal": "L6L2P9",
    "result": [
      {
        "electoralDistricts": [
          {
            "election": null,
            "id": 74,
            "name": "Oakville"
          }
        ],
        "pollDivisionIds": [
          10140352
        ],
        "postalCode": "L6L2P9",
        "streetName": "SHELDON",
        "streetDirectionId": null,
        "streetTypeId": "AVE",
        "placeName": "OAKVILLE",
        "streetNameDisplayText": "SHELDON AVE, OAKVILLE"
      }
    ]
  },
  {
    "postal": "L6L5T4",
    "result": [
      {
        "electoralDistricts": [
          {
            "election": null,
            "id": 74,
            "name": "Oakville"
          }
        ],
        "pollDivisionIds": [
          10140345
        ],
        "postalCode": "L6L5T4",
        "streetName": "BRONTE",
        "streetDirectionId": null,
        "streetTypeId": "RD",
        "placeName": "OAKVILLE",
        "streetNameDisplayText": "BRONTE RD, OAKVILLE"
      }
    ]
  },
  {
    "postal": "L6L5Z1",
    "result": [
      {
        "electoralDistricts": [
          {
            "election": null,
            "id": 74,
            "name": "Oakville"
          }
        ],
        "pollDivisionIds": [
          10140347
        ],
        "postalCode": "L6L5Z1",
        "streetName": "SHORELINE",
        "streetDirectionId": null,
        "streetTypeId": "DR",
        "placeName": "OAKVILLE",
        "streetNameDisplayText": "SHORELINE DR, OAKVILLE"
      }
    ]
  },
  {
    "postal": "L6L2X0",
    "result": []
  },
  {
    "postal": "L6L6Z2",
    "result": []
  },
  {
    "postal": "L6L0E0",
    "result": []
  },
  {
    "postal": "L6L3Z5",
    "result": [
      {
        "electoralDistricts": [
          {
            "election": null,
            "id": 74,
            "name": "Oakville"
          }
        ],
        "pollDivisionIds": [
          10140353
        ],
        "postalCode": "L6L3Z5",
        "streetName": "THIRD",
        "streetDirectionId": null,
        "streetTypeId": "LINE",
        "placeName": "OAKVILLE",
        "streetNameDisplayText": "THIRD LINE, OAKVILLE"
      }
    ]
  },
  {
    "postal": "L6L8H3",
    "result": []
  },
  {
    "postal": "L6L7S6",
    "result": []
  },
  {
    "postal": "L6L4C1",
    "result": [
      {
        "electoralDistricts": [
          {
            "election": null,
            "id": 74,
            "name": "Oakville"
          }
        ],
        "pollDivisionIds": [
          10140353
        ],
        "postalCode": "L6L4C1",
        "streetName": "TRACINA",
        "streetDirectionId": null,
        "streetTypeId": "DR",
        "placeName": "OAKVILLE",
        "streetNameDisplayText": "TRACINA DR, OAKVILLE"
      }
    ]
  },
  {
    "postal": "L6L3K2",
    "result": [
      {
        "electoralDistricts": [
          {
            "election": null,
            "id": 74,
            "name": "Oakville"
          }
        ],
        "pollDivisionIds": [
          10140345
        ],
        "postalCode": "L6L3K2",
        "streetName": "SEYMOUR",
        "streetDirectionId": null,
        "streetTypeId": "DR",
        "placeName": "OAKVILLE",
        "streetNameDisplayText": "SEYMOUR DR, OAKVILLE"
      }
    ]
  },
  {
    "postal": "L6L1Y5",
    "result": [
      {
        "electoralDistricts": [
          {
            "election": null,
            "id": 74,
            "name": "Oakville"
          }
        ],
        "pollDivisionIds": [
          10140354
        ],
        "postalCode": "L6L1Y5",
        "streetName": "REBECCA",
        "streetDirectionId": null,
        "streetTypeId": "ST",
        "placeName": "OAKVILLE",
        "streetNameDisplayText": "REBECCA ST, OAKVILLE"
      }
    ]
  },
  {
    "postal": "L6L6P6",
    "result": []
  },
  {
    "postal": "L6L3N9",
    "result": [
      {
        "electoralDistricts": [
          {
            "election": null,
            "id": 74,
            "name": "Oakville"
          }
        ],
        "pollDivisionIds": [
          10140350
        ],
        "postalCode": "L6L3N9",
        "streetName": "SOUTHLAND",
        "streetDirectionId": null,
        "streetTypeId": "CRES",
        "placeName": "OAKVILLE",
        "streetNameDisplayText": "SOUTHLAND CRES, OAKVILLE"
      }
    ]
  },
  {
    "postal": "L6L3W2",
    "result": [
      {
        "electoralDistricts": [
          {
            "election": null,
            "id": 74,
            "name": "Oakville"
          }
        ],
        "pollDivisionIds": [
          10140350
        ],
        "postalCode": "L6L3W2",
        "streetName": "SABEL",
        "streetDirectionId": null,
        "streetTypeId": "ST",
        "placeName": "OAKVILLE",
        "streetNameDisplayText": "SABEL ST, OAKVILLE"
      }
    ]
  },
  {
    "postal": "L6L6H8",
    "result": [
      {
        "electoralDistricts": [
          {
            "election": null,
            "id": 74,
            "name": "Oakville"
          }
        ],
        "pollDivisionIds": [
          10140347
        ],
        "postalCode": "L6L6H8",
        "streetName": "HONEYVALE",
        "streetDirectionId": null,
        "streetTypeId": "RD",
        "placeName": "OAKVILLE",
        "streetNameDisplayText": "HONEYVALE RD, OAKVILLE"
      }
    ]
  },
  {
    "postal": "L6L9T3",
    "result": []
  },
  {
    "postal": "L6L5L9",
    "result": [
      {
        "electoralDistricts": [
          {
            "election": null,
            "id": 74,
            "name": "Oakville"
          }
        ],
        "pollDivisionIds": [
          10140349
        ],
        "postalCode": "L6L5L9",
        "streetName": "SOUTHWOOD",
        "streetDirectionId": null,
        "streetTypeId": "CRT",
        "placeName": "OAKVILLE",
        "streetNameDisplayText": "SOUTHWOOD CRT, OAKVILLE"
      }
    ]
  },
  {
    "postal": "L6L7X7",
    "result": []
  },
  {
    "postal": "L6L3J5",
    "result": [
      {
        "electoralDistricts": [
          {
            "election": null,
            "id": 74,
            "name": "Oakville"
          }
        ],
        "pollDivisionIds": [
          10140349
        ],
        "postalCode": "L6L3J5",
        "streetName": "NELSON",
        "streetDirectionId": null,
        "streetTypeId": "ST",
        "placeName": "OAKVILLE",
        "streetNameDisplayText": "NELSON ST, OAKVILLE"
      }
    ]
  },
  {
    "postal": "L6L4J5",
    "result": [
      {
        "electoralDistricts": [
          {
            "election": null,
            "id": 74,
            "name": "Oakville"
          }
        ],
        "pollDivisionIds": [
          10140352
        ],
        "postalCode": "L6L4J5",
        "streetName": "SHERIN",
        "streetDirectionId": null,
        "streetTypeId": "DR",
        "placeName": "OAKVILLE",
        "streetNameDisplayText": "SHERIN DR, OAKVILLE"
      }
    ]
  },
  {
    "postal": "L6L6J2",
    "result": [
      {
        "electoralDistricts": [
          {
            "election": null,
            "id": 74,
            "name": "Oakville"
          }
        ],
        "pollDivisionIds": [
          10140347
        ],
        "postalCode": "L6L6J2",
        "streetName": "TRILLER",
        "streetDirectionId": null,
        "streetTypeId": "PL",
        "placeName": "OAKVILLE",
        "streetNameDisplayText": "TRILLER PL, OAKVILLE"
      }
    ]
  },
  {
    "postal": "L6L5V6",
    "result": [
      {
        "electoralDistricts": [
          {
            "election": null,
            "id": 74,
            "name": "Oakville"
          }
        ],
        "pollDivisionIds": [
          10140350
        ],
        "postalCode": "L6L5V6",
        "streetName": "WYECROFT",
        "streetDirectionId": null,
        "streetTypeId": "RD",
        "placeName": "OAKVILLE",
        "streetNameDisplayText": "WYECROFT RD, OAKVILLE"
      }
    ]
  },
  {
    "postal": "L6L3N2",
    "result": [
      {
        "electoralDistricts": [
          {
            "election": null,
            "id": 74,
            "name": "Oakville"
          }
        ],
        "pollDivisionIds": [
          10140345
        ],
        "postalCode": "L6L3N2",
        "streetName": "SUNSET",
        "streetDirectionId": null,
        "streetTypeId": "DR",
        "placeName": "OAKVILLE",
        "streetNameDisplayText": "SUNSET DR, OAKVILLE"
      }
    ]
  },
  {
    "postal": "L6L3B1",
    "result": [
      {
        "electoralDistricts": [
          {
            "election": null,
            "id": 74,
            "name": "Oakville"
          }
        ],
        "pollDivisionIds": [
          10140347
        ],
        "postalCode": "L6L3B1",
        "streetName": "MISSISSAGA",
        "streetDirectionId": null,
        "streetTypeId": "ST",
        "placeName": "OAKVILLE",
        "streetNameDisplayText": "MISSISSAGA ST, OAKVILLE"
      }
    ]
  },
  {
    "postal": "L6L8B5",
    "result": []
  },
  {
    "postal": "L6L0K1",
    "result": []
  },
  {
    "postal": "L6L7M7",
    "result": []
  },
  {
    "postal": "L6L2M2",
    "result": [
      {
        "electoralDistricts": [
          {
            "election": null,
            "id": 74,
            "name": "Oakville"
          }
        ],
        "pollDivisionIds": [
          10140354
        ],
        "postalCode": "L6L2M2",
        "streetName": "SCOTT",
        "streetDirectionId": null,
        "streetTypeId": "AVE",
        "placeName": "OAKVILLE",
        "streetNameDisplayText": "SCOTT AVE, OAKVILLE"
      }
    ]
  },
  {
    "postal": "L6L9N3",
    "result": []
  },
  {
    "postal": "L6L4Y8",
    "result": [
      {
        "electoralDistricts": [
          {
            "election": null,
            "id": 74,
            "name": "Oakville"
          }
        ],
        "pollDivisionIds": [
          10140355
        ],
        "postalCode": "L6L4Y8",
        "streetName": "MAPLEHURST",
        "streetDirectionId": null,
        "streetTypeId": "AVE",
        "placeName": "OAKVILLE",
        "streetNameDisplayText": "MAPLEHURST AVE, OAKVILLE"
      }
    ]
  },
  {
    "postal": "L6L3V7",
    "result": [
      {
        "electoralDistricts": [
          {
            "election": null,
            "id": 74,
            "name": "Oakville"
          }
        ],
        "pollDivisionIds": [
          10140349
        ],
        "postalCode": "L6L3V7",
        "streetName": "SABEL",
        "streetDirectionId": null,
        "streetTypeId": "ST",
        "placeName": "OAKVILLE",
        "streetNameDisplayText": "SABEL ST, OAKVILLE"
      }
    ]
  },
  {
    "postal": "L6L8Z1",
    "result": []
  },
  {
    "postal": "L6L7B3",
    "result": []
  },
  {
    "postal": "L6L3A8",
    "result": [
      {
        "electoralDistricts": [
          {
            "election": null,
            "id": 74,
            "name": "Oakville"
          }
        ],
        "pollDivisionIds": [
          10140347
        ],
        "postalCode": "L6L3A8",
        "streetName": "MISSISSAGA",
        "streetDirectionId": null,
        "streetTypeId": "ST",
        "placeName": "OAKVILLE",
        "streetNameDisplayText": "MISSISSAGA ST, OAKVILLE"
      }
    ]
  },
  {
    "postal": "L6L7V5",
    "result": []
  },
  {
    "postal": "L6L2T2",
    "result": [
      {
        "electoralDistricts": [
          {
            "election": null,
            "id": 74,
            "name": "Oakville"
          }
        ],
        "pollDivisionIds": [
          10140345
        ],
        "postalCode": "L6L2T2",
        "streetName": "URWIN",
        "streetDirectionId": null,
        "streetTypeId": "CRES",
        "placeName": "OAKVILLE",
        "streetNameDisplayText": "URWIN CRES, OAKVILLE"
      }
    ]
  },
  {
    "postal": "L6L6L3",
    "result": [
      {
        "electoralDistricts": [
          {
            "election": null,
            "id": 74,
            "name": "Oakville"
          }
        ],
        "pollDivisionIds": [
          10140345
        ],
        "postalCode": "L6L6L3",
        "streetName": "WYECROFT",
        "streetDirectionId": null,
        "streetTypeId": "RD",
        "placeName": "OAKVILLE",
        "streetNameDisplayText": "WYECROFT RD, OAKVILLE"
      }
    ]
  },
  {
    "postal": "L6L0L2",
    "result": []
  },
  {
    "postal": "L6L5Y8",
    "result": [
      {
        "electoralDistricts": [
          {
            "election": null,
            "id": 74,
            "name": "Oakville"
          }
        ],
        "pollDivisionIds": [
          10140347
        ],
        "postalCode": "L6L5Y8",
        "streetName": "SKIPPER",
        "streetDirectionId": null,
        "streetTypeId": "LANE",
        "placeName": "OAKVILLE",
        "streetNameDisplayText": "SKIPPER LANE, OAKVILLE"
      }
    ]
  },
  {
    "postal": "L6L0B8",
    "result": [
      {
        "electoralDistricts": [
          {
            "election": null,
            "id": 74,
            "name": "Oakville"
          }
        ],
        "pollDivisionIds": [
          10140346
        ],
        "postalCode": "L6L0B8",
        "streetName": "INNVILLE",
        "streetDirectionId": null,
        "streetTypeId": "CRES",
        "placeName": "OAKVILLE",
        "streetNameDisplayText": "INNVILLE CRES, OAKVILLE"
      },
      {
        "electoralDistricts": [
          {
            "election": null,
            "id": 74,
            "name": "Oakville"
          }
        ],
        "pollDivisionIds": [
          10140346
        ],
        "postalCode": "L6L0B8",
        "streetName": "NAUTICAL",
        "streetDirectionId": null,
        "streetTypeId": "BLVD",
        "placeName": "OAKVILLE",
        "streetNameDisplayText": "NAUTICAL BLVD, OAKVILLE"
      }
    ]
  },
  {
    "postal": "L6L6R5",
    "result": [
      {
        "electoralDistricts": [
          {
            "election": null,
            "id": 74,
            "name": "Oakville"
          }
        ],
        "pollDivisionIds": [
          10140345
        ],
        "postalCode": "L6L6R5",
        "streetName": "WYECROFT",
        "streetDirectionId": null,
        "streetTypeId": "RD",
        "placeName": "OAKVILLE",
        "streetNameDisplayText": "WYECROFT RD, OAKVILLE"
      }
    ]
  },
  {
    "postal": "L6L8W6",
    "result": []
  },
  {
    "postal": "L6L8G6",
    "result": []
  },
  {
    "postal": "L6L6X3",
    "result": [
      {
        "electoralDistricts": [
          {
            "election": null,
            "id": 74,
            "name": "Oakville"
          }
        ],
        "pollDivisionIds": [
          10140346
        ],
        "postalCode": "L6L6X3",
        "streetName": "CREEK PATH",
        "streetDirectionId": null,
        "streetTypeId": "AVE",
        "placeName": "OAKVILLE",
        "streetNameDisplayText": "CREEK PATH AVE, OAKVILLE"
      },
      {
        "electoralDistricts": [
          {
            "election": null,
            "id": 74,
            "name": "Oakville"
          }
        ],
        "pollDivisionIds": [
          10140346
        ],
        "postalCode": "L6L6X3",
        "streetName": "ROBIN HILL",
        "streetDirectionId": null,
        "streetTypeId": "CIR",
        "placeName": "OAKVILLE",
        "streetNameDisplayText": "ROBIN HILL CIR, OAKVILLE"
      },
      {
        "electoralDistricts": [
          {
            "election": null,
            "id": 74,
            "name": "Oakville"
          }
        ],
        "pollDivisionIds": [
          10140346
        ],
        "postalCode": "L6L6X3",
        "streetName": "WHILABOUT",
        "streetDirectionId": null,
        "streetTypeId": "TERR",
        "placeName": "OAKVILLE",
        "streetNameDisplayText": "WHILABOUT TERR, OAKVILLE"
      }
    ]
  },
  {
    "postal": "L6L7R7",
    "result": []
  },
  {
    "postal": "L6L4B6",
    "result": [
      {
        "electoralDistricts": [
          {
            "election": null,
            "id": 74,
            "name": "Oakville"
          }
        ],
        "pollDivisionIds": [
          10140353
        ],
        "postalCode": "L6L4B6",
        "streetName": "BELVEDERE",
        "streetDirectionId": null,
        "streetTypeId": "DR",
        "placeName": "OAKVILLE",
        "streetNameDisplayText": "BELVEDERE DR, OAKVILLE"
      }
    ]
  },
  {
    "postal": "L6L3P9",
    "result": [
      {
        "electoralDistricts": [
          {
            "election": null,
            "id": 74,
            "name": "Oakville"
          }
        ],
        "pollDivisionIds": [
          10140350
        ],
        "postalCode": "L6L3P9",
        "streetName": "STANFIELD",
        "streetDirectionId": null,
        "streetTypeId": "DR",
        "placeName": "OAKVILLE",
        "streetNameDisplayText": "STANFIELD DR, OAKVILLE"
      }
    ]
  },
  {
    "postal": "L6L2T3",
    "result": [
      {
        "electoralDistricts": [
          {
            "election": null,
            "id": 74,
            "name": "Oakville"
          }
        ],
        "pollDivisionIds": [
          10140345
        ],
        "postalCode": "L6L2T3",
        "streetName": "URWIN",
        "streetDirectionId": null,
        "streetTypeId": "CRES",
        "placeName": "OAKVILLE",
        "streetNameDisplayText": "URWIN CRES, OAKVILLE"
      }
    ]
  },
  {
    "postal": "L6L1M4",
    "result": [
      {
        "electoralDistricts": [
          {
            "election": null,
            "id": 74,
            "name": "Oakville"
          }
        ],
        "pollDivisionIds": [
          10140349
        ],
        "postalCode": "L6L1M4",
        "streetName": "SALMON",
        "streetDirectionId": null,
        "streetTypeId": "RD",
        "placeName": "OAKVILLE",
        "streetNameDisplayText": "SALMON RD, OAKVILLE"
      }
    ]
  },
  {
    "postal": "L6L0H1",
    "result": []
  },
  {
    "postal": "L6L9W3",
    "result": []
  },
  {
    "postal": "L6L6P1",
    "result": [
      {
        "electoralDistricts": [
          {
            "election": null,
            "id": 74,
            "name": "Oakville"
          }
        ],
        "pollDivisionIds": [
          10140351
        ],
        "postalCode": "L6L6P1",
        "streetName": "ADVANCE",
        "streetDirectionId": null,
        "streetTypeId": "RD",
        "placeName": "OAKVILLE",
        "streetNameDisplayText": "ADVANCE RD, OAKVILLE"
      }
    ]
  },
  {
    "postal": "L6L7G2",
    "result": []
  },
  {
    "postal": "L6L4J9",
    "result": [
      {
        "electoralDistricts": [
          {
            "election": null,
            "id": 74,
            "name": "Oakville"
          }
        ],
        "pollDivisionIds": [
          10140352
        ],
        "postalCode": "L6L4J9",
        "streetName": "SHERIN",
        "streetDirectionId": null,
        "streetTypeId": "DR",
        "placeName": "OAKVILLE",
        "streetNameDisplayText": "SHERIN DR, OAKVILLE"
      }
    ]
  },
  {
    "postal": "L6L9E4",
    "result": []
  },
  {
    "postal": "L6L8H0",
    "result": []
  },
  {
    "postal": "L6L4M7",
    "result": [
      {
        "electoralDistricts": [
          {
            "election": null,
            "id": 74,
            "name": "Oakville"
          }
        ],
        "pollDivisionIds": [
          10140351
        ],
        "postalCode": "L6L4M7",
        "streetName": "SANDBROOK",
        "streetDirectionId": null,
        "streetTypeId": "RD",
        "placeName": "OAKVILLE",
        "streetNameDisplayText": "SANDBROOK RD, OAKVILLE"
      }
    ]
  },
  {
    "postal": "L6L2G9",
    "result": [
      {
        "electoralDistricts": [
          {
            "election": null,
            "id": 74,
            "name": "Oakville"
          }
        ],
        "pollDivisionIds": [
          10140345
        ],
        "postalCode": "L6L2G9",
        "streetName": "BRIDGE",
        "streetDirectionId": null,
        "streetTypeId": "RD",
        "placeName": "OAKVILLE",
        "streetNameDisplayText": "BRIDGE RD, OAKVILLE"
      }
    ]
  },
  {
    "postal": "L6L8T2",
    "result": []
  },
  {
    "postal": "L6L7G7",
    "result": []
  },
  {
    "postal": "L6L4Z3",
    "result": [
      {
        "electoralDistricts": [
          {
            "election": null,
            "id": 74,
            "name": "Oakville"
          }
        ],
        "pollDivisionIds": [
          10140355
        ],
        "postalCode": "L6L4Z3",
        "streetName": "TILFORD",
        "streetDirectionId": null,
        "streetTypeId": "RD",
        "placeName": "OAKVILLE",
        "streetNameDisplayText": "TILFORD RD, OAKVILLE"
      }
    ]
  },
  {
    "postal": "L6L5B3",
    "result": [
      {
        "electoralDistricts": [
          {
            "election": null,
            "id": 74,
            "name": "Oakville"
          }
        ],
        "pollDivisionIds": [
          10140356
        ],
        "postalCode": "L6L5B3",
        "streetName": "FOURTH",
        "streetDirectionId": null,
        "streetTypeId": "LINE",
        "placeName": "OAKVILLE",
        "streetNameDisplayText": "FOURTH LINE, OAKVILLE"
      }
    ]
  },
  {
    "postal": "L6L1S7",
    "result": [
      {
        "electoralDistricts": [
          {
            "election": null,
            "id": 74,
            "name": "Oakville"
          }
        ],
        "pollDivisionIds": [
          10140353
        ],
        "postalCode": "L6L1S7",
        "streetName": "HIXON",
        "streetDirectionId": null,
        "streetTypeId": "ST",
        "placeName": "OAKVILLE",
        "streetNameDisplayText": "HIXON ST, OAKVILLE"
      }
    ]
  },
  {
    "postal": "L6L2N7",
    "result": [
      {
        "electoralDistricts": [
          {
            "election": null,
            "id": 74,
            "name": "Oakville"
          }
        ],
        "pollDivisionIds": [
          10140351
        ],
        "postalCode": "L6L2N7",
        "streetName": "TANSLEY",
        "streetDirectionId": null,
        "streetTypeId": "DR",
        "placeName": "OAKVILLE",
        "streetNameDisplayText": "TANSLEY DR, OAKVILLE"
      }
    ]
  },
  {
    "postal": "L6L0H8",
    "result": []
  },
  {
    "postal": "L6L7Z4",
    "result": []
  },
  {
    "postal": "L6L7B1",
    "result": []
  },
  {
    "postal": "L6L7P8",
    "result": []
  },
  {
    "postal": "L6L7N0",
    "result": []
  },
  {
    "postal": "L6L3Y5",
    "result": [
      {
        "electoralDistricts": [
          {
            "election": null,
            "id": 74,
            "name": "Oakville"
          }
        ],
        "pollDivisionIds": [
          10140350
        ],
        "postalCode": "L6L3Y5",
        "streetName": "SEATON",
        "streetDirectionId": null,
        "streetTypeId": "DR",
        "placeName": "OAKVILLE",
        "streetNameDisplayText": "SEATON DR, OAKVILLE"
      }
    ]
  },
  {
    "postal": "L6L6K1",
    "result": [
      {
        "electoralDistricts": [
          {
            "election": null,
            "id": 74,
            "name": "Oakville"
          }
        ],
        "pollDivisionIds": [
          10140351
        ],
        "postalCode": "L6L6K1",
        "streetName": "PROGRESS",
        "streetDirectionId": null,
        "streetTypeId": "CRT",
        "placeName": "OAKVILLE",
        "streetNameDisplayText": "PROGRESS CRT, OAKVILLE"
      }
    ]
  },
  {
    "postal": "L6L9X5",
    "result": []
  },
  {
    "postal": "L6L7S5",
    "result": []
  },
  {
    "postal": "L6L0A4",
    "result": [
      {
        "electoralDistricts": [
          {
            "election": null,
            "id": 74,
            "name": "Oakville"
          }
        ],
        "pollDivisionIds": [
          10140346
        ],
        "postalCode": "L6L0A4",
        "streetName": "BEECHTREE",
        "streetDirectionId": null,
        "streetTypeId": "CRES",
        "placeName": "OAKVILLE",
        "streetNameDisplayText": "BEECHTREE CRES, OAKVILLE"
      },
      {
        "electoralDistricts": [
          {
            "election": null,
            "id": 74,
            "name": "Oakville"
          }
        ],
        "pollDivisionIds": [
          10140346
        ],
        "postalCode": "L6L0A4",
        "streetName": "GREAT LAKES",
        "streetDirectionId": null,
        "streetTypeId": "BLVD",
        "placeName": "OAKVILLE",
        "streetNameDisplayText": "GREAT LAKES BLVD, OAKVILLE"
      },
      {
        "electoralDistricts": [
          {
            "election": null,
            "id": 74,
            "name": "Oakville"
          }
        ],
        "pollDivisionIds": [
          10140346
        ],
        "postalCode": "L6L0A4",
        "streetName": "MILKWEED",
        "streetDirectionId": null,
        "streetTypeId": "WAY",
        "placeName": "OAKVILLE",
        "streetNameDisplayText": "MILKWEED WAY, OAKVILLE"
      }
    ]
  },
  {
    "postal": "L6L4T5",
    "result": [
      {
        "electoralDistricts": [
          {
            "election": null,
            "id": 74,
            "name": "Oakville"
          }
        ],
        "pollDivisionIds": [
          10140351
        ],
        "postalCode": "L6L4T5",
        "streetName": "LEES",
        "streetDirectionId": null,
        "streetTypeId": "LANE",
        "placeName": "OAKVILLE",
        "streetNameDisplayText": "LEES LANE, OAKVILLE"
      }
    ]
  },
  {
    "postal": "L6L5K1",
    "result": [
      {
        "electoralDistricts": [
          {
            "election": null,
            "id": 74,
            "name": "Oakville"
          }
        ],
        "pollDivisionIds": [
          10140377
        ],
        "postalCode": "L6L5K1",
        "streetName": "MARINE",
        "streetDirectionId": null,
        "streetTypeId": "DR",
        "placeName": "OAKVILLE",
        "streetNameDisplayText": "MARINE DR, OAKVILLE"
      }
    ]
  },
  {
    "postal": "L6L0Z9",
    "result": []
  },
  {
    "postal": "L6L7T2",
    "result": []
  },
  {
    "postal": "L6L1L5",
    "result": [
      {
        "electoralDistricts": [
          {
            "election": null,
            "id": 74,
            "name": "Oakville"
          }
        ],
        "pollDivisionIds": [
          10143698,
          10140349
        ],
        "postalCode": "L6L1L5",
        "streetName": "SOVEREIGN",
        "streetDirectionId": null,
        "streetTypeId": "ST",
        "placeName": "OAKVILLE",
        "streetNameDisplayText": "SOVEREIGN ST, OAKVILLE"
      }
    ]
  },
  {
    "postal": "L6L3N5",
    "result": [
      {
        "electoralDistricts": [
          {
            "election": null,
            "id": 74,
            "name": "Oakville"
          }
        ],
        "pollDivisionIds": [
          10140345
        ],
        "postalCode": "L6L3N5",
        "streetName": "SUNSET",
        "streetDirectionId": null,
        "streetTypeId": "DR",
        "placeName": "OAKVILLE",
        "streetNameDisplayText": "SUNSET DR, OAKVILLE"
      }
    ]
  },
  {
    "postal": "L6L6H4",
    "result": [
      {
        "electoralDistricts": [
          {
            "election": null,
            "id": 74,
            "name": "Oakville"
          }
        ],
        "pollDivisionIds": [
          10140346
        ],
        "postalCode": "L6L6H4",
        "streetName": "STEVENSON",
        "streetDirectionId": null,
        "streetTypeId": "RD",
        "placeName": "OAKVILLE",
        "streetNameDisplayText": "STEVENSON RD, OAKVILLE"
      },
      {
        "electoralDistricts": [
          {
            "election": null,
            "id": 74,
            "name": "Oakville"
          }
        ],
        "pollDivisionIds": [
          10140346
        ],
        "postalCode": "L6L6H4",
        "streetName": "WASS",
        "streetDirectionId": null,
        "streetTypeId": "CRES",
        "placeName": "OAKVILLE",
        "streetNameDisplayText": "WASS CRES, OAKVILLE"
      }
    ]
  },
  {
    "postal": "L6L5A5",
    "result": [
      {
        "electoralDistricts": [
          {
            "election": null,
            "id": 74,
            "name": "Oakville"
          }
        ],
        "pollDivisionIds": [
          10140355
        ],
        "postalCode": "L6L5A5",
        "streetName": "FOURTH",
        "streetDirectionId": null,
        "streetTypeId": "LINE",
        "placeName": "OAKVILLE",
        "streetNameDisplayText": "FOURTH LINE, OAKVILLE"
      }
    ]
  },
  {
    "postal": "L6L3R9",
    "result": [
      {
        "electoralDistricts": [
          {
            "election": null,
            "id": 74,
            "name": "Oakville"
          }
        ],
        "pollDivisionIds": [
          10140350
        ],
        "postalCode": "L6L3R9",
        "streetName": "SANDLEWOOD",
        "streetDirectionId": null,
        "streetTypeId": "RD",
        "placeName": "OAKVILLE",
        "streetNameDisplayText": "SANDLEWOOD RD, OAKVILLE"
      }
    ]
  },
  {
    "postal": "L6L7L8",
    "result": []
  },
  {
    "postal": "L6L6T6",
    "result": [
      {
        "electoralDistricts": [
          {
            "election": null,
            "id": 74,
            "name": "Oakville"
          }
        ],
        "pollDivisionIds": [
          10140346
        ],
        "postalCode": "L6L6T6",
        "streetName": "BURLOAK",
        "streetDirectionId": null,
        "streetTypeId": "DR",
        "placeName": "OAKVILLE",
        "streetNameDisplayText": "BURLOAK DR, OAKVILLE"
      }
    ]
  },
  {
    "postal": "L6L7Y7",
    "result": []
  },
  {
    "postal": "L6L3M8",
    "result": [
      {
        "electoralDistricts": [
          {
            "election": null,
            "id": 74,
            "name": "Oakville"
          }
        ],
        "pollDivisionIds": [
          10140345
        ],
        "postalCode": "L6L3M8",
        "streetName": "SUNSET",
        "streetDirectionId": null,
        "streetTypeId": "DR",
        "placeName": "OAKVILLE",
        "streetNameDisplayText": "SUNSET DR, OAKVILLE"
      }
    ]
  },
  {
    "postal": "L6L2E0",
    "result": []
  },
  {
    "postal": "L6L4B5",
    "result": [
      {
        "electoralDistricts": [
          {
            "election": null,
            "id": 74,
            "name": "Oakville"
          }
        ],
        "pollDivisionIds": [
          10140353
        ],
        "postalCode": "L6L4B5",
        "streetName": "BELVEDERE",
        "streetDirectionId": null,
        "streetTypeId": "DR",
        "placeName": "OAKVILLE",
        "streetNameDisplayText": "BELVEDERE DR, OAKVILLE"
      }
    ]
  },
  {
    "postal": "L6L1J3",
    "result": [
      {
        "electoralDistricts": [
          {
            "election": null,
            "id": 74,
            "name": "Oakville"
          }
        ],
        "pollDivisionIds": [
          10140347
        ],
        "postalCode": "L6L1J3",
        "streetName": "LAKESHORE",
        "streetDirectionId": "W",
        "streetTypeId": "RD",
        "placeName": "OAKVILLE",
        "streetNameDisplayText": "LAKESHORE RD W, OAKVILLE"
      }
    ]
  },
  {
    "postal": "L6L5S6",
    "result": [
      {
        "electoralDistricts": [
          {
            "election": null,
            "id": 74,
            "name": "Oakville"
          }
        ],
        "pollDivisionIds": [
          10140347
        ],
        "postalCode": "L6L5S6",
        "streetName": "VILLAGE WOOD",
        "streetDirectionId": null,
        "streetTypeId": "RD",
        "placeName": "OAKVILLE",
        "streetNameDisplayText": "VILLAGE WOOD RD, OAKVILLE"
      }
    ]
  },
  {
    "postal": "L6L8P7",
    "result": []
  },
  {
    "postal": "L6L7S7",
    "result": []
  },
  {
    "postal": "L6L4C2",
    "result": [
      {
        "electoralDistricts": [
          {
            "election": null,
            "id": 74,
            "name": "Oakville"
          }
        ],
        "pollDivisionIds": [
          10140353
        ],
        "postalCode": "L6L4C2",
        "streetName": "TRACINA",
        "streetDirectionId": null,
        "streetTypeId": "DR",
        "placeName": "OAKVILLE",
        "streetNameDisplayText": "TRACINA DR, OAKVILLE"
      }
    ]
  },
  {
    "postal": "L6L5Y0",
    "result": []
  },
  {
    "postal": "L6L2V7",
    "result": [
      {
        "electoralDistricts": [
          {
            "election": null,
            "id": 74,
            "name": "Oakville"
          }
        ],
        "pollDivisionIds": [
          10140351
        ],
        "postalCode": "L6L2V7",
        "streetName": "WREN",
        "streetDirectionId": null,
        "streetTypeId": "AVE",
        "placeName": "OAKVILLE",
        "streetNameDisplayText": "WREN AVE, OAKVILLE"
      }
    ]
  },
  {
    "postal": "L6L8P5",
    "result": []
  },
  {
    "postal": "L6L5P5",
    "result": [
      {
        "electoralDistricts": [
          {
            "election": null,
            "id": 74,
            "name": "Oakville"
          }
        ],
        "pollDivisionIds": [
          10140347
        ],
        "postalCode": "L6L5P5",
        "streetName": "CHALMERS",
        "streetDirectionId": null,
        "streetTypeId": "ST",
        "placeName": "OAKVILLE",
        "streetNameDisplayText": "CHALMERS ST, OAKVILLE"
      }
    ]
  },
  {
    "postal": "L6L5Z0",
    "result": []
  },
  {
    "postal": "L6L9B0",
    "result": []
  },
  {
    "postal": "L6L1L0",
    "result": []
  },
  {
    "postal": "L6L0B5",
    "result": [
      {
        "electoralDistricts": [
          {
            "election": null,
            "id": 74,
            "name": "Oakville"
          }
        ],
        "pollDivisionIds": [
          10140346
        ],
        "postalCode": "L6L0B5",
        "streetName": "LAKESHORE",
        "streetDirectionId": "W",
        "streetTypeId": "RD",
        "placeName": "OAKVILLE",
        "streetNameDisplayText": "LAKESHORE RD W, OAKVILLE"
      }
    ]
  },
  {
    "postal": "L6L3L2",
    "result": [
      {
        "electoralDistricts": [
          {
            "election": null,
            "id": 74,
            "name": "Oakville"
          }
        ],
        "pollDivisionIds": [
          10140349
        ],
        "postalCode": "L6L3L2",
        "streetName": "VANCE",
        "streetDirectionId": null,
        "streetTypeId": "DR",
        "placeName": "OAKVILLE",
        "streetNameDisplayText": "VANCE DR, OAKVILLE"
      }
    ]
  },
  {
    "postal": "L6L3B7",
    "result": [
      {
        "electoralDistricts": [
          {
            "election": null,
            "id": 74,
            "name": "Oakville"
          }
        ],
        "pollDivisionIds": [
          10143698
        ],
        "postalCode": "L6L3B7",
        "streetName": "BRONTE",
        "streetDirectionId": null,
        "streetTypeId": "RD",
        "placeName": "OAKVILLE",
        "streetNameDisplayText": "BRONTE RD, OAKVILLE"
      }
    ]
  },
  {
    "postal": "L6L8L1",
    "result": []
  },
  {
    "postal": "L6L5M4",
    "result": []
  },
  {
    "postal": "L6L4G9",
    "result": [
      {
        "electoralDistricts": [
          {
            "election": null,
            "id": 74,
            "name": "Oakville"
          }
        ],
        "pollDivisionIds": [
          10140351
        ],
        "postalCode": "L6L4G9",
        "streetName": "TRUDALE",
        "streetDirectionId": null,
        "streetTypeId": "CRT",
        "placeName": "OAKVILLE",
        "streetNameDisplayText": "TRUDALE CRT, OAKVILLE"
      }
    ]
  },
  {
    "postal": "L6L0P0",
    "result": []
  },
  {
    "postal": "L6L8G2",
    "result": []
  },
  {
    "postal": "L6L1V9",
    "result": [
      {
        "electoralDistricts": [
          {
            "election": null,
            "id": 74,
            "name": "Oakville"
          }
        ],
        "pollDivisionIds": [
          10140345
        ],
        "postalCode": "L6L1V9",
        "streetName": "APPLEWOOD",
        "streetDirectionId": null,
        "streetTypeId": "DR",
        "placeName": "OAKVILLE",
        "streetNameDisplayText": "APPLEWOOD DR, OAKVILLE"
      }
    ]
  },
  {
    "postal": "L6L8N8",
    "result": []
  },
  {
    "postal": "L6L6S8",
    "result": []
  },
  {
    "postal": "L6L8H2",
    "result": []
  },
  {
    "postal": "L6L5R8",
    "result": [
      {
        "electoralDistricts": [
          {
            "election": null,
            "id": 74,
            "name": "Oakville"
          }
        ],
        "pollDivisionIds": [
          10140347
        ],
        "postalCode": "L6L5R8",
        "streetName": "CHALMERS",
        "streetDirectionId": null,
        "streetTypeId": "ST",
        "placeName": "OAKVILLE",
        "streetNameDisplayText": "CHALMERS ST, OAKVILLE"
      }
    ]
  },
  {
    "postal": "L6L5L4",
    "result": [
      {
        "electoralDistricts": [
          {
            "election": null,
            "id": 74,
            "name": "Oakville"
          }
        ],
        "pollDivisionIds": [
          10140347
        ],
        "postalCode": "L6L5L4",
        "streetName": "RIVERVIEW",
        "streetDirectionId": null,
        "streetTypeId": "ST",
        "placeName": "OAKVILLE",
        "streetNameDisplayText": "RIVERVIEW ST, OAKVILLE"
      }
    ]
  },
  {
    "postal": "L6L9E1",
    "result": []
  },
  {
    "postal": "L6L1C4",
    "result": [
      {
        "electoralDistricts": [
          {
            "election": null,
            "id": 74,
            "name": "Oakville"
          }
        ],
        "pollDivisionIds": [
          10140359,
          10143698
        ],
        "postalCode": "L6L1C4",
        "streetName": "MARINE",
        "streetDirectionId": null,
        "streetTypeId": "DR",
        "placeName": "OAKVILLE",
        "streetNameDisplayText": "MARINE DR, OAKVILLE"
      }
    ]
  },
  {
    "postal": "L6L8W5",
    "result": []
  },
  {
    "postal": "L6L1Y4",
    "result": [
      {
        "electoralDistricts": [
          {
            "election": null,
            "id": 74,
            "name": "Oakville"
          }
        ],
        "pollDivisionIds": [
          10140354
        ],
        "postalCode": "L6L1Y4",
        "streetName": "REBECCA",
        "streetDirectionId": null,
        "streetTypeId": "ST",
        "placeName": "OAKVILLE",
        "streetNameDisplayText": "REBECCA ST, OAKVILLE"
      }
    ]
  },
  {
    "postal": "L6L1C0",
    "result": []
  },
  {
    "postal": "L6L2J2",
    "result": [
      {
        "electoralDistricts": [
          {
            "election": null,
            "id": 74,
            "name": "Oakville"
          }
        ],
        "pollDivisionIds": [
          10140350
        ],
        "postalCode": "L6L2J2",
        "streetName": "VICKERY",
        "streetDirectionId": null,
        "streetTypeId": "DR",
        "placeName": "OAKVILLE",
        "streetNameDisplayText": "VICKERY DR, OAKVILLE"
      }
    ]
  },
  {
    "postal": "L6L2J0",
    "result": []
  },
  {
    "postal": "L6L7A3",
    "result": []
  },
  {
    "postal": "L6L8M1",
    "result": []
  },
  {
    "postal": "L6L7T9",
    "result": []
  },
  {
    "postal": "L6L6C0",
    "result": []
  },
  {
    "postal": "L6L7X1",
    "result": []
  },
  {
    "postal": "L6L0G1",
    "result": []
  },
  {
    "postal": "L6L4X2",
    "result": [
      {
        "electoralDistricts": [
          {
            "election": null,
            "id": 74,
            "name": "Oakville"
          }
        ],
        "pollDivisionIds": [
          10140351
        ],
        "postalCode": "L6L4X2",
        "streetName": "SMITH",
        "streetDirectionId": null,
        "streetTypeId": "LANE",
        "placeName": "OAKVILLE",
        "streetNameDisplayText": "SMITH LANE, OAKVILLE"
      }
    ]
  },
  {
    "postal": "L6L0N6",
    "result": []
  },
  {
    "postal": "L6L8E3",
    "result": []
  },
  {
    "postal": "L6L5S8",
    "result": [
      {
        "electoralDistricts": [
          {
            "election": null,
            "id": 74,
            "name": "Oakville"
          }
        ],
        "pollDivisionIds": [
          10140347
        ],
        "postalCode": "L6L5S8",
        "streetName": "ULMAN",
        "streetDirectionId": null,
        "streetTypeId": "RD",
        "placeName": "OAKVILLE",
        "streetNameDisplayText": "ULMAN RD, OAKVILLE"
      }
    ]
  },
  {
    "postal": "L6L0R0",
    "result": []
  },
  {
    "postal": "L6L6J6",
    "result": [
      {
        "electoralDistricts": [
          {
            "election": null,
            "id": 74,
            "name": "Oakville"
          }
        ],
        "pollDivisionIds": [
          10140347
        ],
        "postalCode": "L6L6J6",
        "streetName": "MISSISSAGA",
        "streetDirectionId": null,
        "streetTypeId": "ST",
        "placeName": "OAKVILLE",
        "streetNameDisplayText": "MISSISSAGA ST, OAKVILLE"
      }
    ]
  },
  {
    "postal": "L6L4B4",
    "result": [
      {
        "electoralDistricts": [
          {
            "election": null,
            "id": 74,
            "name": "Oakville"
          }
        ],
        "pollDivisionIds": [
          10140351
        ],
        "postalCode": "L6L4B4",
        "streetName": "YORK",
        "streetDirectionId": null,
        "streetTypeId": "ST",
        "placeName": "OAKVILLE",
        "streetNameDisplayText": "YORK ST, OAKVILLE"
      }
    ]
  },
  {
    "postal": "L6L7E3",
    "result": []
  },
  {
    "postal": "L6L3N6",
    "result": [
      {
        "electoralDistricts": [
          {
            "election": null,
            "id": 74,
            "name": "Oakville"
          }
        ],
        "pollDivisionIds": [
          10140350
        ],
        "postalCode": "L6L3N6",
        "streetName": "SAWYER",
        "streetDirectionId": null,
        "streetTypeId": "RD",
        "placeName": "OAKVILLE",
        "streetNameDisplayText": "SAWYER RD, OAKVILLE"
      }
    ]
  },
  {
    "postal": "L6L3X6",
    "result": [
      {
        "electoralDistricts": [
          {
            "election": null,
            "id": 74,
            "name": "Oakville"
          }
        ],
        "pollDivisionIds": [
          10140353
        ],
        "postalCode": "L6L3X6",
        "streetName": "SNOWDEN",
        "streetDirectionId": null,
        "streetTypeId": "RD",
        "placeName": "OAKVILLE",
        "streetNameDisplayText": "SNOWDEN RD, OAKVILLE"
      }
    ]
  },
  {
    "postal": "L6L8L0",
    "result": []
  },
  {
    "postal": "L6L8N1",
    "result": []
  },
  {
    "postal": "L6L4J0",
    "result": []
  },
  {
    "postal": "L6L0X7",
    "result": []
  },
  {
    "postal": "L6L6S4",
    "result": [
      {
        "electoralDistricts": [
          {
            "election": null,
            "id": 74,
            "name": "Oakville"
          }
        ],
        "pollDivisionIds": [
          10140346
        ],
        "postalCode": "L6L6S4",
        "streetName": "LAKESHORE",
        "streetDirectionId": "W",
        "streetTypeId": "RD",
        "placeName": "OAKVILLE",
        "streetNameDisplayText": "LAKESHORE RD W, OAKVILLE"
      }
    ]
  },
  {
    "postal": "L6L0Z0",
    "result": []
  },
  {
    "postal": "L6L9X8",
    "result": []
  },
  {
    "postal": "L6L3H3",
    "result": [
      {
        "electoralDistricts": [
          {
            "election": null,
            "id": 74,
            "name": "Oakville"
          }
        ],
        "pollDivisionIds": [
          10140345
        ],
        "postalCode": "L6L3H3",
        "streetName": "SUSSEX",
        "streetDirectionId": null,
        "streetTypeId": "ST",
        "placeName": "OAKVILLE",
        "streetNameDisplayText": "SUSSEX ST, OAKVILLE"
      }
    ]
  },
  {
    "postal": "L6L7S2",
    "result": []
  },
  {
    "postal": "L6L3T3",
    "result": [
      {
        "electoralDistricts": [
          {
            "election": null,
            "id": 74,
            "name": "Oakville"
          }
        ],
        "pollDivisionIds": [
          10140350
        ],
        "postalCode": "L6L3T3",
        "streetName": "TRAFFORD",
        "streetDirectionId": null,
        "streetTypeId": "CRES",
        "placeName": "OAKVILLE",
        "streetNameDisplayText": "TRAFFORD CRES, OAKVILLE"
      }
    ]
  },
  {
    "postal": "L6L9P3",
    "result": []
  },
  {
    "postal": "L6L4H8",
    "result": [
      {
        "electoralDistricts": [
          {
            "election": null,
            "id": 74,
            "name": "Oakville"
          }
        ],
        "pollDivisionIds": [
          10140354
        ],
        "postalCode": "L6L4H8",
        "streetName": "WESTMINSTER",
        "streetDirectionId": null,
        "streetTypeId": "DR",
        "placeName": "OAKVILLE",
        "streetNameDisplayText": "WESTMINSTER DR, OAKVILLE"
      }
    ]
  },
  {
    "postal": "L6L6R1",
    "result": [
      {
        "electoralDistricts": [
          {
            "election": null,
            "id": 74,
            "name": "Oakville"
          }
        ],
        "pollDivisionIds": [
          10140350
        ],
        "postalCode": "L6L6R1",
        "streetName": "WYECROFT",
        "streetDirectionId": null,
        "streetTypeId": "RD",
        "placeName": "OAKVILLE",
        "streetNameDisplayText": "WYECROFT RD, OAKVILLE"
      }
    ]
  },
  {
    "postal": "L6L1S0",
    "result": []
  },
  {
    "postal": "L6L3W8",
    "result": [
      {
        "electoralDistricts": [
          {
            "election": null,
            "id": 74,
            "name": "Oakville"
          }
        ],
        "pollDivisionIds": [
          10140350
        ],
        "postalCode": "L6L3W8",
        "streetName": "SCARSDALE",
        "streetDirectionId": null,
        "streetTypeId": "CRES",
        "placeName": "OAKVILLE",
        "streetNameDisplayText": "SCARSDALE CRES, OAKVILLE"
      }
    ]
  },
  {
    "postal": "L6L4S3",
    "result": [
      {
        "electoralDistricts": [
          {
            "election": null,
            "id": 74,
            "name": "Oakville"
          }
        ],
        "pollDivisionIds": [
          10140352
        ],
        "postalCode": "L6L4S3",
        "streetName": "LEES",
        "streetDirectionId": null,
        "streetTypeId": "LANE",
        "placeName": "OAKVILLE",
        "streetNameDisplayText": "LEES LANE, OAKVILLE"
      }
    ]
  },
  {
    "postal": "L6L1B6",
    "result": [
      {
        "electoralDistricts": [
          {
            "election": null,
            "id": 74,
            "name": "Oakville"
          }
        ],
        "pollDivisionIds": [
          10140353
        ],
        "postalCode": "L6L1B6",
        "streetName": "MARINE",
        "streetDirectionId": null,
        "streetTypeId": "DR",
        "placeName": "OAKVILLE",
        "streetNameDisplayText": "MARINE DR, OAKVILLE"
      }
    ]
  },
  {
    "postal": "L6L8R3",
    "result": []
  },
  {
    "postal": "L6L4V9",
    "result": [
      {
        "electoralDistricts": [
          {
            "election": null,
            "id": 74,
            "name": "Oakville"
          }
        ],
        "pollDivisionIds": [
          10140351
        ],
        "postalCode": "L6L4V9",
        "streetName": "TAPLOW",
        "streetDirectionId": null,
        "streetTypeId": "CRES",
        "placeName": "OAKVILLE",
        "streetNameDisplayText": "TAPLOW CRES, OAKVILLE"
      }
    ]
  },
  {
    "postal": "L6L9W4",
    "result": []
  },
  {
    "postal": "L6L3T4",
    "result": [
      {
        "electoralDistricts": [
          {
            "election": null,
            "id": 74,
            "name": "Oakville"
          }
        ],
        "pollDivisionIds": [
          10140350
        ],
        "postalCode": "L6L3T4",
        "streetName": "TRAFFORD",
        "streetDirectionId": null,
        "streetTypeId": "CRES",
        "placeName": "OAKVILLE",
        "streetNameDisplayText": "TRAFFORD CRES, OAKVILLE"
      }
    ]
  },
  {
    "postal": "L6L5C7",
    "result": [
      {
        "electoralDistricts": [
          {
            "election": null,
            "id": 74,
            "name": "Oakville"
          }
        ],
        "pollDivisionIds": [
          10140345
        ],
        "postalCode": "L6L5C7",
        "streetName": "TREVOR",
        "streetDirectionId": null,
        "streetTypeId": "DR",
        "placeName": "OAKVILLE",
        "streetNameDisplayText": "TREVOR DR, OAKVILLE"
      }
    ]
  },
  {
    "postal": "L6L3Y1",
    "result": [
      {
        "electoralDistricts": [
          {
            "election": null,
            "id": 74,
            "name": "Oakville"
          }
        ],
        "pollDivisionIds": [
          10140350
        ],
        "postalCode": "L6L3Y1",
        "streetName": "SEATON",
        "streetDirectionId": null,
        "streetTypeId": "DR",
        "placeName": "OAKVILLE",
        "streetNameDisplayText": "SEATON DR, OAKVILLE"
      }
    ]
  },
  {
    "postal": "L6L5V0",
    "result": []
  },
  {
    "postal": "L6L8G8",
    "result": []
  },
  {
    "postal": "L6L8B1",
    "result": []
  },
  {
    "postal": "L6L4P5",
    "result": [
      {
        "electoralDistricts": [
          {
            "election": null,
            "id": 74,
            "name": "Oakville"
          }
        ],
        "pollDivisionIds": [
          10140354
        ],
        "postalCode": "L6L4P5",
        "streetName": "SANDWELL",
        "streetDirectionId": null,
        "streetTypeId": "DR",
        "placeName": "OAKVILLE",
        "streetNameDisplayText": "SANDWELL DR, OAKVILLE"
      }
    ]
  },
  {
    "postal": "L6L7B2",
    "result": []
  },
  {
    "postal": "L6L0R2",
    "result": []
  },
  {
    "postal": "L6L4M4",
    "result": [
      {
        "electoralDistricts": [
          {
            "election": null,
            "id": 74,
            "name": "Oakville"
          }
        ],
        "pollDivisionIds": [
          10140351
        ],
        "postalCode": "L6L4M4",
        "streetName": "STAFFORD",
        "streetDirectionId": null,
        "streetTypeId": "DR",
        "placeName": "OAKVILLE",
        "streetNameDisplayText": "STAFFORD DR, OAKVILLE"
      }
    ]
  },
  {
    "postal": "L6L7M4",
    "result": []
  },
  {
    "postal": "L6L9S7",
    "result": []
  },
  {
    "postal": "L6L5Z7",
    "result": []
  },
  {
    "postal": "L6L7J7",
    "result": []
  },
  {
    "postal": "L6L8R8",
    "result": []
  },
  {
    "postal": "L6L9X1",
    "result": []
  },
  {
    "postal": "L6L5M9",
    "result": [
      {
        "electoralDistricts": [
          {
            "election": null,
            "id": 74,
            "name": "Oakville"
          }
        ],
        "pollDivisionIds": [
          10140345
        ],
        "postalCode": "L6L5M9",
        "streetName": "SOUTH SERVICE",
        "streetDirectionId": "W",
        "streetTypeId": "RD",
        "placeName": "OAKVILLE",
        "streetNameDisplayText": "SOUTH SERVICE RD W, OAKVILLE"
      }
    ]
  },
  {
    "postal": "L6L9B4",
    "result": []
  },
  {
    "postal": "L6L0L9",
    "result": []
  },
  {
    "postal": "L6L9G4",
    "result": []
  },
  {
    "postal": "L6L1J4",
    "result": [
      {
        "electoralDistricts": [
          {
            "election": null,
            "id": 74,
            "name": "Oakville"
          }
        ],
        "pollDivisionIds": [
          10140347
        ],
        "postalCode": "L6L1J4",
        "streetName": "LAKESHORE",
        "streetDirectionId": "W",
        "streetTypeId": "RD",
        "placeName": "OAKVILLE",
        "streetNameDisplayText": "LAKESHORE RD W, OAKVILLE"
      }
    ]
  },
  {
    "postal": "L6L0W6",
    "result": []
  }
]
