[
  {
    "postal": "K1V9J6",
    "result": [
      {
        "electoralDistricts": [
          {
            "election": null,
            "id": 79,
            "name": "Ottawa South"
          }
        ],
        "pollDivisionIds": [
          10140674
        ],
        "postalCode": "K1V9J6",
        "streetName": "OWL",
        "streetDirectionId": null,
        "streetTypeId": "DR",
        "placeName": "OTTAWA",
        "streetNameDisplayText": "OWL DR, OTTAWA"
      }
    ]
  },
  {
    "postal": "K1V9Z5",
    "result": [
      {
        "electoralDistricts": [
          {
            "election": null,
            "id": 79,
            "name": "Ottawa South"
          }
        ],
        "pollDivisionIds": [
          10140674
        ],
        "postalCode": "K1V9Z5",
        "streetName": "WAXWING",
        "streetDirectionId": null,
        "streetTypeId": "DR",
        "placeName": "OTTAWA",
        "streetNameDisplayText": "WAXWING DR, OTTAWA"
      }
    ]
  },
  {
    "postal": "K1V7H8",
    "result": [
      {
        "electoralDistricts": [
          {
            "election": null,
            "id": 79,
            "name": "Ottawa South"
          }
        ],
        "pollDivisionIds": [
          10140672
        ],
        "postalCode": "K1V7H8",
        "streetName": "BUXTON",
        "streetDirectionId": null,
        "streetTypeId": "CRES",
        "placeName": "OTTAWA",
        "streetNameDisplayText": "BUXTON CRES, OTTAWA"
      }
    ]
  },
  {
    "postal": "K1V0P6",
    "result": [
      {
        "electoralDistricts": [
          {
            "election": null,
            "id": 79,
            "name": "Ottawa South"
          }
        ],
        "pollDivisionIds": [
          10140677
        ],
        "postalCode": "K1V0P6",
        "streetName": "HACKETT",
        "streetDirectionId": null,
        "streetTypeId": "ST",
        "placeName": "OTTAWA",
        "streetNameDisplayText": "HACKETT ST, OTTAWA"
      }
    ]
  },
  {
    "postal": "K1V0S7",
    "result": [
      {
        "electoralDistricts": [
          {
            "election": null,
            "id": 79,
            "name": "Ottawa South"
          }
        ],
        "pollDivisionIds": [
          10140662
        ],
        "postalCode": "K1V0S7",
        "streetName": "PADDINGTON",
        "streetDirectionId": null,
        "streetTypeId": "PVT",
        "placeName": "OTTAWA",
        "streetNameDisplayText": "PADDINGTON PVT, OTTAWA"
      }
    ]
  },
  {
    "postal": "K1V8B9",
    "result": [
      {
        "electoralDistricts": [
          {
            "election": null,
            "id": 79,
            "name": "Ottawa South"
          }
        ],
        "pollDivisionIds": [
          10140656
        ],
        "postalCode": "K1V8B9",
        "streetName": "KALADAR",
        "streetDirectionId": null,
        "streetTypeId": "AVE",
        "placeName": "OTTAWA",
        "streetNameDisplayText": "KALADAR AVE, OTTAWA"
      }
    ]
  },
  {
    "postal": "K1V2A6",
    "result": [
      {
        "electoralDistricts": [
          {
            "election": null,
            "id": 17,
            "name": "Carleton"
          }
        ],
        "pollDivisionIds": [
          10137497
        ],
        "postalCode": "K1V2A6",
        "streetName": "AUGUST LILY",
        "streetDirectionId": null,
        "streetTypeId": "CRES",
        "placeName": "GLOUCESTER",
        "streetNameDisplayText": "AUGUST LILY CRES, GLOUCESTER"
      }
    ]
  },
  {
    "postal": "K1V7V2",
    "result": [
      {
        "electoralDistricts": [
          {
            "election": null,
            "id": 79,
            "name": "Ottawa South"
          }
        ],
        "pollDivisionIds": [
          10140657
        ],
        "postalCode": "K1V7V2",
        "streetName": "GRASMERE",
        "streetDirectionId": null,
        "streetTypeId": "CRES",
        "placeName": "OTTAWA",
        "streetNameDisplayText": "GRASMERE CRES, OTTAWA"
      }
    ]
  },
  {
    "postal": "K1V9P4",
    "result": [
      {
        "electoralDistricts": [
          {
            "election": null,
            "id": 79,
            "name": "Ottawa South"
          }
        ],
        "pollDivisionIds": [
          10140679
        ],
        "postalCode": "K1V9P4",
        "streetName": "DOWNPATRICK",
        "streetDirectionId": null,
        "streetTypeId": "RD",
        "placeName": "GLOUCESTER",
        "streetNameDisplayText": "DOWNPATRICK RD, GLOUCESTER"
      }
    ]
  },
  {
    "postal": "K1V6G0",
    "result": []
  },
  {
    "postal": "K1V2K0",
    "result": []
  },
  {
    "postal": "K1V7N6",
    "result": [
      {
        "electoralDistricts": [
          {
            "election": null,
            "id": 79,
            "name": "Ottawa South"
          }
        ],
        "pollDivisionIds": [
          10140671
        ],
        "postalCode": "K1V7N6",
        "streetName": "DE NIVERVILLE",
        "streetDirectionId": null,
        "streetTypeId": "PVT",
        "placeName": "GLOUCESTER",
        "streetNameDisplayText": "DE NIVERVILLE PVT, GLOUCESTER"
      }
    ]
  },
  {
    "postal": "K1V5R3",
    "result": []
  },
  {
    "postal": "K1V7K0",
    "result": []
  },
  {
    "postal": "K1V3R2",
    "result": []
  },
  {
    "postal": "K1V0J1",
    "result": [
      {
        "electoralDistricts": [
          {
            "election": null,
            "id": 79,
            "name": "Ottawa South"
          }
        ],
        "pollDivisionIds": [
          10140677
        ],
        "postalCode": "K1V0J1",
        "streetName": "WELBY",
        "streetDirectionId": null,
        "streetTypeId": "CRT",
        "placeName": "OTTAWA",
        "streetNameDisplayText": "WELBY CRT, OTTAWA"
      }
    ]
  },
  {
    "postal": "K1V0B0",
    "result": []
  },
  {
    "postal": "K1V5Z2",
    "result": []
  },
  {
    "postal": "K1V7P3",
    "result": [
      {
        "electoralDistricts": [
          {
            "election": null,
            "id": 79,
            "name": "Ottawa South"
          }
        ],
        "pollDivisionIds": [
          10140678
        ],
        "postalCode": "K1V7P3",
        "streetName": "ALBION",
        "streetDirectionId": "S",
        "streetTypeId": "RD",
        "placeName": "OTTAWA",
        "streetNameDisplayText": "ALBION RD S, OTTAWA"
      }
    ]
  },
  {
    "postal": "K1V2K3",
    "result": [
      {
        "electoralDistricts": [
          {
            "election": null,
            "id": 17,
            "name": "Carleton"
          }
        ],
        "pollDivisionIds": [
          10137497
        ],
        "postalCode": "K1V2K3",
        "streetName": "BOWERCREST",
        "streetDirectionId": null,
        "streetTypeId": "CRES",
        "placeName": "GLOUCESTER",
        "streetNameDisplayText": "BOWERCREST CRES, GLOUCESTER"
      },
      {
        "electoralDistricts": [
          {
            "election": null,
            "id": 17,
            "name": "Carleton"
          }
        ],
        "pollDivisionIds": [
          10137497
        ],
        "postalCode": "K1V2K3",
        "streetName": "CORAL BERRY",
        "streetDirectionId": null,
        "streetTypeId": "AVE",
        "placeName": "GLOUCESTER",
        "streetNameDisplayText": "CORAL BERRY AVE, GLOUCESTER"
      }
    ]
  },
  {
    "postal": "K1V7Y6",
    "result": [
      {
        "electoralDistricts": [
          {
            "election": null,
            "id": 79,
            "name": "Ottawa South"
          }
        ],
        "pollDivisionIds": [
          10140656
        ],
        "postalCode": "K1V7Y6",
        "streetName": "BANK",
        "streetDirectionId": null,
        "streetTypeId": "ST",
        "placeName": "OTTAWA",
        "streetNameDisplayText": "BANK ST, OTTAWA"
      }
    ]
  },
  {
    "postal": "K1V1L9",
    "result": [
      {
        "electoralDistricts": [
          {
            "election": null,
            "id": 17,
            "name": "Carleton"
          }
        ],
        "pollDivisionIds": [
          10137494
        ],
        "postalCode": "K1V1L9",
        "streetName": "OWL VALLEY",
        "streetDirectionId": null,
        "streetTypeId": "DR",
        "placeName": "GLOUCESTER",
        "streetNameDisplayText": "OWL VALLEY DR, GLOUCESTER"
      }
    ]
  },
  {
    "postal": "K1V8T0",
    "result": []
  },
  {
    "postal": "K1V3K8",
    "result": []
  },
  {
    "postal": "K1V5W9",
    "result": []
  },
  {
    "postal": "K1V6T9",
    "result": [
      {
        "electoralDistricts": [
          {
            "election": null,
            "id": 79,
            "name": "Ottawa South"
          }
        ],
        "pollDivisionIds": [
          10140665
        ],
        "postalCode": "K1V6T9",
        "streetName": "VANCOUVER",
        "streetDirectionId": null,
        "streetTypeId": "AVE",
        "placeName": "OTTAWA",
        "streetNameDisplayText": "VANCOUVER AVE, OTTAWA"
      }
    ]
  },
  {
    "postal": "K1V4H1",
    "result": []
  },
  {
    "postal": "K1V7A2",
    "result": [
      {
        "electoralDistricts": [
          {
            "election": null,
            "id": 79,
            "name": "Ottawa South"
          }
        ],
        "pollDivisionIds": [
          10140672
        ],
        "postalCode": "K1V7A2",
        "streetName": "SOUTHMORE",
        "streetDirectionId": "W",
        "streetTypeId": "DR",
        "placeName": "OTTAWA",
        "streetNameDisplayText": "SOUTHMORE DR W, OTTAWA"
      }
    ]
  },
  {
    "postal": "K1V5G0",
    "result": []
  },
  {
    "postal": "K1V8V5",
    "result": [
      {
        "electoralDistricts": [
          {
            "election": null,
            "id": 79,
            "name": "Ottawa South"
          }
        ],
        "pollDivisionIds": [
          10140678
        ],
        "postalCode": "K1V8V5",
        "streetName": "ALBION",
        "streetDirectionId": "S",
        "streetTypeId": "RD",
        "placeName": "OTTAWA",
        "streetNameDisplayText": "ALBION RD S, OTTAWA"
      }
    ]
  },
  {
    "postal": "K1V2Y8",
    "result": []
  },
  {
    "postal": "K1V2B6",
    "result": [
      {
        "electoralDistricts": [
          {
            "election": null,
            "id": 79,
            "name": "Ottawa South"
          }
        ],
        "pollDivisionIds": [
          10140656
        ],
        "postalCode": "K1V2B6",
        "streetName": "WESTVALLEY",
        "streetDirectionId": null,
        "streetTypeId": "PVT",
        "placeName": "OTTAWA",
        "streetNameDisplayText": "WESTVALLEY PVT, OTTAWA"
      }
    ]
  },
  {
    "postal": "K1V4W8",
    "result": []
  },
  {
    "postal": "K1V8H7",
    "result": [
      {
        "electoralDistricts": [
          {
            "election": null,
            "id": 79,
            "name": "Ottawa South"
          }
        ],
        "pollDivisionIds": [
          10140669
        ],
        "postalCode": "K1V8H7",
        "streetName": "MARCEL",
        "streetDirectionId": null,
        "streetTypeId": "ST",
        "placeName": "OTTAWA",
        "streetNameDisplayText": "MARCEL ST, OTTAWA"
      }
    ]
  },
  {
    "postal": "K1V5P1",
    "result": []
  },
  {
    "postal": "K1V2B8",
    "result": [
      {
        "electoralDistricts": [
          {
            "election": null,
            "id": 79,
            "name": "Ottawa South"
          }
        ],
        "pollDivisionIds": [
          10140656
        ],
        "postalCode": "K1V2B8",
        "streetName": "SOUTHCREST",
        "streetDirectionId": null,
        "streetTypeId": "PVT",
        "placeName": "OTTAWA",
        "streetNameDisplayText": "SOUTHCREST PVT, OTTAWA"
      }
    ]
  },
  {
    "postal": "K1V0P2",
    "result": [
      {
        "electoralDistricts": [
          {
            "election": null,
            "id": 79,
            "name": "Ottawa South"
          }
        ],
        "pollDivisionIds": [
          10140679
        ],
        "postalCode": "K1V0P2",
        "streetName": "WYMAN",
        "streetDirectionId": null,
        "streetTypeId": "CRES",
        "placeName": "GLOUCESTER",
        "streetNameDisplayText": "WYMAN CRES, GLOUCESTER"
      }
    ]
  },
  {
    "postal": "K1V9M1",
    "result": [
      {
        "electoralDistricts": [
          {
            "election": null,
            "id": 79,
            "name": "Ottawa South"
          }
        ],
        "pollDivisionIds": [
          10140673
        ],
        "postalCode": "K1V9M1",
        "streetName": "ROYAL HUNT",
        "streetDirectionId": null,
        "streetTypeId": "CRT",
        "placeName": "OTTAWA",
        "streetNameDisplayText": "ROYAL HUNT CRT, OTTAWA"
      }
    ]
  },
  {
    "postal": "K1V3G0",
    "result": []
  },
  {
    "postal": "K1V9Z2",
    "result": [
      {
        "electoralDistricts": [
          {
            "election": null,
            "id": 79,
            "name": "Ottawa South"
          }
        ],
        "pollDivisionIds": [
          10140673
        ],
        "postalCode": "K1V9Z2",
        "streetName": "ERIN",
        "streetDirectionId": null,
        "streetTypeId": "CRES",
        "placeName": "OTTAWA",
        "streetNameDisplayText": "ERIN CRES, OTTAWA"
      }
    ]
  },
  {
    "postal": "K1V2A0",
    "result": []
  },
  {
    "postal": "K1V6Y0",
    "result": []
  },
  {
    "postal": "K1V2Z8",
    "result": []
  },
  {
    "postal": "K1V7Y3",
    "result": [
      {
        "electoralDistricts": [
          {
            "election": null,
            "id": 79,
            "name": "Ottawa South"
          }
        ],
        "pollDivisionIds": [
          10140678
        ],
        "postalCode": "K1V7Y3",
        "streetName": "SOUTHGATE",
        "streetDirectionId": null,
        "streetTypeId": "RD",
        "placeName": "OTTAWA",
        "streetNameDisplayText": "SOUTHGATE RD, OTTAWA"
      }
    ]
  },
  {
    "postal": "K1V6Z5",
    "result": [
      {
        "electoralDistricts": [
          {
            "election": null,
            "id": 79,
            "name": "Ottawa South"
          }
        ],
        "pollDivisionIds": [
          10140669
        ],
        "postalCode": "K1V6Z5",
        "streetName": "SOUTHMORE",
        "streetDirectionId": "E",
        "streetTypeId": "DR",
        "placeName": "OTTAWA",
        "streetNameDisplayText": "SOUTHMORE DR E, OTTAWA"
      }
    ]
  },
  {
    "postal": "K1V6E0",
    "result": []
  },
  {
    "postal": "K1V9B7",
    "result": [
      {
        "electoralDistricts": [
          {
            "election": null,
            "id": 79,
            "name": "Ottawa South"
          }
        ],
        "pollDivisionIds": [
          10140674
        ],
        "postalCode": "K1V9B7",
        "streetName": "IMPALA",
        "streetDirectionId": null,
        "streetTypeId": "CRES",
        "placeName": "OTTAWA",
        "streetNameDisplayText": "IMPALA CRES, OTTAWA"
      }
    ]
  },
  {
    "postal": "K1V9S5",
    "result": [
      {
        "electoralDistricts": [
          {
            "election": null,
            "id": 79,
            "name": "Ottawa South"
          }
        ],
        "pollDivisionIds": [
          10140658
        ],
        "postalCode": "K1V9S5",
        "streetName": "WALKLEY",
        "streetDirectionId": null,
        "streetTypeId": "RD",
        "placeName": "OTTAWA",
        "streetNameDisplayText": "WALKLEY RD, OTTAWA"
      }
    ]
  },
  {
    "postal": "K1V3X3",
    "result": []
  },
  {
    "postal": "K1V7R5",
    "result": [
      {
        "electoralDistricts": [
          {
            "election": null,
            "id": 79,
            "name": "Ottawa South"
          }
        ],
        "pollDivisionIds": [
          10140665
        ],
        "postalCode": "K1V7R5",
        "streetName": "COCHRANE",
        "streetDirectionId": null,
        "streetTypeId": "ST",
        "placeName": "OTTAWA",
        "streetNameDisplayText": "COCHRANE ST, OTTAWA"
      }
    ]
  },
  {
    "postal": "K1V2X3",
    "result": []
  },
  {
    "postal": "K1V8Z9",
    "result": [
      {
        "electoralDistricts": [
          {
            "election": null,
            "id": 79,
            "name": "Ottawa South"
          }
        ],
        "pollDivisionIds": [
          10140674
        ],
        "postalCode": "K1V8Z9",
        "streetName": "MCCARTHY",
        "streetDirectionId": null,
        "streetTypeId": "RD",
        "placeName": "OTTAWA",
        "streetNameDisplayText": "MCCARTHY RD, OTTAWA"
      }
    ]
  },
  {
    "postal": "K1V0N4",
    "result": [
      {
        "electoralDistricts": [
          {
            "election": null,
            "id": 79,
            "name": "Ottawa South"
          }
        ],
        "pollDivisionIds": [
          10140679
        ],
        "postalCode": "K1V0N4",
        "streetName": "VINTAGE",
        "streetDirectionId": null,
        "streetTypeId": "LANE",
        "placeName": "OTTAWA",
        "streetNameDisplayText": "VINTAGE LANE, OTTAWA"
      },
      {
        "electoralDistricts": [
          {
            "election": null,
            "id": 79,
            "name": "Ottawa South"
          }
        ],
        "pollDivisionIds": [
          10140679
        ],
        "postalCode": "K1V0N4",
        "streetName": "WISTERIA",
        "streetDirectionId": null,
        "streetTypeId": "CRES",
        "placeName": "GLOUCESTER",
        "streetNameDisplayText": "WISTERIA CRES, GLOUCESTER"
      },
      {
        "electoralDistricts": [
          {
            "election": null,
            "id": 79,
            "name": "Ottawa South"
          }
        ],
        "pollDivisionIds": [
          10140679
        ],
        "postalCode": "K1V0N4",
        "streetName": "WISTERIA",
        "streetDirectionId": null,
        "streetTypeId": "CRES",
        "placeName": "OTTAWA",
        "streetNameDisplayText": "WISTERIA CRES, OTTAWA"
      }
    ]
  },
  {
    "postal": "K1V1K1",
    "result": [
      {
        "electoralDistricts": [
          {
            "election": null,
            "id": 79,
            "name": "Ottawa South"
          }
        ],
        "pollDivisionIds": [
          10140677
        ],
        "postalCode": "K1V1K1",
        "streetName": "MALHOTRA",
        "streetDirectionId": null,
        "streetTypeId": "CRT",
        "placeName": "OTTAWA",
        "streetNameDisplayText": "MALHOTRA CRT, OTTAWA"
      },
      {
        "electoralDistricts": [
          {
            "election": null,
            "id": 79,
            "name": "Ottawa South"
          }
        ],
        "pollDivisionIds": [
          10140677
        ],
        "postalCode": "K1V1K1",
        "streetName": "RIVERGATE",
        "streetDirectionId": null,
        "streetTypeId": "WAY",
        "placeName": "OTTAWA",
        "streetNameDisplayText": "RIVERGATE WAY, OTTAWA"
      }
    ]
  },
  {
    "postal": "K1V1S3",
    "result": []
  },
  {
    "postal": "K1V6M4",
    "result": [
      {
        "electoralDistricts": [
          {
            "election": null,
            "id": 79,
            "name": "Ottawa South"
          }
        ],
        "pollDivisionIds": [
          10140664
        ],
        "postalCode": "K1V6M4",
        "streetName": "SPRINGLAND",
        "streetDirectionId": null,
        "streetTypeId": "DR",
        "placeName": "OTTAWA",
        "streetNameDisplayText": "SPRINGLAND DR, OTTAWA"
      }
    ]
  },
  {
    "postal": "K1V9A9",
    "result": []
  },
  {
    "postal": "K1V9Z9",
    "result": []
  },
  {
    "postal": "K1V6T4",
    "result": [
      {
        "electoralDistricts": [
          {
            "election": null,
            "id": 79,
            "name": "Ottawa South"
          }
        ],
        "pollDivisionIds": [
          10140665
        ],
        "postalCode": "K1V6T4",
        "streetName": "NOTTING HILL",
        "streetDirectionId": null,
        "streetTypeId": "AVE",
        "placeName": "OTTAWA",
        "streetNameDisplayText": "NOTTING HILL AVE, OTTAWA"
      },
      {
        "electoralDistricts": [
          {
            "election": null,
            "id": 79,
            "name": "Ottawa South"
          }
        ],
        "pollDivisionIds": [
          10140665
        ],
        "postalCode": "K1V6T4",
        "streetName": "NOTTINGHILL",
        "streetDirectionId": null,
        "streetTypeId": "AVE",
        "placeName": "OTTAWA",
        "streetNameDisplayText": "NOTTINGHILL AVE, OTTAWA"
      }
    ]
  },
  {
    "postal": "K1V0B2",
    "result": [
      {
        "electoralDistricts": [
          {
            "election": null,
            "id": 79,
            "name": "Ottawa South"
          }
        ],
        "pollDivisionIds": [
          10140677
        ],
        "postalCode": "K1V0B2",
        "streetName": "RATAN",
        "streetDirectionId": null,
        "streetTypeId": "CRT",
        "placeName": "OTTAWA",
        "streetNameDisplayText": "RATAN CRT, OTTAWA"
      }
    ]
  },
  {
    "postal": "K1V2L9",
    "result": [
      {
        "electoralDistricts": [
          {
            "election": null,
            "id": 79,
            "name": "Ottawa South"
          }
        ],
        "pollDivisionIds": [
          10140679
        ],
        "postalCode": "K1V2L9",
        "streetName": "GIBFORD",
        "streetDirectionId": null,
        "streetTypeId": "DR",
        "placeName": "GLOUCESTER",
        "streetNameDisplayText": "GIBFORD DR, GLOUCESTER"
      }
    ]
  },
  {
    "postal": "K1V8K9",
    "result": [
      {
        "electoralDistricts": [
          {
            "election": null,
            "id": 79,
            "name": "Ottawa South"
          }
        ],
        "pollDivisionIds": [
          10140672
        ],
        "postalCode": "K1V8K9",
        "streetName": "COWAN",
        "streetDirectionId": null,
        "streetTypeId": "CRES",
        "placeName": "OTTAWA",
        "streetNameDisplayText": "COWAN CRES, OTTAWA"
      }
    ]
  },
  {
    "postal": "K1V2H9",
    "result": [
      {
        "electoralDistricts": [
          {
            "election": null,
            "id": 17,
            "name": "Carleton"
          }
        ],
        "pollDivisionIds": [
          10137497
        ],
        "postalCode": "K1V2H9",
        "streetName": "GOLDENEYE",
        "streetDirectionId": null,
        "streetTypeId": "WAY",
        "placeName": "GLOUCESTER",
        "streetNameDisplayText": "GOLDENEYE WAY, GLOUCESTER"
      },
      {
        "electoralDistricts": [
          {
            "election": null,
            "id": 17,
            "name": "Carleton"
          }
        ],
        "pollDivisionIds": [
          10137497
        ],
        "postalCode": "K1V2H9",
        "streetName": "NAKINA",
        "streetDirectionId": null,
        "streetTypeId": "WAY",
        "placeName": "GLOUCESTER",
        "streetNameDisplayText": "NAKINA WAY, GLOUCESTER"
      }
    ]
  },
  {
    "postal": "K1V3Z6",
    "result": []
  },
  {
    "postal": "K1V3B0",
    "result": []
  },
  {
    "postal": "K1V2H8",
    "result": [
      {
        "electoralDistricts": [
          {
            "election": null,
            "id": 79,
            "name": "Ottawa South"
          }
        ],
        "pollDivisionIds": [
          10140679
        ],
        "postalCode": "K1V2H8",
        "streetName": "DOWNPATRICK",
        "streetDirectionId": null,
        "streetTypeId": "RD",
        "placeName": "OTTAWA",
        "streetNameDisplayText": "DOWNPATRICK RD, OTTAWA"
      }
    ]
  },
  {
    "postal": "K1V3X2",
    "result": []
  },
  {
    "postal": "K1V2E9",
    "result": []
  },
  {
    "postal": "K1V9P6",
    "result": [
      {
        "electoralDistricts": [
          {
            "election": null,
            "id": 79,
            "name": "Ottawa South"
          }
        ],
        "pollDivisionIds": [
          10140674
        ],
        "postalCode": "K1V9P6",
        "streetName": "OWL",
        "streetDirectionId": null,
        "streetTypeId": "DR",
        "placeName": "OTTAWA",
        "streetNameDisplayText": "OWL DR, OTTAWA"
      }
    ]
  },
  {
    "postal": "K1V9E2",
    "result": [
      {
        "electoralDistricts": [
          {
            "election": null,
            "id": 79,
            "name": "Ottawa South"
          }
        ],
        "pollDivisionIds": [
          10140674
        ],
        "postalCode": "K1V9E2",
        "streetName": "PLANTE",
        "streetDirectionId": null,
        "streetTypeId": "DR",
        "placeName": "OTTAWA",
        "streetNameDisplayText": "PLANTE DR, OTTAWA"
      }
    ]
  },
  {
    "postal": "K1V9H2",
    "result": [
      {
        "electoralDistricts": [
          {
            "election": null,
            "id": 79,
            "name": "Ottawa South"
          }
        ],
        "pollDivisionIds": [
          10140674
        ],
        "postalCode": "K1V9H2",
        "streetName": "WAXWING",
        "streetDirectionId": null,
        "streetTypeId": "DR",
        "placeName": "OTTAWA",
        "streetNameDisplayText": "WAXWING DR, OTTAWA"
      }
    ]
  },
  {
    "postal": "K1V1S8",
    "result": [
      {
        "electoralDistricts": [
          {
            "election": null,
            "id": 17,
            "name": "Carleton"
          }
        ],
        "pollDivisionIds": [
          10137494
        ],
        "postalCode": "K1V1S8",
        "streetName": "PUFFIN",
        "streetDirectionId": null,
        "streetTypeId": "CRT",
        "placeName": "GLOUCESTER",
        "streetNameDisplayText": "PUFFIN CRT, GLOUCESTER"
      },
      {
        "electoralDistricts": [
          {
            "election": null,
            "id": 17,
            "name": "Carleton"
          }
        ],
        "pollDivisionIds": [
          10137483,
          10137494
        ],
        "postalCode": "K1V1S8",
        "streetName": "SHORELINE",
        "streetDirectionId": null,
        "streetTypeId": "DR",
        "placeName": "GLOUCESTER",
        "streetNameDisplayText": "SHORELINE DR, GLOUCESTER"
      }
    ]
  },
  {
    "postal": "K1V3M6",
    "result": []
  },
  {
    "postal": "K1V6Z8",
    "result": [
      {
        "electoralDistricts": [
          {
            "election": null,
            "id": 79,
            "name": "Ottawa South"
          }
        ],
        "pollDivisionIds": [
          10140669
        ],
        "postalCode": "K1V6Z8",
        "streetName": "SOUTHMORE",
        "streetDirectionId": "E",
        "streetTypeId": "DR",
        "placeName": "OTTAWA",
        "streetNameDisplayText": "SOUTHMORE DR E, OTTAWA"
      }
    ]
  },
  {
    "postal": "K1V4J2",
    "result": []
  },
  {
    "postal": "K1V9Y1",
    "result": [
      {
        "electoralDistricts": [
          {
            "election": null,
            "id": 79,
            "name": "Ottawa South"
          }
        ],
        "pollDivisionIds": [
          10140677
        ],
        "postalCode": "K1V9Y1",
        "streetName": "RICH LITTLE",
        "streetDirectionId": null,
        "streetTypeId": "DR",
        "placeName": "OTTAWA",
        "streetNameDisplayText": "RICH LITTLE DR, OTTAWA"
      }
    ]
  },
  {
    "postal": "K1V8V6",
    "result": [
      {
        "electoralDistricts": [
          {
            "election": null,
            "id": 79,
            "name": "Ottawa South"
          }
        ],
        "pollDivisionIds": [
          10140678
        ],
        "postalCode": "K1V8V6",
        "streetName": "CAHILL",
        "streetDirectionId": null,
        "streetTypeId": "DR",
        "placeName": "OTTAWA",
        "streetNameDisplayText": "CAHILL DR, OTTAWA"
      }
    ]
  },
  {
    "postal": "K1V6B2",
    "result": [
      {
        "electoralDistricts": [
          {
            "election": null,
            "id": 79,
            "name": "Ottawa South"
          }
        ],
        "pollDivisionIds": [
          10140656
        ],
        "postalCode": "K1V6B2",
        "streetName": "HERON",
        "streetDirectionId": null,
        "streetTypeId": "RD",
        "placeName": "OTTAWA",
        "streetNameDisplayText": "HERON RD, OTTAWA"
      }
    ]
  },
  {
    "postal": "K1V1P8",
    "result": [
      {
        "electoralDistricts": [
          {
            "election": null,
            "id": 17,
            "name": "Carleton"
          }
        ],
        "pollDivisionIds": [
          10137497
        ],
        "postalCode": "K1V1P8",
        "streetName": "CANYON WALK",
        "streetDirectionId": null,
        "streetTypeId": "DR",
        "placeName": "GLOUCESTER",
        "streetNameDisplayText": "CANYON WALK DR, GLOUCESTER"
      },
      {
        "electoralDistricts": [
          {
            "election": null,
            "id": 17,
            "name": "Carleton"
          }
        ],
        "pollDivisionIds": [
          10137494
        ],
        "postalCode": "K1V1P8",
        "streetName": "MARBLE CANYON",
        "streetDirectionId": null,
        "streetTypeId": "CRES",
        "placeName": "GLOUCESTER",
        "streetNameDisplayText": "MARBLE CANYON CRES, GLOUCESTER"
      },
      {
        "electoralDistricts": [
          {
            "election": null,
            "id": 17,
            "name": "Carleton"
          }
        ],
        "pollDivisionIds": [
          10137494
        ],
        "postalCode": "K1V1P8",
        "streetName": "MARBLE CANYON",
        "streetDirectionId": null,
        "streetTypeId": null,
        "placeName": "GLOUCESTER",
        "streetNameDisplayText": "MARBLE CANYON, GLOUCESTER"
      }
    ]
  },
  {
    "postal": "K1V0V8",
    "result": [
      {
        "electoralDistricts": [
          {
            "election": null,
            "id": 79,
            "name": "Ottawa South"
          }
        ],
        "pollDivisionIds": [
          10140673
        ],
        "postalCode": "K1V0V8",
        "streetName": "TWYFORD",
        "streetDirectionId": null,
        "streetTypeId": "ST",
        "placeName": "OTTAWA",
        "streetNameDisplayText": "TWYFORD ST, OTTAWA"
      }
    ]
  },
  {
    "postal": "K1V4Y0",
    "result": []
  },
  {
    "postal": "K1V2T4",
    "result": []
  },
  {
    "postal": "K1V2S3",
    "result": []
  },
  {
    "postal": "K1V0K0",
    "result": []
  },
  {
    "postal": "K1V5N1",
    "result": []
  },
  {
    "postal": "K1V7T0",
    "result": []
  },
  {
    "postal": "K1V9N2",
    "result": [
      {
        "electoralDistricts": [
          {
            "election": null,
            "id": 79,
            "name": "Ottawa South"
          }
        ],
        "pollDivisionIds": [
          10140662
        ],
        "postalCode": "K1V9N2",
        "streetName": "FAIRLEA",
        "streetDirectionId": null,
        "streetTypeId": "CRES",
        "placeName": "OTTAWA",
        "streetNameDisplayText": "FAIRLEA CRES, OTTAWA"
      }
    ]
  },
  {
    "postal": "K1V5L1",
    "result": []
  },
  {
    "postal": "K1V7G5",
    "result": [
      {
        "electoralDistricts": [
          {
            "election": null,
            "id": 79,
            "name": "Ottawa South"
          }
        ],
        "pollDivisionIds": [
          10140672
        ],
        "postalCode": "K1V7G5",
        "streetName": "FIELDING",
        "streetDirectionId": null,
        "streetTypeId": "DR",
        "placeName": "OTTAWA",
        "streetNameDisplayText": "FIELDING DR, OTTAWA"
      }
    ]
  },
  {
    "postal": "K1V6K2",
    "result": [
      {
        "electoralDistricts": [
          {
            "election": null,
            "id": 79,
            "name": "Ottawa South"
          }
        ],
        "pollDivisionIds": [
          10140656
        ],
        "postalCode": "K1V6K2",
        "streetName": "NEEDHAM",
        "streetDirectionId": null,
        "streetTypeId": "CRES",
        "placeName": "OTTAWA",
        "streetNameDisplayText": "NEEDHAM CRES, OTTAWA"
      }
    ]
  },
  {
    "postal": "K1V6P9",
    "result": [
      {
        "electoralDistricts": [
          {
            "election": null,
            "id": 79,
            "name": "Ottawa South"
          }
        ],
        "pollDivisionIds": [
          10140658
        ],
        "postalCode": "K1V6P9",
        "streetName": "WALKLEY",
        "streetDirectionId": null,
        "streetTypeId": "RD",
        "placeName": "OTTAWA",
        "streetNameDisplayText": "WALKLEY RD, OTTAWA"
      }
    ]
  },
  {
    "postal": "K1V0E6",
    "result": [
      {
        "electoralDistricts": [
          {
            "election": null,
            "id": 79,
            "name": "Ottawa South"
          }
        ],
        "pollDivisionIds": [
          10140673
        ],
        "postalCode": "K1V0E6",
        "streetName": "FINCH",
        "streetDirectionId": null,
        "streetTypeId": "PVT",
        "placeName": "OTTAWA",
        "streetNameDisplayText": "FINCH PVT, OTTAWA"
      },
      {
        "electoralDistricts": [
          {
            "election": null,
            "id": 79,
            "name": "Ottawa South"
          }
        ],
        "pollDivisionIds": [
          10140673
        ],
        "postalCode": "K1V0E6",
        "streetName": "PINSON",
        "streetDirectionId": null,
        "streetTypeId": "PVT",
        "placeName": "OTTAWA",
        "streetNameDisplayText": "PINSON PVT, OTTAWA"
      }
    ]
  },
  {
    "postal": "K1V8R9",
    "result": [
      {
        "electoralDistricts": [
          {
            "election": null,
            "id": 79,
            "name": "Ottawa South"
          }
        ],
        "pollDivisionIds": [
          10140703,
          10140678
        ],
        "postalCode": "K1V8R9",
        "streetName": "BANK",
        "streetDirectionId": null,
        "streetTypeId": "ST",
        "placeName": "OTTAWA",
        "streetNameDisplayText": "BANK ST, OTTAWA"
      }
    ]
  },
  {
    "postal": "K1V3G9",
    "result": []
  },
  {
    "postal": "K1V0V7",
    "result": [
      {
        "electoralDistricts": [
          {
            "election": null,
            "id": 79,
            "name": "Ottawa South"
          }
        ],
        "pollDivisionIds": [
          10140673
        ],
        "postalCode": "K1V0V7",
        "streetName": "TWYFORD",
        "streetDirectionId": null,
        "streetTypeId": "ST",
        "placeName": "OTTAWA",
        "streetNameDisplayText": "TWYFORD ST, OTTAWA"
      }
    ]
  },
  {
    "postal": "K1V2Z1",
    "result": []
  },
  {
    "postal": "K1V7N1",
    "result": [
      {
        "electoralDistricts": [
          {
            "election": null,
            "id": 79,
            "name": "Ottawa South"
          }
        ],
        "pollDivisionIds": [
          10140671
        ],
        "postalCode": "K1V7N1",
        "streetName": "MCGILL",
        "streetDirectionId": null,
        "streetTypeId": "PVT",
        "placeName": "GLOUCESTER",
        "streetNameDisplayText": "MCGILL PVT, GLOUCESTER"
      }
    ]
  },
  {
    "postal": "K1V3C6",
    "result": []
  },
  {
    "postal": "K1V4M1",
    "result": []
  },
  {
    "postal": "K1V9K2",
    "result": [
      {
        "electoralDistricts": [
          {
            "election": null,
            "id": 79,
            "name": "Ottawa South"
          }
        ],
        "pollDivisionIds": [
          10140674
        ],
        "postalCode": "K1V9K2",
        "streetName": "BOURBON",
        "streetDirectionId": null,
        "streetTypeId": "ST",
        "placeName": "OTTAWA",
        "streetNameDisplayText": "BOURBON ST, OTTAWA"
      }
    ]
  },
  {
    "postal": "K1V9S6",
    "result": [
      {
        "electoralDistricts": [
          {
            "election": null,
            "id": 79,
            "name": "Ottawa South"
          }
        ],
        "pollDivisionIds": [
          10140678
        ],
        "postalCode": "K1V9S6",
        "streetName": "ALBION",
        "streetDirectionId": "S",
        "streetTypeId": "RD",
        "placeName": "OTTAWA",
        "streetNameDisplayText": "ALBION RD S, OTTAWA"
      }
    ]
  },
  {
    "postal": "K1V4X1",
    "result": []
  },
  {
    "postal": "K1V8W2",
    "result": [
      {
        "electoralDistricts": [
          {
            "election": null,
            "id": 79,
            "name": "Ottawa South"
          }
        ],
        "pollDivisionIds": [
          10140678
        ],
        "postalCode": "K1V8W2",
        "streetName": "SOUTHGATE",
        "streetDirectionId": null,
        "streetTypeId": "RD",
        "placeName": "OTTAWA",
        "streetNameDisplayText": "SOUTHGATE RD, OTTAWA"
      }
    ]
  },
  {
    "postal": "K1V7N2",
    "result": [
      {
        "electoralDistricts": [
          {
            "election": null,
            "id": 79,
            "name": "Ottawa South"
          }
        ],
        "pollDivisionIds": [
          10140671
        ],
        "postalCode": "K1V7N2",
        "streetName": "MCGILL",
        "streetDirectionId": null,
        "streetTypeId": "PVT",
        "placeName": "GLOUCESTER",
        "streetNameDisplayText": "MCGILL PVT, GLOUCESTER"
      }
    ]
  },
  {
    "postal": "K1V8S3",
    "result": [
      {
        "electoralDistricts": [
          {
            "election": null,
            "id": 79,
            "name": "Ottawa South"
          }
        ],
        "pollDivisionIds": [
          10140662
        ],
        "postalCode": "K1V8S3",
        "streetName": "ALBION",
        "streetDirectionId": "N",
        "streetTypeId": "RD",
        "placeName": "OTTAWA",
        "streetNameDisplayText": "ALBION RD N, OTTAWA"
      }
    ]
  },
  {
    "postal": "K1V4V0",
    "result": []
  },
  {
    "postal": "K1V6W4",
    "result": [
      {
        "electoralDistricts": [
          {
            "election": null,
            "id": 79,
            "name": "Ottawa South"
          }
        ],
        "pollDivisionIds": [
          10140665
        ],
        "postalCode": "K1V6W4",
        "streetName": "KITCHENER",
        "streetDirectionId": null,
        "streetTypeId": "AVE",
        "placeName": "OTTAWA",
        "streetNameDisplayText": "KITCHENER AVE, OTTAWA"
      }
    ]
  },
  {
    "postal": "K1V5M1",
    "result": []
  },
  {
    "postal": "K1V0S4",
    "result": [
      {
        "electoralDistricts": [
          {
            "election": null,
            "id": 79,
            "name": "Ottawa South"
          }
        ],
        "pollDivisionIds": [
          10140662
        ],
        "postalCode": "K1V0S4",
        "streetName": "GABLE",
        "streetDirectionId": null,
        "streetTypeId": "PVT",
        "placeName": "OTTAWA",
        "streetNameDisplayText": "GABLE PVT, OTTAWA"
      }
    ]
  },
  {
    "postal": "K1V5X6",
    "result": []
  },
  {
    "postal": "K1V8L5",
    "result": [
      {
        "electoralDistricts": [
          {
            "election": null,
            "id": 79,
            "name": "Ottawa South"
          }
        ],
        "pollDivisionIds": [
          10140672
        ],
        "postalCode": "K1V8L5",
        "streetName": "TUBMAN",
        "streetDirectionId": null,
        "streetTypeId": "CRES",
        "placeName": "OTTAWA",
        "streetNameDisplayText": "TUBMAN CRES, OTTAWA"
      }
    ]
  },
  {
    "postal": "K1V5M8",
    "result": []
  },
  {
    "postal": "K1V2G3",
    "result": [
      {
        "electoralDistricts": [
          {
            "election": null,
            "id": 79,
            "name": "Ottawa South"
          }
        ],
        "pollDivisionIds": [
          10140663
        ],
        "postalCode": "K1V2G3",
        "streetName": "DAZE",
        "streetDirectionId": null,
        "streetTypeId": "ST",
        "placeName": "OTTAWA",
        "streetNameDisplayText": "DAZE ST, OTTAWA"
      }
    ]
  },
  {
    "postal": "K1V8E4",
    "result": [
      {
        "electoralDistricts": [
          {
            "election": null,
            "id": 79,
            "name": "Ottawa South"
          }
        ],
        "pollDivisionIds": [
          10140656
        ],
        "postalCode": "K1V8E4",
        "streetName": "CLEMENTINE",
        "streetDirectionId": null,
        "streetTypeId": "BLVD",
        "placeName": "OTTAWA",
        "streetNameDisplayText": "CLEMENTINE BLVD, OTTAWA"
      }
    ]
  },
  {
    "postal": "K1V7S9",
    "result": [
      {
        "electoralDistricts": [
          {
            "election": null,
            "id": 79,
            "name": "Ottawa South"
          }
        ],
        "pollDivisionIds": [
          10140678
        ],
        "postalCode": "K1V7S9",
        "streetName": "FONTENAY",
        "streetDirectionId": null,
        "streetTypeId": "CRT",
        "placeName": "OTTAWA",
        "streetNameDisplayText": "FONTENAY CRT, OTTAWA"
      }
    ]
  },
  {
    "postal": "K1V1K3",
    "result": [
      {
        "electoralDistricts": [
          {
            "election": null,
            "id": 79,
            "name": "Ottawa South"
          }
        ],
        "pollDivisionIds": [
          10140677
        ],
        "postalCode": "K1V1K3",
        "streetName": "CROWSNEST",
        "streetDirectionId": null,
        "streetTypeId": "AVE",
        "placeName": "OTTAWA",
        "streetNameDisplayText": "CROWSNEST AVE, OTTAWA"
      },
      {
        "electoralDistricts": [
          {
            "election": null,
            "id": 79,
            "name": "Ottawa South"
          }
        ],
        "pollDivisionIds": [
          10140677
        ],
        "postalCode": "K1V1K3",
        "streetName": "MALHOTRA",
        "streetDirectionId": null,
        "streetTypeId": "CRT",
        "placeName": "OTTAWA",
        "streetNameDisplayText": "MALHOTRA CRT, OTTAWA"
      }
    ]
  },
  {
    "postal": "K1V4E1",
    "result": []
  },
  {
    "postal": "K1V4R2",
    "result": []
  },
  {
    "postal": "K1V6T0",
    "result": []
  },
  {
    "postal": "K1V3K5",
    "result": []
  },
  {
    "postal": "K1V3S3",
    "result": []
  },
  {
    "postal": "K1V3L4",
    "result": []
  },
  {
    "postal": "K1V9Y2",
    "result": [
      {
        "electoralDistricts": [
          {
            "election": null,
            "id": 79,
            "name": "Ottawa South"
          }
        ],
        "pollDivisionIds": [
          10140677
        ],
        "postalCode": "K1V9Y2",
        "streetName": "RICH LITTLE",
        "streetDirectionId": null,
        "streetTypeId": "DR",
        "placeName": "OTTAWA",
        "streetNameDisplayText": "RICH LITTLE DR, OTTAWA"
      }
    ]
  },
  {
    "postal": "K1V1E0",
    "result": []
  },
  {
    "postal": "K1V9A4",
    "result": [
      {
        "electoralDistricts": [
          {
            "election": null,
            "id": 79,
            "name": "Ottawa South"
          }
        ],
        "pollDivisionIds": [
          10140673
        ],
        "postalCode": "K1V9A4",
        "streetName": "CAHILL",
        "streetDirectionId": "W",
        "streetTypeId": "DR",
        "placeName": "OTTAWA",
        "streetNameDisplayText": "CAHILL DR W, OTTAWA"
      }
    ]
  },
  {
    "postal": "K1V1L3",
    "result": [
      {
        "electoralDistricts": [
          {
            "election": null,
            "id": 17,
            "name": "Carleton"
          }
        ],
        "pollDivisionIds": [
          10137494
        ],
        "postalCode": "K1V1L3",
        "streetName": "OWL VALLEY",
        "streetDirectionId": null,
        "streetTypeId": "DR",
        "placeName": "GLOUCESTER",
        "streetNameDisplayText": "OWL VALLEY DR, GLOUCESTER"
      },
      {
        "electoralDistricts": [
          {
            "election": null,
            "id": 17,
            "name": "Carleton"
          }
        ],
        "pollDivisionIds": [
          10137494
        ],
        "postalCode": "K1V1L3",
        "streetName": "RAINFOREST",
        "streetDirectionId": null,
        "streetTypeId": "DR",
        "placeName": "GLOUCESTER",
        "streetNameDisplayText": "RAINFOREST DR, GLOUCESTER"
      }
    ]
  },
  {
    "postal": "K1V6N1",
    "result": [
      {
        "electoralDistricts": [
          {
            "election": null,
            "id": 79,
            "name": "Ottawa South"
          }
        ],
        "pollDivisionIds": [
          10140664
        ],
        "postalCode": "K1V6N1",
        "streetName": "RIDGEWOOD",
        "streetDirectionId": null,
        "streetTypeId": "AVE",
        "placeName": "OTTAWA",
        "streetNameDisplayText": "RIDGEWOOD AVE, OTTAWA"
      }
    ]
  },
  {
    "postal": "K1V6G7",
    "result": [
      {
        "electoralDistricts": [
          {
            "election": null,
            "id": 79,
            "name": "Ottawa South"
          }
        ],
        "pollDivisionIds": [
          10140656
        ],
        "postalCode": "K1V6G7",
        "streetName": "GREGG",
        "streetDirectionId": null,
        "streetTypeId": "ST",
        "placeName": "OTTAWA",
        "streetNameDisplayText": "GREGG ST, OTTAWA"
      }
    ]
  },
  {
    "postal": "K1V7W1",
    "result": [
      {
        "electoralDistricts": [
          {
            "election": null,
            "id": 79,
            "name": "Ottawa South"
          }
        ],
        "pollDivisionIds": [
          10140657
        ],
        "postalCode": "K1V7W1",
        "streetName": "EDGEHILL",
        "streetDirectionId": null,
        "streetTypeId": "PL",
        "placeName": "OTTAWA",
        "streetNameDisplayText": "EDGEHILL PL, OTTAWA"
      }
    ]
  },
  {
    "postal": "K1V4M6",
    "result": []
  },
  {
    "postal": "K1V1K0",
    "result": []
  },
  {
    "postal": "K1V3E2",
    "result": []
  },
  {
    "postal": "K1V5H4",
    "result": []
  },
  {
    "postal": "K1V1K7",
    "result": [
      {
        "electoralDistricts": [
          {
            "election": null,
            "id": 79,
            "name": "Ottawa South"
          }
        ],
        "pollDivisionIds": [
          10140677
        ],
        "postalCode": "K1V1K7",
        "streetName": "KIMBERWICK",
        "streetDirectionId": null,
        "streetTypeId": "CRES",
        "placeName": "OTTAWA",
        "streetNameDisplayText": "KIMBERWICK CRES, OTTAWA"
      }
    ]
  },
  {
    "postal": "K1V0H0",
    "result": []
  },
  {
    "postal": "K1V0J3",
    "result": [
      {
        "electoralDistricts": [
          {
            "election": null,
            "id": 79,
            "name": "Ottawa South"
          }
        ],
        "pollDivisionIds": [
          10140677
        ],
        "postalCode": "K1V0J3",
        "streetName": "SINGER",
        "streetDirectionId": null,
        "streetTypeId": "PL",
        "placeName": "OTTAWA",
        "streetNameDisplayText": "SINGER PL, OTTAWA"
      }
    ]
  },
  {
    "postal": "K1V1X6",
    "result": []
  },
  {
    "postal": "K1V2Z6",
    "result": []
  },
  {
    "postal": "K1V4R9",
    "result": []
  },
  {
    "postal": "K1V0W8",
    "result": []
  },
  {
    "postal": "K1V1L4",
    "result": [
      {
        "electoralDistricts": [
          {
            "election": null,
            "id": 17,
            "name": "Carleton"
          }
        ],
        "pollDivisionIds": [
          10137494
        ],
        "postalCode": "K1V1L4",
        "streetName": "RAINFOREST",
        "streetDirectionId": null,
        "streetTypeId": "DR",
        "placeName": "GLOUCESTER",
        "streetNameDisplayText": "RAINFOREST DR, GLOUCESTER"
      },
      {
        "electoralDistricts": [
          {
            "election": null,
            "id": 17,
            "name": "Carleton"
          }
        ],
        "pollDivisionIds": [
          10137494
        ],
        "postalCode": "K1V1L4",
        "streetName": "TOTEM",
        "streetDirectionId": null,
        "streetTypeId": "DR",
        "placeName": "GLOUCESTER",
        "streetNameDisplayText": "TOTEM DR, GLOUCESTER"
      }
    ]
  },
  {
    "postal": "K1V0C8",
    "result": [
      {
        "electoralDistricts": [
          {
            "election": null,
            "id": 79,
            "name": "Ottawa South"
          }
        ],
        "pollDivisionIds": [
          10140673
        ],
        "postalCode": "K1V0C8",
        "streetName": "PAUL ANKA",
        "streetDirectionId": null,
        "streetTypeId": "DR",
        "placeName": "OTTAWA",
        "streetNameDisplayText": "PAUL ANKA DR, OTTAWA"
      }
    ]
  },
  {
    "postal": "K1V9X7",
    "result": [
      {
        "electoralDistricts": [
          {
            "election": null,
            "id": 79,
            "name": "Ottawa South"
          }
        ],
        "pollDivisionIds": [
          10140677
        ],
        "postalCode": "K1V9X7",
        "streetName": "UPLANDS",
        "streetDirectionId": null,
        "streetTypeId": "DR",
        "placeName": "OTTAWA",
        "streetNameDisplayText": "UPLANDS DR, OTTAWA"
      }
    ]
  },
  {
    "postal": "K1V4T1",
    "result": []
  },
  {
    "postal": "K1V0M0",
    "result": []
  },
  {
    "postal": "K1V6A2",
    "result": [
      {
        "electoralDistricts": [
          {
            "election": null,
            "id": 79,
            "name": "Ottawa South"
          }
        ],
        "pollDivisionIds": [
          10140660
        ],
        "postalCode": "K1V6A2",
        "streetName": "HERON",
        "streetDirectionId": null,
        "streetTypeId": "RD",
        "placeName": "OTTAWA",
        "streetNameDisplayText": "HERON RD, OTTAWA"
      }
    ]
  },
  {
    "postal": "K1V9S8",
    "result": [
      {
        "electoralDistricts": [
          {
            "election": null,
            "id": 79,
            "name": "Ottawa South"
          }
        ],
        "pollDivisionIds": [
          10140664
        ],
        "postalCode": "K1V9S8",
        "streetName": "FLANNERY",
        "streetDirectionId": null,
        "streetTypeId": "DR",
        "placeName": "OTTAWA",
        "streetNameDisplayText": "FLANNERY DR, OTTAWA"
      }
    ]
  },
  {
    "postal": "K1V9T4",
    "result": [
      {
        "electoralDistricts": [
          {
            "election": null,
            "id": 79,
            "name": "Ottawa South"
          }
        ],
        "pollDivisionIds": [
          10140677
        ],
        "postalCode": "K1V9T4",
        "streetName": "UPLANDS",
        "streetDirectionId": null,
        "streetTypeId": "DR",
        "placeName": "OTTAWA",
        "streetNameDisplayText": "UPLANDS DR, OTTAWA"
      }
    ]
  },
  {
    "postal": "K1V9Y4",
    "result": [
      {
        "electoralDistricts": [
          {
            "election": null,
            "id": 79,
            "name": "Ottawa South"
          }
        ],
        "pollDivisionIds": [
          10140677
        ],
        "postalCode": "K1V9Y4",
        "streetName": "THE MASTERS",
        "streetDirectionId": null,
        "streetTypeId": "DR",
        "placeName": "OTTAWA",
        "streetNameDisplayText": "THE MASTERS DR, OTTAWA"
      }
    ]
  },
  {
    "postal": "K1V6G5",
    "result": [
      {
        "electoralDistricts": [
          {
            "election": null,
            "id": 79,
            "name": "Ottawa South"
          }
        ],
        "pollDivisionIds": [
          10140657
        ],
        "postalCode": "K1V6G5",
        "streetName": "ERIE",
        "streetDirectionId": null,
        "streetTypeId": "AVE",
        "placeName": "OTTAWA",
        "streetNameDisplayText": "ERIE AVE, OTTAWA"
      }
    ]
  },
  {
    "postal": "K1V6H9",
    "result": [
      {
        "electoralDistricts": [
          {
            "election": null,
            "id": 79,
            "name": "Ottawa South"
          }
        ],
        "pollDivisionIds": [
          10140656
        ],
        "postalCode": "K1V6H9",
        "streetName": "BROOKFIELD",
        "streetDirectionId": "E",
        "streetTypeId": "RD",
        "placeName": "OTTAWA",
        "streetNameDisplayText": "BROOKFIELD RD E, OTTAWA"
      }
    ]
  },
  {
    "postal": "K1V2P3",
    "result": []
  },
  {
    "postal": "K1V1T6",
    "result": [
      {
        "electoralDistricts": [
          {
            "election": null,
            "id": 17,
            "name": "Carleton"
          }
        ],
        "pollDivisionIds": [
          10137497
        ],
        "postalCode": "K1V1T6",
        "streetName": "GOOSE RIVER",
        "streetDirectionId": null,
        "streetTypeId": "AVE",
        "placeName": "GLOUCESTER",
        "streetNameDisplayText": "GOOSE RIVER AVE, GLOUCESTER"
      },
      {
        "electoralDistricts": [
          {
            "election": null,
            "id": 17,
            "name": "Carleton"
          }
        ],
        "pollDivisionIds": [
          10137497
        ],
        "postalCode": "K1V1T6",
        "streetName": "ROCKY HARBOUR",
        "streetDirectionId": null,
        "streetTypeId": "CRES",
        "placeName": "GLOUCESTER",
        "streetNameDisplayText": "ROCKY HARBOUR CRES, GLOUCESTER"
      },
      {
        "electoralDistricts": [
          {
            "election": null,
            "id": 17,
            "name": "Carleton"
          }
        ],
        "pollDivisionIds": [
          10137497
        ],
        "postalCode": "K1V1T6",
        "streetName": "SPRATT",
        "streetDirectionId": null,
        "streetTypeId": "RD",
        "placeName": "GLOUCESTER",
        "streetNameDisplayText": "SPRATT RD, GLOUCESTER"
      }
    ]
  },
  {
    "postal": "K1V4P6",
    "result": []
  },
  {
    "postal": "K1V3K1",
    "result": []
  },
  {
    "postal": "K1V6X4",
    "result": [
      {
        "electoralDistricts": [
          {
            "election": null,
            "id": 79,
            "name": "Ottawa South"
          }
        ],
        "pollDivisionIds": [
          10140669
        ],
        "postalCode": "K1V6X4",
        "streetName": "RAND",
        "streetDirectionId": null,
        "streetTypeId": "AVE",
        "placeName": "OTTAWA",
        "streetNameDisplayText": "RAND AVE, OTTAWA"
      }
    ]
  },
  {
    "postal": "K1V4M8",
    "result": []
  },
  {
    "postal": "K1V2Y1",
    "result": []
  },
  {
    "postal": "K1V6M1",
    "result": [
      {
        "electoralDistricts": [
          {
            "election": null,
            "id": 79,
            "name": "Ottawa South"
          }
        ],
        "pollDivisionIds": [
          10140664
        ],
        "postalCode": "K1V6M1",
        "streetName": "SPRINGLAND",
        "streetDirectionId": null,
        "streetTypeId": "DR",
        "placeName": "OTTAWA",
        "streetNameDisplayText": "SPRINGLAND DR, OTTAWA"
      }
    ]
  },
  {
    "postal": "K1V5L8",
    "result": []
  },
  {
    "postal": "K1V3P6",
    "result": []
  },
  {
    "postal": "K1V9A5",
    "result": [
      {
        "electoralDistricts": [
          {
            "election": null,
            "id": 79,
            "name": "Ottawa South"
          }
        ],
        "pollDivisionIds": [
          10140662
        ],
        "postalCode": "K1V9A5",
        "streetName": "FAIRLEA",
        "streetDirectionId": null,
        "streetTypeId": "CRES",
        "placeName": "OTTAWA",
        "streetNameDisplayText": "FAIRLEA CRES, OTTAWA"
      }
    ]
  },
  {
    "postal": "K1V7K1",
    "result": [
      {
        "electoralDistricts": [
          {
            "election": null,
            "id": 79,
            "name": "Ottawa South"
          }
        ],
        "pollDivisionIds": [
          10140678
        ],
        "postalCode": "K1V7K1",
        "streetName": "SOUTH KEYS",
        "streetDirectionId": null,
        "streetTypeId": "PL",
        "placeName": "OTTAWA",
        "streetNameDisplayText": "SOUTH KEYS PL, OTTAWA"
      }
    ]
  },
  {
    "postal": "K1V3J4",
    "result": []
  },
  {
    "postal": "K1V5E7",
    "result": []
  },
  {
    "postal": "K1V3A7",
    "result": []
  },
  {
    "postal": "K1V1B9",
    "result": [
      {
        "electoralDistricts": [
          {
            "election": null,
            "id": 79,
            "name": "Ottawa South"
          }
        ],
        "pollDivisionIds": [
          10140677
        ],
        "postalCode": "K1V1B9",
        "streetName": "HUNT CLUB",
        "streetDirectionId": null,
        "streetTypeId": "RD",
        "placeName": "OTTAWA",
        "streetNameDisplayText": "HUNT CLUB RD, OTTAWA"
      },
      {
        "electoralDistricts": [
          {
            "election": null,
            "id": 79,
            "name": "Ottawa South"
          }
        ],
        "pollDivisionIds": [
          10140677
        ],
        "postalCode": "K1V1B9",
        "streetName": "NORTH BOWESVILLE",
        "streetDirectionId": null,
        "streetTypeId": "RD",
        "placeName": "OTTAWA",
        "streetNameDisplayText": "NORTH BOWESVILLE RD, OTTAWA"
      }
    ]
  },
  {
    "postal": "K1V9E8",
    "result": [
      {
        "electoralDistricts": [
          {
            "election": null,
            "id": 79,
            "name": "Ottawa South"
          }
        ],
        "pollDivisionIds": [
          10140674
        ],
        "postalCode": "K1V9E8",
        "streetName": "PLANTE",
        "streetDirectionId": null,
        "streetTypeId": "DR",
        "placeName": "OTTAWA",
        "streetNameDisplayText": "PLANTE DR, OTTAWA"
      }
    ]
  },
  {
    "postal": "K1V1C9",
    "result": [
      {
        "electoralDistricts": [
          {
            "election": null,
            "id": 17,
            "name": "Carleton"
          }
        ],
        "pollDivisionIds": [
          10137494
        ],
        "postalCode": "K1V1C9",
        "streetName": "RIVER",
        "streetDirectionId": null,
        "streetTypeId": "RD",
        "placeName": "GLOUCESTER",
        "streetNameDisplayText": "RIVER RD, GLOUCESTER"
      }
    ]
  },
  {
    "postal": "K1V3B5",
    "result": []
  },
  {
    "postal": "K1V8R0",
    "result": []
  },
  {
    "postal": "K1V3P2",
    "result": []
  },
  {
    "postal": "K1V5V4",
    "result": []
  },
  {
    "postal": "K1V4H0",
    "result": []
  },
  {
    "postal": "K1V4S7",
    "result": []
  },
  {
    "postal": "K1V6C2",
    "result": []
  },
  {
    "postal": "K1V8W3",
    "result": [
      {
        "electoralDistricts": [
          {
            "election": null,
            "id": 79,
            "name": "Ottawa South"
          }
        ],
        "pollDivisionIds": [
          10140678
        ],
        "postalCode": "K1V8W3",
        "streetName": "ALBION",
        "streetDirectionId": "S",
        "streetTypeId": "RD",
        "placeName": "OTTAWA",
        "streetNameDisplayText": "ALBION RD S, OTTAWA"
      }
    ]
  },
  {
    "postal": "K1V4M5",
    "result": []
  },
  {
    "postal": "K1V5T1",
    "result": []
  },
  {
    "postal": "K1V3B3",
    "result": []
  },
  {
    "postal": "K1V6C6",
    "result": [
      {
        "electoralDistricts": [
          {
            "election": null,
            "id": 79,
            "name": "Ottawa South"
          }
        ],
        "pollDivisionIds": [
          10140657
        ],
        "postalCode": "K1V6C6",
        "streetName": "ANOKA",
        "streetDirectionId": null,
        "streetTypeId": "ST",
        "placeName": "OTTAWA",
        "streetNameDisplayText": "ANOKA ST, OTTAWA"
      }
    ]
  },
  {
    "postal": "K1V7N8",
    "result": [
      {
        "electoralDistricts": [
          {
            "election": null,
            "id": 79,
            "name": "Ottawa South"
          }
        ],
        "pollDivisionIds": [
          10140671
        ],
        "postalCode": "K1V7N8",
        "streetName": "DE NIVERVILLE",
        "streetDirectionId": null,
        "streetTypeId": "PVT",
        "placeName": "GLOUCESTER",
        "streetNameDisplayText": "DE NIVERVILLE PVT, GLOUCESTER"
      }
    ]
  },
  {
    "postal": "K1V2Y3",
    "result": []
  },
  {
    "postal": "K1V2R6",
    "result": []
  },
  {
    "postal": "K1V7N3",
    "result": [
      {
        "electoralDistricts": [
          {
            "election": null,
            "id": 79,
            "name": "Ottawa South"
          }
        ],
        "pollDivisionIds": [
          10140671
        ],
        "postalCode": "K1V7N3",
        "streetName": "MCGILL",
        "streetDirectionId": null,
        "streetTypeId": "PVT",
        "placeName": "GLOUCESTER",
        "streetNameDisplayText": "MCGILL PVT, GLOUCESTER"
      }
    ]
  },
  {
    "postal": "K1V8J2",
    "result": [
      {
        "electoralDistricts": [
          {
            "election": null,
            "id": 79,
            "name": "Ottawa South"
          }
        ],
        "pollDivisionIds": [
          10140669
        ],
        "postalCode": "K1V8J2",
        "streetName": "AVONCOURT",
        "streetDirectionId": null,
        "streetTypeId": "WAY",
        "placeName": "OTTAWA",
        "streetNameDisplayText": "AVONCOURT WAY, OTTAWA"
      }
    ]
  },
  {
    "postal": "K1V6A9",
    "result": [
      {
        "electoralDistricts": [
          {
            "election": null,
            "id": 79,
            "name": "Ottawa South"
          }
        ],
        "pollDivisionIds": [
          10140657
        ],
        "postalCode": "K1V6A9",
        "streetName": "HERON",
        "streetDirectionId": null,
        "streetTypeId": "RD",
        "placeName": "OTTAWA",
        "streetNameDisplayText": "HERON RD, OTTAWA"
      }
    ]
  },
  {
    "postal": "K1V3V2",
    "result": []
  },
  {
    "postal": "K1V2N3",
    "result": [
      {
        "electoralDistricts": [
          {
            "election": null,
            "id": 17,
            "name": "Carleton"
          }
        ],
        "pollDivisionIds": [
          10137497
        ],
        "postalCode": "K1V2N3",
        "streetName": "COOKS MILL",
        "streetDirectionId": null,
        "streetTypeId": "CRES",
        "placeName": "GLOUCESTER",
        "streetNameDisplayText": "COOKS MILL CRES, GLOUCESTER"
      },
      {
        "electoralDistricts": [
          {
            "election": null,
            "id": 17,
            "name": "Carleton"
          }
        ],
        "pollDivisionIds": [
          10137497
        ],
        "postalCode": "K1V2N3",
        "streetName": "WATCHHORN",
        "streetDirectionId": null,
        "streetTypeId": "GROVE",
        "placeName": "GLOUCESTER",
        "streetNameDisplayText": "WATCHHORN GROVE, GLOUCESTER"
      }
    ]
  },
  {
    "postal": "K1V1S5",
    "result": [
      {
        "electoralDistricts": [
          {
            "election": null,
            "id": 17,
            "name": "Carleton"
          }
        ],
        "pollDivisionIds": [
          10137494
        ],
        "postalCode": "K1V1S5",
        "streetName": "HOT SPRINGS",
        "streetDirectionId": null,
        "streetTypeId": "WAY",
        "placeName": "GLOUCESTER",
        "streetNameDisplayText": "HOT SPRINGS WAY, GLOUCESTER"
      }
    ]
  },
  {
    "postal": "K1V4T7",
    "result": []
  },
  {
    "postal": "K1V6Y7",
    "result": [
      {
        "electoralDistricts": [
          {
            "election": null,
            "id": 79,
            "name": "Ottawa South"
          }
        ],
        "pollDivisionIds": [
          10140669
        ],
        "postalCode": "K1V6Y7",
        "streetName": "STANSTEAD",
        "streetDirectionId": null,
        "streetTypeId": "RD",
        "placeName": "OTTAWA",
        "streetNameDisplayText": "STANSTEAD RD, OTTAWA"
      }
    ]
  },
  {
    "postal": "K1V0W7",
    "result": [
      {
        "electoralDistricts": [
          {
            "election": null,
            "id": 79,
            "name": "Ottawa South"
          }
        ],
        "pollDivisionIds": [
          10140677
        ],
        "postalCode": "K1V0W7",
        "streetName": "CHANCELLOR",
        "streetDirectionId": null,
        "streetTypeId": "CRT",
        "placeName": "OTTAWA",
        "streetNameDisplayText": "CHANCELLOR CRT, OTTAWA"
      },
      {
        "electoralDistricts": [
          {
            "election": null,
            "id": 79,
            "name": "Ottawa South"
          }
        ],
        "pollDivisionIds": [
          10140677
        ],
        "postalCode": "K1V0W7",
        "streetName": "KIMBERWICK",
        "streetDirectionId": null,
        "streetTypeId": "CRES",
        "placeName": "OTTAWA",
        "streetNameDisplayText": "KIMBERWICK CRES, OTTAWA"
      }
    ]
  },
  {
    "postal": "K1V2W9",
    "result": []
  },
  {
    "postal": "K1V8V0",
    "result": []
  },
  {
    "postal": "K1V0H4",
    "result": [
      {
        "electoralDistricts": [
          {
            "election": null,
            "id": 79,
            "name": "Ottawa South"
          }
        ],
        "pollDivisionIds": [
          10140664
        ],
        "postalCode": "K1V0H4",
        "streetName": "WATERVIEW",
        "streetDirectionId": null,
        "streetTypeId": "CRT",
        "placeName": "OTTAWA",
        "streetNameDisplayText": "WATERVIEW CRT, OTTAWA"
      }
    ]
  },
  {
    "postal": "K1V2T1",
    "result": []
  },
  {
    "postal": "K1V1B1",
    "result": [
      {
        "electoralDistricts": [
          {
            "election": null,
            "id": 79,
            "name": "Ottawa South"
          }
        ],
        "pollDivisionIds": [
          10140677
        ],
        "postalCode": "K1V1B1",
        "streetName": "RHAPSODY",
        "streetDirectionId": null,
        "streetTypeId": "LANE",
        "placeName": "OTTAWA",
        "streetNameDisplayText": "RHAPSODY LANE, OTTAWA"
      }
    ]
  },
  {
    "postal": "K1V8B6",
    "result": [
      {
        "electoralDistricts": [
          {
            "election": null,
            "id": 79,
            "name": "Ottawa South"
          }
        ],
        "pollDivisionIds": [
          10140656
        ],
        "postalCode": "K1V8B6",
        "streetName": "TRAVERSE",
        "streetDirectionId": null,
        "streetTypeId": "DR",
        "placeName": "OTTAWA",
        "streetNameDisplayText": "TRAVERSE DR, OTTAWA"
      }
    ]
  },
  {
    "postal": "K1V6H1",
    "result": [
      {
        "electoralDistricts": [
          {
            "election": null,
            "id": 79,
            "name": "Ottawa South"
          }
        ],
        "pollDivisionIds": [
          10140656
        ],
        "postalCode": "K1V6H1",
        "streetName": "GREGG",
        "streetDirectionId": null,
        "streetTypeId": "ST",
        "placeName": "OTTAWA",
        "streetNameDisplayText": "GREGG ST, OTTAWA"
      }
    ]
  },
  {
    "postal": "K1V8T8",
    "result": [
      {
        "electoralDistricts": [
          {
            "election": null,
            "id": 79,
            "name": "Ottawa South"
          }
        ],
        "pollDivisionIds": [
          10140662
        ],
        "postalCode": "K1V8T8",
        "streetName": "HEATHERINGTON",
        "streetDirectionId": null,
        "streetTypeId": "RD",
        "placeName": "OTTAWA",
        "streetNameDisplayText": "HEATHERINGTON RD, OTTAWA"
      }
    ]
  },
  {
    "postal": "K1V0T4",
    "result": [
      {
        "electoralDistricts": [
          {
            "election": null,
            "id": 79,
            "name": "Ottawa South"
          }
        ],
        "pollDivisionIds": [
          10140662
        ],
        "postalCode": "K1V0T4",
        "streetName": "BANNERHILL",
        "streetDirectionId": null,
        "streetTypeId": "PVT",
        "placeName": "OTTAWA",
        "streetNameDisplayText": "BANNERHILL PVT, OTTAWA"
      }
    ]
  },
  {
    "postal": "K1V2C4",
    "result": [
      {
        "electoralDistricts": [
          {
            "election": null,
            "id": 79,
            "name": "Ottawa South"
          }
        ],
        "pollDivisionIds": [
          10140658
        ],
        "postalCode": "K1V2C4",
        "streetName": "COLBERT",
        "streetDirectionId": null,
        "streetTypeId": "CRES",
        "placeName": "OTTAWA",
        "streetNameDisplayText": "COLBERT CRES, OTTAWA"
      }
    ]
  },
  {
    "postal": "K1V8N3",
    "result": [
      {
        "electoralDistricts": [
          {
            "election": null,
            "id": 79,
            "name": "Ottawa South"
          }
        ],
        "pollDivisionIds": [
          10140664
        ],
        "postalCode": "K1V8N3",
        "streetName": "DUPONT",
        "streetDirectionId": null,
        "streetTypeId": "ST",
        "placeName": "OTTAWA",
        "streetNameDisplayText": "DUPONT ST, OTTAWA"
      }
    ]
  },
  {
    "postal": "K1V4L8",
    "result": []
  },
  {
    "postal": "K1V2B5",
    "result": [
      {
        "electoralDistricts": [
          {
            "election": null,
            "id": 79,
            "name": "Ottawa South"
          }
        ],
        "pollDivisionIds": [
          10140656
        ],
        "postalCode": "K1V2B5",
        "streetName": "WESTVALLEY",
        "streetDirectionId": null,
        "streetTypeId": "PVT",
        "placeName": "OTTAWA",
        "streetNameDisplayText": "WESTVALLEY PVT, OTTAWA"
      }
    ]
  },
  {
    "postal": "K1V3H1",
    "result": []
  },
  {
    "postal": "K1V4Y1",
    "result": []
  },
  {
    "postal": "K1V7E2",
    "result": [
      {
        "electoralDistricts": [
          {
            "election": null,
            "id": 79,
            "name": "Ottawa South"
          }
        ],
        "pollDivisionIds": [
          10140672
        ],
        "postalCode": "K1V7E2",
        "streetName": "LEOPOLDS",
        "streetDirectionId": null,
        "streetTypeId": "DR",
        "placeName": "OTTAWA",
        "streetNameDisplayText": "LEOPOLDS DR, OTTAWA"
      }
    ]
  },
  {
    "postal": "K1V2P5",
    "result": []
  },
  {
    "postal": "K1V8R7",
    "result": []
  },
  {
    "postal": "K1V9P1",
    "result": []
  },
  {
    "postal": "K1V3B8",
    "result": []
  },
  {
    "postal": "K1V3P7",
    "result": []
  },
  {
    "postal": "K1V9B2",
    "result": []
  },
  {
    "postal": "K1V6Z3",
    "result": [
      {
        "electoralDistricts": [
          {
            "election": null,
            "id": 79,
            "name": "Ottawa South"
          }
        ],
        "pollDivisionIds": [
          10140669
        ],
        "postalCode": "K1V6Z3",
        "streetName": "SOUTHMORE",
        "streetDirectionId": "E",
        "streetTypeId": "DR",
        "placeName": "OTTAWA",
        "streetNameDisplayText": "SOUTHMORE DR E, OTTAWA"
      }
    ]
  },
  {
    "postal": "K1V4N5",
    "result": []
  },
  {
    "postal": "K1V8T3",
    "result": [
      {
        "electoralDistricts": [
          {
            "election": null,
            "id": 79,
            "name": "Ottawa South"
          }
        ],
        "pollDivisionIds": [
          10140679
        ],
        "postalCode": "K1V8T3",
        "streetName": "DOWNPATRICK",
        "streetDirectionId": null,
        "streetTypeId": "RD",
        "placeName": "GLOUCESTER",
        "streetNameDisplayText": "DOWNPATRICK RD, GLOUCESTER"
      }
    ]
  },
  {
    "postal": "K1V1V2",
    "result": [
      {
        "electoralDistricts": [
          {
            "election": null,
            "id": 17,
            "name": "Carleton"
          }
        ],
        "pollDivisionIds": [
          10137497
        ],
        "postalCode": "K1V1V2",
        "streetName": "HOLLOW TRAIL",
        "streetDirectionId": null,
        "streetTypeId": "GATE",
        "placeName": "GLOUCESTER",
        "streetNameDisplayText": "HOLLOW TRAIL GATE, GLOUCESTER"
      },
      {
        "electoralDistricts": [
          {
            "election": null,
            "id": 17,
            "name": "Carleton"
          }
        ],
        "pollDivisionIds": [
          10137497
        ],
        "postalCode": "K1V1V2",
        "streetName": "ROCKY HARBOUR",
        "streetDirectionId": null,
        "streetTypeId": "CRES",
        "placeName": "GLOUCESTER",
        "streetNameDisplayText": "ROCKY HARBOUR CRES, GLOUCESTER"
      }
    ]
  },
  {
    "postal": "K1V1Y0",
    "result": []
  },
  {
    "postal": "K1V3G6",
    "result": []
  },
  {
    "postal": "K1V3H7",
    "result": []
  },
  {
    "postal": "K1V7X8",
    "result": [
      {
        "electoralDistricts": [
          {
            "election": null,
            "id": 79,
            "name": "Ottawa South"
          }
        ],
        "pollDivisionIds": [
          10140665
        ],
        "postalCode": "K1V7X8",
        "streetName": "BANFF",
        "streetDirectionId": null,
        "streetTypeId": "AVE",
        "placeName": "OTTAWA",
        "streetNameDisplayText": "BANFF AVE, OTTAWA"
      }
    ]
  },
  {
    "postal": "K1V0C7",
    "result": [
      {
        "electoralDistricts": [
          {
            "election": null,
            "id": 79,
            "name": "Ottawa South"
          }
        ],
        "pollDivisionIds": [
          10140673
        ],
        "postalCode": "K1V0C7",
        "streetName": "UPLANDS",
        "streetDirectionId": null,
        "streetTypeId": "DR",
        "placeName": "OTTAWA",
        "streetNameDisplayText": "UPLANDS DR, OTTAWA"
      }
    ]
  },
  {
    "postal": "K1V0W9",
    "result": []
  },
  {
    "postal": "K1V8E6",
    "result": [
      {
        "electoralDistricts": [
          {
            "election": null,
            "id": 79,
            "name": "Ottawa South"
          }
        ],
        "pollDivisionIds": [
          10140656
        ],
        "postalCode": "K1V8E6",
        "streetName": "HUNTLEY",
        "streetDirectionId": null,
        "streetTypeId": "AVE",
        "placeName": "OTTAWA",
        "streetNameDisplayText": "HUNTLEY AVE, OTTAWA"
      }
    ]
  },
  {
    "postal": "K1V9Z8",
    "result": [
      {
        "electoralDistricts": [
          {
            "election": null,
            "id": 79,
            "name": "Ottawa South"
          }
        ],
        "pollDivisionIds": [
          10140674
        ],
        "postalCode": "K1V9Z8",
        "streetName": "PLANTE",
        "streetDirectionId": null,
        "streetTypeId": "DR",
        "placeName": "OTTAWA",
        "streetNameDisplayText": "PLANTE DR, OTTAWA"
      }
    ]
  },
  {
    "postal": "K1V3P4",
    "result": []
  },
  {
    "postal": "K1V6L8",
    "result": [
      {
        "electoralDistricts": [
          {
            "election": null,
            "id": 79,
            "name": "Ottawa South"
          }
        ],
        "pollDivisionIds": [
          10140664
        ],
        "postalCode": "K1V6L8",
        "streetName": "SPRINGLAND",
        "streetDirectionId": null,
        "streetTypeId": "DR",
        "placeName": "OTTAWA",
        "streetNameDisplayText": "SPRINGLAND DR, OTTAWA"
      }
    ]
  },
  {
    "postal": "K1V2R4",
    "result": [
      {
        "electoralDistricts": [
          {
            "election": null,
            "id": 79,
            "name": "Ottawa South"
          }
        ],
        "pollDivisionIds": [
          10140679
        ],
        "postalCode": "K1V2R4",
        "streetName": "GIBFORD",
        "streetDirectionId": null,
        "streetTypeId": "DR",
        "placeName": "GLOUCESTER",
        "streetNameDisplayText": "GIBFORD DR, GLOUCESTER"
      }
    ]
  },
  {
    "postal": "K1V2W1",
    "result": []
  },
  {
    "postal": "K1V9H8",
    "result": [
      {
        "electoralDistricts": [
          {
            "election": null,
            "id": 79,
            "name": "Ottawa South"
          }
        ],
        "pollDivisionIds": [
          10140674
        ],
        "postalCode": "K1V9H8",
        "streetName": "CAHILL",
        "streetDirectionId": "W",
        "streetTypeId": "DR",
        "placeName": "OTTAWA",
        "streetNameDisplayText": "CAHILL DR W, OTTAWA"
      }
    ]
  },
  {
    "postal": "K1V8X9",
    "result": [
      {
        "electoralDistricts": [
          {
            "election": null,
            "id": 79,
            "name": "Ottawa South"
          }
        ],
        "pollDivisionIds": [
          10140679
        ],
        "postalCode": "K1V8X9",
        "streetName": "WYMAN",
        "streetDirectionId": null,
        "streetTypeId": "PL",
        "placeName": "GLOUCESTER",
        "streetNameDisplayText": "WYMAN PL, GLOUCESTER"
      }
    ]
  },
  {
    "postal": "K1V7H4",
    "result": [
      {
        "electoralDistricts": [
          {
            "election": null,
            "id": 79,
            "name": "Ottawa South"
          }
        ],
        "pollDivisionIds": [
          10140672
        ],
        "postalCode": "K1V7H4",
        "streetName": "FARMINGTON",
        "streetDirectionId": null,
        "streetTypeId": "AVE",
        "placeName": "OTTAWA",
        "streetNameDisplayText": "FARMINGTON AVE, OTTAWA"
      }
    ]
  },
  {
    "postal": "K1V3J1",
    "result": []
  },
  {
    "postal": "K1V1P4",
    "result": [
      {
        "electoralDistricts": [
          {
            "election": null,
            "id": 17,
            "name": "Carleton"
          }
        ],
        "pollDivisionIds": [
          10137494
        ],
        "postalCode": "K1V1P4",
        "streetName": "WOLFE POINT",
        "streetDirectionId": null,
        "streetTypeId": "WAY",
        "placeName": "GLOUCESTER",
        "streetNameDisplayText": "WOLFE POINT WAY, GLOUCESTER"
      }
    ]
  },
  {
    "postal": "K1V2A3",
    "result": [
      {
        "electoralDistricts": [
          {
            "election": null,
            "id": 79,
            "name": "Ottawa South"
          }
        ],
        "pollDivisionIds": [
          10140662
        ],
        "postalCode": "K1V2A3",
        "streetName": "ALBION",
        "streetDirectionId": "N",
        "streetTypeId": "RD",
        "placeName": "OTTAWA",
        "streetNameDisplayText": "ALBION RD N, OTTAWA"
      },
      {
        "electoralDistricts": [
          {
            "election": null,
            "id": 79,
            "name": "Ottawa South"
          }
        ],
        "pollDivisionIds": [
          10140665
        ],
        "postalCode": "K1V2A3",
        "streetName": "GOLDENSTAR",
        "streetDirectionId": null,
        "streetTypeId": "PVT",
        "placeName": "OTTAWA",
        "streetNameDisplayText": "GOLDENSTAR PVT, OTTAWA"
      },
      {
        "electoralDistricts": [
          {
            "election": null,
            "id": 79,
            "name": "Ottawa South"
          }
        ],
        "pollDivisionIds": [
          10140665
        ],
        "postalCode": "K1V2A3",
        "streetName": "KITCHENER",
        "streetDirectionId": null,
        "streetTypeId": "AVE",
        "placeName": "OTTAWA",
        "streetNameDisplayText": "KITCHENER AVE, OTTAWA"
      }
    ]
  },
  {
    "postal": "K1V0Z1",
    "result": [
      {
        "electoralDistricts": [
          {
            "election": null,
            "id": 79,
            "name": "Ottawa South"
          }
        ],
        "pollDivisionIds": [
          10140679
        ],
        "postalCode": "K1V0Z1",
        "streetName": "WYMAN",
        "streetDirectionId": null,
        "streetTypeId": "CRES",
        "placeName": "GLOUCESTER",
        "streetNameDisplayText": "WYMAN CRES, GLOUCESTER"
      }
    ]
  },
  {
    "postal": "K1V1C1",
    "result": [
      {
        "electoralDistricts": [
          {
            "election": null,
            "id": 79,
            "name": "Ottawa South"
          }
        ],
        "pollDivisionIds": [
          10140679
        ],
        "postalCode": "K1V1C1",
        "streetName": "HUNT CLUB",
        "streetDirectionId": null,
        "streetTypeId": "RD",
        "placeName": "OTTAWA",
        "streetNameDisplayText": "HUNT CLUB RD, OTTAWA"
      },
      {
        "electoralDistricts": [
          {
            "election": null,
            "id": 66,
            "name": "Nepean"
          }
        ],
        "pollDivisionIds": [
          10126663
        ],
        "postalCode": "K1V1C1",
        "streetName": "WEST HUNT CLUB",
        "streetDirectionId": null,
        "streetTypeId": "RD",
        "placeName": "NEPEAN",
        "streetNameDisplayText": "WEST HUNT CLUB RD, NEPEAN"
      },
      {
        "electoralDistricts": [
          {
            "election": null,
            "id": 66,
            "name": "Nepean"
          }
        ],
        "pollDivisionIds": [
          10126663
        ],
        "postalCode": "K1V1C1",
        "streetName": "WEST HUNT CLUB",
        "streetDirectionId": null,
        "streetTypeId": "RD",
        "placeName": "OTTAWA",
        "streetNameDisplayText": "WEST HUNT CLUB RD, OTTAWA"
      }
    ]
  },
  {
    "postal": "K1V0H3",
    "result": [
      {
        "electoralDistricts": [
          {
            "election": null,
            "id": 79,
            "name": "Ottawa South"
          }
        ],
        "pollDivisionIds": [
          10140659
        ],
        "postalCode": "K1V0H3",
        "streetName": "WALKLEY",
        "streetDirectionId": null,
        "streetTypeId": "RD",
        "placeName": "OTTAWA",
        "streetNameDisplayText": "WALKLEY RD, OTTAWA"
      }
    ]
  },
  {
    "postal": "K1V7B0",
    "result": []
  },
  {
    "postal": "K1V5K2",
    "result": []
  },
  {
    "postal": "K1V1E9",
    "result": [
      {
        "electoralDistricts": [
          {
            "election": null,
            "id": 17,
            "name": "Carleton"
          }
        ],
        "pollDivisionIds": [
          10137494
        ],
        "postalCode": "K1V1E9",
        "streetName": "RIVER",
        "streetDirectionId": null,
        "streetTypeId": "RD",
        "placeName": "GLOUCESTER",
        "streetNameDisplayText": "RIVER RD, GLOUCESTER"
      }
    ]
  },
  {
    "postal": "K1V9W7",
    "result": [
      {
        "electoralDistricts": [
          {
            "election": null,
            "id": 79,
            "name": "Ottawa South"
          }
        ],
        "pollDivisionIds": [
          10140664
        ],
        "postalCode": "K1V9W7",
        "streetName": "LYNHURST",
        "streetDirectionId": null,
        "streetTypeId": "AVE",
        "placeName": "OTTAWA",
        "streetNameDisplayText": "LYNHURST AVE, OTTAWA"
      }
    ]
  },
  {
    "postal": "K1V5W6",
    "result": []
  },
  {
    "postal": "K1V6S6",
    "result": [
      {
        "electoralDistricts": [
          {
            "election": null,
            "id": 79,
            "name": "Ottawa South"
          }
        ],
        "pollDivisionIds": [
          10140665
        ],
        "postalCode": "K1V6S6",
        "streetName": "BROOKLINE",
        "streetDirectionId": null,
        "streetTypeId": "AVE",
        "placeName": "OTTAWA",
        "streetNameDisplayText": "BROOKLINE AVE, OTTAWA"
      }
    ]
  },
  {
    "postal": "K1V2P8",
    "result": []
  },
  {
    "postal": "K1V4P8",
    "result": []
  },
  {
    "postal": "K1V0V9",
    "result": [
      {
        "electoralDistricts": [
          {
            "election": null,
            "id": 79,
            "name": "Ottawa South"
          }
        ],
        "pollDivisionIds": [
          10140673
        ],
        "postalCode": "K1V0V9",
        "streetName": "TWYFORD",
        "streetDirectionId": null,
        "streetTypeId": "ST",
        "placeName": "OTTAWA",
        "streetNameDisplayText": "TWYFORD ST, OTTAWA"
      }
    ]
  },
  {
    "postal": "K1V5Y2",
    "result": []
  },
  {
    "postal": "K1V7Z7",
    "result": [
      {
        "electoralDistricts": [
          {
            "election": null,
            "id": 79,
            "name": "Ottawa South"
          }
        ],
        "pollDivisionIds": [
          10140665
        ],
        "postalCode": "K1V7Z7",
        "streetName": "BANK",
        "streetDirectionId": null,
        "streetTypeId": "ST",
        "placeName": "OTTAWA",
        "streetNameDisplayText": "BANK ST, OTTAWA"
      }
    ]
  },
  {
    "postal": "K1V6Y8",
    "result": [
      {
        "electoralDistricts": [
          {
            "election": null,
            "id": 79,
            "name": "Ottawa South"
          }
        ],
        "pollDivisionIds": [
          10140669
        ],
        "postalCode": "K1V6Y8",
        "streetName": "SOUTHMORE",
        "streetDirectionId": "E",
        "streetTypeId": "DR",
        "placeName": "OTTAWA",
        "streetNameDisplayText": "SOUTHMORE DR E, OTTAWA"
      }
    ]
  },
  {
    "postal": "K1V2G7",
    "result": [
      {
        "electoralDistricts": [
          {
            "election": null,
            "id": 79,
            "name": "Ottawa South"
          }
        ],
        "pollDivisionIds": [
          10140662
        ],
        "postalCode": "K1V2G7",
        "streetName": "WALKELY",
        "streetDirectionId": null,
        "streetTypeId": "RD",
        "placeName": "OTTAWA",
        "streetNameDisplayText": "WALKELY RD, OTTAWA"
      },
      {
        "electoralDistricts": [
          {
            "election": null,
            "id": 79,
            "name": "Ottawa South"
          }
        ],
        "pollDivisionIds": [
          10140662
        ],
        "postalCode": "K1V2G7",
        "streetName": "WALKLEY",
        "streetDirectionId": null,
        "streetTypeId": "RD",
        "placeName": "OTTAWA",
        "streetNameDisplayText": "WALKLEY RD, OTTAWA"
      }
    ]
  },
  {
    "postal": "K1V8C1",
    "result": [
      {
        "electoralDistricts": [
          {
            "election": null,
            "id": 79,
            "name": "Ottawa South"
          }
        ],
        "pollDivisionIds": [
          10140656
        ],
        "postalCode": "K1V8C1",
        "streetName": "KALADAR",
        "streetDirectionId": null,
        "streetTypeId": "AVE",
        "placeName": "OTTAWA",
        "streetNameDisplayText": "KALADAR AVE, OTTAWA"
      }
    ]
  },
  {
    "postal": "K1V5C5",
    "result": []
  },
  {
    "postal": "K1V2X8",
    "result": []
  },
  {
    "postal": "K1V1W5",
    "result": [
      {
        "electoralDistricts": [
          {
            "election": null,
            "id": 17,
            "name": "Carleton"
          }
        ],
        "pollDivisionIds": [
          10137497
        ],
        "postalCode": "K1V1W5",
        "streetName": "TWIN FALLS",
        "streetDirectionId": null,
        "streetTypeId": "PL",
        "placeName": "GLOUCESTER",
        "streetNameDisplayText": "TWIN FALLS PL, GLOUCESTER"
      }
    ]
  },
  {
    "postal": "K1V7G0",
    "result": []
  },
  {
    "postal": "K1V8J8",
    "result": [
      {
        "electoralDistricts": [
          {
            "election": null,
            "id": 79,
            "name": "Ottawa South"
          }
        ],
        "pollDivisionIds": [
          10140669
        ],
        "postalCode": "K1V8J8",
        "streetName": "COLMAN",
        "streetDirectionId": null,
        "streetTypeId": "ST",
        "placeName": "OTTAWA",
        "streetNameDisplayText": "COLMAN ST, OTTAWA"
      }
    ]
  },
  {
    "postal": "K1V3Y0",
    "result": []
  },
  {
    "postal": "K1V9T7",
    "result": [
      {
        "electoralDistricts": [
          {
            "election": null,
            "id": 79,
            "name": "Ottawa South"
          }
        ],
        "pollDivisionIds": [
          10140673
        ],
        "postalCode": "K1V9T7",
        "streetName": "PAUL ANKA",
        "streetDirectionId": null,
        "streetTypeId": "DR",
        "placeName": "OTTAWA",
        "streetNameDisplayText": "PAUL ANKA DR, OTTAWA"
      }
    ]
  },
  {
    "postal": "K1V5P4",
    "result": []
  },
  {
    "postal": "K1V4B0",
    "result": []
  },
  {
    "postal": "K1V9N8",
    "result": [
      {
        "electoralDistricts": [
          {
            "election": null,
            "id": 79,
            "name": "Ottawa South"
          }
        ],
        "pollDivisionIds": [
          10140673
        ],
        "postalCode": "K1V9N8",
        "streetName": "CAHILL",
        "streetDirectionId": "W",
        "streetTypeId": "DR",
        "placeName": "OTTAWA",
        "streetNameDisplayText": "CAHILL DR W, OTTAWA"
      }
    ]
  },
  {
    "postal": "K1V4A7",
    "result": []
  },
  {
    "postal": "K1V4H9",
    "result": []
  },
  {
    "postal": "K1V6X1",
    "result": [
      {
        "electoralDistricts": [
          {
            "election": null,
            "id": 79,
            "name": "Ottawa South"
          }
        ],
        "pollDivisionIds": [
          10140669
        ],
        "postalCode": "K1V6X1",
        "streetName": "GARWOOD",
        "streetDirectionId": null,
        "streetTypeId": "AVE",
        "placeName": "OTTAWA",
        "streetNameDisplayText": "GARWOOD AVE, OTTAWA"
      }
    ]
  },
  {
    "postal": "K1V9Y7",
    "result": [
      {
        "electoralDistricts": [
          {
            "election": null,
            "id": 79,
            "name": "Ottawa South"
          }
        ],
        "pollDivisionIds": [
          10140677
        ],
        "postalCode": "K1V9Y7",
        "streetName": "COUNTRY CLUB",
        "streetDirectionId": null,
        "streetTypeId": "DR",
        "placeName": "OTTAWA",
        "streetNameDisplayText": "COUNTRY CLUB DR, OTTAWA"
      }
    ]
  },
  {
    "postal": "K1V2Y5",
    "result": []
  },
  {
    "postal": "K1V8L7",
    "result": [
      {
        "electoralDistricts": [
          {
            "election": null,
            "id": 79,
            "name": "Ottawa South"
          }
        ],
        "pollDivisionIds": [
          10140664
        ],
        "postalCode": "K1V8L7",
        "streetName": "MARBLE",
        "streetDirectionId": null,
        "streetTypeId": "CRES",
        "placeName": "OTTAWA",
        "streetNameDisplayText": "MARBLE CRES, OTTAWA"
      }
    ]
  },
  {
    "postal": "K1V2A8",
    "result": [
      {
        "electoralDistricts": [
          {
            "election": null,
            "id": 79,
            "name": "Ottawa South"
          }
        ],
        "pollDivisionIds": [
          10140674
        ],
        "postalCode": "K1V2A8",
        "streetName": "BARTLETT",
        "streetDirectionId": null,
        "streetTypeId": "PVT",
        "placeName": "OTTAWA",
        "streetNameDisplayText": "BARTLETT PVT, OTTAWA"
      }
    ]
  },
  {
    "postal": "K1V2K9",
    "result": [
      {
        "electoralDistricts": [
          {
            "election": null,
            "id": 79,
            "name": "Ottawa South"
          }
        ],
        "pollDivisionIds": [
          10140662
        ],
        "postalCode": "K1V2K9",
        "streetName": "REARDON",
        "streetDirectionId": null,
        "streetTypeId": "PVT",
        "placeName": "OTTAWA",
        "streetNameDisplayText": "REARDON PVT, OTTAWA"
      }
    ]
  },
  {
    "postal": "K1V3E5",
    "result": []
  },
  {
    "postal": "K1V8N6",
    "result": [
      {
        "electoralDistricts": [
          {
            "election": null,
            "id": 79,
            "name": "Ottawa South"
          }
        ],
        "pollDivisionIds": [
          10140664
        ],
        "postalCode": "K1V8N6",
        "streetName": "RIVERSIDE",
        "streetDirectionId": null,
        "streetTypeId": "DR",
        "placeName": "OTTAWA",
        "streetNameDisplayText": "RIVERSIDE DR, OTTAWA"
      }
    ]
  },
  {
    "postal": "K1V8J4",
    "result": [
      {
        "electoralDistricts": [
          {
            "election": null,
            "id": 79,
            "name": "Ottawa South"
          }
        ],
        "pollDivisionIds": [
          10140669
        ],
        "postalCode": "K1V8J4",
        "streetName": "WISEMAN",
        "streetDirectionId": null,
        "streetTypeId": "CRES",
        "placeName": "OTTAWA",
        "streetNameDisplayText": "WISEMAN CRES, OTTAWA"
      }
    ]
  },
  {
    "postal": "K1V4R7",
    "result": []
  },
  {
    "postal": "K1V9K1",
    "result": [
      {
        "electoralDistricts": [
          {
            "election": null,
            "id": 79,
            "name": "Ottawa South"
          }
        ],
        "pollDivisionIds": [
          10140674
        ],
        "postalCode": "K1V9K1",
        "streetName": "BOURBON",
        "streetDirectionId": null,
        "streetTypeId": "ST",
        "placeName": "OTTAWA",
        "streetNameDisplayText": "BOURBON ST, OTTAWA"
      }
    ]
  },
  {
    "postal": "K1V8E1",
    "result": [
      {
        "electoralDistricts": [
          {
            "election": null,
            "id": 79,
            "name": "Ottawa South"
          }
        ],
        "pollDivisionIds": [
          10140656
        ],
        "postalCode": "K1V8E1",
        "streetName": "CLEMENTINE",
        "streetDirectionId": null,
        "streetTypeId": "BLVD",
        "placeName": "OTTAWA",
        "streetNameDisplayText": "CLEMENTINE BLVD, OTTAWA"
      }
    ]
  },
  {
    "postal": "K1V0R1",
    "result": []
  },
  {
    "postal": "K1V4J3",
    "result": []
  },
  {
    "postal": "K1V7E7",
    "result": [
      {
        "electoralDistricts": [
          {
            "election": null,
            "id": 79,
            "name": "Ottawa South"
          }
        ],
        "pollDivisionIds": [
          10140672
        ],
        "postalCode": "K1V7E7",
        "streetName": "QUESNEL",
        "streetDirectionId": null,
        "streetTypeId": "DR",
        "placeName": "OTTAWA",
        "streetNameDisplayText": "QUESNEL DR, OTTAWA"
      }
    ]
  },
  {
    "postal": "K1V0J0",
    "result": []
  },
  {
    "postal": "K1V7R8",
    "result": [
      {
        "electoralDistricts": [
          {
            "election": null,
            "id": 79,
            "name": "Ottawa South"
          }
        ],
        "pollDivisionIds": [
          10140678
        ],
        "postalCode": "K1V7R8",
        "streetName": "PEBBLE",
        "streetDirectionId": null,
        "streetTypeId": "RD",
        "placeName": "OTTAWA",
        "streetNameDisplayText": "PEBBLE RD, OTTAWA"
      }
    ]
  },
  {
    "postal": "K1V9X0",
    "result": []
  },
  {
    "postal": "K1V7P6",
    "result": [
      {
        "electoralDistricts": [
          {
            "election": null,
            "id": 79,
            "name": "Ottawa South"
          }
        ],
        "pollDivisionIds": [
          10140659
        ],
        "postalCode": "K1V7P6",
        "streetName": "BAYCREST",
        "streetDirectionId": null,
        "streetTypeId": "DR",
        "placeName": "OTTAWA",
        "streetNameDisplayText": "BAYCREST DR, OTTAWA"
      }
    ]
  },
  {
    "postal": "K1V0R7",
    "result": [
      {
        "electoralDistricts": [
          {
            "election": null,
            "id": 79,
            "name": "Ottawa South"
          }
        ],
        "pollDivisionIds": [
          10140662
        ],
        "postalCode": "K1V0R7",
        "streetName": "GORE",
        "streetDirectionId": null,
        "streetTypeId": "PVT",
        "placeName": "OTTAWA",
        "streetNameDisplayText": "GORE PVT, OTTAWA"
      }
    ]
  },
  {
    "postal": "K1V5W1",
    "result": []
  },
  {
    "postal": "K1V0K4",
    "result": []
  },
  {
    "postal": "K1V7N9",
    "result": [
      {
        "electoralDistricts": [
          {
            "election": null,
            "id": 79,
            "name": "Ottawa South"
          }
        ],
        "pollDivisionIds": [
          10140671
        ],
        "postalCode": "K1V7N9",
        "streetName": "DE NIVERVILLE",
        "streetDirectionId": null,
        "streetTypeId": "PVT",
        "placeName": "GLOUCESTER",
        "streetNameDisplayText": "DE NIVERVILLE PVT, GLOUCESTER"
      }
    ]
  },
  {
    "postal": "K1V1N0",
    "result": []
  },
  {
    "postal": "K1V6P3",
    "result": [
      {
        "electoralDistricts": [
          {
            "election": null,
            "id": 79,
            "name": "Ottawa South"
          }
        ],
        "pollDivisionIds": [
          10140669
        ],
        "postalCode": "K1V6P3",
        "streetName": "HARKNESS",
        "streetDirectionId": null,
        "streetTypeId": "AVE",
        "placeName": "OTTAWA",
        "streetNameDisplayText": "HARKNESS AVE, OTTAWA"
      }
    ]
  },
  {
    "postal": "K1V5A1",
    "result": []
  },
  {
    "postal": "K1V9M9",
    "result": [
      {
        "electoralDistricts": [
          {
            "election": null,
            "id": 79,
            "name": "Ottawa South"
          }
        ],
        "pollDivisionIds": [
          10140673
        ],
        "postalCode": "K1V9M9",
        "streetName": "MCCARTHY",
        "streetDirectionId": null,
        "streetTypeId": "RD",
        "placeName": "OTTAWA",
        "streetNameDisplayText": "MCCARTHY RD, OTTAWA"
      }
    ]
  },
  {
    "postal": "K1V7T6",
    "result": [
      {
        "electoralDistricts": [
          {
            "election": null,
            "id": 79,
            "name": "Ottawa South"
          }
        ],
        "pollDivisionIds": [
          10140657
        ],
        "postalCode": "K1V7T6",
        "streetName": "GRASMERE",
        "streetDirectionId": null,
        "streetTypeId": "CRES",
        "placeName": "OTTAWA",
        "streetNameDisplayText": "GRASMERE CRES, OTTAWA"
      }
    ]
  },
  {
    "postal": "K1V3X0",
    "result": []
  },
  {
    "postal": "K1V2T0",
    "result": []
  },
  {
    "postal": "K1V5X9",
    "result": []
  },
  {
    "postal": "K1V2R3",
    "result": []
  },
  {
    "postal": "K1V5N2",
    "result": []
  },
  {
    "postal": "K1V4Y7",
    "result": []
  },
  {
    "postal": "K1V7M0",
    "result": []
  },
  {
    "postal": "K1V8P3",
    "result": [
      {
        "electoralDistricts": [
          {
            "election": null,
            "id": 79,
            "name": "Ottawa South"
          }
        ],
        "pollDivisionIds": [
          10140672
        ],
        "postalCode": "K1V8P3",
        "streetName": "RIVERSIDE",
        "streetDirectionId": null,
        "streetTypeId": "DR",
        "placeName": "OTTAWA",
        "streetNameDisplayText": "RIVERSIDE DR, OTTAWA"
      }
    ]
  },
  {
    "postal": "K1V3N3",
    "result": []
  },
  {
    "postal": "K1V7S3",
    "result": [
      {
        "electoralDistricts": [
          {
            "election": null,
            "id": 79,
            "name": "Ottawa South"
          }
        ],
        "pollDivisionIds": [
          10140678
        ],
        "postalCode": "K1V7S3",
        "streetName": "CLEARWATER",
        "streetDirectionId": null,
        "streetTypeId": "CRES",
        "placeName": "OTTAWA",
        "streetNameDisplayText": "CLEARWATER CRES, OTTAWA"
      }
    ]
  },
  {
    "postal": "K1V3V9",
    "result": []
  },
  {
    "postal": "K1V9N7",
    "result": [
      {
        "electoralDistricts": [
          {
            "election": null,
            "id": 79,
            "name": "Ottawa South"
          }
        ],
        "pollDivisionIds": [
          10140673
        ],
        "postalCode": "K1V9N7",
        "streetName": "CAHILL",
        "streetDirectionId": "W",
        "streetTypeId": "DR",
        "placeName": "OTTAWA",
        "streetNameDisplayText": "CAHILL DR W, OTTAWA"
      }
    ]
  },
  {
    "postal": "K1V0G4",
    "result": [
      {
        "electoralDistricts": [
          {
            "election": null,
            "id": 79,
            "name": "Ottawa South"
          }
        ],
        "pollDivisionIds": [
          10140674
        ],
        "postalCode": "K1V0G4",
        "streetName": "PATTERMEAD",
        "streetDirectionId": null,
        "streetTypeId": "CRES",
        "placeName": "OTTAWA",
        "streetNameDisplayText": "PATTERMEAD CRES, OTTAWA"
      }
    ]
  },
  {
    "postal": "K1V2E2",
    "result": [
      {
        "electoralDistricts": [
          {
            "election": null,
            "id": 79,
            "name": "Ottawa South"
          }
        ],
        "pollDivisionIds": [
          10140656
        ],
        "postalCode": "K1V2E2",
        "streetName": "SAWMILL",
        "streetDirectionId": null,
        "streetTypeId": "PVT",
        "placeName": "OTTAWA",
        "streetNameDisplayText": "SAWMILL PVT, OTTAWA"
      }
    ]
  },
  {
    "postal": "K1V7W8",
    "result": [
      {
        "electoralDistricts": [
          {
            "election": null,
            "id": 79,
            "name": "Ottawa South"
          }
        ],
        "pollDivisionIds": [
          10140658
        ],
        "postalCode": "K1V7W8",
        "streetName": "AYERS",
        "streetDirectionId": null,
        "streetTypeId": "AVE",
        "placeName": "OTTAWA",
        "streetNameDisplayText": "AYERS AVE, OTTAWA"
      }
    ]
  },
  {
    "postal": "K1V7M5",
    "result": [
      {
        "electoralDistricts": [
          {
            "election": null,
            "id": 79,
            "name": "Ottawa South"
          }
        ],
        "pollDivisionIds": [
          10140671
        ],
        "postalCode": "K1V7M5",
        "streetName": "TYLEE",
        "streetDirectionId": null,
        "streetTypeId": "PVT",
        "placeName": "GLOUCESTER",
        "streetNameDisplayText": "TYLEE PVT, GLOUCESTER"
      }
    ]
  },
  {
    "postal": "K1V5W8",
    "result": []
  },
  {
    "postal": "K1V5E5",
    "result": []
  },
  {
    "postal": "K1V1P9",
    "result": [
      {
        "electoralDistricts": [
          {
            "election": null,
            "id": 17,
            "name": "Carleton"
          }
        ],
        "pollDivisionIds": [
          10137494
        ],
        "postalCode": "K1V1P9",
        "streetName": "MARBLE CANYON",
        "streetDirectionId": null,
        "streetTypeId": "CRES",
        "placeName": "GLOUCESTER",
        "streetNameDisplayText": "MARBLE CANYON CRES, GLOUCESTER"
      },
      {
        "electoralDistricts": [
          {
            "election": null,
            "id": 17,
            "name": "Carleton"
          }
        ],
        "pollDivisionIds": [
          10137494
        ],
        "postalCode": "K1V1P9",
        "streetName": "MARBLE CANYON",
        "streetDirectionId": null,
        "streetTypeId": null,
        "placeName": "GLOUCESTER",
        "streetNameDisplayText": "MARBLE CANYON, GLOUCESTER"
      }
    ]
  },
  {
    "postal": "K1V8V8",
    "result": [
      {
        "electoralDistricts": [
          {
            "election": null,
            "id": 79,
            "name": "Ottawa South"
          }
        ],
        "pollDivisionIds": [
          10140662
        ],
        "postalCode": "K1V8V8",
        "streetName": "HEATHERINGTON",
        "streetDirectionId": null,
        "streetTypeId": "RD",
        "placeName": "OTTAWA",
        "streetNameDisplayText": "HEATHERINGTON RD, OTTAWA"
      }
    ]
  },
  {
    "postal": "K1V9G8",
    "result": [
      {
        "electoralDistricts": [
          {
            "election": null,
            "id": 79,
            "name": "Ottawa South"
          }
        ],
        "pollDivisionIds": [
          10140674
        ],
        "postalCode": "K1V9G8",
        "streetName": "HAWK",
        "streetDirectionId": null,
        "streetTypeId": "CRES",
        "placeName": "OTTAWA",
        "streetNameDisplayText": "HAWK CRES, OTTAWA"
      }
    ]
  },
  {
    "postal": "K1V8H9",
    "result": [
      {
        "electoralDistricts": [
          {
            "election": null,
            "id": 79,
            "name": "Ottawa South"
          }
        ],
        "pollDivisionIds": [
          10140669
        ],
        "postalCode": "K1V8H9",
        "streetName": "HYDE",
        "streetDirectionId": null,
        "streetTypeId": "ST",
        "placeName": "OTTAWA",
        "streetNameDisplayText": "HYDE ST, OTTAWA"
      }
    ]
  },
  {
    "postal": "K1V1Z1",
    "result": [
      {
        "electoralDistricts": [
          {
            "election": null,
            "id": 79,
            "name": "Ottawa South"
          }
        ],
        "pollDivisionIds": [
          10140673
        ],
        "postalCode": "K1V1Z1",
        "streetName": "ANNAPOLIS",
        "streetDirectionId": null,
        "streetTypeId": "CIR",
        "placeName": "OTTAWA",
        "streetNameDisplayText": "ANNAPOLIS CIR, OTTAWA"
      },
      {
        "electoralDistricts": [
          {
            "election": null,
            "id": 79,
            "name": "Ottawa South"
          }
        ],
        "pollDivisionIds": [
          10140673
        ],
        "postalCode": "K1V1Z1",
        "streetName": "YORKBERRY",
        "streetDirectionId": null,
        "streetTypeId": "GATE",
        "placeName": "OTTAWA",
        "streetNameDisplayText": "YORKBERRY GATE, OTTAWA"
      }
    ]
  },
  {
    "postal": "K1V8M3",
    "result": [
      {
        "electoralDistricts": [
          {
            "election": null,
            "id": 79,
            "name": "Ottawa South"
          }
        ],
        "pollDivisionIds": [
          10140664
        ],
        "postalCode": "K1V8M3",
        "streetName": "FLANNERY",
        "streetDirectionId": null,
        "streetTypeId": "DR",
        "placeName": "OTTAWA",
        "streetNameDisplayText": "FLANNERY DR, OTTAWA"
      }
    ]
  },
  {
    "postal": "K1V5H6",
    "result": []
  },
  {
    "postal": "K1V7W7",
    "result": [
      {
        "electoralDistricts": [
          {
            "election": null,
            "id": 79,
            "name": "Ottawa South"
          }
        ],
        "pollDivisionIds": [
          10140658
        ],
        "postalCode": "K1V7W7",
        "streetName": "AYERS",
        "streetDirectionId": null,
        "streetTypeId": "AVE",
        "placeName": "OTTAWA",
        "streetNameDisplayText": "AYERS AVE, OTTAWA"
      }
    ]
  },
  {
    "postal": "K1V4L0",
    "result": []
  },
  {
    "postal": "K1V2N1",
    "result": [
      {
        "electoralDistricts": [
          {
            "election": null,
            "id": 17,
            "name": "Carleton"
          }
        ],
        "pollDivisionIds": [
          10137497
        ],
        "postalCode": "K1V2N1",
        "streetName": "COOKS MILL",
        "streetDirectionId": null,
        "streetTypeId": "CRES",
        "placeName": "GLOUCESTER",
        "streetNameDisplayText": "COOKS MILL CRES, GLOUCESTER"
      }
    ]
  },
  {
    "postal": "K1V2H4",
    "result": [
      {
        "electoralDistricts": [
          {
            "election": null,
            "id": 17,
            "name": "Carleton"
          }
        ],
        "pollDivisionIds": [
          10137497
        ],
        "postalCode": "K1V2H4",
        "streetName": "GREY SEAL",
        "streetDirectionId": null,
        "streetTypeId": "CIR",
        "placeName": "GLOUCESTER",
        "streetNameDisplayText": "GREY SEAL CIR, GLOUCESTER"
      },
      {
        "electoralDistricts": [
          {
            "election": null,
            "id": 17,
            "name": "Carleton"
          }
        ],
        "pollDivisionIds": [
          10137497
        ],
        "postalCode": "K1V2H4",
        "streetName": "NORTH BLUFF",
        "streetDirectionId": null,
        "streetTypeId": "DR",
        "placeName": "GLOUCESTER",
        "streetNameDisplayText": "NORTH BLUFF DR, GLOUCESTER"
      }
    ]
  },
  {
    "postal": "K1V5C8",
    "result": []
  },
  {
    "postal": "K1V8B0",
    "result": []
  },
  {
    "postal": "K1V1T4",
    "result": [
      {
        "electoralDistricts": [
          {
            "election": null,
            "id": 17,
            "name": "Carleton"
          }
        ],
        "pollDivisionIds": [
          10137494
        ],
        "postalCode": "K1V1T4",
        "streetName": "WILD SHORE",
        "streetDirectionId": null,
        "streetTypeId": "CRES",
        "placeName": "GLOUCESTER",
        "streetNameDisplayText": "WILD SHORE CRES, GLOUCESTER"
      }
    ]
  },
  {
    "postal": "K1V7N7",
    "result": [
      {
        "electoralDistricts": [
          {
            "election": null,
            "id": 79,
            "name": "Ottawa South"
          }
        ],
        "pollDivisionIds": [
          10140671
        ],
        "postalCode": "K1V7N7",
        "streetName": "DE NIVERVILLE",
        "streetDirectionId": null,
        "streetTypeId": "PVT",
        "placeName": "GLOUCESTER",
        "streetNameDisplayText": "DE NIVERVILLE PVT, GLOUCESTER"
      }
    ]
  },
  {
    "postal": "K1V4L3",
    "result": []
  },
  {
    "postal": "K1V2N2",
    "result": [
      {
        "electoralDistricts": [
          {
            "election": null,
            "id": 17,
            "name": "Carleton"
          }
        ],
        "pollDivisionIds": [
          10137497
        ],
        "postalCode": "K1V2N2",
        "streetName": "COOKS MILL",
        "streetDirectionId": null,
        "streetTypeId": "CRES",
        "placeName": "GLOUCESTER",
        "streetNameDisplayText": "COOKS MILL CRES, GLOUCESTER"
      },
      {
        "electoralDistricts": [
          {
            "election": null,
            "id": 17,
            "name": "Carleton"
          }
        ],
        "pollDivisionIds": [
          10137497
        ],
        "postalCode": "K1V2N2",
        "streetName": "WATCH HORN",
        "streetDirectionId": null,
        "streetTypeId": "GROVE",
        "placeName": "GLOUCESTER",
        "streetNameDisplayText": "WATCH HORN GROVE, GLOUCESTER"
      },
      {
        "electoralDistricts": [
          {
            "election": null,
            "id": 17,
            "name": "Carleton"
          }
        ],
        "pollDivisionIds": [
          10137497
        ],
        "postalCode": "K1V2N2",
        "streetName": "WATCHHORN",
        "streetDirectionId": null,
        "streetTypeId": "GROVE",
        "placeName": "GLOUCESTER",
        "streetNameDisplayText": "WATCHHORN GROVE, GLOUCESTER"
      }
    ]
  },
  {
    "postal": "K1V4N8",
    "result": []
  },
  {
    "postal": "K1V3M5",
    "result": []
  },
  {
    "postal": "K1V6H7",
    "result": [
      {
        "electoralDistricts": [
          {
            "election": null,
            "id": 79,
            "name": "Ottawa South"
          }
        ],
        "pollDivisionIds": [
          10140656
        ],
        "postalCode": "K1V6H7",
        "streetName": "BROOKFIELD",
        "streetDirectionId": "E",
        "streetTypeId": "RD",
        "placeName": "OTTAWA",
        "streetNameDisplayText": "BROOKFIELD RD E, OTTAWA"
      }
    ]
  },
  {
    "postal": "K1V8Y8",
    "result": [
      {
        "electoralDistricts": [
          {
            "election": null,
            "id": 79,
            "name": "Ottawa South"
          }
        ],
        "pollDivisionIds": [
          10140679
        ],
        "postalCode": "K1V8Y8",
        "streetName": "DOWNPATRICK",
        "streetDirectionId": null,
        "streetTypeId": "RD",
        "placeName": "GLOUCESTER",
        "streetNameDisplayText": "DOWNPATRICK RD, GLOUCESTER"
      }
    ]
  },
  {
    "postal": "K1V5R9",
    "result": []
  },
  {
    "postal": "K1V8G3",
    "result": [
      {
        "electoralDistricts": [
          {
            "election": null,
            "id": 79,
            "name": "Ottawa South"
          }
        ],
        "pollDivisionIds": [
          10140656
        ],
        "postalCode": "K1V8G3",
        "streetName": "CARLSEN",
        "streetDirectionId": null,
        "streetTypeId": "AVE",
        "placeName": "OTTAWA",
        "streetNameDisplayText": "CARLSEN AVE, OTTAWA"
      }
    ]
  },
  {
    "postal": "K1V4N7",
    "result": []
  },
  {
    "postal": "K1V0B9",
    "result": [
      {
        "electoralDistricts": [
          {
            "election": null,
            "id": 79,
            "name": "Ottawa South"
          }
        ],
        "pollDivisionIds": [
          10140674
        ],
        "postalCode": "K1V0B9",
        "streetName": "PATTERMEAD",
        "streetDirectionId": null,
        "streetTypeId": "CRES",
        "placeName": "OTTAWA",
        "streetNameDisplayText": "PATTERMEAD CRES, OTTAWA"
      }
    ]
  },
  {
    "postal": "K1V9K7",
    "result": [
      {
        "electoralDistricts": [
          {
            "election": null,
            "id": 79,
            "name": "Ottawa South"
          }
        ],
        "pollDivisionIds": [
          10140673
        ],
        "postalCode": "K1V9K7",
        "streetName": "PAUL ANKA",
        "streetDirectionId": null,
        "streetTypeId": "DR",
        "placeName": "OTTAWA",
        "streetNameDisplayText": "PAUL ANKA DR, OTTAWA"
      }
    ]
  },
  {
    "postal": "K1V9K9",
    "result": []
  },
  {
    "postal": "K1V3Z2",
    "result": []
  },
  {
    "postal": "K1V6W7",
    "result": [
      {
        "electoralDistricts": [
          {
            "election": null,
            "id": 79,
            "name": "Ottawa South"
          }
        ],
        "pollDivisionIds": [
          10140665
        ],
        "postalCode": "K1V6W7",
        "streetName": "LEDBURY",
        "streetDirectionId": null,
        "streetTypeId": "AVE",
        "placeName": "OTTAWA",
        "streetNameDisplayText": "LEDBURY AVE, OTTAWA"
      }
    ]
  },
  {
    "postal": "K1V0P1",
    "result": [
      {
        "electoralDistricts": [
          {
            "election": null,
            "id": 79,
            "name": "Ottawa South"
          }
        ],
        "pollDivisionIds": [
          10140679
        ],
        "postalCode": "K1V0P1",
        "streetName": "WISTERIA",
        "streetDirectionId": null,
        "streetTypeId": "CRES",
        "placeName": "GLOUCESTER",
        "streetNameDisplayText": "WISTERIA CRES, GLOUCESTER"
      },
      {
        "electoralDistricts": [
          {
            "election": null,
            "id": 79,
            "name": "Ottawa South"
          }
        ],
        "pollDivisionIds": [
          10140679
        ],
        "postalCode": "K1V0P1",
        "streetName": "WISTERIA",
        "streetDirectionId": null,
        "streetTypeId": "CRES",
        "placeName": "OTTAWA",
        "streetNameDisplayText": "WISTERIA CRES, OTTAWA"
      }
    ]
  },
  {
    "postal": "K1V3A0",
    "result": []
  },
  {
    "postal": "K1V8L9",
    "result": [
      {
        "electoralDistricts": [
          {
            "election": null,
            "id": 79,
            "name": "Ottawa South"
          }
        ],
        "pollDivisionIds": [
          10140664
        ],
        "postalCode": "K1V8L9",
        "streetName": "FLANNERY",
        "streetDirectionId": null,
        "streetTypeId": "DR",
        "placeName": "OTTAWA",
        "streetNameDisplayText": "FLANNERY DR, OTTAWA"
      }
    ]
  },
  {
    "postal": "K1V6X0",
    "result": []
  },
  {
    "postal": "K1V3E9",
    "result": []
  },
  {
    "postal": "K1V0S5",
    "result": [
      {
        "electoralDistricts": [
          {
            "election": null,
            "id": 79,
            "name": "Ottawa South"
          }
        ],
        "pollDivisionIds": [
          10140662
        ],
        "postalCode": "K1V0S5",
        "streetName": "GABLE",
        "streetDirectionId": null,
        "streetTypeId": "PVT",
        "placeName": "OTTAWA",
        "streetNameDisplayText": "GABLE PVT, OTTAWA"
      }
    ]
  },
  {
    "postal": "K1V1A2",
    "result": []
  },
  {
    "postal": "K1V5V8",
    "result": []
  },
  {
    "postal": "K1V8C5",
    "result": [
      {
        "electoralDistricts": [
          {
            "election": null,
            "id": 79,
            "name": "Ottawa South"
          }
        ],
        "pollDivisionIds": [
          10140656
        ],
        "postalCode": "K1V8C5",
        "streetName": "KALADAR",
        "streetDirectionId": null,
        "streetTypeId": "AVE",
        "placeName": "OTTAWA",
        "streetNameDisplayText": "KALADAR AVE, OTTAWA"
      }
    ]
  },
  {
    "postal": "K1V6N0",
    "result": []
  },
  {
    "postal": "K1V9E6",
    "result": [
      {
        "electoralDistricts": [
          {
            "election": null,
            "id": 79,
            "name": "Ottawa South"
          }
        ],
        "pollDivisionIds": [
          10140674
        ],
        "postalCode": "K1V9E6",
        "streetName": "PLANTE",
        "streetDirectionId": null,
        "streetTypeId": "DR",
        "placeName": "OTTAWA",
        "streetNameDisplayText": "PLANTE DR, OTTAWA"
      }
    ]
  },
  {
    "postal": "K1V5J7",
    "result": []
  },
  {
    "postal": "K1V2R2",
    "result": []
  },
  {
    "postal": "K1V0P5",
    "result": [
      {
        "electoralDistricts": [
          {
            "election": null,
            "id": 79,
            "name": "Ottawa South"
          }
        ],
        "pollDivisionIds": [
          10140677
        ],
        "postalCode": "K1V0P5",
        "streetName": "HACKETT",
        "streetDirectionId": null,
        "streetTypeId": "ST",
        "placeName": "OTTAWA",
        "streetNameDisplayText": "HACKETT ST, OTTAWA"
      }
    ]
  },
  {
    "postal": "K1V5A7",
    "result": []
  },
  {
    "postal": "K1V1G1",
    "result": [
      {
        "electoralDistricts": [
          {
            "election": null,
            "id": 17,
            "name": "Carleton"
          }
        ],
        "pollDivisionIds": [
          10137494
        ],
        "postalCode": "K1V1G1",
        "streetName": "RIVER",
        "streetDirectionId": null,
        "streetTypeId": "RD",
        "placeName": "GLOUCESTER",
        "streetNameDisplayText": "RIVER RD, GLOUCESTER"
      }
    ]
  },
  {
    "postal": "K1V9R6",
    "result": []
  },
  {
    "postal": "K1V4Z9",
    "result": []
  },
  {
    "postal": "K1V1V5",
    "result": [
      {
        "electoralDistricts": [
          {
            "election": null,
            "id": 79,
            "name": "Ottawa South"
          }
        ],
        "pollDivisionIds": [
          10140694
        ],
        "postalCode": "K1V1V5",
        "streetName": "RIVERGATE",
        "streetDirectionId": null,
        "streetTypeId": "WAY",
        "placeName": "OTTAWA",
        "streetNameDisplayText": "RIVERGATE WAY, OTTAWA"
      }
    ]
  },
  {
    "postal": "K1V9Y5",
    "result": [
      {
        "electoralDistricts": [
          {
            "election": null,
            "id": 79,
            "name": "Ottawa South"
          }
        ],
        "pollDivisionIds": [
          10140677
        ],
        "postalCode": "K1V9Y5",
        "streetName": "COUNTRY CLUB",
        "streetDirectionId": null,
        "streetTypeId": "DR",
        "placeName": "OTTAWA",
        "streetNameDisplayText": "COUNTRY CLUB DR, OTTAWA"
      }
    ]
  },
  {
    "postal": "K1V1P2",
    "result": [
      {
        "electoralDistricts": [
          {
            "election": null,
            "id": 79,
            "name": "Ottawa South"
          }
        ],
        "pollDivisionIds": [
          10140665
        ],
        "postalCode": "K1V1P2",
        "streetName": "BANK",
        "streetDirectionId": null,
        "streetTypeId": "ST",
        "placeName": "OTTAWA",
        "streetNameDisplayText": "BANK ST, OTTAWA"
      }
    ]
  },
  {
    "postal": "K1V5X0",
    "result": []
  },
  {
    "postal": "K1V7B8",
    "result": [
      {
        "electoralDistricts": [
          {
            "election": null,
            "id": 79,
            "name": "Ottawa South"
          }
        ],
        "pollDivisionIds": [
          10140672
        ],
        "postalCode": "K1V7B8",
        "streetName": "BLANCHARD",
        "streetDirectionId": null,
        "streetTypeId": "CRES",
        "placeName": "OTTAWA",
        "streetNameDisplayText": "BLANCHARD CRES, OTTAWA"
      }
    ]
  },
  {
    "postal": "K1V0C6",
    "result": [
      {
        "electoralDistricts": [
          {
            "election": null,
            "id": 79,
            "name": "Ottawa South"
          }
        ],
        "pollDivisionIds": [
          10140673
        ],
        "postalCode": "K1V0C6",
        "streetName": "UPLANDS",
        "streetDirectionId": null,
        "streetTypeId": "DR",
        "placeName": "OTTAWA",
        "streetNameDisplayText": "UPLANDS DR, OTTAWA"
      }
    ]
  },
  {
    "postal": "K1V6G1",
    "result": [
      {
        "electoralDistricts": [
          {
            "election": null,
            "id": 79,
            "name": "Ottawa South"
          }
        ],
        "pollDivisionIds": [
          10140657
        ],
        "postalCode": "K1V6G1",
        "streetName": "PORTLAND",
        "streetDirectionId": null,
        "streetTypeId": "AVE",
        "placeName": "OTTAWA",
        "streetNameDisplayText": "PORTLAND AVE, OTTAWA"
      }
    ]
  },
  {
    "postal": "K1V3K3",
    "result": []
  },
  {
    "postal": "K1V9R0",
    "result": []
  },
  {
    "postal": "K1V4R8",
    "result": []
  },
  {
    "postal": "K1V5P9",
    "result": []
  },
  {
    "postal": "K1V8N4",
    "result": [
      {
        "electoralDistricts": [
          {
            "election": null,
            "id": 79,
            "name": "Ottawa South"
          }
        ],
        "pollDivisionIds": [
          10140664
        ],
        "postalCode": "K1V8N4",
        "streetName": "RIVERSIDE",
        "streetDirectionId": null,
        "streetTypeId": "DR",
        "placeName": "OTTAWA",
        "streetNameDisplayText": "RIVERSIDE DR, OTTAWA"
      }
    ]
  },
  {
    "postal": "K1V8H4",
    "result": [
      {
        "electoralDistricts": [
          {
            "election": null,
            "id": 79,
            "name": "Ottawa South"
          }
        ],
        "pollDivisionIds": [
          10140669
        ],
        "postalCode": "K1V8H4",
        "streetName": "WELLAND",
        "streetDirectionId": null,
        "streetTypeId": "ST",
        "placeName": "OTTAWA",
        "streetNameDisplayText": "WELLAND ST, OTTAWA"
      }
    ]
  },
  {
    "postal": "K1V4V1",
    "result": []
  },
  {
    "postal": "K1V1K5",
    "result": [
      {
        "electoralDistricts": [
          {
            "election": null,
            "id": 79,
            "name": "Ottawa South"
          }
        ],
        "pollDivisionIds": [
          10140677
        ],
        "postalCode": "K1V1K5",
        "streetName": "CROWSNEST",
        "streetDirectionId": null,
        "streetTypeId": "AVE",
        "placeName": "OTTAWA",
        "streetNameDisplayText": "CROWSNEST AVE, OTTAWA"
      },
      {
        "electoralDistricts": [
          {
            "election": null,
            "id": 79,
            "name": "Ottawa South"
          }
        ],
        "pollDivisionIds": [
          10140677
        ],
        "postalCode": "K1V1K5",
        "streetName": "MYSTIC",
        "streetDirectionId": null,
        "streetTypeId": "PVT",
        "placeName": "OTTAWA",
        "streetNameDisplayText": "MYSTIC PVT, OTTAWA"
      },
      {
        "electoralDistricts": [
          {
            "election": null,
            "id": 79,
            "name": "Ottawa South"
          }
        ],
        "pollDivisionIds": [
          10140677
        ],
        "postalCode": "K1V1K5",
        "streetName": "TATTERSALL",
        "streetDirectionId": null,
        "streetTypeId": "WAY",
        "placeName": "OTTAWA",
        "streetNameDisplayText": "TATTERSALL WAY, OTTAWA"
      }
    ]
  },
  {
    "postal": "K1V1Z5",
    "result": [
      {
        "electoralDistricts": [
          {
            "election": null,
            "id": 79,
            "name": "Ottawa South"
          }
        ],
        "pollDivisionIds": [
          10140665
        ],
        "postalCode": "K1V1Z5",
        "streetName": "JASPER",
        "streetDirectionId": null,
        "streetTypeId": "AVE",
        "placeName": "OTTAWA",
        "streetNameDisplayText": "JASPER AVE, OTTAWA"
      }
    ]
  },
  {
    "postal": "K1V9L9",
    "result": [
      {
        "electoralDistricts": [
          {
            "election": null,
            "id": 79,
            "name": "Ottawa South"
          }
        ],
        "pollDivisionIds": [
          10140673
        ],
        "postalCode": "K1V9L9",
        "streetName": "ROYAL HUNT",
        "streetDirectionId": null,
        "streetTypeId": "CRT",
        "placeName": "OTTAWA",
        "streetNameDisplayText": "ROYAL HUNT CRT, OTTAWA"
      }
    ]
  },
  {
    "postal": "K1V5L2",
    "result": []
  },
  {
    "postal": "K1V0M2",
    "result": [
      {
        "electoralDistricts": [
          {
            "election": null,
            "id": 79,
            "name": "Ottawa South"
          }
        ],
        "pollDivisionIds": [
          10140677
        ],
        "postalCode": "K1V0M2",
        "streetName": "VERSAILLES",
        "streetDirectionId": null,
        "streetTypeId": "PVT",
        "placeName": "OTTAWA",
        "streetNameDisplayText": "VERSAILLES PVT, OTTAWA"
      }
    ]
  },
  {
    "postal": "K1V1K8",
    "result": [
      {
        "electoralDistricts": [
          {
            "election": null,
            "id": 79,
            "name": "Ottawa South"
          }
        ],
        "pollDivisionIds": [
          10140677
        ],
        "postalCode": "K1V1K8",
        "streetName": "QUINTERRA",
        "streetDirectionId": null,
        "streetTypeId": "CRT",
        "placeName": "OTTAWA",
        "streetNameDisplayText": "QUINTERRA CRT, OTTAWA"
      }
    ]
  },
  {
    "postal": "K1V3M7",
    "result": []
  },
  {
    "postal": "K1V1B2",
    "result": [
      {
        "electoralDistricts": [
          {
            "election": null,
            "id": 79,
            "name": "Ottawa South"
          }
        ],
        "pollDivisionIds": [
          10140677
        ],
        "postalCode": "K1V1B2",
        "streetName": "RHAPSODY",
        "streetDirectionId": null,
        "streetTypeId": "LANE",
        "placeName": "OTTAWA",
        "streetNameDisplayText": "RHAPSODY LANE, OTTAWA"
      }
    ]
  },
  {
    "postal": "K1V0H9",
    "result": [
      {
        "electoralDistricts": [
          {
            "election": null,
            "id": 79,
            "name": "Ottawa South"
          }
        ],
        "pollDivisionIds": [
          10140673
        ],
        "postalCode": "K1V0H9",
        "streetName": "MCCARTHY",
        "streetDirectionId": null,
        "streetTypeId": "RD",
        "placeName": "OTTAWA",
        "streetNameDisplayText": "MCCARTHY RD, OTTAWA"
      }
    ]
  },
  {
    "postal": "K1V8M4",
    "result": [
      {
        "electoralDistricts": [
          {
            "election": null,
            "id": 79,
            "name": "Ottawa South"
          }
        ],
        "pollDivisionIds": [
          10140664
        ],
        "postalCode": "K1V8M4",
        "streetName": "FLANNERY",
        "streetDirectionId": null,
        "streetTypeId": "DR",
        "placeName": "OTTAWA",
        "streetNameDisplayText": "FLANNERY DR, OTTAWA"
      },
      {
        "electoralDistricts": [
          {
            "election": null,
            "id": 79,
            "name": "Ottawa South"
          }
        ],
        "pollDivisionIds": [
          10140664
        ],
        "postalCode": "K1V8M4",
        "streetName": "RAMSGATE",
        "streetDirectionId": null,
        "streetTypeId": "PVT",
        "placeName": "OTTAWA",
        "streetNameDisplayText": "RAMSGATE PVT, OTTAWA"
      }
    ]
  },
  {
    "postal": "K1V2M5",
    "result": [
      {
        "electoralDistricts": [
          {
            "election": null,
            "id": 79,
            "name": "Ottawa South"
          }
        ],
        "pollDivisionIds": [
          10140669,
          10140665
        ],
        "postalCode": "K1V2M5",
        "streetName": "WALKLEY",
        "streetDirectionId": null,
        "streetTypeId": "RD",
        "placeName": "OTTAWA",
        "streetNameDisplayText": "WALKLEY RD, OTTAWA"
      }
    ]
  },
  {
    "postal": "K1V0T9",
    "result": [
      {
        "electoralDistricts": [
          {
            "election": null,
            "id": 79,
            "name": "Ottawa South"
          }
        ],
        "pollDivisionIds": [
          10140673
        ],
        "postalCode": "K1V0T9",
        "streetName": "TWYFORD",
        "streetDirectionId": null,
        "streetTypeId": "ST",
        "placeName": "OTTAWA",
        "streetNameDisplayText": "TWYFORD ST, OTTAWA"
      }
    ]
  },
  {
    "postal": "K1V3P1",
    "result": []
  },
  {
    "postal": "K1V1R6",
    "result": [
      {
        "electoralDistricts": [
          {
            "election": null,
            "id": 17,
            "name": "Carleton"
          }
        ],
        "pollDivisionIds": [
          10137497
        ],
        "postalCode": "K1V1R6",
        "streetName": "CIRRUS",
        "streetDirectionId": null,
        "streetTypeId": "WAY",
        "placeName": "GLOUCESTER",
        "streetNameDisplayText": "CIRRUS WAY, GLOUCESTER"
      },
      {
        "electoralDistricts": [
          {
            "election": null,
            "id": 17,
            "name": "Carleton"
          }
        ],
        "pollDivisionIds": [
          10137497
        ],
        "postalCode": "K1V1R6",
        "streetName": "GIANT CEDARS",
        "streetDirectionId": null,
        "streetTypeId": "CRES",
        "placeName": "GLOUCESTER",
        "streetNameDisplayText": "GIANT CEDARS CRES, GLOUCESTER"
      }
    ]
  },
  {
    "postal": "K1V9V5",
    "result": [
      {
        "electoralDistricts": [
          {
            "election": null,
            "id": 79,
            "name": "Ottawa South"
          }
        ],
        "pollDivisionIds": [
          10140677
        ],
        "postalCode": "K1V9V5",
        "streetName": "UPLANDS",
        "streetDirectionId": null,
        "streetTypeId": "DR",
        "placeName": "GLOUCESTER",
        "streetNameDisplayText": "UPLANDS DR, GLOUCESTER"
      }
    ]
  },
  {
    "postal": "K1V9T0",
    "result": []
  },
  {
    "postal": "K1V0A9",
    "result": [
      {
        "electoralDistricts": [
          {
            "election": null,
            "id": 79,
            "name": "Ottawa South"
          }
        ],
        "pollDivisionIds": [
          10140677
        ],
        "postalCode": "K1V0A9",
        "streetName": "WOODTHRUSH",
        "streetDirectionId": null,
        "streetTypeId": "GREEN",
        "placeName": "OTTAWA",
        "streetNameDisplayText": "WOODTHRUSH GREEN, OTTAWA"
      }
    ]
  },
  {
    "postal": "K1V1M3",
    "result": [
      {
        "electoralDistricts": [
          {
            "election": null,
            "id": 17,
            "name": "Carleton"
          }
        ],
        "pollDivisionIds": [
          10137494
        ],
        "postalCode": "K1V1M3",
        "streetName": "COVEHEAD",
        "streetDirectionId": null,
        "streetTypeId": "CRES",
        "placeName": "GLOUCESTER",
        "streetNameDisplayText": "COVEHEAD CRES, GLOUCESTER"
      }
    ]
  },
  {
    "postal": "K1V1W8",
    "result": [
      {
        "electoralDistricts": [
          {
            "election": null,
            "id": 17,
            "name": "Carleton"
          }
        ],
        "pollDivisionIds": [
          10137494
        ],
        "postalCode": "K1V1W8",
        "streetName": "GREEN GABLES",
        "streetDirectionId": null,
        "streetTypeId": "LANE",
        "placeName": "GLOUCESTER",
        "streetNameDisplayText": "GREEN GABLES LANE, GLOUCESTER"
      },
      {
        "electoralDistricts": [
          {
            "election": null,
            "id": 17,
            "name": "Carleton"
          }
        ],
        "pollDivisionIds": [
          10137494
        ],
        "postalCode": "K1V1W8",
        "streetName": "HOT SPRINGS",
        "streetDirectionId": null,
        "streetTypeId": "WAY",
        "placeName": "GLOUCESTER",
        "streetNameDisplayText": "HOT SPRINGS WAY, GLOUCESTER"
      }
    ]
  },
  {
    "postal": "K1V9J1",
    "result": [
      {
        "electoralDistricts": [
          {
            "election": null,
            "id": 79,
            "name": "Ottawa South"
          }
        ],
        "pollDivisionIds": [
          10140674
        ],
        "postalCode": "K1V9J1",
        "streetName": "CAHILL",
        "streetDirectionId": "W",
        "streetTypeId": "DR",
        "placeName": "OTTAWA",
        "streetNameDisplayText": "CAHILL DR W, OTTAWA"
      }
    ]
  },
  {
    "postal": "K1V8N5",
    "result": [
      {
        "electoralDistricts": [
          {
            "election": null,
            "id": 79,
            "name": "Ottawa South"
          }
        ],
        "pollDivisionIds": [
          10140702
        ],
        "postalCode": "K1V8N5",
        "streetName": "RIVERSIDE",
        "streetDirectionId": null,
        "streetTypeId": "DR",
        "placeName": "OTTAWA",
        "streetNameDisplayText": "RIVERSIDE DR, OTTAWA"
      }
    ]
  },
  {
    "postal": "K1V5X1",
    "result": []
  },
  {
    "postal": "K1V6S2",
    "result": [
      {
        "electoralDistricts": [
          {
            "election": null,
            "id": 79,
            "name": "Ottawa South"
          }
        ],
        "pollDivisionIds": [
          10140665
        ],
        "postalCode": "K1V6S2",
        "streetName": "BROOKLINE",
        "streetDirectionId": null,
        "streetTypeId": "AVE",
        "placeName": "OTTAWA",
        "streetNameDisplayText": "BROOKLINE AVE, OTTAWA"
      }
    ]
  },
  {
    "postal": "K1V2A2",
    "result": [
      {
        "electoralDistricts": [
          {
            "election": null,
            "id": 79,
            "name": "Ottawa South"
          }
        ],
        "pollDivisionIds": [
          10140665
        ],
        "postalCode": "K1V2A2",
        "streetName": "LILIBET",
        "streetDirectionId": null,
        "streetTypeId": "CRES",
        "placeName": "OTTAWA",
        "streetNameDisplayText": "LILIBET CRES, OTTAWA"
      }
    ]
  },
  {
    "postal": "K1V6A6",
    "result": [
      {
        "electoralDistricts": [
          {
            "election": null,
            "id": 79,
            "name": "Ottawa South"
          }
        ],
        "pollDivisionIds": [
          10140660,
          10140658
        ],
        "postalCode": "K1V6A6",
        "streetName": "HERON",
        "streetDirectionId": null,
        "streetTypeId": "RD",
        "placeName": "OTTAWA",
        "streetNameDisplayText": "HERON RD, OTTAWA"
      }
    ]
  },
  {
    "postal": "K1V0S3",
    "result": [
      {
        "electoralDistricts": [
          {
            "election": null,
            "id": 79,
            "name": "Ottawa South"
          }
        ],
        "pollDivisionIds": [
          10140662
        ],
        "postalCode": "K1V0S3",
        "streetName": "GATEVILLE",
        "streetDirectionId": null,
        "streetTypeId": "PVT",
        "placeName": "OTTAWA",
        "streetNameDisplayText": "GATEVILLE PVT, OTTAWA"
      }
    ]
  },
  {
    "postal": "K1V3E7",
    "result": []
  },
  {
    "postal": "K1V5R7",
    "result": []
  },
  {
    "postal": "K1V3R6",
    "result": []
  },
  {
    "postal": "K1V6K4",
    "result": [
      {
        "electoralDistricts": [
          {
            "election": null,
            "id": 79,
            "name": "Ottawa South"
          }
        ],
        "pollDivisionIds": [
          10140669
        ],
        "postalCode": "K1V6K4",
        "streetName": "CROMWELL",
        "streetDirectionId": null,
        "streetTypeId": "DR",
        "placeName": "OTTAWA",
        "streetNameDisplayText": "CROMWELL DR, OTTAWA"
      }
    ]
  },
  {
    "postal": "K1V2W5",
    "result": []
  },
  {
    "postal": "K1V8W4",
    "result": [
      {
        "electoralDistricts": [
          {
            "election": null,
            "id": 79,
            "name": "Ottawa South"
          }
        ],
        "pollDivisionIds": [
          10140664
        ],
        "postalCode": "K1V8W4",
        "streetName": "MOONEY'S BAY",
        "streetDirectionId": null,
        "streetTypeId": "PL",
        "placeName": "OTTAWA",
        "streetNameDisplayText": "MOONEY'S BAY PL, OTTAWA"
      }
    ]
  },
  {
    "postal": "K1V9C2",
    "result": [
      {
        "electoralDistricts": [
          {
            "election": null,
            "id": 79,
            "name": "Ottawa South"
          }
        ],
        "pollDivisionIds": [
          10140674
        ],
        "postalCode": "K1V9C2",
        "streetName": "CONDOR",
        "streetDirectionId": null,
        "streetTypeId": "DR",
        "placeName": "OTTAWA",
        "streetNameDisplayText": "CONDOR DR, OTTAWA"
      }
    ]
  },
  {
    "postal": "K1V2C0",
    "result": []
  },
  {
    "postal": "K1V0E1",
    "result": [
      {
        "electoralDistricts": [
          {
            "election": null,
            "id": 79,
            "name": "Ottawa South"
          }
        ],
        "pollDivisionIds": [
          10140677
        ],
        "postalCode": "K1V0E1",
        "streetName": "FOX HUNT",
        "streetDirectionId": null,
        "streetTypeId": "AVE",
        "placeName": "OTTAWA",
        "streetNameDisplayText": "FOX HUNT AVE, OTTAWA"
      }
    ]
  },
  {
    "postal": "K1V1K9",
    "result": [
      {
        "electoralDistricts": [
          {
            "election": null,
            "id": 79,
            "name": "Ottawa South"
          }
        ],
        "pollDivisionIds": [
          10140677
        ],
        "postalCode": "K1V1K9",
        "streetName": "QUINTERRA",
        "streetDirectionId": null,
        "streetTypeId": "CRT",
        "placeName": "OTTAWA",
        "streetNameDisplayText": "QUINTERRA CRT, OTTAWA"
      }
    ]
  },
  {
    "postal": "K1V1G7",
    "result": [
      {
        "electoralDistricts": [
          {
            "election": null,
            "id": 17,
            "name": "Carleton"
          }
        ],
        "pollDivisionIds": [
          10137497
        ],
        "postalCode": "K1V1G7",
        "streetName": "LIMEBANK",
        "streetDirectionId": null,
        "streetTypeId": "RD",
        "placeName": "GLOUCESTER",
        "streetNameDisplayText": "LIMEBANK RD, GLOUCESTER"
      }
    ]
  },
  {
    "postal": "K1V4E9",
    "result": []
  },
  {
    "postal": "K1V9P0",
    "result": []
  },
  {
    "postal": "K1V5H3",
    "result": []
  },
  {
    "postal": "K1V9X6",
    "result": [
      {
        "electoralDistricts": [
          {
            "election": null,
            "id": 79,
            "name": "Ottawa South"
          }
        ],
        "pollDivisionIds": [
          10140673
        ],
        "postalCode": "K1V9X6",
        "streetName": "UPLANDS",
        "streetDirectionId": null,
        "streetTypeId": "DR",
        "placeName": "OTTAWA",
        "streetNameDisplayText": "UPLANDS DR, OTTAWA"
      }
    ]
  },
  {
    "postal": "K1V5N7",
    "result": []
  },
  {
    "postal": "K1V5A6",
    "result": []
  },
  {
    "postal": "K1V4M0",
    "result": []
  },
  {
    "postal": "K1V3V6",
    "result": []
  },
  {
    "postal": "K1V1L7",
    "result": [
      {
        "electoralDistricts": [
          {
            "election": null,
            "id": 17,
            "name": "Carleton"
          }
        ],
        "pollDivisionIds": [
          10137494
        ],
        "postalCode": "K1V1L7",
        "streetName": "OWL VALLEY",
        "streetDirectionId": null,
        "streetTypeId": "DR",
        "placeName": "GLOUCESTER",
        "streetNameDisplayText": "OWL VALLEY DR, GLOUCESTER"
      }
    ]
  },
  {
    "postal": "K1V2P9",
    "result": []
  },
  {
    "postal": "K1V5T4",
    "result": []
  },
  {
    "postal": "K1V5Z1",
    "result": []
  },
  {
    "postal": "K1V2X0",
    "result": []
  },
  {
    "postal": "K1V6Z2",
    "result": [
      {
        "electoralDistricts": [
          {
            "election": null,
            "id": 79,
            "name": "Ottawa South"
          }
        ],
        "pollDivisionIds": [
          10140669
        ],
        "postalCode": "K1V6Z2",
        "streetName": "SOUTHMORE",
        "streetDirectionId": "E",
        "streetTypeId": "DR",
        "placeName": "OTTAWA",
        "streetNameDisplayText": "SOUTHMORE DR E, OTTAWA"
      }
    ]
  },
  {
    "postal": "K1V0E0",
    "result": []
  },
  {
    "postal": "K1V3Z5",
    "result": []
  },
  {
    "postal": "K1V8H3",
    "result": [
      {
        "electoralDistricts": [
          {
            "election": null,
            "id": 79,
            "name": "Ottawa South"
          }
        ],
        "pollDivisionIds": [
          10140669
        ],
        "postalCode": "K1V8H3",
        "streetName": "LINTON",
        "streetDirectionId": null,
        "streetTypeId": "RD",
        "placeName": "OTTAWA",
        "streetNameDisplayText": "LINTON RD, OTTAWA"
      }
    ]
  },
  {
    "postal": "K1V7S6",
    "result": [
      {
        "electoralDistricts": [
          {
            "election": null,
            "id": 79,
            "name": "Ottawa South"
          }
        ],
        "pollDivisionIds": [
          10140678
        ],
        "postalCode": "K1V7S6",
        "streetName": "CLEARWATER",
        "streetDirectionId": null,
        "streetTypeId": "CRES",
        "placeName": "OTTAWA",
        "streetNameDisplayText": "CLEARWATER CRES, OTTAWA"
      }
    ]
  },
  {
    "postal": "K1V4C1",
    "result": []
  },
  {
    "postal": "K1V3K2",
    "result": []
  },
  {
    "postal": "K1V1Y5",
    "result": [
      {
        "electoralDistricts": [
          {
            "election": null,
            "id": 17,
            "name": "Carleton"
          }
        ],
        "pollDivisionIds": [
          10137494
        ],
        "postalCode": "K1V1Y5",
        "streetName": "BLUEVALE",
        "streetDirectionId": null,
        "streetTypeId": "LANE",
        "placeName": "GLOUCESTER",
        "streetNameDisplayText": "BLUEVALE LANE, GLOUCESTER"
      },
      {
        "electoralDistricts": [
          {
            "election": null,
            "id": 17,
            "name": "Carleton"
          }
        ],
        "pollDivisionIds": [
          10137494
        ],
        "postalCode": "K1V1Y5",
        "streetName": "SUGAR MAPLE",
        "streetDirectionId": null,
        "streetTypeId": "DR",
        "placeName": "GLOUCESTER",
        "streetNameDisplayText": "SUGAR MAPLE DR, GLOUCESTER"
      }
    ]
  },
  {
    "postal": "K1V6P6",
    "result": [
      {
        "electoralDistricts": [
          {
            "election": null,
            "id": 79,
            "name": "Ottawa South"
          }
        ],
        "pollDivisionIds": [
          10140665
        ],
        "postalCode": "K1V6P6",
        "streetName": "WALKLEY",
        "streetDirectionId": null,
        "streetTypeId": "RD",
        "placeName": "OTTAWA",
        "streetNameDisplayText": "WALKLEY RD, OTTAWA"
      }
    ]
  },
  {
    "postal": "K1V3N9",
    "result": []
  },
  {
    "postal": "K1V3W2",
    "result": []
  },
  {
    "postal": "K1V6H8",
    "result": [
      {
        "electoralDistricts": [
          {
            "election": null,
            "id": 79,
            "name": "Ottawa South"
          }
        ],
        "pollDivisionIds": [
          10140656
        ],
        "postalCode": "K1V6H8",
        "streetName": "BROOKFIELD",
        "streetDirectionId": "E",
        "streetTypeId": "RD",
        "placeName": "OTTAWA",
        "streetNameDisplayText": "BROOKFIELD RD E, OTTAWA"
      }
    ]
  },
  {
    "postal": "K1V9T3",
    "result": [
      {
        "electoralDistricts": [
          {
            "election": null,
            "id": 79,
            "name": "Ottawa South"
          }
        ],
        "pollDivisionIds": [
          10140677
        ],
        "postalCode": "K1V9T3",
        "streetName": "UPLANDS",
        "streetDirectionId": null,
        "streetTypeId": "DR",
        "placeName": "OTTAWA",
        "streetNameDisplayText": "UPLANDS DR, OTTAWA"
      }
    ]
  },
  {
    "postal": "K1V5L9",
    "result": []
  },
  {
    "postal": "K1V7X7",
    "result": [
      {
        "electoralDistricts": [
          {
            "election": null,
            "id": 79,
            "name": "Ottawa South"
          }
        ],
        "pollDivisionIds": [
          10140665
        ],
        "postalCode": "K1V7X7",
        "streetName": "BANFF",
        "streetDirectionId": null,
        "streetTypeId": "AVE",
        "placeName": "OTTAWA",
        "streetNameDisplayText": "BANFF AVE, OTTAWA"
      }
    ]
  },
  {
    "postal": "K1V3J5",
    "result": []
  },
  {
    "postal": "K1V4J5",
    "result": []
  },
  {
    "postal": "K1V6J2",
    "result": [
      {
        "electoralDistricts": [
          {
            "election": null,
            "id": 79,
            "name": "Ottawa South"
          }
        ],
        "pollDivisionIds": [
          10140656
        ],
        "postalCode": "K1V6J2",
        "streetName": "BROOKFIELD",
        "streetDirectionId": "E",
        "streetTypeId": "RD",
        "placeName": "OTTAWA",
        "streetNameDisplayText": "BROOKFIELD RD E, OTTAWA"
      }
    ]
  },
  {
    "postal": "K1V5V6",
    "result": []
  },
  {
    "postal": "K1V3N2",
    "result": []
  },
  {
    "postal": "K1V3B1",
    "result": []
  },
  {
    "postal": "K1V8B5",
    "result": [
      {
        "electoralDistricts": [
          {
            "election": null,
            "id": 79,
            "name": "Ottawa South"
          }
        ],
        "pollDivisionIds": [
          10140656
        ],
        "postalCode": "K1V8B5",
        "streetName": "TRAVERSE",
        "streetDirectionId": null,
        "streetTypeId": "DR",
        "placeName": "OTTAWA",
        "streetNameDisplayText": "TRAVERSE DR, OTTAWA"
      }
    ]
  },
  {
    "postal": "K1V0K1",
    "result": [
      {
        "electoralDistricts": [
          {
            "election": null,
            "id": 79,
            "name": "Ottawa South"
          }
        ],
        "pollDivisionIds": [
          10140678
        ],
        "postalCode": "K1V0K1",
        "streetName": "ALBION",
        "streetDirectionId": "S",
        "streetTypeId": "RD",
        "placeName": "OTTAWA",
        "streetNameDisplayText": "ALBION RD S, OTTAWA"
      }
    ]
  },
  {
    "postal": "K1V7M7",
    "result": [
      {
        "electoralDistricts": [
          {
            "election": null,
            "id": 79,
            "name": "Ottawa South"
          }
        ],
        "pollDivisionIds": [
          10140671
        ],
        "postalCode": "K1V7M7",
        "streetName": "MCGILL",
        "streetDirectionId": null,
        "streetTypeId": "PVT",
        "placeName": "GLOUCESTER",
        "streetNameDisplayText": "MCGILL PVT, GLOUCESTER"
      }
    ]
  },
  {
    "postal": "K1V2M2",
    "result": [
      {
        "electoralDistricts": [
          {
            "election": null,
            "id": 17,
            "name": "Carleton"
          }
        ],
        "pollDivisionIds": [
          10137497
        ],
        "postalCode": "K1V2M2",
        "streetName": "BOWERCREST",
        "streetDirectionId": null,
        "streetTypeId": "CRES",
        "placeName": "GLOUCESTER",
        "streetNameDisplayText": "BOWERCREST CRES, GLOUCESTER"
      }
    ]
  },
  {
    "postal": "K1V9N3",
    "result": [
      {
        "electoralDistricts": [
          {
            "election": null,
            "id": 79,
            "name": "Ottawa South"
          }
        ],
        "pollDivisionIds": [
          10140673
        ],
        "postalCode": "K1V9N3",
        "streetName": "UPLANDS",
        "streetDirectionId": null,
        "streetTypeId": "DR",
        "placeName": "GLOUCESTER",
        "streetNameDisplayText": "UPLANDS DR, GLOUCESTER"
      }
    ]
  },
  {
    "postal": "K1V4Y8",
    "result": []
  },
  {
    "postal": "K1V3V7",
    "result": []
  },
  {
    "postal": "K1V8Z1",
    "result": [
      {
        "electoralDistricts": [
          {
            "election": null,
            "id": 79,
            "name": "Ottawa South"
          }
        ],
        "pollDivisionIds": [
          10140678
        ],
        "postalCode": "K1V8Z1",
        "streetName": "JOHNSTON",
        "streetDirectionId": null,
        "streetTypeId": "RD",
        "placeName": "OTTAWA",
        "streetNameDisplayText": "JOHNSTON RD, OTTAWA"
      }
    ]
  },
  {
    "postal": "K1V7B3",
    "result": [
      {
        "electoralDistricts": [
          {
            "election": null,
            "id": 79,
            "name": "Ottawa South"
          }
        ],
        "pollDivisionIds": [
          10140672
        ],
        "postalCode": "K1V7B3",
        "streetName": "OTTERSON",
        "streetDirectionId": null,
        "streetTypeId": "DR",
        "placeName": "OTTAWA",
        "streetNameDisplayText": "OTTERSON DR, OTTAWA"
      }
    ]
  },
  {
    "postal": "K1V3A8",
    "result": []
  },
  {
    "postal": "K1V7V5",
    "result": [
      {
        "electoralDistricts": [
          {
            "election": null,
            "id": 79,
            "name": "Ottawa South"
          }
        ],
        "pollDivisionIds": [
          10140657
        ],
        "postalCode": "K1V7V5",
        "streetName": "EDGEHILL",
        "streetDirectionId": null,
        "streetTypeId": "PL",
        "placeName": "OTTAWA",
        "streetNameDisplayText": "EDGEHILL PL, OTTAWA"
      }
    ]
  },
  {
    "postal": "K1V2T2",
    "result": []
  },
  {
    "postal": "K1V6L3",
    "result": [
      {
        "electoralDistricts": [
          {
            "election": null,
            "id": 79,
            "name": "Ottawa South"
          }
        ],
        "pollDivisionIds": [
          10140664
        ],
        "postalCode": "K1V6L3",
        "streetName": "SPRINGLAND",
        "streetDirectionId": null,
        "streetTypeId": "DR",
        "placeName": "OTTAWA",
        "streetNameDisplayText": "SPRINGLAND DR, OTTAWA"
      }
    ]
  },
  {
    "postal": "K1V0L2",
    "result": [
      {
        "electoralDistricts": [
          {
            "election": null,
            "id": 79,
            "name": "Ottawa South"
          }
        ],
        "pollDivisionIds": [
          10140677
        ],
        "postalCode": "K1V0L2",
        "streetName": "CARDIFF",
        "streetDirectionId": null,
        "streetTypeId": "PVT",
        "placeName": "OTTAWA",
        "streetNameDisplayText": "CARDIFF PVT, OTTAWA"
      }
    ]
  },
  {
    "postal": "K1V5Y8",
    "result": []
  },
  {
    "postal": "K1V0B8",
    "result": [
      {
        "electoralDistricts": [
          {
            "election": null,
            "id": 79,
            "name": "Ottawa South"
          }
        ],
        "pollDivisionIds": [
          10140674
        ],
        "postalCode": "K1V0B8",
        "streetName": "COBBLER",
        "streetDirectionId": null,
        "streetTypeId": "CRT",
        "placeName": "OTTAWA",
        "streetNameDisplayText": "COBBLER CRT, OTTAWA"
      }
    ]
  },
  {
    "postal": "K1V6R5",
    "result": [
      {
        "electoralDistricts": [
          {
            "election": null,
            "id": 79,
            "name": "Ottawa South"
          }
        ],
        "pollDivisionIds": [
          10140669
        ],
        "postalCode": "K1V6R5",
        "streetName": "WALKLEY",
        "streetDirectionId": null,
        "streetTypeId": "RD",
        "placeName": "OTTAWA",
        "streetNameDisplayText": "WALKLEY RD, OTTAWA"
      }
    ]
  },
  {
    "postal": "K1V8W6",
    "result": [
      {
        "electoralDistricts": [
          {
            "election": null,
            "id": 79,
            "name": "Ottawa South"
          }
        ],
        "pollDivisionIds": [
          10140664
        ],
        "postalCode": "K1V8W6",
        "streetName": "RIVERSIDE",
        "streetDirectionId": null,
        "streetTypeId": "DR",
        "placeName": "OTTAWA",
        "streetNameDisplayText": "RIVERSIDE DR, OTTAWA"
      }
    ]
  },
  {
    "postal": "K1V8G6",
    "result": [
      {
        "electoralDistricts": [
          {
            "election": null,
            "id": 79,
            "name": "Ottawa South"
          }
        ],
        "pollDivisionIds": [
          10140656
        ],
        "postalCode": "K1V8G6",
        "streetName": "CLOVER",
        "streetDirectionId": null,
        "streetTypeId": "ST",
        "placeName": "OTTAWA",
        "streetNameDisplayText": "CLOVER ST, OTTAWA"
      }
    ]
  },
  {
    "postal": "K1V6X3",
    "result": [
      {
        "electoralDistricts": [
          {
            "election": null,
            "id": 79,
            "name": "Ottawa South"
          }
        ],
        "pollDivisionIds": [
          10140669
        ],
        "postalCode": "K1V6X3",
        "streetName": "RAND",
        "streetDirectionId": null,
        "streetTypeId": "AVE",
        "placeName": "OTTAWA",
        "streetNameDisplayText": "RAND AVE, OTTAWA"
      }
    ]
  },
  {
    "postal": "K1V7R7",
    "result": [
      {
        "electoralDistricts": [
          {
            "election": null,
            "id": 79,
            "name": "Ottawa South"
          }
        ],
        "pollDivisionIds": [
          10140678
        ],
        "postalCode": "K1V7R7",
        "streetName": "PEBBLE",
        "streetDirectionId": null,
        "streetTypeId": "RD",
        "placeName": "OTTAWA",
        "streetNameDisplayText": "PEBBLE RD, OTTAWA"
      }
    ]
  },
  {
    "postal": "K1V4B6",
    "result": []
  },
  {
    "postal": "K1V3P9",
    "result": []
  },
  {
    "postal": "K1V2T3",
    "result": []
  },
  {
    "postal": "K1V1M4",
    "result": []
  },
  {
    "postal": "K1V0H1",
    "result": [
      {
        "electoralDistricts": [
          {
            "election": null,
            "id": 79,
            "name": "Ottawa South"
          }
        ],
        "pollDivisionIds": [
          10140659
        ],
        "postalCode": "K1V0H1",
        "streetName": "BAYCREST",
        "streetDirectionId": null,
        "streetTypeId": "DR",
        "placeName": "OTTAWA",
        "streetNameDisplayText": "BAYCREST DR, OTTAWA"
      }
    ]
  },
  {
    "postal": "K1V9W3",
    "result": [
      {
        "electoralDistricts": [
          {
            "election": null,
            "id": 79,
            "name": "Ottawa South"
          }
        ],
        "pollDivisionIds": [
          10140677
        ],
        "postalCode": "K1V9W3",
        "streetName": "UPLANDS",
        "streetDirectionId": null,
        "streetTypeId": "DR",
        "placeName": "OTTAWA",
        "streetNameDisplayText": "UPLANDS DR, OTTAWA"
      }
    ]
  },
  {
    "postal": "K1V6P1",
    "result": [
      {
        "electoralDistricts": [
          {
            "election": null,
            "id": 79,
            "name": "Ottawa South"
          }
        ],
        "pollDivisionIds": [
          10140669
        ],
        "postalCode": "K1V6P1",
        "streetName": "HARKNESS",
        "streetDirectionId": null,
        "streetTypeId": "AVE",
        "placeName": "OTTAWA",
        "streetNameDisplayText": "HARKNESS AVE, OTTAWA"
      }
    ]
  },
  {
    "postal": "K1V7G2",
    "result": [
      {
        "electoralDistricts": [
          {
            "election": null,
            "id": 79,
            "name": "Ottawa South"
          }
        ],
        "pollDivisionIds": [
          10140672
        ],
        "postalCode": "K1V7G2",
        "streetName": "FIELDING",
        "streetDirectionId": null,
        "streetTypeId": "DR",
        "placeName": "OTTAWA",
        "streetNameDisplayText": "FIELDING DR, OTTAWA"
      }
    ]
  },
  {
    "postal": "K1V4J9",
    "result": []
  },
  {
    "postal": "K1V9E4",
    "result": [
      {
        "electoralDistricts": [
          {
            "election": null,
            "id": 79,
            "name": "Ottawa South"
          }
        ],
        "pollDivisionIds": [
          10140674
        ],
        "postalCode": "K1V9E4",
        "streetName": "PLANTE",
        "streetDirectionId": null,
        "streetTypeId": "DR",
        "placeName": "OTTAWA",
        "streetNameDisplayText": "PLANTE DR, OTTAWA"
      }
    ]
  },
  {
    "postal": "K1V8H0",
    "result": []
  },
  {
    "postal": "K1V4M7",
    "result": []
  },
  {
    "postal": "K1V2G9",
    "result": [
      {
        "electoralDistricts": [
          {
            "election": null,
            "id": 17,
            "name": "Carleton"
          }
        ],
        "pollDivisionIds": [
          10137497
        ],
        "postalCode": "K1V2G9",
        "streetName": "BOW VALLEY",
        "streetDirectionId": null,
        "streetTypeId": "DR",
        "placeName": "GLOUCESTER",
        "streetNameDisplayText": "BOW VALLEY DR, GLOUCESTER"
      }
    ]
  },
  {
    "postal": "K1V8T2",
    "result": []
  },
  {
    "postal": "K1V7G7",
    "result": [
      {
        "electoralDistricts": [
          {
            "election": null,
            "id": 79,
            "name": "Ottawa South"
          },
          {
            "election": null,
            "id": 17,
            "name": "Carleton"
          }
        ],
        "pollDivisionIds": [
          10140672,
          10137496
        ],
        "postalCode": "K1V7G7",
        "streetName": "FIELDING",
        "streetDirectionId": null,
        "streetTypeId": "DR",
        "placeName": "OTTAWA",
        "streetNameDisplayText": "FIELDING DR, OTTAWA"
      }
    ]
  },
  {
    "postal": "K1V4Z3",
    "result": []
  },
  {
    "postal": "K1V5B3",
    "result": []
  },
  {
    "postal": "K1V1S7",
    "result": [
      {
        "electoralDistricts": [
          {
            "election": null,
            "id": 17,
            "name": "Carleton"
          }
        ],
        "pollDivisionIds": [
          10137494
        ],
        "postalCode": "K1V1S7",
        "streetName": "SHORELINE",
        "streetDirectionId": null,
        "streetTypeId": "DR",
        "placeName": "GLOUCESTER",
        "streetNameDisplayText": "SHORELINE DR, GLOUCESTER"
      },
      {
        "electoralDistricts": [
          {
            "election": null,
            "id": 17,
            "name": "Carleton"
          }
        ],
        "pollDivisionIds": [
          10137494
        ],
        "postalCode": "K1V1S7",
        "streetName": "WILD SHORE",
        "streetDirectionId": null,
        "streetTypeId": "CRES",
        "placeName": "GLOUCESTER",
        "streetNameDisplayText": "WILD SHORE CRES, GLOUCESTER"
      }
    ]
  },
  {
    "postal": "K1V2N7",
    "result": []
  },
  {
    "postal": "K1V0H8",
    "result": [
      {
        "electoralDistricts": [
          {
            "election": null,
            "id": 79,
            "name": "Ottawa South"
          }
        ],
        "pollDivisionIds": [
          10140662
        ],
        "postalCode": "K1V0H8",
        "streetName": "WALKELY",
        "streetDirectionId": null,
        "streetTypeId": "RD",
        "placeName": "OTTAWA",
        "streetNameDisplayText": "WALKELY RD, OTTAWA"
      },
      {
        "electoralDistricts": [
          {
            "election": null,
            "id": 79,
            "name": "Ottawa South"
          }
        ],
        "pollDivisionIds": [
          10140662
        ],
        "postalCode": "K1V0H8",
        "streetName": "WALKLEY",
        "streetDirectionId": null,
        "streetTypeId": "RD",
        "placeName": "OTTAWA",
        "streetNameDisplayText": "WALKLEY RD, OTTAWA"
      }
    ]
  },
  {
    "postal": "K1V7Z4",
    "result": [
      {
        "electoralDistricts": [
          {
            "election": null,
            "id": 79,
            "name": "Ottawa South"
          }
        ],
        "pollDivisionIds": [
          10140657
        ],
        "postalCode": "K1V7Z4",
        "streetName": "BANK",
        "streetDirectionId": null,
        "streetTypeId": "ST",
        "placeName": "OTTAWA",
        "streetNameDisplayText": "BANK ST, OTTAWA"
      }
    ]
  },
  {
    "postal": "K1V7B1",
    "result": [
      {
        "electoralDistricts": [
          {
            "election": null,
            "id": 79,
            "name": "Ottawa South"
          }
        ],
        "pollDivisionIds": [
          10140672
        ],
        "postalCode": "K1V7B1",
        "streetName": "OTTERSON",
        "streetDirectionId": null,
        "streetTypeId": "DR",
        "placeName": "OTTAWA",
        "streetNameDisplayText": "OTTERSON DR, OTTAWA"
      }
    ]
  },
  {
    "postal": "K1V7P8",
    "result": [
      {
        "electoralDistricts": [
          {
            "election": null,
            "id": 79,
            "name": "Ottawa South"
          }
        ],
        "pollDivisionIds": [
          10140659
        ],
        "postalCode": "K1V7P8",
        "streetName": "BAYCREST",
        "streetDirectionId": null,
        "streetTypeId": "DR",
        "placeName": "OTTAWA",
        "streetNameDisplayText": "BAYCREST DR, OTTAWA"
      }
    ]
  },
  {
    "postal": "K1V7N0",
    "result": []
  },
  {
    "postal": "K1V3Y5",
    "result": []
  },
  {
    "postal": "K1V6K1",
    "result": [
      {
        "electoralDistricts": [
          {
            "election": null,
            "id": 79,
            "name": "Ottawa South"
          }
        ],
        "pollDivisionIds": [
          10140656
        ],
        "postalCode": "K1V6K1",
        "streetName": "NEEDHAM",
        "streetDirectionId": null,
        "streetTypeId": "CRES",
        "placeName": "OTTAWA",
        "streetNameDisplayText": "NEEDHAM CRES, OTTAWA"
      }
    ]
  },
  {
    "postal": "K1V9X5",
    "result": [
      {
        "electoralDistricts": [
          {
            "election": null,
            "id": 79,
            "name": "Ottawa South"
          }
        ],
        "pollDivisionIds": [
          10140673
        ],
        "postalCode": "K1V9X5",
        "streetName": "MCCARTHY",
        "streetDirectionId": null,
        "streetTypeId": "RD",
        "placeName": "OTTAWA",
        "streetNameDisplayText": "MCCARTHY RD, OTTAWA"
      }
    ]
  },
  {
    "postal": "K1V7S5",
    "result": [
      {
        "electoralDistricts": [
          {
            "election": null,
            "id": 79,
            "name": "Ottawa South"
          }
        ],
        "pollDivisionIds": [
          10140678
        ],
        "postalCode": "K1V7S5",
        "streetName": "CLEARWATER",
        "streetDirectionId": null,
        "streetTypeId": "CRES",
        "placeName": "OTTAWA",
        "streetNameDisplayText": "CLEARWATER CRES, OTTAWA"
      }
    ]
  },
  {
    "postal": "K1V0A4",
    "result": [
      {
        "electoralDistricts": [
          {
            "election": null,
            "id": 79,
            "name": "Ottawa South"
          }
        ],
        "pollDivisionIds": [
          10140677
        ],
        "postalCode": "K1V0A4",
        "streetName": "UPLANDS",
        "streetDirectionId": null,
        "streetTypeId": "DR",
        "placeName": "OTTAWA",
        "streetNameDisplayText": "UPLANDS DR, OTTAWA"
      }
    ]
  },
  {
    "postal": "K1V4T5",
    "result": []
  },
  {
    "postal": "K1V5K1",
    "result": []
  },
  {
    "postal": "K1V0Z9",
    "result": [
      {
        "electoralDistricts": [
          {
            "election": null,
            "id": 17,
            "name": "Carleton"
          }
        ],
        "pollDivisionIds": [
          10137494
        ],
        "postalCode": "K1V0Z9",
        "streetName": "TRAILGATE",
        "streetDirectionId": null,
        "streetTypeId": "ST",
        "placeName": "GLOUCESTER",
        "streetNameDisplayText": "TRAILGATE ST, GLOUCESTER"
      }
    ]
  },
  {
    "postal": "K1V7T2",
    "result": [
      {
        "electoralDistricts": [
          {
            "election": null,
            "id": 79,
            "name": "Ottawa South"
          }
        ],
        "pollDivisionIds": [
          10140657
        ],
        "postalCode": "K1V7T2",
        "streetName": "ALTA VISTA",
        "streetDirectionId": null,
        "streetTypeId": "DR",
        "placeName": "OTTAWA",
        "streetNameDisplayText": "ALTA VISTA DR, OTTAWA"
      }
    ]
  },
  {
    "postal": "K1V1L5",
    "result": [
      {
        "electoralDistricts": [
          {
            "election": null,
            "id": 17,
            "name": "Carleton"
          }
        ],
        "pollDivisionIds": [
          10137494
        ],
        "postalCode": "K1V1L5",
        "streetName": "RAINFOREST",
        "streetDirectionId": null,
        "streetTypeId": "DR",
        "placeName": "GLOUCESTER",
        "streetNameDisplayText": "RAINFOREST DR, GLOUCESTER"
      },
      {
        "electoralDistricts": [
          {
            "election": null,
            "id": 17,
            "name": "Carleton"
          }
        ],
        "pollDivisionIds": [
          10137494
        ],
        "postalCode": "K1V1L5",
        "streetName": "TOTEM",
        "streetDirectionId": null,
        "streetTypeId": "DR",
        "placeName": "GLOUCESTER",
        "streetNameDisplayText": "TOTEM DR, GLOUCESTER"
      }
    ]
  },
  {
    "postal": "K1V3N5",
    "result": []
  },
  {
    "postal": "K1V6H4",
    "result": [
      {
        "electoralDistricts": [
          {
            "election": null,
            "id": 79,
            "name": "Ottawa South"
          }
        ],
        "pollDivisionIds": [
          10140656
        ],
        "postalCode": "K1V6H4",
        "streetName": "GREGG",
        "streetDirectionId": null,
        "streetTypeId": "ST",
        "placeName": "OTTAWA",
        "streetNameDisplayText": "GREGG ST, OTTAWA"
      }
    ]
  },
  {
    "postal": "K1V5A5",
    "result": []
  },
  {
    "postal": "K1V3R9",
    "result": []
  },
  {
    "postal": "K1V7L8",
    "result": [
      {
        "electoralDistricts": [
          {
            "election": null,
            "id": 79,
            "name": "Ottawa South"
          }
        ],
        "pollDivisionIds": [
          10140671
        ],
        "postalCode": "K1V7L8",
        "streetName": "CURTIS",
        "streetDirectionId": null,
        "streetTypeId": "PVT",
        "placeName": "GLOUCESTER",
        "streetNameDisplayText": "CURTIS PVT, GLOUCESTER"
      }
    ]
  },
  {
    "postal": "K1V6T6",
    "result": [
      {
        "electoralDistricts": [
          {
            "election": null,
            "id": 79,
            "name": "Ottawa South"
          }
        ],
        "pollDivisionIds": [
          10140665
        ],
        "postalCode": "K1V6T6",
        "streetName": "NOTTING HILL",
        "streetDirectionId": null,
        "streetTypeId": "AVE",
        "placeName": "OTTAWA",
        "streetNameDisplayText": "NOTTING HILL AVE, OTTAWA"
      }
    ]
  },
  {
    "postal": "K1V7Y7",
    "result": []
  },
  {
    "postal": "K1V3M8",
    "result": []
  },
  {
    "postal": "K1V2E0",
    "result": []
  },
  {
    "postal": "K1V4B5",
    "result": []
  },
  {
    "postal": "K1V1J3",
    "result": [
      {
        "electoralDistricts": [
          {
            "election": null,
            "id": 79,
            "name": "Ottawa South"
          }
        ],
        "pollDivisionIds": [
          10140664
        ],
        "postalCode": "K1V1J3",
        "streetName": "BROOKFIELD",
        "streetDirectionId": null,
        "streetTypeId": "RD",
        "placeName": "OTTAWA",
        "streetNameDisplayText": "BROOKFIELD RD, OTTAWA"
      }
    ]
  },
  {
    "postal": "K1V5S6",
    "result": []
  },
  {
    "postal": "K1V8P7",
    "result": [
      {
        "electoralDistricts": [
          {
            "election": null,
            "id": 79,
            "name": "Ottawa South"
          }
        ],
        "pollDivisionIds": [
          10140671
        ],
        "postalCode": "K1V8P7",
        "streetName": "WOLVERINE",
        "streetDirectionId": null,
        "streetTypeId": "PVT",
        "placeName": "GLOUCESTER",
        "streetNameDisplayText": "WOLVERINE PVT, GLOUCESTER"
      }
    ]
  },
  {
    "postal": "K1V7S7",
    "result": [
      {
        "electoralDistricts": [
          {
            "election": null,
            "id": 79,
            "name": "Ottawa South"
          }
        ],
        "pollDivisionIds": [
          10140678
        ],
        "postalCode": "K1V7S7",
        "streetName": "KODIAK",
        "streetDirectionId": null,
        "streetTypeId": "ST",
        "placeName": "OTTAWA",
        "streetNameDisplayText": "KODIAK ST, OTTAWA"
      }
    ]
  },
  {
    "postal": "K1V4C2",
    "result": []
  },
  {
    "postal": "K1V5Y0",
    "result": []
  },
  {
    "postal": "K1V2V7",
    "result": []
  },
  {
    "postal": "K1V8P5",
    "result": [
      {
        "electoralDistricts": [
          {
            "election": null,
            "id": 79,
            "name": "Ottawa South"
          }
        ],
        "pollDivisionIds": [
          10140671
        ],
        "postalCode": "K1V8P5",
        "streetName": "HAYLETT",
        "streetDirectionId": null,
        "streetTypeId": "PVT",
        "placeName": "GLOUCESTER",
        "streetNameDisplayText": "HAYLETT PVT, GLOUCESTER"
      }
    ]
  },
  {
    "postal": "K1V5P5",
    "result": []
  },
  {
    "postal": "K1V5Z0",
    "result": []
  },
  {
    "postal": "K1V9B0",
    "result": []
  },
  {
    "postal": "K1V1L0",
    "result": []
  },
  {
    "postal": "K1V0B5",
    "result": []
  },
  {
    "postal": "K1V3L2",
    "result": []
  },
  {
    "postal": "K1V3B7",
    "result": []
  },
  {
    "postal": "K1V8L1",
    "result": [
      {
        "electoralDistricts": [
          {
            "election": null,
            "id": 79,
            "name": "Ottawa South"
          }
        ],
        "pollDivisionIds": [
          10140672
        ],
        "postalCode": "K1V8L1",
        "streetName": "COWAN",
        "streetDirectionId": null,
        "streetTypeId": "CRES",
        "placeName": "OTTAWA",
        "streetNameDisplayText": "COWAN CRES, OTTAWA"
      }
    ]
  },
  {
    "postal": "K1V5M4",
    "result": []
  },
  {
    "postal": "K1V4G9",
    "result": []
  },
  {
    "postal": "K1V0P0",
    "result": []
  },
  {
    "postal": "K1V8G2",
    "result": [
      {
        "electoralDistricts": [
          {
            "election": null,
            "id": 79,
            "name": "Ottawa South"
          }
        ],
        "pollDivisionIds": [
          10140656
        ],
        "postalCode": "K1V8G2",
        "streetName": "CARLSEN",
        "streetDirectionId": null,
        "streetTypeId": "AVE",
        "placeName": "OTTAWA",
        "streetNameDisplayText": "CARLSEN AVE, OTTAWA"
      }
    ]
  },
  {
    "postal": "K1V1V9",
    "result": [
      {
        "electoralDistricts": [
          {
            "election": null,
            "id": 17,
            "name": "Carleton"
          }
        ],
        "pollDivisionIds": [
          10137497
        ],
        "postalCode": "K1V1V9",
        "streetName": "VERMILLION",
        "streetDirectionId": null,
        "streetTypeId": "DR",
        "placeName": "GLOUCESTER",
        "streetNameDisplayText": "VERMILLION DR, GLOUCESTER"
      }
    ]
  },
  {
    "postal": "K1V8N8",
    "result": [
      {
        "electoralDistricts": [
          {
            "election": null,
            "id": 79,
            "name": "Ottawa South"
          }
        ],
        "pollDivisionIds": [
          10140672
        ],
        "postalCode": "K1V8N8",
        "streetName": "RIVERSIDE",
        "streetDirectionId": null,
        "streetTypeId": "DR",
        "placeName": "OTTAWA",
        "streetNameDisplayText": "RIVERSIDE DR, OTTAWA"
      }
    ]
  },
  {
    "postal": "K1V6S8",
    "result": [
      {
        "electoralDistricts": [
          {
            "election": null,
            "id": 79,
            "name": "Ottawa South"
          }
        ],
        "pollDivisionIds": [
          10140665
        ],
        "postalCode": "K1V6S8",
        "streetName": "SURREY",
        "streetDirectionId": null,
        "streetTypeId": "AVE",
        "placeName": "OTTAWA",
        "streetNameDisplayText": "SURREY AVE, OTTAWA"
      }
    ]
  },
  {
    "postal": "K1V8H2",
    "result": [
      {
        "electoralDistricts": [
          {
            "election": null,
            "id": 79,
            "name": "Ottawa South"
          }
        ],
        "pollDivisionIds": [
          10140669
        ],
        "postalCode": "K1V8H2",
        "streetName": "LINTON",
        "streetDirectionId": null,
        "streetTypeId": "RD",
        "placeName": "OTTAWA",
        "streetNameDisplayText": "LINTON RD, OTTAWA"
      }
    ]
  },
  {
    "postal": "K1V5R8",
    "result": []
  },
  {
    "postal": "K1V5L4",
    "result": []
  },
  {
    "postal": "K1V9E1",
    "result": [
      {
        "electoralDistricts": [
          {
            "election": null,
            "id": 79,
            "name": "Ottawa South"
          }
        ],
        "pollDivisionIds": [
          10140674
        ],
        "postalCode": "K1V9E1",
        "streetName": "PLANTE",
        "streetDirectionId": null,
        "streetTypeId": "DR",
        "placeName": "OTTAWA",
        "streetNameDisplayText": "PLANTE DR, OTTAWA"
      }
    ]
  },
  {
    "postal": "K1V1C4",
    "result": [
      {
        "electoralDistricts": [
          {
            "election": null,
            "id": 17,
            "name": "Carleton"
          }
        ],
        "pollDivisionIds": [
          10137494
        ],
        "postalCode": "K1V1C4",
        "streetName": "RIVERSIDE",
        "streetDirectionId": null,
        "streetTypeId": "DR",
        "placeName": "OTTAWA",
        "streetNameDisplayText": "RIVERSIDE DR, OTTAWA"
      }
    ]
  },
  {
    "postal": "K1V8W5",
    "result": []
  },
  {
    "postal": "K1V1Y4",
    "result": [
      {
        "electoralDistricts": [
          {
            "election": null,
            "id": 17,
            "name": "Carleton"
          }
        ],
        "pollDivisionIds": [
          10137494
        ],
        "postalCode": "K1V1Y4",
        "streetName": "HONEYWOOD",
        "streetDirectionId": null,
        "streetTypeId": "CRT",
        "placeName": "GLOUCESTER",
        "streetNameDisplayText": "HONEYWOOD CRT, GLOUCESTER"
      },
      {
        "electoralDistricts": [
          {
            "election": null,
            "id": 17,
            "name": "Carleton"
          }
        ],
        "pollDivisionIds": [
          10137494
        ],
        "postalCode": "K1V1Y4",
        "streetName": "SUGAR MAPLE",
        "streetDirectionId": null,
        "streetTypeId": "DR",
        "placeName": "GLOUCESTER",
        "streetNameDisplayText": "SUGAR MAPLE DR, GLOUCESTER"
      }
    ]
  },
  {
    "postal": "K1V1C0",
    "result": []
  },
  {
    "postal": "K1V2J2",
    "result": [
      {
        "electoralDistricts": [
          {
            "election": null,
            "id": 17,
            "name": "Carleton"
          }
        ],
        "pollDivisionIds": [
          10137497
        ],
        "postalCode": "K1V2J2",
        "streetName": "NAKINA",
        "streetDirectionId": null,
        "streetTypeId": "WAY",
        "placeName": "GLOUCESTER",
        "streetNameDisplayText": "NAKINA WAY, GLOUCESTER"
      },
      {
        "electoralDistricts": [
          {
            "election": null,
            "id": 17,
            "name": "Carleton"
          }
        ],
        "pollDivisionIds": [
          10137497
        ],
        "postalCode": "K1V2J2",
        "streetName": "NORTH BLUFF",
        "streetDirectionId": null,
        "streetTypeId": "DR",
        "placeName": "GLOUCESTER",
        "streetNameDisplayText": "NORTH BLUFF DR, GLOUCESTER"
      }
    ]
  },
  {
    "postal": "K1V2J0",
    "result": []
  },
  {
    "postal": "K1V7A3",
    "result": [
      {
        "electoralDistricts": [
          {
            "election": null,
            "id": 79,
            "name": "Ottawa South"
          }
        ],
        "pollDivisionIds": [
          10140672
        ],
        "postalCode": "K1V7A3",
        "streetName": "SOUTHMORE",
        "streetDirectionId": "W",
        "streetTypeId": "DR",
        "placeName": "OTTAWA",
        "streetNameDisplayText": "SOUTHMORE DR W, OTTAWA"
      }
    ]
  },
  {
    "postal": "K1V8M1",
    "result": [
      {
        "electoralDistricts": [
          {
            "election": null,
            "id": 79,
            "name": "Ottawa South"
          }
        ],
        "pollDivisionIds": [
          10140664
        ],
        "postalCode": "K1V8M1",
        "streetName": "FLANNERY",
        "streetDirectionId": null,
        "streetTypeId": "DR",
        "placeName": "OTTAWA",
        "streetNameDisplayText": "FLANNERY DR, OTTAWA"
      }
    ]
  },
  {
    "postal": "K1V7T9",
    "result": [
      {
        "electoralDistricts": [
          {
            "election": null,
            "id": 79,
            "name": "Ottawa South"
          }
        ],
        "pollDivisionIds": [
          10140657
        ],
        "postalCode": "K1V7T9",
        "streetName": "GRASMERE",
        "streetDirectionId": null,
        "streetTypeId": "CRES",
        "placeName": "OTTAWA",
        "streetNameDisplayText": "GRASMERE CRES, OTTAWA"
      }
    ]
  },
  {
    "postal": "K1V6C0",
    "result": []
  },
  {
    "postal": "K1V7X1",
    "result": [
      {
        "electoralDistricts": [
          {
            "election": null,
            "id": 79,
            "name": "Ottawa South"
          }
        ],
        "pollDivisionIds": [
          10140665
        ],
        "postalCode": "K1V7X1",
        "streetName": "BANFF",
        "streetDirectionId": null,
        "streetTypeId": "AVE",
        "placeName": "OTTAWA",
        "streetNameDisplayText": "BANFF AVE, OTTAWA"
      }
    ]
  },
  {
    "postal": "K1V0G1",
    "result": [
      {
        "electoralDistricts": [
          {
            "election": null,
            "id": 79,
            "name": "Ottawa South"
          }
        ],
        "pollDivisionIds": [
          10140673
        ],
        "postalCode": "K1V0G1",
        "streetName": "PAUL ANKA",
        "streetDirectionId": null,
        "streetTypeId": "DR",
        "placeName": "OTTAWA",
        "streetNameDisplayText": "PAUL ANKA DR, OTTAWA"
      }
    ]
  },
  {
    "postal": "K1V4X2",
    "result": []
  },
  {
    "postal": "K1V0N6",
    "result": [
      {
        "electoralDistricts": [
          {
            "election": null,
            "id": 79,
            "name": "Ottawa South"
          }
        ],
        "pollDivisionIds": [
          10140679
        ],
        "postalCode": "K1V0N6",
        "streetName": "MOSSWOOD",
        "streetDirectionId": null,
        "streetTypeId": "CRT",
        "placeName": "OTTAWA",
        "streetNameDisplayText": "MOSSWOOD CRT, OTTAWA"
      },
      {
        "electoralDistricts": [
          {
            "election": null,
            "id": 79,
            "name": "Ottawa South"
          }
        ],
        "pollDivisionIds": [
          10140679
        ],
        "postalCode": "K1V0N6",
        "streetName": "WISTERIA",
        "streetDirectionId": null,
        "streetTypeId": "CRES",
        "placeName": "OTTAWA",
        "streetNameDisplayText": "WISTERIA CRES, OTTAWA"
      }
    ]
  },
  {
    "postal": "K1V8E3",
    "result": [
      {
        "electoralDistricts": [
          {
            "election": null,
            "id": 79,
            "name": "Ottawa South"
          }
        ],
        "pollDivisionIds": [
          10140656
        ],
        "postalCode": "K1V8E3",
        "streetName": "CLEMENTINE",
        "streetDirectionId": null,
        "streetTypeId": "BLVD",
        "placeName": "OTTAWA",
        "streetNameDisplayText": "CLEMENTINE BLVD, OTTAWA"
      }
    ]
  },
  {
    "postal": "K1V5S8",
    "result": []
  },
  {
    "postal": "K1V0R0",
    "result": []
  },
  {
    "postal": "K1V6J6",
    "result": [
      {
        "electoralDistricts": [
          {
            "election": null,
            "id": 79,
            "name": "Ottawa South"
          }
        ],
        "pollDivisionIds": [
          10140656
        ],
        "postalCode": "K1V6J6",
        "streetName": "DARTMOUTH",
        "streetDirectionId": null,
        "streetTypeId": "AVE",
        "placeName": "OTTAWA",
        "streetNameDisplayText": "DARTMOUTH AVE, OTTAWA"
      }
    ]
  },
  {
    "postal": "K1V4B4",
    "result": []
  },
  {
    "postal": "K1V7E3",
    "result": [
      {
        "electoralDistricts": [
          {
            "election": null,
            "id": 79,
            "name": "Ottawa South"
          }
        ],
        "pollDivisionIds": [
          10140672
        ],
        "postalCode": "K1V7E3",
        "streetName": "LEOPOLDS",
        "streetDirectionId": null,
        "streetTypeId": "DR",
        "placeName": "OTTAWA",
        "streetNameDisplayText": "LEOPOLDS DR, OTTAWA"
      }
    ]
  },
  {
    "postal": "K1V3N6",
    "result": []
  },
  {
    "postal": "K1V3X6",
    "result": []
  },
  {
    "postal": "K1V8L0",
    "result": []
  },
  {
    "postal": "K1V8N1",
    "result": [
      {
        "electoralDistricts": [
          {
            "election": null,
            "id": 79,
            "name": "Ottawa South"
          }
        ],
        "pollDivisionIds": [
          10140664
        ],
        "postalCode": "K1V8N1",
        "streetName": "EGAN",
        "streetDirectionId": null,
        "streetTypeId": "RD",
        "placeName": "OTTAWA",
        "streetNameDisplayText": "EGAN RD, OTTAWA"
      }
    ]
  },
  {
    "postal": "K1V4J0",
    "result": []
  },
  {
    "postal": "K1V0X7",
    "result": [
      {
        "electoralDistricts": [
          {
            "election": null,
            "id": 79,
            "name": "Ottawa South"
          }
        ],
        "pollDivisionIds": [
          10140705
        ],
        "postalCode": "K1V0X7",
        "streetName": "DARLINGTON",
        "streetDirectionId": null,
        "streetTypeId": "PVT",
        "placeName": "OTTAWA",
        "streetNameDisplayText": "DARLINGTON PVT, OTTAWA"
      }
    ]
  },
  {
    "postal": "K1V6S4",
    "result": [
      {
        "electoralDistricts": [
          {
            "election": null,
            "id": 79,
            "name": "Ottawa South"
          }
        ],
        "pollDivisionIds": [
          10140665
        ],
        "postalCode": "K1V6S4",
        "streetName": "BROOKLINE",
        "streetDirectionId": null,
        "streetTypeId": "AVE",
        "placeName": "OTTAWA",
        "streetNameDisplayText": "BROOKLINE AVE, OTTAWA"
      }
    ]
  },
  {
    "postal": "K1V0Z0",
    "result": []
  },
  {
    "postal": "K1V9X8",
    "result": [
      {
        "electoralDistricts": [
          {
            "election": null,
            "id": 79,
            "name": "Ottawa South"
          }
        ],
        "pollDivisionIds": [
          10140677
        ],
        "postalCode": "K1V9X8",
        "streetName": "GILLESPIE",
        "streetDirectionId": null,
        "streetTypeId": "CRES",
        "placeName": "OTTAWA",
        "streetNameDisplayText": "GILLESPIE CRES, OTTAWA"
      }
    ]
  },
  {
    "postal": "K1V3H3",
    "result": []
  },
  {
    "postal": "K1V7S2",
    "result": [
      {
        "electoralDistricts": [
          {
            "election": null,
            "id": 79,
            "name": "Ottawa South"
          }
        ],
        "pollDivisionIds": [
          10140678
        ],
        "postalCode": "K1V7S2",
        "streetName": "CLEARWATER",
        "streetDirectionId": null,
        "streetTypeId": "CRES",
        "placeName": "OTTAWA",
        "streetNameDisplayText": "CLEARWATER CRES, OTTAWA"
      }
    ]
  },
  {
    "postal": "K1V3T3",
    "result": []
  },
  {
    "postal": "K1V9P3",
    "result": [
      {
        "electoralDistricts": [
          {
            "election": null,
            "id": 79,
            "name": "Ottawa South"
          }
        ],
        "pollDivisionIds": [
          10140679
        ],
        "postalCode": "K1V9P3",
        "streetName": "SHANEGAL",
        "streetDirectionId": null,
        "streetTypeId": "CRES",
        "placeName": "GLOUCESTER",
        "streetNameDisplayText": "SHANEGAL CRES, GLOUCESTER"
      },
      {
        "electoralDistricts": [
          {
            "election": null,
            "id": 79,
            "name": "Ottawa South"
          }
        ],
        "pollDivisionIds": [
          10140679
        ],
        "postalCode": "K1V9P3",
        "streetName": "SHANEGAL",
        "streetDirectionId": null,
        "streetTypeId": "CRES",
        "placeName": "OTTAWA",
        "streetNameDisplayText": "SHANEGAL CRES, OTTAWA"
      }
    ]
  },
  {
    "postal": "K1V4H8",
    "result": []
  },
  {
    "postal": "K1V6R1",
    "result": [
      {
        "electoralDistricts": [
          {
            "election": null,
            "id": 79,
            "name": "Ottawa South"
          }
        ],
        "pollDivisionIds": [
          10140669
        ],
        "postalCode": "K1V6R1",
        "streetName": "WALKLEY",
        "streetDirectionId": null,
        "streetTypeId": "RD",
        "placeName": "OTTAWA",
        "streetNameDisplayText": "WALKLEY RD, OTTAWA"
      }
    ]
  },
  {
    "postal": "K1V1S0",
    "result": []
  },
  {
    "postal": "K1V3W8",
    "result": []
  },
  {
    "postal": "K1V4S3",
    "result": []
  },
  {
    "postal": "K1V1B6",
    "result": []
  },
  {
    "postal": "K1V8R3",
    "result": [
      {
        "electoralDistricts": [
          {
            "election": null,
            "id": 79,
            "name": "Ottawa South"
          }
        ],
        "pollDivisionIds": [
          10140671
        ],
        "postalCode": "K1V8R3",
        "streetName": "CLEMENTS",
        "streetDirectionId": null,
        "streetTypeId": "PVT",
        "placeName": "GLOUCESTER",
        "streetNameDisplayText": "CLEMENTS PVT, GLOUCESTER"
      }
    ]
  },
  {
    "postal": "K1V4V9",
    "result": []
  },
  {
    "postal": "K1V9W4",
    "result": [
      {
        "electoralDistricts": [
          {
            "election": null,
            "id": 79,
            "name": "Ottawa South"
          }
        ],
        "pollDivisionIds": [
          10140677
        ],
        "postalCode": "K1V9W4",
        "streetName": "FOXRUN",
        "streetDirectionId": null,
        "streetTypeId": "LANE",
        "placeName": "OTTAWA",
        "streetNameDisplayText": "FOXRUN LANE, OTTAWA"
      }
    ]
  },
  {
    "postal": "K1V3T4",
    "result": []
  },
  {
    "postal": "K1V5C7",
    "result": []
  },
  {
    "postal": "K1V3Y1",
    "result": []
  },
  {
    "postal": "K1V5V0",
    "result": []
  },
  {
    "postal": "K1V8G8",
    "result": [
      {
        "electoralDistricts": [
          {
            "election": null,
            "id": 79,
            "name": "Ottawa South"
          }
        ],
        "pollDivisionIds": [
          10140656
        ],
        "postalCode": "K1V8G8",
        "streetName": "JUNCTION",
        "streetDirectionId": null,
        "streetTypeId": "AVE",
        "placeName": "OTTAWA",
        "streetNameDisplayText": "JUNCTION AVE, OTTAWA"
      }
    ]
  },
  {
    "postal": "K1V8B1",
    "result": [
      {
        "electoralDistricts": [
          {
            "election": null,
            "id": 79,
            "name": "Ottawa South"
          }
        ],
        "pollDivisionIds": [
          10140656
        ],
        "postalCode": "K1V8B1",
        "streetName": "TRAVERSE",
        "streetDirectionId": null,
        "streetTypeId": "DR",
        "placeName": "OTTAWA",
        "streetNameDisplayText": "TRAVERSE DR, OTTAWA"
      }
    ]
  },
  {
    "postal": "K1V4P5",
    "result": []
  },
  {
    "postal": "K1V7B2",
    "result": [
      {
        "electoralDistricts": [
          {
            "election": null,
            "id": 79,
            "name": "Ottawa South"
          }
        ],
        "pollDivisionIds": [
          10140672
        ],
        "postalCode": "K1V7B2",
        "streetName": "OTTERSON",
        "streetDirectionId": null,
        "streetTypeId": "DR",
        "placeName": "OTTAWA",
        "streetNameDisplayText": "OTTERSON DR, OTTAWA"
      }
    ]
  },
  {
    "postal": "K1V0R2",
    "result": [
      {
        "electoralDistricts": [
          {
            "election": null,
            "id": 79,
            "name": "Ottawa South"
          }
        ],
        "pollDivisionIds": [
          10140677
        ],
        "postalCode": "K1V0R2",
        "streetName": "HUNTWOOD",
        "streetDirectionId": null,
        "streetTypeId": "CRT",
        "placeName": "OTTAWA",
        "streetNameDisplayText": "HUNTWOOD CRT, OTTAWA"
      }
    ]
  },
  {
    "postal": "K1V4M4",
    "result": []
  },
  {
    "postal": "K1V7M4",
    "result": [
      {
        "electoralDistricts": [
          {
            "election": null,
            "id": 79,
            "name": "Ottawa South"
          }
        ],
        "pollDivisionIds": [
          10140671
        ],
        "postalCode": "K1V7M4",
        "streetName": "TYLEE",
        "streetDirectionId": null,
        "streetTypeId": "PVT",
        "placeName": "GLOUCESTER",
        "streetNameDisplayText": "TYLEE PVT, GLOUCESTER"
      }
    ]
  },
  {
    "postal": "K1V9S7",
    "result": [
      {
        "electoralDistricts": [
          {
            "election": null,
            "id": 79,
            "name": "Ottawa South"
          }
        ],
        "pollDivisionIds": [
          10140664
        ],
        "postalCode": "K1V9S7",
        "streetName": "SPRINGLAND",
        "streetDirectionId": null,
        "streetTypeId": "DR",
        "placeName": "OTTAWA",
        "streetNameDisplayText": "SPRINGLAND DR, OTTAWA"
      }
    ]
  },
  {
    "postal": "K1V5Z7",
    "result": []
  },
  {
    "postal": "K1V7J7",
    "result": [
      {
        "electoralDistricts": [
          {
            "election": null,
            "id": 79,
            "name": "Ottawa South"
          }
        ],
        "pollDivisionIds": [
          10140678
        ],
        "postalCode": "K1V7J7",
        "streetName": "VIKING",
        "streetDirectionId": null,
        "streetTypeId": "DR",
        "placeName": "OTTAWA",
        "streetNameDisplayText": "VIKING DR, OTTAWA"
      }
    ]
  },
  {
    "postal": "K1V8R8",
    "result": []
  },
  {
    "postal": "K1V9X1",
    "result": [
      {
        "electoralDistricts": [
          {
            "election": null,
            "id": 79,
            "name": "Ottawa South"
          }
        ],
        "pollDivisionIds": [
          10140664
        ],
        "postalCode": "K1V9X1",
        "streetName": "MOONEY'S BAY",
        "streetDirectionId": null,
        "streetTypeId": "PL",
        "placeName": "OTTAWA",
        "streetNameDisplayText": "MOONEY'S BAY PL, OTTAWA"
      }
    ]
  },
  {
    "postal": "K1V5M9",
    "result": []
  },
  {
    "postal": "K1V9B4",
    "result": []
  },
  {
    "postal": "K1V0L9",
    "result": [
      {
        "electoralDistricts": [
          {
            "election": null,
            "id": 79,
            "name": "Ottawa South"
          }
        ],
        "pollDivisionIds": [
          10140677
        ],
        "postalCode": "K1V0L9",
        "streetName": "GILLESPIE",
        "streetDirectionId": null,
        "streetTypeId": "CRES",
        "placeName": "OTTAWA",
        "streetNameDisplayText": "GILLESPIE CRES, OTTAWA"
      }
    ]
  },
  {
    "postal": "K1V9G4",
    "result": [
      {
        "electoralDistricts": [
          {
            "election": null,
            "id": 79,
            "name": "Ottawa South"
          }
        ],
        "pollDivisionIds": [
          10140674
        ],
        "postalCode": "K1V9G4",
        "streetName": "MCCARTHY",
        "streetDirectionId": null,
        "streetTypeId": "RD",
        "placeName": "OTTAWA",
        "streetNameDisplayText": "MCCARTHY RD, OTTAWA"
      }
    ]
  },
  {
    "postal": "K1V1J4",
    "result": []
  },
  {
    "postal": "K1V0W6",
    "result": [
      {
        "electoralDistricts": [
          {
            "election": null,
            "id": 79,
            "name": "Ottawa South"
          }
        ],
        "pollDivisionIds": [
          10140677
        ],
        "postalCode": "K1V0W6",
        "streetName": "KIMBERWICK",
        "streetDirectionId": null,
        "streetTypeId": "CRES",
        "placeName": "OTTAWA",
        "streetNameDisplayText": "KIMBERWICK CRES, OTTAWA"
      },
      {
        "electoralDistricts": [
          {
            "election": null,
            "id": 79,
            "name": "Ottawa South"
          }
        ],
        "pollDivisionIds": [
          10140677
        ],
        "postalCode": "K1V0W6",
        "streetName": "QUINTERRA",
        "streetDirectionId": null,
        "streetTypeId": "CRT",
        "placeName": "OTTAWA",
        "streetNameDisplayText": "QUINTERRA CRT, OTTAWA"
      }
    ]
  }
]
