[
  {
    "postal": "L7R9J6",
    "result": []
  },
  {
    "postal": "L7R9Z5",
    "result": []
  },
  {
    "postal": "L7R7H8",
    "result": []
  },
  {
    "postal": "L7R0P6",
    "result": []
  },
  {
    "postal": "L7R0S7",
    "result": []
  },
  {
    "postal": "L7R8B9",
    "result": []
  },
  {
    "postal": "L7R2A6",
    "result": [
      {
        "electoralDistricts": [
          {
            "election": null,
            "id": 15,
            "name": "Burlington"
          }
        ],
        "pollDivisionIds": [
          10137351
        ],
        "postalCode": "L7R2A6",
        "streetName": "PROSPECT",
        "streetDirectionId": null,
        "streetTypeId": "ST",
        "placeName": "BURLINGTON",
        "streetNameDisplayText": "PROSPECT ST, BURLINGTON"
      }
    ]
  },
  {
    "postal": "L7R7V2",
    "result": []
  },
  {
    "postal": "L7R9P4",
    "result": []
  },
  {
    "postal": "L7R6G0",
    "result": []
  },
  {
    "postal": "L7R2K0",
    "result": []
  },
  {
    "postal": "L7R7N6",
    "result": []
  },
  {
    "postal": "L7R5R3",
    "result": []
  },
  {
    "postal": "L7R7K0",
    "result": []
  },
  {
    "postal": "L7R3R2",
    "result": []
  },
  {
    "postal": "L7R0J1",
    "result": []
  },
  {
    "postal": "L7R0B0",
    "result": []
  },
  {
    "postal": "L7R5Z2",
    "result": []
  },
  {
    "postal": "L7R7P3",
    "result": []
  },
  {
    "postal": "L7R2K3",
    "result": [
      {
        "electoralDistricts": [
          {
            "election": null,
            "id": 15,
            "name": "Burlington"
          }
        ],
        "pollDivisionIds": [
          10137353
        ],
        "postalCode": "L7R2K3",
        "streetName": "JOHN",
        "streetDirectionId": null,
        "streetTypeId": "ST",
        "placeName": "BURLINGTON",
        "streetNameDisplayText": "JOHN ST, BURLINGTON"
      }
    ]
  },
  {
    "postal": "L7R7Y6",
    "result": []
  },
  {
    "postal": "L7R1L9",
    "result": [
      {
        "electoralDistricts": [
          {
            "election": null,
            "id": 15,
            "name": "Burlington"
          }
        ],
        "pollDivisionIds": [
          10137353
        ],
        "postalCode": "L7R1L9",
        "streetName": "CAROLINE",
        "streetDirectionId": null,
        "streetTypeId": "ST",
        "placeName": "BURLINGTON",
        "streetNameDisplayText": "CAROLINE ST, BURLINGTON"
      }
    ]
  },
  {
    "postal": "L7R8T0",
    "result": []
  },
  {
    "postal": "L7R3K8",
    "result": [
      {
        "electoralDistricts": [
          {
            "election": null,
            "id": 15,
            "name": "Burlington"
          }
        ],
        "pollDivisionIds": [
          10137340
        ],
        "postalCode": "L7R3K8",
        "streetName": "GUELPH",
        "streetDirectionId": null,
        "streetTypeId": "LINE",
        "placeName": "BURLINGTON",
        "streetNameDisplayText": "GUELPH LINE, BURLINGTON"
      }
    ]
  },
  {
    "postal": "L7R5W9",
    "result": []
  },
  {
    "postal": "L7R6T9",
    "result": []
  },
  {
    "postal": "L7R4H1",
    "result": [
      {
        "electoralDistricts": [
          {
            "election": null,
            "id": 15,
            "name": "Burlington"
          }
        ],
        "pollDivisionIds": [
          10137349
        ],
        "postalCode": "L7R4H1",
        "streetName": "GLENWOOD SCHOOL",
        "streetDirectionId": null,
        "streetTypeId": "DR",
        "placeName": "BURLINGTON",
        "streetNameDisplayText": "GLENWOOD SCHOOL DR, BURLINGTON"
      }
    ]
  },
  {
    "postal": "L7R7A2",
    "result": []
  },
  {
    "postal": "L7R5G0",
    "result": []
  },
  {
    "postal": "L7R8V5",
    "result": []
  },
  {
    "postal": "L7R2Y8",
    "result": [
      {
        "electoralDistricts": [
          {
            "election": null,
            "id": 15,
            "name": "Burlington"
          }
        ],
        "pollDivisionIds": [
          10137352
        ],
        "postalCode": "L7R2Y8",
        "streetName": "NEWBOLD",
        "streetDirectionId": null,
        "streetTypeId": "DR",
        "placeName": "BURLINGTON",
        "streetNameDisplayText": "NEWBOLD DR, BURLINGTON"
      }
    ]
  },
  {
    "postal": "L7R2B6",
    "result": [
      {
        "electoralDistricts": [
          {
            "election": null,
            "id": 15,
            "name": "Burlington"
          }
        ],
        "pollDivisionIds": [
          10137350
        ],
        "postalCode": "L7R2B6",
        "streetName": "JOYCE",
        "streetDirectionId": null,
        "streetTypeId": "ST",
        "placeName": "BURLINGTON",
        "streetNameDisplayText": "JOYCE ST, BURLINGTON"
      }
    ]
  },
  {
    "postal": "L7R4W8",
    "result": []
  },
  {
    "postal": "L7R8H7",
    "result": []
  },
  {
    "postal": "L7R5P1",
    "result": []
  },
  {
    "postal": "L7R2B8",
    "result": [
      {
        "electoralDistricts": [
          {
            "election": null,
            "id": 15,
            "name": "Burlington"
          }
        ],
        "pollDivisionIds": [
          10137350
        ],
        "postalCode": "L7R2B8",
        "streetName": "BARCLAY",
        "streetDirectionId": null,
        "streetTypeId": "RD",
        "placeName": "BURLINGTON",
        "streetNameDisplayText": "BARCLAY RD, BURLINGTON"
      }
    ]
  },
  {
    "postal": "L7R0P2",
    "result": []
  },
  {
    "postal": "L7R9M1",
    "result": []
  },
  {
    "postal": "L7R3G0",
    "result": []
  },
  {
    "postal": "L7R9Z2",
    "result": []
  },
  {
    "postal": "L7R2A0",
    "result": []
  },
  {
    "postal": "L7R6Y0",
    "result": []
  },
  {
    "postal": "L7R2Z8",
    "result": [
      {
        "electoralDistricts": [
          {
            "election": null,
            "id": 15,
            "name": "Burlington"
          }
        ],
        "pollDivisionIds": [
          10137352
        ],
        "postalCode": "L7R2Z8",
        "streetName": "SENECA",
        "streetDirectionId": null,
        "streetTypeId": "AVE",
        "placeName": "BURLINGTON",
        "streetNameDisplayText": "SENECA AVE, BURLINGTON"
      }
    ]
  },
  {
    "postal": "L7R7Y3",
    "result": []
  },
  {
    "postal": "L7R6Z5",
    "result": []
  },
  {
    "postal": "L7R6E0",
    "result": []
  },
  {
    "postal": "L7R9B7",
    "result": []
  },
  {
    "postal": "L7R9S5",
    "result": []
  },
  {
    "postal": "L7R3X3",
    "result": [
      {
        "electoralDistricts": [
          {
            "election": null,
            "id": 15,
            "name": "Burlington"
          }
        ],
        "pollDivisionIds": [
          10137349
        ],
        "postalCode": "L7R3X3",
        "streetName": "HAZEL",
        "streetDirectionId": null,
        "streetTypeId": "ST",
        "placeName": "BURLINGTON",
        "streetNameDisplayText": "HAZEL ST, BURLINGTON"
      }
    ]
  },
  {
    "postal": "L7R7R5",
    "result": []
  },
  {
    "postal": "L7R2X3",
    "result": [
      {
        "electoralDistricts": [
          {
            "election": null,
            "id": 15,
            "name": "Burlington"
          }
        ],
        "pollDivisionIds": [
          10137351
        ],
        "postalCode": "L7R2X3",
        "streetName": "DRURY",
        "streetDirectionId": null,
        "streetTypeId": "LANE",
        "placeName": "BURLINGTON",
        "streetNameDisplayText": "DRURY LANE, BURLINGTON"
      }
    ]
  },
  {
    "postal": "L7R8Z9",
    "result": []
  },
  {
    "postal": "L7R0N4",
    "result": []
  },
  {
    "postal": "L7R1K1",
    "result": [
      {
        "electoralDistricts": [
          {
            "election": null,
            "id": 15,
            "name": "Burlington"
          }
        ],
        "pollDivisionIds": [
          10137351
        ],
        "postalCode": "L7R1K1",
        "streetName": "NEW",
        "streetDirectionId": null,
        "streetTypeId": "ST",
        "placeName": "BURLINGTON",
        "streetNameDisplayText": "NEW ST, BURLINGTON"
      }
    ]
  },
  {
    "postal": "L7R1S3",
    "result": [
      {
        "electoralDistricts": [
          {
            "election": null,
            "id": 15,
            "name": "Burlington"
          }
        ],
        "pollDivisionIds": [
          10137353
        ],
        "postalCode": "L7R1S3",
        "streetName": "COURTLAND",
        "streetDirectionId": null,
        "streetTypeId": "DR",
        "placeName": "BURLINGTON",
        "streetNameDisplayText": "COURTLAND DR, BURLINGTON"
      }
    ]
  },
  {
    "postal": "L7R6M4",
    "result": []
  },
  {
    "postal": "L7R9A9",
    "result": []
  },
  {
    "postal": "L7R9Z9",
    "result": []
  },
  {
    "postal": "L7R6T4",
    "result": []
  },
  {
    "postal": "L7R0B2",
    "result": [
      {
        "electoralDistricts": [
          {
            "election": null,
            "id": 15,
            "name": "Burlington"
          }
        ],
        "pollDivisionIds": [
          10137349
        ],
        "postalCode": "L7R0B2",
        "streetName": "BRANT",
        "streetDirectionId": null,
        "streetTypeId": "ST",
        "placeName": "BURLINGTON",
        "streetNameDisplayText": "BRANT ST, BURLINGTON"
      }
    ]
  },
  {
    "postal": "L7R2L9",
    "result": []
  },
  {
    "postal": "L7R8K9",
    "result": []
  },
  {
    "postal": "L7R2H9",
    "result": [
      {
        "electoralDistricts": [
          {
            "election": null,
            "id": 15,
            "name": "Burlington"
          }
        ],
        "pollDivisionIds": [
          10137354
        ],
        "postalCode": "L7R2H9",
        "streetName": "BRANT",
        "streetDirectionId": null,
        "streetTypeId": "ST",
        "placeName": "BURLINGTON",
        "streetNameDisplayText": "BRANT ST, BURLINGTON"
      }
    ]
  },
  {
    "postal": "L7R3Z6",
    "result": []
  },
  {
    "postal": "L7R3B0",
    "result": []
  },
  {
    "postal": "L7R2H8",
    "result": []
  },
  {
    "postal": "L7R3X2",
    "result": [
      {
        "electoralDistricts": [
          {
            "election": null,
            "id": 15,
            "name": "Burlington"
          }
        ],
        "pollDivisionIds": [
          10137349
        ],
        "postalCode": "L7R3X2",
        "streetName": "HAZEL",
        "streetDirectionId": null,
        "streetTypeId": "ST",
        "placeName": "BURLINGTON",
        "streetNameDisplayText": "HAZEL ST, BURLINGTON"
      }
    ]
  },
  {
    "postal": "L7R2E9",
    "result": [
      {
        "electoralDistricts": [
          {
            "election": null,
            "id": 15,
            "name": "Burlington"
          }
        ],
        "pollDivisionIds": [
          10143429,
          10137353
        ],
        "postalCode": "L7R2E9",
        "streetName": "BRANT",
        "streetDirectionId": null,
        "streetTypeId": "ST",
        "placeName": "BURLINGTON",
        "streetNameDisplayText": "BRANT ST, BURLINGTON"
      }
    ]
  },
  {
    "postal": "L7R9P6",
    "result": []
  },
  {
    "postal": "L7R9E2",
    "result": []
  },
  {
    "postal": "L7R9H2",
    "result": []
  },
  {
    "postal": "L7R1S8",
    "result": [
      {
        "electoralDistricts": [
          {
            "election": null,
            "id": 15,
            "name": "Burlington"
          }
        ],
        "pollDivisionIds": [
          10137351
        ],
        "postalCode": "L7R1S8",
        "streetName": "WAGNER",
        "streetDirectionId": null,
        "streetTypeId": "CRES",
        "placeName": "BURLINGTON",
        "streetNameDisplayText": "WAGNER CRES, BURLINGTON"
      }
    ]
  },
  {
    "postal": "L7R3M6",
    "result": [
      {
        "electoralDistricts": [
          {
            "election": null,
            "id": 15,
            "name": "Burlington"
          }
        ],
        "pollDivisionIds": [
          10137338
        ],
        "postalCode": "L7R3M6",
        "streetName": "GUELPH",
        "streetDirectionId": null,
        "streetTypeId": "LINE",
        "placeName": "BURLINGTON",
        "streetNameDisplayText": "GUELPH LINE, BURLINGTON"
      }
    ]
  },
  {
    "postal": "L7R6Z8",
    "result": []
  },
  {
    "postal": "L7R4J2",
    "result": [
      {
        "electoralDistricts": [
          {
            "election": null,
            "id": 15,
            "name": "Burlington"
          }
        ],
        "pollDivisionIds": [
          10137351
        ],
        "postalCode": "L7R4J2",
        "streetName": "WOODWARD",
        "streetDirectionId": null,
        "streetTypeId": "AVE",
        "placeName": "BURLINGTON",
        "streetNameDisplayText": "WOODWARD AVE, BURLINGTON"
      }
    ]
  },
  {
    "postal": "L7R9Y1",
    "result": []
  },
  {
    "postal": "L7R8V6",
    "result": []
  },
  {
    "postal": "L7R6B2",
    "result": []
  },
  {
    "postal": "L7R1P8",
    "result": [
      {
        "electoralDistricts": [
          {
            "election": null,
            "id": 15,
            "name": "Burlington"
          }
        ],
        "pollDivisionIds": [
          10137353
        ],
        "postalCode": "L7R1P8",
        "streetName": "HALTON",
        "streetDirectionId": null,
        "streetTypeId": "PL",
        "placeName": "BURLINGTON",
        "streetNameDisplayText": "HALTON PL, BURLINGTON"
      }
    ]
  },
  {
    "postal": "L7R0V8",
    "result": []
  },
  {
    "postal": "L7R4Y0",
    "result": []
  },
  {
    "postal": "L7R2T4",
    "result": [
      {
        "electoralDistricts": [
          {
            "election": null,
            "id": 15,
            "name": "Burlington"
          }
        ],
        "pollDivisionIds": [
          10137353
        ],
        "postalCode": "L7R2T4",
        "streetName": "LORNE",
        "streetDirectionId": null,
        "streetTypeId": "ST",
        "placeName": "BURLINGTON",
        "streetNameDisplayText": "LORNE ST, BURLINGTON"
      }
    ]
  },
  {
    "postal": "L7R2S3",
    "result": [
      {
        "electoralDistricts": [
          {
            "election": null,
            "id": 15,
            "name": "Burlington"
          }
        ],
        "pollDivisionIds": [
          10137353
        ],
        "postalCode": "L7R2S3",
        "streetName": "WOODLAND",
        "streetDirectionId": null,
        "streetTypeId": "AVE",
        "placeName": "BURLINGTON",
        "streetNameDisplayText": "WOODLAND AVE, BURLINGTON"
      }
    ]
  },
  {
    "postal": "L7R0K0",
    "result": []
  },
  {
    "postal": "L7R5N1",
    "result": []
  },
  {
    "postal": "L7R7T0",
    "result": []
  },
  {
    "postal": "L7R9N2",
    "result": []
  },
  {
    "postal": "L7R5L1",
    "result": []
  },
  {
    "postal": "L7R7G5",
    "result": []
  },
  {
    "postal": "L7R6K2",
    "result": []
  },
  {
    "postal": "L7R6P9",
    "result": []
  },
  {
    "postal": "L7R0E6",
    "result": [
      {
        "electoralDistricts": [
          {
            "election": null,
            "id": 15,
            "name": "Burlington"
          }
        ],
        "pollDivisionIds": [
          10137350
        ],
        "postalCode": "L7R0E6",
        "streetName": "FAIRVIEW",
        "streetDirectionId": null,
        "streetTypeId": "ST",
        "placeName": "BURLINGTON",
        "streetNameDisplayText": "FAIRVIEW ST, BURLINGTON"
      }
    ]
  },
  {
    "postal": "L7R8R9",
    "result": []
  },
  {
    "postal": "L7R3G9",
    "result": [
      {
        "electoralDistricts": [
          {
            "election": null,
            "id": 15,
            "name": "Burlington"
          }
        ],
        "pollDivisionIds": [
          10137352
        ],
        "postalCode": "L7R3G9",
        "streetName": "EAST SIDE",
        "streetDirectionId": null,
        "streetTypeId": "CRES",
        "placeName": "BURLINGTON",
        "streetNameDisplayText": "EAST SIDE CRES, BURLINGTON"
      }
    ]
  },
  {
    "postal": "L7R0V7",
    "result": []
  },
  {
    "postal": "L7R2Z1",
    "result": [
      {
        "electoralDistricts": [
          {
            "election": null,
            "id": 15,
            "name": "Burlington"
          }
        ],
        "pollDivisionIds": [
          10137350
        ],
        "postalCode": "L7R2Z1",
        "streetName": "ASHLEY",
        "streetDirectionId": null,
        "streetTypeId": "AVE",
        "placeName": "BURLINGTON",
        "streetNameDisplayText": "ASHLEY AVE, BURLINGTON"
      }
    ]
  },
  {
    "postal": "L7R7N1",
    "result": []
  },
  {
    "postal": "L7R3C6",
    "result": [
      {
        "electoralDistricts": [
          {
            "election": null,
            "id": 15,
            "name": "Burlington"
          }
        ],
        "pollDivisionIds": [
          10137351
        ],
        "postalCode": "L7R3C6",
        "streetName": "MAYZEL",
        "streetDirectionId": null,
        "streetTypeId": "RD",
        "placeName": "BURLINGTON",
        "streetNameDisplayText": "MAYZEL RD, BURLINGTON"
      }
    ]
  },
  {
    "postal": "L7R4M1",
    "result": []
  },
  {
    "postal": "L7R9K2",
    "result": []
  },
  {
    "postal": "L7R9S6",
    "result": []
  },
  {
    "postal": "L7R4X1",
    "result": []
  },
  {
    "postal": "L7R8W2",
    "result": []
  },
  {
    "postal": "L7R7N2",
    "result": []
  },
  {
    "postal": "L7R8S3",
    "result": []
  },
  {
    "postal": "L7R4V0",
    "result": []
  },
  {
    "postal": "L7R6W4",
    "result": []
  },
  {
    "postal": "L7R5M1",
    "result": []
  },
  {
    "postal": "L7R0S4",
    "result": []
  },
  {
    "postal": "L7R5X6",
    "result": []
  },
  {
    "postal": "L7R8L5",
    "result": []
  },
  {
    "postal": "L7R5M8",
    "result": []
  },
  {
    "postal": "L7R2G3",
    "result": [
      {
        "electoralDistricts": [
          {
            "election": null,
            "id": 15,
            "name": "Burlington"
          }
        ],
        "pollDivisionIds": [
          10137353
        ],
        "postalCode": "L7R2G3",
        "streetName": "BRANT",
        "streetDirectionId": null,
        "streetTypeId": "ST",
        "placeName": "BURLINGTON",
        "streetNameDisplayText": "BRANT ST, BURLINGTON"
      }
    ]
  },
  {
    "postal": "L7R8E4",
    "result": []
  },
  {
    "postal": "L7R7S9",
    "result": []
  },
  {
    "postal": "L7R1K3",
    "result": [
      {
        "electoralDistricts": [
          {
            "election": null,
            "id": 15,
            "name": "Burlington"
          }
        ],
        "pollDivisionIds": [
          10137338
        ],
        "postalCode": "L7R1K3",
        "streetName": "NEW",
        "streetDirectionId": null,
        "streetTypeId": "ST",
        "placeName": "BURLINGTON",
        "streetNameDisplayText": "NEW ST, BURLINGTON"
      }
    ]
  },
  {
    "postal": "L7R4E1",
    "result": []
  },
  {
    "postal": "L7R4R2",
    "result": []
  },
  {
    "postal": "L7R6T0",
    "result": []
  },
  {
    "postal": "L7R3K5",
    "result": []
  },
  {
    "postal": "L7R3S3",
    "result": [
      {
        "electoralDistricts": [
          {
            "election": null,
            "id": 15,
            "name": "Burlington"
          }
        ],
        "pollDivisionIds": [
          10137349
        ],
        "postalCode": "L7R3S3",
        "streetName": "CORIC",
        "streetDirectionId": null,
        "streetTypeId": "AVE",
        "placeName": "BURLINGTON",
        "streetNameDisplayText": "CORIC AVE, BURLINGTON"
      }
    ]
  },
  {
    "postal": "L7R3L4",
    "result": [
      {
        "electoralDistricts": [
          {
            "election": null,
            "id": 15,
            "name": "Burlington"
          }
        ],
        "pollDivisionIds": [
          10137352,
          10137351
        ],
        "postalCode": "L7R3L4",
        "streetName": "GUELPH",
        "streetDirectionId": null,
        "streetTypeId": "LINE",
        "placeName": "BURLINGTON",
        "streetNameDisplayText": "GUELPH LINE, BURLINGTON"
      }
    ]
  },
  {
    "postal": "L7R9Y2",
    "result": []
  },
  {
    "postal": "L7R1E0",
    "result": []
  },
  {
    "postal": "L7R9A4",
    "result": []
  },
  {
    "postal": "L7R1L3",
    "result": [
      {
        "electoralDistricts": [
          {
            "election": null,
            "id": 15,
            "name": "Burlington"
          }
        ],
        "pollDivisionIds": [
          10137353
        ],
        "postalCode": "L7R1L3",
        "streetName": "CAROLINE",
        "streetDirectionId": null,
        "streetTypeId": "ST",
        "placeName": "BURLINGTON",
        "streetNameDisplayText": "CAROLINE ST, BURLINGTON"
      }
    ]
  },
  {
    "postal": "L7R6N1",
    "result": []
  },
  {
    "postal": "L7R6G7",
    "result": []
  },
  {
    "postal": "L7R7W1",
    "result": []
  },
  {
    "postal": "L7R4M6",
    "result": []
  },
  {
    "postal": "L7R1K0",
    "result": []
  },
  {
    "postal": "L7R3E2",
    "result": [
      {
        "electoralDistricts": [
          {
            "election": null,
            "id": 15,
            "name": "Burlington"
          }
        ],
        "pollDivisionIds": [
          10137352
        ],
        "postalCode": "L7R3E2",
        "streetName": "PEPPER",
        "streetDirectionId": null,
        "streetTypeId": "DR",
        "placeName": "BURLINGTON",
        "streetNameDisplayText": "PEPPER DR, BURLINGTON"
      }
    ]
  },
  {
    "postal": "L7R5H4",
    "result": []
  },
  {
    "postal": "L7R1K7",
    "result": [
      {
        "electoralDistricts": [
          {
            "election": null,
            "id": 15,
            "name": "Burlington"
          }
        ],
        "pollDivisionIds": [
          10137353
        ],
        "postalCode": "L7R1K7",
        "streetName": "MARIA",
        "streetDirectionId": null,
        "streetTypeId": "ST",
        "placeName": "BURLINGTON",
        "streetNameDisplayText": "MARIA ST, BURLINGTON"
      }
    ]
  },
  {
    "postal": "L7R0H0",
    "result": []
  },
  {
    "postal": "L7R0J3",
    "result": []
  },
  {
    "postal": "L7R1X6",
    "result": [
      {
        "electoralDistricts": [
          {
            "election": null,
            "id": 15,
            "name": "Burlington"
          }
        ],
        "pollDivisionIds": [
          10137351
        ],
        "postalCode": "L7R1X6",
        "streetName": "REDFERN",
        "streetDirectionId": null,
        "streetTypeId": "RD",
        "placeName": "BURLINGTON",
        "streetNameDisplayText": "REDFERN RD, BURLINGTON"
      }
    ]
  },
  {
    "postal": "L7R2Z6",
    "result": [
      {
        "electoralDistricts": [
          {
            "election": null,
            "id": 15,
            "name": "Burlington"
          }
        ],
        "pollDivisionIds": [
          10137350
        ],
        "postalCode": "L7R2Z6",
        "streetName": "ASHLEY",
        "streetDirectionId": null,
        "streetTypeId": "AVE",
        "placeName": "BURLINGTON",
        "streetNameDisplayText": "ASHLEY AVE, BURLINGTON"
      }
    ]
  },
  {
    "postal": "L7R4R9",
    "result": []
  },
  {
    "postal": "L7R0W8",
    "result": []
  },
  {
    "postal": "L7R1L4",
    "result": [
      {
        "electoralDistricts": [
          {
            "election": null,
            "id": 15,
            "name": "Burlington"
          }
        ],
        "pollDivisionIds": [
          10137353
        ],
        "postalCode": "L7R1L4",
        "streetName": "CAROLINE",
        "streetDirectionId": null,
        "streetTypeId": "ST",
        "placeName": "BURLINGTON",
        "streetNameDisplayText": "CAROLINE ST, BURLINGTON"
      }
    ]
  },
  {
    "postal": "L7R0C8",
    "result": [
      {
        "electoralDistricts": [
          {
            "election": null,
            "id": 15,
            "name": "Burlington"
          }
        ],
        "pollDivisionIds": [
          10137349
        ],
        "postalCode": "L7R0C8",
        "streetName": "LEPAGE",
        "streetDirectionId": null,
        "streetTypeId": "COMMON",
        "placeName": "BURLINGTON",
        "streetNameDisplayText": "LEPAGE COMMON, BURLINGTON"
      },
      {
        "electoralDistricts": [
          {
            "election": null,
            "id": 15,
            "name": "Burlington"
          }
        ],
        "pollDivisionIds": [
          10137349
        ],
        "postalCode": "L7R0C8",
        "streetName": "PEPPIATT",
        "streetDirectionId": null,
        "streetTypeId": "COMMON",
        "placeName": "BURLINGTON",
        "streetNameDisplayText": "PEPPIATT COMMON, BURLINGTON"
      },
      {
        "electoralDistricts": [
          {
            "election": null,
            "id": 15,
            "name": "Burlington"
          }
        ],
        "pollDivisionIds": [
          10137349
        ],
        "postalCode": "L7R0C8",
        "streetName": "REIMER",
        "streetDirectionId": null,
        "streetTypeId": "COMMON",
        "placeName": "BURLINGTON",
        "streetNameDisplayText": "REIMER COMMON, BURLINGTON"
      },
      {
        "electoralDistricts": [
          {
            "election": null,
            "id": 15,
            "name": "Burlington"
          }
        ],
        "pollDivisionIds": [
          10137349
        ],
        "postalCode": "L7R0C8",
        "streetName": "TREVERSH",
        "streetDirectionId": null,
        "streetTypeId": "COMMON",
        "placeName": "BURLINGTON",
        "streetNameDisplayText": "TREVERSH COMMON, BURLINGTON"
      }
    ]
  },
  {
    "postal": "L7R9X7",
    "result": []
  },
  {
    "postal": "L7R4T1",
    "result": []
  },
  {
    "postal": "L7R0M0",
    "result": []
  },
  {
    "postal": "L7R6A2",
    "result": []
  },
  {
    "postal": "L7R9S8",
    "result": []
  },
  {
    "postal": "L7R9T4",
    "result": []
  },
  {
    "postal": "L7R9Y4",
    "result": []
  },
  {
    "postal": "L7R6G5",
    "result": []
  },
  {
    "postal": "L7R6H9",
    "result": []
  },
  {
    "postal": "L7R2P3",
    "result": [
      {
        "electoralDistricts": [
          {
            "election": null,
            "id": 15,
            "name": "Burlington"
          }
        ],
        "pollDivisionIds": [
          10137353
        ],
        "postalCode": "L7R2P3",
        "streetName": "EMERALD",
        "streetDirectionId": null,
        "streetTypeId": "ST",
        "placeName": "BURLINGTON",
        "streetNameDisplayText": "EMERALD ST, BURLINGTON"
      }
    ]
  },
  {
    "postal": "L7R1T6",
    "result": [
      {
        "electoralDistricts": [
          {
            "election": null,
            "id": 15,
            "name": "Burlington"
          }
        ],
        "pollDivisionIds": [
          10137351
        ],
        "postalCode": "L7R1T6",
        "streetName": "WOODWARD",
        "streetDirectionId": null,
        "streetTypeId": "AVE",
        "placeName": "BURLINGTON",
        "streetNameDisplayText": "WOODWARD AVE, BURLINGTON"
      }
    ]
  },
  {
    "postal": "L7R4P6",
    "result": []
  },
  {
    "postal": "L7R3K1",
    "result": [
      {
        "electoralDistricts": [
          {
            "election": null,
            "id": 15,
            "name": "Burlington"
          }
        ],
        "pollDivisionIds": [
          10137352
        ],
        "postalCode": "L7R3K1",
        "streetName": "SECOND",
        "streetDirectionId": null,
        "streetTypeId": "ST",
        "placeName": "BURLINGTON",
        "streetNameDisplayText": "SECOND ST, BURLINGTON"
      },
      {
        "electoralDistricts": [
          {
            "election": null,
            "id": 15,
            "name": "Burlington"
          }
        ],
        "pollDivisionIds": [
          10137352
        ],
        "postalCode": "L7R3K1",
        "streetName": "ST PAUL",
        "streetDirectionId": null,
        "streetTypeId": "ST",
        "placeName": "BURLINGTON",
        "streetNameDisplayText": "ST PAUL ST, BURLINGTON"
      }
    ]
  },
  {
    "postal": "L7R6X4",
    "result": []
  },
  {
    "postal": "L7R4M8",
    "result": [
      {
        "electoralDistricts": [
          {
            "election": null,
            "id": 15,
            "name": "Burlington"
          }
        ],
        "pollDivisionIds": [
          10137352
        ],
        "postalCode": "L7R4M8",
        "streetName": "STRATHEDEN",
        "streetDirectionId": null,
        "streetTypeId": "DR",
        "placeName": "BURLINGTON",
        "streetNameDisplayText": "STRATHEDEN DR, BURLINGTON"
      }
    ]
  },
  {
    "postal": "L7R2Y1",
    "result": [
      {
        "electoralDistricts": [
          {
            "election": null,
            "id": 15,
            "name": "Burlington"
          }
        ],
        "pollDivisionIds": [
          10137350
        ],
        "postalCode": "L7R2Y1",
        "streetName": "DRURY",
        "streetDirectionId": null,
        "streetTypeId": "LANE",
        "placeName": "BURLINGTON",
        "streetNameDisplayText": "DRURY LANE, BURLINGTON"
      }
    ]
  },
  {
    "postal": "L7R6M1",
    "result": []
  },
  {
    "postal": "L7R5L8",
    "result": []
  },
  {
    "postal": "L7R3P6",
    "result": [
      {
        "electoralDistricts": [
          {
            "election": null,
            "id": 15,
            "name": "Burlington"
          }
        ],
        "pollDivisionIds": [
          10137349
        ],
        "postalCode": "L7R3P6",
        "streetName": "BRINELL",
        "streetDirectionId": null,
        "streetTypeId": "AVE",
        "placeName": "BURLINGTON",
        "streetNameDisplayText": "BRINELL AVE, BURLINGTON"
      }
    ]
  },
  {
    "postal": "L7R9A5",
    "result": []
  },
  {
    "postal": "L7R7K1",
    "result": []
  },
  {
    "postal": "L7R3J4",
    "result": [
      {
        "electoralDistricts": [
          {
            "election": null,
            "id": 15,
            "name": "Burlington"
          }
        ],
        "pollDivisionIds": [
          10137350
        ],
        "postalCode": "L7R3J4",
        "streetName": "DEAN",
        "streetDirectionId": null,
        "streetTypeId": "ST",
        "placeName": "BURLINGTON",
        "streetNameDisplayText": "DEAN ST, BURLINGTON"
      }
    ]
  },
  {
    "postal": "L7R5E7",
    "result": []
  },
  {
    "postal": "L7R3A7",
    "result": [
      {
        "electoralDistricts": [
          {
            "election": null,
            "id": 15,
            "name": "Burlington"
          }
        ],
        "pollDivisionIds": [
          10137351
        ],
        "postalCode": "L7R3A7",
        "streetName": "HILLCREST",
        "streetDirectionId": null,
        "streetTypeId": "DR",
        "placeName": "BURLINGTON",
        "streetNameDisplayText": "HILLCREST DR, BURLINGTON"
      }
    ]
  },
  {
    "postal": "L7R1B9",
    "result": [
      {
        "electoralDistricts": [
          {
            "election": null,
            "id": 15,
            "name": "Burlington"
          }
        ],
        "pollDivisionIds": [
          10137352
        ],
        "postalCode": "L7R1B9",
        "streetName": "LAKESHORE",
        "streetDirectionId": null,
        "streetTypeId": "RD",
        "placeName": "BURLINGTON",
        "streetNameDisplayText": "LAKESHORE RD, BURLINGTON"
      }
    ]
  },
  {
    "postal": "L7R9E8",
    "result": []
  },
  {
    "postal": "L7R1C9",
    "result": [
      {
        "electoralDistricts": [
          {
            "election": null,
            "id": 15,
            "name": "Burlington"
          }
        ],
        "pollDivisionIds": [
          10137353
        ],
        "postalCode": "L7R1C9",
        "streetName": "LAKESHORE",
        "streetDirectionId": null,
        "streetTypeId": "RD",
        "placeName": "BURLINGTON",
        "streetNameDisplayText": "LAKESHORE RD, BURLINGTON"
      }
    ]
  },
  {
    "postal": "L7R3B5",
    "result": [
      {
        "electoralDistricts": [
          {
            "election": null,
            "id": 15,
            "name": "Burlington"
          }
        ],
        "pollDivisionIds": [
          10137351,
          10137352
        ],
        "postalCode": "L7R3B5",
        "streetName": "DELAWARE",
        "streetDirectionId": null,
        "streetTypeId": "AVE",
        "placeName": "BURLINGTON",
        "streetNameDisplayText": "DELAWARE AVE, BURLINGTON"
      }
    ]
  },
  {
    "postal": "L7R8R0",
    "result": []
  },
  {
    "postal": "L7R3P2",
    "result": [
      {
        "electoralDistricts": [
          {
            "election": null,
            "id": 15,
            "name": "Burlington"
          }
        ],
        "pollDivisionIds": [
          10137349
        ],
        "postalCode": "L7R3P2",
        "streetName": "FASSEL",
        "streetDirectionId": null,
        "streetTypeId": "AVE",
        "placeName": "BURLINGTON",
        "streetNameDisplayText": "FASSEL AVE, BURLINGTON"
      }
    ]
  },
  {
    "postal": "L7R5V4",
    "result": []
  },
  {
    "postal": "L7R4H0",
    "result": []
  },
  {
    "postal": "L7R4S7",
    "result": []
  },
  {
    "postal": "L7R6C2",
    "result": []
  },
  {
    "postal": "L7R8W3",
    "result": []
  },
  {
    "postal": "L7R4M5",
    "result": []
  },
  {
    "postal": "L7R5T1",
    "result": []
  },
  {
    "postal": "L7R3B3",
    "result": [
      {
        "electoralDistricts": [
          {
            "election": null,
            "id": 15,
            "name": "Burlington"
          }
        ],
        "pollDivisionIds": [
          10137352
        ],
        "postalCode": "L7R3B3",
        "streetName": "DELAWARE",
        "streetDirectionId": null,
        "streetTypeId": "AVE",
        "placeName": "BURLINGTON",
        "streetNameDisplayText": "DELAWARE AVE, BURLINGTON"
      }
    ]
  },
  {
    "postal": "L7R6C6",
    "result": []
  },
  {
    "postal": "L7R7N8",
    "result": []
  },
  {
    "postal": "L7R2Y3",
    "result": []
  },
  {
    "postal": "L7R2R6",
    "result": [
      {
        "electoralDistricts": [
          {
            "election": null,
            "id": 15,
            "name": "Burlington"
          }
        ],
        "pollDivisionIds": [
          10137353
        ],
        "postalCode": "L7R2R6",
        "streetName": "CROSBY",
        "streetDirectionId": null,
        "streetTypeId": "AVE",
        "placeName": "BURLINGTON",
        "streetNameDisplayText": "CROSBY AVE, BURLINGTON"
      }
    ]
  },
  {
    "postal": "L7R7N3",
    "result": []
  },
  {
    "postal": "L7R8J2",
    "result": []
  },
  {
    "postal": "L7R6A9",
    "result": []
  },
  {
    "postal": "L7R3V2",
    "result": [
      {
        "electoralDistricts": [
          {
            "election": null,
            "id": 15,
            "name": "Burlington"
          }
        ],
        "pollDivisionIds": [
          10137349
        ],
        "postalCode": "L7R3V2",
        "streetName": "GLENDOR",
        "streetDirectionId": null,
        "streetTypeId": "AVE",
        "placeName": "BURLINGTON",
        "streetNameDisplayText": "GLENDOR AVE, BURLINGTON"
      }
    ]
  },
  {
    "postal": "L7R2N3",
    "result": [
      {
        "electoralDistricts": [
          {
            "election": null,
            "id": 15,
            "name": "Burlington"
          }
        ],
        "pollDivisionIds": [
          10137353
        ],
        "postalCode": "L7R2N3",
        "streetName": "PEARL",
        "streetDirectionId": null,
        "streetTypeId": "ST",
        "placeName": "BURLINGTON",
        "streetNameDisplayText": "PEARL ST, BURLINGTON"
      }
    ]
  },
  {
    "postal": "L7R1S5",
    "result": [
      {
        "electoralDistricts": [
          {
            "election": null,
            "id": 15,
            "name": "Burlington"
          }
        ],
        "pollDivisionIds": [
          10137351
        ],
        "postalCode": "L7R1S5",
        "streetName": "COURTLAND",
        "streetDirectionId": null,
        "streetTypeId": "DR",
        "placeName": "BURLINGTON",
        "streetNameDisplayText": "COURTLAND DR, BURLINGTON"
      }
    ]
  },
  {
    "postal": "L7R4T7",
    "result": []
  },
  {
    "postal": "L7R6Y7",
    "result": []
  },
  {
    "postal": "L7R0W7",
    "result": []
  },
  {
    "postal": "L7R2W9",
    "result": [
      {
        "electoralDistricts": [
          {
            "election": null,
            "id": 15,
            "name": "Burlington"
          }
        ],
        "pollDivisionIds": [
          10137351
        ],
        "postalCode": "L7R2W9",
        "streetName": "STINSON",
        "streetDirectionId": null,
        "streetTypeId": "AVE",
        "placeName": "BURLINGTON",
        "streetNameDisplayText": "STINSON AVE, BURLINGTON"
      }
    ]
  },
  {
    "postal": "L7R8V0",
    "result": []
  },
  {
    "postal": "L7R0H4",
    "result": []
  },
  {
    "postal": "L7R2T1",
    "result": [
      {
        "electoralDistricts": [
          {
            "election": null,
            "id": 15,
            "name": "Burlington"
          }
        ],
        "pollDivisionIds": [
          10137353
        ],
        "postalCode": "L7R2T1",
        "streetName": "WATERLOO",
        "streetDirectionId": null,
        "streetTypeId": "ST",
        "placeName": "BURLINGTON",
        "streetNameDisplayText": "WATERLOO ST, BURLINGTON"
      }
    ]
  },
  {
    "postal": "L7R1B1",
    "result": [
      {
        "electoralDistricts": [
          {
            "election": null,
            "id": 15,
            "name": "Burlington"
          }
        ],
        "pollDivisionIds": [
          10137352
        ],
        "postalCode": "L7R1B1",
        "streetName": "LAKESHORE",
        "streetDirectionId": null,
        "streetTypeId": "RD",
        "placeName": "BURLINGTON",
        "streetNameDisplayText": "LAKESHORE RD, BURLINGTON"
      }
    ]
  },
  {
    "postal": "L7R8B6",
    "result": []
  },
  {
    "postal": "L7R6H1",
    "result": []
  },
  {
    "postal": "L7R8T8",
    "result": []
  },
  {
    "postal": "L7R0T4",
    "result": []
  },
  {
    "postal": "L7R2C4",
    "result": [
      {
        "electoralDistricts": [
          {
            "election": null,
            "id": 15,
            "name": "Burlington"
          }
        ],
        "pollDivisionIds": [
          10137354
        ],
        "postalCode": "L7R2C4",
        "streetName": "MAPLEWOOD",
        "streetDirectionId": null,
        "streetTypeId": "DR",
        "placeName": "BURLINGTON",
        "streetNameDisplayText": "MAPLEWOOD DR, BURLINGTON"
      }
    ]
  },
  {
    "postal": "L7R8N3",
    "result": []
  },
  {
    "postal": "L7R4L8",
    "result": []
  },
  {
    "postal": "L7R2B5",
    "result": [
      {
        "electoralDistricts": [
          {
            "election": null,
            "id": 15,
            "name": "Burlington"
          }
        ],
        "pollDivisionIds": [
          10137350
        ],
        "postalCode": "L7R2B5",
        "streetName": "JOYCE",
        "streetDirectionId": null,
        "streetTypeId": "ST",
        "placeName": "BURLINGTON",
        "streetNameDisplayText": "JOYCE ST, BURLINGTON"
      }
    ]
  },
  {
    "postal": "L7R3H1",
    "result": [
      {
        "electoralDistricts": [
          {
            "election": null,
            "id": 15,
            "name": "Burlington"
          }
        ],
        "pollDivisionIds": [
          10137350
        ],
        "postalCode": "L7R3H1",
        "streetName": "WESLEY",
        "streetDirectionId": null,
        "streetTypeId": "ST",
        "placeName": "BURLINGTON",
        "streetNameDisplayText": "WESLEY ST, BURLINGTON"
      }
    ]
  },
  {
    "postal": "L7R4Y1",
    "result": []
  },
  {
    "postal": "L7R7E2",
    "result": []
  },
  {
    "postal": "L7R2P5",
    "result": [
      {
        "electoralDistricts": [
          {
            "election": null,
            "id": 15,
            "name": "Burlington"
          }
        ],
        "pollDivisionIds": [
          10137353
        ],
        "postalCode": "L7R2P5",
        "streetName": "EMERALD",
        "streetDirectionId": null,
        "streetTypeId": "ST",
        "placeName": "BURLINGTON",
        "streetNameDisplayText": "EMERALD ST, BURLINGTON"
      }
    ]
  },
  {
    "postal": "L7R8R7",
    "result": []
  },
  {
    "postal": "L7R9P1",
    "result": []
  },
  {
    "postal": "L7R3B8",
    "result": [
      {
        "electoralDistricts": [
          {
            "election": null,
            "id": 15,
            "name": "Burlington"
          }
        ],
        "pollDivisionIds": [
          10137351
        ],
        "postalCode": "L7R3B8",
        "streetName": "PEELE",
        "streetDirectionId": null,
        "streetTypeId": "BLVD",
        "placeName": "BURLINGTON",
        "streetNameDisplayText": "PEELE BLVD, BURLINGTON"
      }
    ]
  },
  {
    "postal": "L7R3P7",
    "result": [
      {
        "electoralDistricts": [
          {
            "election": null,
            "id": 15,
            "name": "Burlington"
          }
        ],
        "pollDivisionIds": [
          10137349
        ],
        "postalCode": "L7R3P7",
        "streetName": "PLAINS",
        "streetDirectionId": "E",
        "streetTypeId": "RD",
        "placeName": "BURLINGTON",
        "streetNameDisplayText": "PLAINS RD E, BURLINGTON"
      },
      {
        "electoralDistricts": [
          {
            "election": null,
            "id": 15,
            "name": "Burlington"
          }
        ],
        "pollDivisionIds": [
          10137362
        ],
        "postalCode": "L7R3P7",
        "streetName": "PLAINS",
        "streetDirectionId": "W",
        "streetTypeId": "RD",
        "placeName": "BURLINGTON",
        "streetNameDisplayText": "PLAINS RD W, BURLINGTON"
      }
    ]
  },
  {
    "postal": "L7R9B2",
    "result": []
  },
  {
    "postal": "L7R6Z3",
    "result": []
  },
  {
    "postal": "L7R4N5",
    "result": []
  },
  {
    "postal": "L7R8T3",
    "result": []
  },
  {
    "postal": "L7R1V2",
    "result": [
      {
        "electoralDistricts": [
          {
            "election": null,
            "id": 15,
            "name": "Burlington"
          }
        ],
        "pollDivisionIds": [
          10137351
        ],
        "postalCode": "L7R1V2",
        "streetName": "WOODWARD",
        "streetDirectionId": null,
        "streetTypeId": "AVE",
        "placeName": "BURLINGTON",
        "streetNameDisplayText": "WOODWARD AVE, BURLINGTON"
      }
    ]
  },
  {
    "postal": "L7R1Y0",
    "result": []
  },
  {
    "postal": "L7R3G6",
    "result": [
      {
        "electoralDistricts": [
          {
            "election": null,
            "id": 15,
            "name": "Burlington"
          }
        ],
        "pollDivisionIds": [
          10137351
        ],
        "postalCode": "L7R3G6",
        "streetName": "BEVERLEY",
        "streetDirectionId": null,
        "streetTypeId": "DR",
        "placeName": "BURLINGTON",
        "streetNameDisplayText": "BEVERLEY DR, BURLINGTON"
      }
    ]
  },
  {
    "postal": "L7R3H7",
    "result": [
      {
        "electoralDistricts": [
          {
            "election": null,
            "id": 15,
            "name": "Burlington"
          }
        ],
        "pollDivisionIds": [
          10137352
        ],
        "postalCode": "L7R3H7",
        "streetName": "MARKET",
        "streetDirectionId": null,
        "streetTypeId": "ST",
        "placeName": "BURLINGTON",
        "streetNameDisplayText": "MARKET ST, BURLINGTON"
      }
    ]
  },
  {
    "postal": "L7R7X8",
    "result": []
  },
  {
    "postal": "L7R0C7",
    "result": []
  },
  {
    "postal": "L7R0W9",
    "result": []
  },
  {
    "postal": "L7R8E6",
    "result": []
  },
  {
    "postal": "L7R9Z8",
    "result": []
  },
  {
    "postal": "L7R3P4",
    "result": [
      {
        "electoralDistricts": [
          {
            "election": null,
            "id": 15,
            "name": "Burlington"
          }
        ],
        "pollDivisionIds": [
          10137349
        ],
        "postalCode": "L7R3P4",
        "streetName": "FASSEL",
        "streetDirectionId": null,
        "streetTypeId": "AVE",
        "placeName": "BURLINGTON",
        "streetNameDisplayText": "FASSEL AVE, BURLINGTON"
      }
    ]
  },
  {
    "postal": "L7R6L8",
    "result": []
  },
  {
    "postal": "L7R2R4",
    "result": [
      {
        "electoralDistricts": [
          {
            "election": null,
            "id": 15,
            "name": "Burlington"
          }
        ],
        "pollDivisionIds": [
          10137353
        ],
        "postalCode": "L7R2R4",
        "streetName": "HOLTBY",
        "streetDirectionId": null,
        "streetTypeId": "AVE",
        "placeName": "BURLINGTON",
        "streetNameDisplayText": "HOLTBY AVE, BURLINGTON"
      }
    ]
  },
  {
    "postal": "L7R2W1",
    "result": [
      {
        "electoralDistricts": [
          {
            "election": null,
            "id": 15,
            "name": "Burlington"
          }
        ],
        "pollDivisionIds": [
          10137350
        ],
        "postalCode": "L7R2W1",
        "streetName": "GEORGE",
        "streetDirectionId": null,
        "streetTypeId": "ST",
        "placeName": "BURLINGTON",
        "streetNameDisplayText": "GEORGE ST, BURLINGTON"
      }
    ]
  },
  {
    "postal": "L7R9H8",
    "result": []
  },
  {
    "postal": "L7R8X9",
    "result": []
  },
  {
    "postal": "L7R7H4",
    "result": []
  },
  {
    "postal": "L7R3J1",
    "result": [
      {
        "electoralDistricts": [
          {
            "election": null,
            "id": 15,
            "name": "Burlington"
          }
        ],
        "pollDivisionIds": [
          10137351
        ],
        "postalCode": "L7R3J1",
        "streetName": "KAREN",
        "streetDirectionId": null,
        "streetTypeId": "DR",
        "placeName": "BURLINGTON",
        "streetNameDisplayText": "KAREN DR, BURLINGTON"
      }
    ]
  },
  {
    "postal": "L7R1P4",
    "result": [
      {
        "electoralDistricts": [
          {
            "election": null,
            "id": 15,
            "name": "Burlington"
          }
        ],
        "pollDivisionIds": [
          10137353
        ],
        "postalCode": "L7R1P4",
        "streetName": "WELLINGTON",
        "streetDirectionId": null,
        "streetTypeId": "AVE",
        "placeName": "BURLINGTON",
        "streetNameDisplayText": "WELLINGTON AVE, BURLINGTON"
      }
    ]
  },
  {
    "postal": "L7R2A3",
    "result": [
      {
        "electoralDistricts": [
          {
            "election": null,
            "id": 15,
            "name": "Burlington"
          }
        ],
        "pollDivisionIds": [
          10137351
        ],
        "postalCode": "L7R2A3",
        "streetName": "PROSPECT",
        "streetDirectionId": null,
        "streetTypeId": "ST",
        "placeName": "BURLINGTON",
        "streetNameDisplayText": "PROSPECT ST, BURLINGTON"
      }
    ]
  },
  {
    "postal": "L7R0Z1",
    "result": []
  },
  {
    "postal": "L7R1C1",
    "result": [
      {
        "electoralDistricts": [
          {
            "election": null,
            "id": 15,
            "name": "Burlington"
          }
        ],
        "pollDivisionIds": [
          10137352
        ],
        "postalCode": "L7R1C1",
        "streetName": "LAKESHORE",
        "streetDirectionId": null,
        "streetTypeId": "RD",
        "placeName": "BURLINGTON",
        "streetNameDisplayText": "LAKESHORE RD, BURLINGTON"
      }
    ]
  },
  {
    "postal": "L7R0H3",
    "result": []
  },
  {
    "postal": "L7R7B0",
    "result": []
  },
  {
    "postal": "L7R5K2",
    "result": []
  },
  {
    "postal": "L7R1E9",
    "result": []
  },
  {
    "postal": "L7R9W7",
    "result": []
  },
  {
    "postal": "L7R5W6",
    "result": []
  },
  {
    "postal": "L7R6S6",
    "result": []
  },
  {
    "postal": "L7R2P8",
    "result": [
      {
        "electoralDistricts": [
          {
            "election": null,
            "id": 15,
            "name": "Burlington"
          }
        ],
        "pollDivisionIds": [
          10137353
        ],
        "postalCode": "L7R2P8",
        "streetName": "MARTHA",
        "streetDirectionId": null,
        "streetTypeId": "ST",
        "placeName": "BURLINGTON",
        "streetNameDisplayText": "MARTHA ST, BURLINGTON"
      }
    ]
  },
  {
    "postal": "L7R4P8",
    "result": [
      {
        "electoralDistricts": [
          {
            "election": null,
            "id": 15,
            "name": "Burlington"
          }
        ],
        "pollDivisionIds": [
          10137351
        ],
        "postalCode": "L7R4P8",
        "streetName": "NEW",
        "streetDirectionId": null,
        "streetTypeId": "ST",
        "placeName": "BURLINGTON",
        "streetNameDisplayText": "NEW ST, BURLINGTON"
      }
    ]
  },
  {
    "postal": "L7R0V9",
    "result": []
  },
  {
    "postal": "L7R5Y2",
    "result": []
  },
  {
    "postal": "L7R7Z7",
    "result": []
  },
  {
    "postal": "L7R6Y8",
    "result": []
  },
  {
    "postal": "L7R2G7",
    "result": [
      {
        "electoralDistricts": [
          {
            "election": null,
            "id": 15,
            "name": "Burlington"
          }
        ],
        "pollDivisionIds": [
          10137355
        ],
        "postalCode": "L7R2G7",
        "streetName": "BRANT",
        "streetDirectionId": null,
        "streetTypeId": "ST",
        "placeName": "BURLINGTON",
        "streetNameDisplayText": "BRANT ST, BURLINGTON"
      }
    ]
  },
  {
    "postal": "L7R8C1",
    "result": []
  },
  {
    "postal": "L7R5C5",
    "result": []
  },
  {
    "postal": "L7R2X8",
    "result": [
      {
        "electoralDistricts": [
          {
            "election": null,
            "id": 15,
            "name": "Burlington"
          }
        ],
        "pollDivisionIds": [
          10137350
        ],
        "postalCode": "L7R2X8",
        "streetName": "DRURY",
        "streetDirectionId": null,
        "streetTypeId": "LANE",
        "placeName": "BURLINGTON",
        "streetNameDisplayText": "DRURY LANE, BURLINGTON"
      }
    ]
  },
  {
    "postal": "L7R1W5",
    "result": [
      {
        "electoralDistricts": [
          {
            "election": null,
            "id": 15,
            "name": "Burlington"
          }
        ],
        "pollDivisionIds": [
          10137351
        ],
        "postalCode": "L7R1W5",
        "streetName": "SHARRON",
        "streetDirectionId": null,
        "streetTypeId": "ST",
        "placeName": "BURLINGTON",
        "streetNameDisplayText": "SHARRON ST, BURLINGTON"
      }
    ]
  },
  {
    "postal": "L7R7G0",
    "result": []
  },
  {
    "postal": "L7R8J8",
    "result": []
  },
  {
    "postal": "L7R3Y0",
    "result": []
  },
  {
    "postal": "L7R9T7",
    "result": []
  },
  {
    "postal": "L7R5P4",
    "result": []
  },
  {
    "postal": "L7R4B0",
    "result": []
  },
  {
    "postal": "L7R9N8",
    "result": []
  },
  {
    "postal": "L7R4A7",
    "result": []
  },
  {
    "postal": "L7R4H9",
    "result": [
      {
        "electoralDistricts": [
          {
            "election": null,
            "id": 15,
            "name": "Burlington"
          }
        ],
        "pollDivisionIds": [
          10137350
        ],
        "postalCode": "L7R4H9",
        "streetName": "FAIRVIEW",
        "streetDirectionId": null,
        "streetTypeId": "ST",
        "placeName": "BURLINGTON",
        "streetNameDisplayText": "FAIRVIEW ST, BURLINGTON"
      }
    ]
  },
  {
    "postal": "L7R6X1",
    "result": []
  },
  {
    "postal": "L7R9Y7",
    "result": []
  },
  {
    "postal": "L7R2Y5",
    "result": [
      {
        "electoralDistricts": [
          {
            "election": null,
            "id": 15,
            "name": "Burlington"
          }
        ],
        "pollDivisionIds": [
          10137352
        ],
        "postalCode": "L7R2Y5",
        "streetName": "NEWBOLD",
        "streetDirectionId": null,
        "streetTypeId": "CRT",
        "placeName": "BURLINGTON",
        "streetNameDisplayText": "NEWBOLD CRT, BURLINGTON"
      }
    ]
  },
  {
    "postal": "L7R8L7",
    "result": []
  },
  {
    "postal": "L7R2A8",
    "result": [
      {
        "electoralDistricts": [
          {
            "election": null,
            "id": 15,
            "name": "Burlington"
          }
        ],
        "pollDivisionIds": [
          10137351
        ],
        "postalCode": "L7R2A8",
        "streetName": "PROSPECT",
        "streetDirectionId": null,
        "streetTypeId": "ST",
        "placeName": "BURLINGTON",
        "streetNameDisplayText": "PROSPECT ST, BURLINGTON"
      }
    ]
  },
  {
    "postal": "L7R2K9",
    "result": [
      {
        "electoralDistricts": [
          {
            "election": null,
            "id": 15,
            "name": "Burlington"
          }
        ],
        "pollDivisionIds": [
          10137353
        ],
        "postalCode": "L7R2K9",
        "streetName": "JOHN",
        "streetDirectionId": null,
        "streetTypeId": "ST",
        "placeName": "BURLINGTON",
        "streetNameDisplayText": "JOHN ST, BURLINGTON"
      }
    ]
  },
  {
    "postal": "L7R3E5",
    "result": [
      {
        "electoralDistricts": [
          {
            "election": null,
            "id": 15,
            "name": "Burlington"
          }
        ],
        "pollDivisionIds": [
          10137350
        ],
        "postalCode": "L7R3E5",
        "streetName": "PROCTOR",
        "streetDirectionId": null,
        "streetTypeId": "RD",
        "placeName": "BURLINGTON",
        "streetNameDisplayText": "PROCTOR RD, BURLINGTON"
      }
    ]
  },
  {
    "postal": "L7R8N6",
    "result": []
  },
  {
    "postal": "L7R8J4",
    "result": []
  },
  {
    "postal": "L7R4R7",
    "result": []
  },
  {
    "postal": "L7R9K1",
    "result": []
  },
  {
    "postal": "L7R8E1",
    "result": []
  },
  {
    "postal": "L7R0R1",
    "result": []
  },
  {
    "postal": "L7R4J3",
    "result": [
      {
        "electoralDistricts": [
          {
            "election": null,
            "id": 15,
            "name": "Burlington"
          }
        ],
        "pollDivisionIds": [
          10137349
        ],
        "postalCode": "L7R4J3",
        "streetName": "GLENDALE",
        "streetDirectionId": null,
        "streetTypeId": "CRT",
        "placeName": "BURLINGTON",
        "streetNameDisplayText": "GLENDALE CRT, BURLINGTON"
      }
    ]
  },
  {
    "postal": "L7R7E7",
    "result": []
  },
  {
    "postal": "L7R0J0",
    "result": []
  },
  {
    "postal": "L7R7R8",
    "result": []
  },
  {
    "postal": "L7R9X0",
    "result": []
  },
  {
    "postal": "L7R7P6",
    "result": []
  },
  {
    "postal": "L7R0R7",
    "result": []
  },
  {
    "postal": "L7R5W1",
    "result": []
  },
  {
    "postal": "L7R0K4",
    "result": []
  },
  {
    "postal": "L7R7N9",
    "result": []
  },
  {
    "postal": "L7R1N0",
    "result": []
  },
  {
    "postal": "L7R6P3",
    "result": []
  },
  {
    "postal": "L7R5A1",
    "result": []
  },
  {
    "postal": "L7R9M9",
    "result": []
  },
  {
    "postal": "L7R7T6",
    "result": []
  },
  {
    "postal": "L7R3X0",
    "result": []
  },
  {
    "postal": "L7R2T0",
    "result": []
  },
  {
    "postal": "L7R5X9",
    "result": []
  },
  {
    "postal": "L7R2R3",
    "result": [
      {
        "electoralDistricts": [
          {
            "election": null,
            "id": 15,
            "name": "Burlington"
          }
        ],
        "pollDivisionIds": [
          10137353
        ],
        "postalCode": "L7R2R3",
        "streetName": "HOLTBY",
        "streetDirectionId": null,
        "streetTypeId": "AVE",
        "placeName": "BURLINGTON",
        "streetNameDisplayText": "HOLTBY AVE, BURLINGTON"
      }
    ]
  },
  {
    "postal": "L7R5N2",
    "result": []
  },
  {
    "postal": "L7R4Y7",
    "result": []
  },
  {
    "postal": "L7R7M0",
    "result": []
  },
  {
    "postal": "L7R8P3",
    "result": []
  },
  {
    "postal": "L7R3N3",
    "result": []
  },
  {
    "postal": "L7R7S3",
    "result": []
  },
  {
    "postal": "L7R3V9",
    "result": [
      {
        "electoralDistricts": [
          {
            "election": null,
            "id": 15,
            "name": "Burlington"
          }
        ],
        "pollDivisionIds": [
          10137349
        ],
        "postalCode": "L7R3V9",
        "streetName": "BRENDA",
        "streetDirectionId": null,
        "streetTypeId": "CRES",
        "placeName": "BURLINGTON",
        "streetNameDisplayText": "BRENDA CRES, BURLINGTON"
      }
    ]
  },
  {
    "postal": "L7R9N7",
    "result": []
  },
  {
    "postal": "L7R0G4",
    "result": []
  },
  {
    "postal": "L7R2E2",
    "result": []
  },
  {
    "postal": "L7R7W8",
    "result": []
  },
  {
    "postal": "L7R7M5",
    "result": []
  },
  {
    "postal": "L7R5W8",
    "result": []
  },
  {
    "postal": "L7R5E5",
    "result": []
  },
  {
    "postal": "L7R1P9",
    "result": [
      {
        "electoralDistricts": [
          {
            "election": null,
            "id": 15,
            "name": "Burlington"
          }
        ],
        "pollDivisionIds": [
          10137353
        ],
        "postalCode": "L7R1P9",
        "streetName": "BELLWOOD",
        "streetDirectionId": null,
        "streetTypeId": "AVE",
        "placeName": "BURLINGTON",
        "streetNameDisplayText": "BELLWOOD AVE, BURLINGTON"
      }
    ]
  },
  {
    "postal": "L7R8V8",
    "result": []
  },
  {
    "postal": "L7R9G8",
    "result": []
  },
  {
    "postal": "L7R8H9",
    "result": []
  },
  {
    "postal": "L7R1Z1",
    "result": [
      {
        "electoralDistricts": [
          {
            "election": null,
            "id": 15,
            "name": "Burlington"
          }
        ],
        "pollDivisionIds": [
          10137350
        ],
        "postalCode": "L7R1Z1",
        "streetName": "PROSPECT",
        "streetDirectionId": null,
        "streetTypeId": "ST",
        "placeName": "BURLINGTON",
        "streetNameDisplayText": "PROSPECT ST, BURLINGTON"
      }
    ]
  },
  {
    "postal": "L7R8M3",
    "result": []
  },
  {
    "postal": "L7R5H6",
    "result": []
  },
  {
    "postal": "L7R7W7",
    "result": []
  },
  {
    "postal": "L7R4L0",
    "result": []
  },
  {
    "postal": "L7R2N1",
    "result": [
      {
        "electoralDistricts": [
          {
            "election": null,
            "id": 15,
            "name": "Burlington"
          }
        ],
        "pollDivisionIds": [
          10137353
        ],
        "postalCode": "L7R2N1",
        "streetName": "PEARL",
        "streetDirectionId": null,
        "streetTypeId": "ST",
        "placeName": "BURLINGTON",
        "streetNameDisplayText": "PEARL ST, BURLINGTON"
      }
    ]
  },
  {
    "postal": "L7R2H4",
    "result": [
      {
        "electoralDistricts": [
          {
            "election": null,
            "id": 15,
            "name": "Burlington"
          }
        ],
        "pollDivisionIds": [
          10137353
        ],
        "postalCode": "L7R2H4",
        "streetName": "BRANT",
        "streetDirectionId": null,
        "streetTypeId": "ST",
        "placeName": "BURLINGTON",
        "streetNameDisplayText": "BRANT ST, BURLINGTON"
      }
    ]
  },
  {
    "postal": "L7R5C8",
    "result": []
  },
  {
    "postal": "L7R8B0",
    "result": []
  },
  {
    "postal": "L7R1T4",
    "result": [
      {
        "electoralDistricts": [
          {
            "election": null,
            "id": 15,
            "name": "Burlington"
          }
        ],
        "pollDivisionIds": [
          10137351
        ],
        "postalCode": "L7R1T4",
        "streetName": "WOODWARD",
        "streetDirectionId": null,
        "streetTypeId": "AVE",
        "placeName": "BURLINGTON",
        "streetNameDisplayText": "WOODWARD AVE, BURLINGTON"
      }
    ]
  },
  {
    "postal": "L7R7N7",
    "result": []
  },
  {
    "postal": "L7R4L3",
    "result": []
  },
  {
    "postal": "L7R2N2",
    "result": [
      {
        "electoralDistricts": [
          {
            "election": null,
            "id": 15,
            "name": "Burlington"
          }
        ],
        "pollDivisionIds": [
          10137353
        ],
        "postalCode": "L7R2N2",
        "streetName": "PEARL",
        "streetDirectionId": null,
        "streetTypeId": "ST",
        "placeName": "BURLINGTON",
        "streetNameDisplayText": "PEARL ST, BURLINGTON"
      }
    ]
  },
  {
    "postal": "L7R4N8",
    "result": []
  },
  {
    "postal": "L7R3M5",
    "result": [
      {
        "electoralDistricts": [
          {
            "election": null,
            "id": 15,
            "name": "Burlington"
          }
        ],
        "pollDivisionIds": [
          10137338
        ],
        "postalCode": "L7R3M5",
        "streetName": "GUELPH",
        "streetDirectionId": null,
        "streetTypeId": "LINE",
        "placeName": "BURLINGTON",
        "streetNameDisplayText": "GUELPH LINE, BURLINGTON"
      }
    ]
  },
  {
    "postal": "L7R6H7",
    "result": []
  },
  {
    "postal": "L7R8Y8",
    "result": []
  },
  {
    "postal": "L7R5R9",
    "result": []
  },
  {
    "postal": "L7R8G3",
    "result": []
  },
  {
    "postal": "L7R4N7",
    "result": []
  },
  {
    "postal": "L7R0B9",
    "result": []
  },
  {
    "postal": "L7R9K7",
    "result": []
  },
  {
    "postal": "L7R9K9",
    "result": []
  },
  {
    "postal": "L7R3Z2",
    "result": []
  },
  {
    "postal": "L7R6W7",
    "result": []
  },
  {
    "postal": "L7R0P1",
    "result": []
  },
  {
    "postal": "L7R3A0",
    "result": []
  },
  {
    "postal": "L7R8L9",
    "result": []
  },
  {
    "postal": "L7R6X0",
    "result": []
  },
  {
    "postal": "L7R3E9",
    "result": [
      {
        "electoralDistricts": [
          {
            "election": null,
            "id": 15,
            "name": "Burlington"
          }
        ],
        "pollDivisionIds": [
          10137352
        ],
        "postalCode": "L7R3E9",
        "streetName": "BEAVER",
        "streetDirectionId": null,
        "streetTypeId": "ST",
        "placeName": "BURLINGTON",
        "streetNameDisplayText": "BEAVER ST, BURLINGTON"
      }
    ]
  },
  {
    "postal": "L7R0S5",
    "result": []
  },
  {
    "postal": "L7R1A2",
    "result": [
      {
        "electoralDistricts": [
          {
            "election": null,
            "id": 15,
            "name": "Burlington"
          }
        ],
        "pollDivisionIds": [
          10137353
        ],
        "postalCode": "L7R1A2",
        "streetName": "LAKESHORE",
        "streetDirectionId": null,
        "streetTypeId": "RD",
        "placeName": "BURLINGTON",
        "streetNameDisplayText": "LAKESHORE RD, BURLINGTON"
      }
    ]
  },
  {
    "postal": "L7R5V8",
    "result": []
  },
  {
    "postal": "L7R8C5",
    "result": []
  },
  {
    "postal": "L7R6N0",
    "result": []
  },
  {
    "postal": "L7R9E6",
    "result": []
  },
  {
    "postal": "L7R5J7",
    "result": []
  },
  {
    "postal": "L7R2R2",
    "result": [
      {
        "electoralDistricts": [
          {
            "election": null,
            "id": 15,
            "name": "Burlington"
          }
        ],
        "pollDivisionIds": [
          10137353
        ],
        "postalCode": "L7R2R2",
        "streetName": "MARTHA",
        "streetDirectionId": null,
        "streetTypeId": "ST",
        "placeName": "BURLINGTON",
        "streetNameDisplayText": "MARTHA ST, BURLINGTON"
      }
    ]
  },
  {
    "postal": "L7R0P5",
    "result": []
  },
  {
    "postal": "L7R5A7",
    "result": []
  },
  {
    "postal": "L7R1G1",
    "result": [
      {
        "electoralDistricts": [
          {
            "election": null,
            "id": 15,
            "name": "Burlington"
          }
        ],
        "pollDivisionIds": [
          10137353
        ],
        "postalCode": "L7R1G1",
        "streetName": "PINE",
        "streetDirectionId": null,
        "streetTypeId": "ST",
        "placeName": "BURLINGTON",
        "streetNameDisplayText": "PINE ST, BURLINGTON"
      }
    ]
  },
  {
    "postal": "L7R9R6",
    "result": []
  },
  {
    "postal": "L7R4Z9",
    "result": []
  },
  {
    "postal": "L7R1V5",
    "result": [
      {
        "electoralDistricts": [
          {
            "election": null,
            "id": 15,
            "name": "Burlington"
          }
        ],
        "pollDivisionIds": [
          10137353
        ],
        "postalCode": "L7R1V5",
        "streetName": "BLAIRHOLM",
        "streetDirectionId": null,
        "streetTypeId": "AVE",
        "placeName": "BURLINGTON",
        "streetNameDisplayText": "BLAIRHOLM AVE, BURLINGTON"
      }
    ]
  },
  {
    "postal": "L7R9Y5",
    "result": []
  },
  {
    "postal": "L7R1P2",
    "result": [
      {
        "electoralDistricts": [
          {
            "election": null,
            "id": 15,
            "name": "Burlington"
          }
        ],
        "pollDivisionIds": [
          10137353
        ],
        "postalCode": "L7R1P2",
        "streetName": "WELLINGTON",
        "streetDirectionId": null,
        "streetTypeId": "AVE",
        "placeName": "BURLINGTON",
        "streetNameDisplayText": "WELLINGTON AVE, BURLINGTON"
      }
    ]
  },
  {
    "postal": "L7R5X0",
    "result": []
  },
  {
    "postal": "L7R7B8",
    "result": []
  },
  {
    "postal": "L7R0C6",
    "result": []
  },
  {
    "postal": "L7R6G1",
    "result": []
  },
  {
    "postal": "L7R3K3",
    "result": [
      {
        "electoralDistricts": [
          {
            "election": null,
            "id": 15,
            "name": "Burlington"
          }
        ],
        "pollDivisionIds": [
          10137352
        ],
        "postalCode": "L7R3K3",
        "streetName": "ST PAUL",
        "streetDirectionId": null,
        "streetTypeId": "ST",
        "placeName": "BURLINGTON",
        "streetNameDisplayText": "ST PAUL ST, BURLINGTON"
      },
      {
        "electoralDistricts": [
          {
            "election": null,
            "id": 15,
            "name": "Burlington"
          }
        ],
        "pollDivisionIds": [
          10137352
        ],
        "postalCode": "L7R3K3",
        "streetName": "ST. PAUL",
        "streetDirectionId": null,
        "streetTypeId": "ST",
        "placeName": "BURLINGTON",
        "streetNameDisplayText": "ST. PAUL ST, BURLINGTON"
      }
    ]
  },
  {
    "postal": "L7R9R0",
    "result": []
  },
  {
    "postal": "L7R4R8",
    "result": []
  },
  {
    "postal": "L7R5P9",
    "result": []
  },
  {
    "postal": "L7R8N4",
    "result": []
  },
  {
    "postal": "L7R8H4",
    "result": []
  },
  {
    "postal": "L7R4V1",
    "result": []
  },
  {
    "postal": "L7R1K5",
    "result": [
      {
        "electoralDistricts": [
          {
            "election": null,
            "id": 15,
            "name": "Burlington"
          }
        ],
        "pollDivisionIds": [
          10137353
        ],
        "postalCode": "L7R1K5",
        "streetName": "MARIA",
        "streetDirectionId": null,
        "streetTypeId": "ST",
        "placeName": "BURLINGTON",
        "streetNameDisplayText": "MARIA ST, BURLINGTON"
      }
    ]
  },
  {
    "postal": "L7R1Z5",
    "result": [
      {
        "electoralDistricts": [
          {
            "election": null,
            "id": 15,
            "name": "Burlington"
          }
        ],
        "pollDivisionIds": [
          10137350
        ],
        "postalCode": "L7R1Z5",
        "streetName": "PROSPECT",
        "streetDirectionId": null,
        "streetTypeId": "ST",
        "placeName": "BURLINGTON",
        "streetNameDisplayText": "PROSPECT ST, BURLINGTON"
      }
    ]
  },
  {
    "postal": "L7R9L9",
    "result": []
  },
  {
    "postal": "L7R5L2",
    "result": []
  },
  {
    "postal": "L7R0M2",
    "result": []
  },
  {
    "postal": "L7R1K8",
    "result": [
      {
        "electoralDistricts": [
          {
            "election": null,
            "id": 15,
            "name": "Burlington"
          }
        ],
        "pollDivisionIds": [
          10137353
        ],
        "postalCode": "L7R1K8",
        "streetName": "MARIA",
        "streetDirectionId": null,
        "streetTypeId": "ST",
        "placeName": "BURLINGTON",
        "streetNameDisplayText": "MARIA ST, BURLINGTON"
      }
    ]
  },
  {
    "postal": "L7R3M7",
    "result": [
      {
        "electoralDistricts": [
          {
            "election": null,
            "id": 15,
            "name": "Burlington"
          }
        ],
        "pollDivisionIds": [
          10137338,
          10137351
        ],
        "postalCode": "L7R3M7",
        "streetName": "GUELPH",
        "streetDirectionId": null,
        "streetTypeId": "LINE",
        "placeName": "BURLINGTON",
        "streetNameDisplayText": "GUELPH LINE, BURLINGTON"
      }
    ]
  },
  {
    "postal": "L7R1B2",
    "result": [
      {
        "electoralDistricts": [
          {
            "election": null,
            "id": 15,
            "name": "Burlington"
          }
        ],
        "pollDivisionIds": [
          10137352
        ],
        "postalCode": "L7R1B2",
        "streetName": "LAKESHORE",
        "streetDirectionId": null,
        "streetTypeId": "RD",
        "placeName": "BURLINGTON",
        "streetNameDisplayText": "LAKESHORE RD, BURLINGTON"
      }
    ]
  },
  {
    "postal": "L7R0H9",
    "result": []
  },
  {
    "postal": "L7R8M4",
    "result": []
  },
  {
    "postal": "L7R2M5",
    "result": [
      {
        "electoralDistricts": [
          {
            "election": null,
            "id": 15,
            "name": "Burlington"
          }
        ],
        "pollDivisionIds": [
          10137353
        ],
        "postalCode": "L7R2M5",
        "streetName": "ELIZABETH",
        "streetDirectionId": null,
        "streetTypeId": "ST",
        "placeName": "BURLINGTON",
        "streetNameDisplayText": "ELIZABETH ST, BURLINGTON"
      }
    ]
  },
  {
    "postal": "L7R0T9",
    "result": []
  },
  {
    "postal": "L7R3P1",
    "result": [
      {
        "electoralDistricts": [
          {
            "election": null,
            "id": 15,
            "name": "Burlington"
          }
        ],
        "pollDivisionIds": [
          10137349
        ],
        "postalCode": "L7R3P1",
        "streetName": "FASSEL",
        "streetDirectionId": null,
        "streetTypeId": "AVE",
        "placeName": "BURLINGTON",
        "streetNameDisplayText": "FASSEL AVE, BURLINGTON"
      }
    ]
  },
  {
    "postal": "L7R1R6",
    "result": [
      {
        "electoralDistricts": [
          {
            "election": null,
            "id": 15,
            "name": "Burlington"
          }
        ],
        "pollDivisionIds": [
          10137353
        ],
        "postalCode": "L7R1R6",
        "streetName": "VICTORIA",
        "streetDirectionId": null,
        "streetTypeId": "AVE",
        "placeName": "BURLINGTON",
        "streetNameDisplayText": "VICTORIA AVE, BURLINGTON"
      }
    ]
  },
  {
    "postal": "L7R9V5",
    "result": []
  },
  {
    "postal": "L7R9T0",
    "result": []
  },
  {
    "postal": "L7R0A9",
    "result": []
  },
  {
    "postal": "L7R1M3",
    "result": [
      {
        "electoralDistricts": [
          {
            "election": null,
            "id": 15,
            "name": "Burlington"
          }
        ],
        "pollDivisionIds": [
          10137353
        ],
        "postalCode": "L7R1M3",
        "streetName": "CAROLINE",
        "streetDirectionId": null,
        "streetTypeId": "ST",
        "placeName": "BURLINGTON",
        "streetNameDisplayText": "CAROLINE ST, BURLINGTON"
      }
    ]
  },
  {
    "postal": "L7R1W8",
    "result": [
      {
        "electoralDistricts": [
          {
            "election": null,
            "id": 15,
            "name": "Burlington"
          }
        ],
        "pollDivisionIds": [
          10137351
        ],
        "postalCode": "L7R1W8",
        "streetName": "SHARRON",
        "streetDirectionId": null,
        "streetTypeId": "ST",
        "placeName": "BURLINGTON",
        "streetNameDisplayText": "SHARRON ST, BURLINGTON"
      }
    ]
  },
  {
    "postal": "L7R9J1",
    "result": []
  },
  {
    "postal": "L7R8N5",
    "result": []
  },
  {
    "postal": "L7R5X1",
    "result": []
  },
  {
    "postal": "L7R6S2",
    "result": []
  },
  {
    "postal": "L7R2A2",
    "result": [
      {
        "electoralDistricts": [
          {
            "election": null,
            "id": 15,
            "name": "Burlington"
          }
        ],
        "pollDivisionIds": [
          10137351
        ],
        "postalCode": "L7R2A2",
        "streetName": "PROSPECT",
        "streetDirectionId": null,
        "streetTypeId": "ST",
        "placeName": "BURLINGTON",
        "streetNameDisplayText": "PROSPECT ST, BURLINGTON"
      }
    ]
  },
  {
    "postal": "L7R6A6",
    "result": []
  },
  {
    "postal": "L7R0S3",
    "result": []
  },
  {
    "postal": "L7R3E7",
    "result": [
      {
        "electoralDistricts": [
          {
            "election": null,
            "id": 15,
            "name": "Burlington"
          }
        ],
        "pollDivisionIds": [
          10137351
        ],
        "postalCode": "L7R3E7",
        "streetName": "POWELL",
        "streetDirectionId": null,
        "streetTypeId": "CRT",
        "placeName": "BURLINGTON",
        "streetNameDisplayText": "POWELL CRT, BURLINGTON"
      }
    ]
  },
  {
    "postal": "L7R5R7",
    "result": []
  },
  {
    "postal": "L7R3R6",
    "result": [
      {
        "electoralDistricts": [
          {
            "election": null,
            "id": 15,
            "name": "Burlington"
          }
        ],
        "pollDivisionIds": [
          10137349
        ],
        "postalCode": "L7R3R6",
        "streetName": "GLENWOOD SCHOOL",
        "streetDirectionId": null,
        "streetTypeId": "DR",
        "placeName": "BURLINGTON",
        "streetNameDisplayText": "GLENWOOD SCHOOL DR, BURLINGTON"
      }
    ]
  },
  {
    "postal": "L7R6K4",
    "result": []
  },
  {
    "postal": "L7R2W5",
    "result": [
      {
        "electoralDistricts": [
          {
            "election": null,
            "id": 15,
            "name": "Burlington"
          }
        ],
        "pollDivisionIds": [
          10137352
        ],
        "postalCode": "L7R2W5",
        "streetName": "STRATHEDEN",
        "streetDirectionId": null,
        "streetTypeId": "DR",
        "placeName": "BURLINGTON",
        "streetNameDisplayText": "STRATHEDEN DR, BURLINGTON"
      }
    ]
  },
  {
    "postal": "L7R8W4",
    "result": []
  },
  {
    "postal": "L7R9C2",
    "result": []
  },
  {
    "postal": "L7R2C0",
    "result": []
  },
  {
    "postal": "L7R0E1",
    "result": [
      {
        "electoralDistricts": [
          {
            "election": null,
            "id": 15,
            "name": "Burlington"
          }
        ],
        "pollDivisionIds": [
          10137350
        ],
        "postalCode": "L7R0E1",
        "streetName": "GHENT",
        "streetDirectionId": null,
        "streetTypeId": "AVE",
        "placeName": "BURLINGTON",
        "streetNameDisplayText": "GHENT AVE, BURLINGTON"
      }
    ]
  },
  {
    "postal": "L7R1K9",
    "result": [
      {
        "electoralDistricts": [
          {
            "election": null,
            "id": 15,
            "name": "Burlington"
          }
        ],
        "pollDivisionIds": [
          10137353
        ],
        "postalCode": "L7R1K9",
        "streetName": "CAROLINE",
        "streetDirectionId": null,
        "streetTypeId": "ST",
        "placeName": "BURLINGTON",
        "streetNameDisplayText": "CAROLINE ST, BURLINGTON"
      }
    ]
  },
  {
    "postal": "L7R1G7",
    "result": [
      {
        "electoralDistricts": [
          {
            "election": null,
            "id": 15,
            "name": "Burlington"
          }
        ],
        "pollDivisionIds": [
          10137351
        ],
        "postalCode": "L7R1G7",
        "streetName": "FAIRLEIGH",
        "streetDirectionId": null,
        "streetTypeId": "PL",
        "placeName": "BURLINGTON",
        "streetNameDisplayText": "FAIRLEIGH PL, BURLINGTON"
      }
    ]
  },
  {
    "postal": "L7R4E9",
    "result": []
  },
  {
    "postal": "L7R9P0",
    "result": []
  },
  {
    "postal": "L7R5H3",
    "result": []
  },
  {
    "postal": "L7R9X6",
    "result": []
  },
  {
    "postal": "L7R5N7",
    "result": []
  },
  {
    "postal": "L7R5A6",
    "result": []
  },
  {
    "postal": "L7R4M0",
    "result": []
  },
  {
    "postal": "L7R3V6",
    "result": [
      {
        "electoralDistricts": [
          {
            "election": null,
            "id": 15,
            "name": "Burlington"
          }
        ],
        "pollDivisionIds": [
          10137349
        ],
        "postalCode": "L7R3V6",
        "streetName": "HELENA",
        "streetDirectionId": null,
        "streetTypeId": "ST",
        "placeName": "BURLINGTON",
        "streetNameDisplayText": "HELENA ST, BURLINGTON"
      }
    ]
  },
  {
    "postal": "L7R1L7",
    "result": [
      {
        "electoralDistricts": [
          {
            "election": null,
            "id": 15,
            "name": "Burlington"
          }
        ],
        "pollDivisionIds": [
          10137353
        ],
        "postalCode": "L7R1L7",
        "streetName": "CAROLINE",
        "streetDirectionId": null,
        "streetTypeId": "ST",
        "placeName": "BURLINGTON",
        "streetNameDisplayText": "CAROLINE ST, BURLINGTON"
      }
    ]
  },
  {
    "postal": "L7R2P9",
    "result": []
  },
  {
    "postal": "L7R5T4",
    "result": []
  },
  {
    "postal": "L7R5Z1",
    "result": []
  },
  {
    "postal": "L7R2X0",
    "result": []
  },
  {
    "postal": "L7R6Z2",
    "result": []
  },
  {
    "postal": "L7R0E0",
    "result": []
  },
  {
    "postal": "L7R3Z5",
    "result": []
  },
  {
    "postal": "L7R8H3",
    "result": []
  },
  {
    "postal": "L7R7S6",
    "result": []
  },
  {
    "postal": "L7R4C1",
    "result": []
  },
  {
    "postal": "L7R3K2",
    "result": [
      {
        "electoralDistricts": [
          {
            "election": null,
            "id": 15,
            "name": "Burlington"
          }
        ],
        "pollDivisionIds": [
          10137352
        ],
        "postalCode": "L7R3K2",
        "streetName": "ST PAUL",
        "streetDirectionId": null,
        "streetTypeId": "ST",
        "placeName": "BURLINGTON",
        "streetNameDisplayText": "ST PAUL ST, BURLINGTON"
      }
    ]
  },
  {
    "postal": "L7R1Y5",
    "result": [
      {
        "electoralDistricts": [
          {
            "election": null,
            "id": 15,
            "name": "Burlington"
          }
        ],
        "pollDivisionIds": [
          10137350
        ],
        "postalCode": "L7R1Y5",
        "streetName": "GHENT",
        "streetDirectionId": null,
        "streetTypeId": "AVE",
        "placeName": "BURLINGTON",
        "streetNameDisplayText": "GHENT AVE, BURLINGTON"
      }
    ]
  },
  {
    "postal": "L7R6P6",
    "result": []
  },
  {
    "postal": "L7R3N9",
    "result": [
      {
        "electoralDistricts": [
          {
            "election": null,
            "id": 15,
            "name": "Burlington"
          }
        ],
        "pollDivisionIds": [
          10137349
        ],
        "postalCode": "L7R3N9",
        "streetName": "FASSEL",
        "streetDirectionId": null,
        "streetTypeId": "AVE",
        "placeName": "BURLINGTON",
        "streetNameDisplayText": "FASSEL AVE, BURLINGTON"
      }
    ]
  },
  {
    "postal": "L7R3W2",
    "result": [
      {
        "electoralDistricts": [
          {
            "election": null,
            "id": 15,
            "name": "Burlington"
          }
        ],
        "pollDivisionIds": [
          10137349
        ],
        "postalCode": "L7R3W2",
        "streetName": "PHYLLIS",
        "streetDirectionId": null,
        "streetTypeId": "ST",
        "placeName": "BURLINGTON",
        "streetNameDisplayText": "PHYLLIS ST, BURLINGTON"
      }
    ]
  },
  {
    "postal": "L7R6H8",
    "result": []
  },
  {
    "postal": "L7R9T3",
    "result": []
  },
  {
    "postal": "L7R5L9",
    "result": []
  },
  {
    "postal": "L7R7X7",
    "result": []
  },
  {
    "postal": "L7R3J5",
    "result": [
      {
        "electoralDistricts": [
          {
            "election": null,
            "id": 15,
            "name": "Burlington"
          }
        ],
        "pollDivisionIds": [
          10137350
        ],
        "postalCode": "L7R3J5",
        "streetName": "DEAN",
        "streetDirectionId": null,
        "streetTypeId": "ST",
        "placeName": "BURLINGTON",
        "streetNameDisplayText": "DEAN ST, BURLINGTON"
      }
    ]
  },
  {
    "postal": "L7R4J5",
    "result": []
  },
  {
    "postal": "L7R6J2",
    "result": []
  },
  {
    "postal": "L7R5V6",
    "result": []
  },
  {
    "postal": "L7R3N2",
    "result": [
      {
        "electoralDistricts": [
          {
            "election": null,
            "id": 15,
            "name": "Burlington"
          }
        ],
        "pollDivisionIds": [
          10137337
        ],
        "postalCode": "L7R3N2",
        "streetName": "GUELPH",
        "streetDirectionId": null,
        "streetTypeId": "LINE",
        "placeName": "BURLINGTON",
        "streetNameDisplayText": "GUELPH LINE, BURLINGTON"
      }
    ]
  },
  {
    "postal": "L7R3B1",
    "result": [
      {
        "electoralDistricts": [
          {
            "election": null,
            "id": 15,
            "name": "Burlington"
          }
        ],
        "pollDivisionIds": [
          10137352
        ],
        "postalCode": "L7R3B1",
        "streetName": "DELAWARE",
        "streetDirectionId": null,
        "streetTypeId": "AVE",
        "placeName": "BURLINGTON",
        "streetNameDisplayText": "DELAWARE AVE, BURLINGTON"
      }
    ]
  },
  {
    "postal": "L7R8B5",
    "result": []
  },
  {
    "postal": "L7R0K1",
    "result": []
  },
  {
    "postal": "L7R7M7",
    "result": []
  },
  {
    "postal": "L7R2M2",
    "result": [
      {
        "electoralDistricts": [
          {
            "election": null,
            "id": 15,
            "name": "Burlington"
          }
        ],
        "pollDivisionIds": [
          10137353
        ],
        "postalCode": "L7R2M2",
        "streetName": "ELIZABETH",
        "streetDirectionId": null,
        "streetTypeId": "ST",
        "placeName": "BURLINGTON",
        "streetNameDisplayText": "ELIZABETH ST, BURLINGTON"
      }
    ]
  },
  {
    "postal": "L7R9N3",
    "result": []
  },
  {
    "postal": "L7R4Y8",
    "result": []
  },
  {
    "postal": "L7R3V7",
    "result": [
      {
        "electoralDistricts": [
          {
            "election": null,
            "id": 15,
            "name": "Burlington"
          }
        ],
        "pollDivisionIds": [
          10137349
        ],
        "postalCode": "L7R3V7",
        "streetName": "TRUMAN",
        "streetDirectionId": null,
        "streetTypeId": "ST",
        "placeName": "BURLINGTON",
        "streetNameDisplayText": "TRUMAN ST, BURLINGTON"
      }
    ]
  },
  {
    "postal": "L7R8Z1",
    "result": []
  },
  {
    "postal": "L7R7B3",
    "result": []
  },
  {
    "postal": "L7R3A8",
    "result": [
      {
        "electoralDistricts": [
          {
            "election": null,
            "id": 15,
            "name": "Burlington"
          }
        ],
        "pollDivisionIds": [
          10137351
        ],
        "postalCode": "L7R3A8",
        "streetName": "CORNICK",
        "streetDirectionId": null,
        "streetTypeId": "DR",
        "placeName": "BURLINGTON",
        "streetNameDisplayText": "CORNICK DR, BURLINGTON"
      }
    ]
  },
  {
    "postal": "L7R7V5",
    "result": []
  },
  {
    "postal": "L7R2T2",
    "result": [
      {
        "electoralDistricts": [
          {
            "election": null,
            "id": 15,
            "name": "Burlington"
          }
        ],
        "pollDivisionIds": [
          10137353
        ],
        "postalCode": "L7R2T2",
        "streetName": "LORNE",
        "streetDirectionId": null,
        "streetTypeId": "ST",
        "placeName": "BURLINGTON",
        "streetNameDisplayText": "LORNE ST, BURLINGTON"
      }
    ]
  },
  {
    "postal": "L7R6L3",
    "result": []
  },
  {
    "postal": "L7R0L2",
    "result": []
  },
  {
    "postal": "L7R5Y8",
    "result": []
  },
  {
    "postal": "L7R0B8",
    "result": []
  },
  {
    "postal": "L7R6R5",
    "result": []
  },
  {
    "postal": "L7R8W6",
    "result": []
  },
  {
    "postal": "L7R8G6",
    "result": []
  },
  {
    "postal": "L7R6X3",
    "result": []
  },
  {
    "postal": "L7R7R7",
    "result": []
  },
  {
    "postal": "L7R4B6",
    "result": [
      {
        "electoralDistricts": [
          {
            "election": null,
            "id": 15,
            "name": "Burlington"
          }
        ],
        "pollDivisionIds": [
          10137355
        ],
        "postalCode": "L7R4B6",
        "streetName": "BRANT",
        "streetDirectionId": null,
        "streetTypeId": "ST",
        "placeName": "BURLINGTON",
        "streetNameDisplayText": "BRANT ST, BURLINGTON"
      }
    ]
  },
  {
    "postal": "L7R3P9",
    "result": [
      {
        "electoralDistricts": [
          {
            "election": null,
            "id": 15,
            "name": "Burlington"
          }
        ],
        "pollDivisionIds": [
          10137349
        ],
        "postalCode": "L7R3P9",
        "streetName": "PLAINS",
        "streetDirectionId": "E",
        "streetTypeId": "RD",
        "placeName": "BURLINGTON",
        "streetNameDisplayText": "PLAINS RD E, BURLINGTON"
      }
    ]
  },
  {
    "postal": "L7R2T3",
    "result": [
      {
        "electoralDistricts": [
          {
            "election": null,
            "id": 15,
            "name": "Burlington"
          }
        ],
        "pollDivisionIds": [
          10137353
        ],
        "postalCode": "L7R2T3",
        "streetName": "LORNE",
        "streetDirectionId": null,
        "streetTypeId": "ST",
        "placeName": "BURLINGTON",
        "streetNameDisplayText": "LORNE ST, BURLINGTON"
      }
    ]
  },
  {
    "postal": "L7R1M4",
    "result": [
      {
        "electoralDistricts": [
          {
            "election": null,
            "id": 15,
            "name": "Burlington"
          }
        ],
        "pollDivisionIds": [
          10137351
        ],
        "postalCode": "L7R1M4",
        "streetName": "CAROLINE",
        "streetDirectionId": null,
        "streetTypeId": "ST",
        "placeName": "BURLINGTON",
        "streetNameDisplayText": "CAROLINE ST, BURLINGTON"
      }
    ]
  },
  {
    "postal": "L7R0H1",
    "result": []
  },
  {
    "postal": "L7R9W3",
    "result": []
  },
  {
    "postal": "L7R6P1",
    "result": []
  },
  {
    "postal": "L7R7G2",
    "result": []
  },
  {
    "postal": "L7R4J9",
    "result": [
      {
        "electoralDistricts": [
          {
            "election": null,
            "id": 15,
            "name": "Burlington"
          }
        ],
        "pollDivisionIds": [
          10137352
        ],
        "postalCode": "L7R4J9",
        "streetName": "LAKESHORE",
        "streetDirectionId": null,
        "streetTypeId": "RD",
        "placeName": "BURLINGTON",
        "streetNameDisplayText": "LAKESHORE RD, BURLINGTON"
      }
    ]
  },
  {
    "postal": "L7R9E4",
    "result": []
  },
  {
    "postal": "L7R8H0",
    "result": []
  },
  {
    "postal": "L7R4M7",
    "result": [
      {
        "electoralDistricts": [
          {
            "election": null,
            "id": 15,
            "name": "Burlington"
          }
        ],
        "pollDivisionIds": [
          10137349
        ],
        "postalCode": "L7R4M7",
        "streetName": "GLENDOR",
        "streetDirectionId": null,
        "streetTypeId": "AVE",
        "placeName": "BURLINGTON",
        "streetNameDisplayText": "GLENDOR AVE, BURLINGTON"
      }
    ]
  },
  {
    "postal": "L7R2G9",
    "result": [
      {
        "electoralDistricts": [
          {
            "election": null,
            "id": 15,
            "name": "Burlington"
          }
        ],
        "pollDivisionIds": [
          10137355
        ],
        "postalCode": "L7R2G9",
        "streetName": "BRANT",
        "streetDirectionId": null,
        "streetTypeId": "ST",
        "placeName": "BURLINGTON",
        "streetNameDisplayText": "BRANT ST, BURLINGTON"
      }
    ]
  },
  {
    "postal": "L7R8T2",
    "result": []
  },
  {
    "postal": "L7R7G7",
    "result": []
  },
  {
    "postal": "L7R4Z3",
    "result": []
  },
  {
    "postal": "L7R5B3",
    "result": [
      {
        "electoralDistricts": [
          {
            "election": null,
            "id": 15,
            "name": "Burlington"
          }
        ],
        "pollDivisionIds": [
          10137349
        ],
        "postalCode": "L7R5B3",
        "streetName": "PLAINS",
        "streetDirectionId": "E",
        "streetTypeId": "RD",
        "placeName": "BURLINGTON",
        "streetNameDisplayText": "PLAINS RD E, BURLINGTON"
      }
    ]
  },
  {
    "postal": "L7R1S7",
    "result": [
      {
        "electoralDistricts": [
          {
            "election": null,
            "id": 15,
            "name": "Burlington"
          }
        ],
        "pollDivisionIds": [
          10137351
        ],
        "postalCode": "L7R1S7",
        "streetName": "COURTLAND",
        "streetDirectionId": null,
        "streetTypeId": "DR",
        "placeName": "BURLINGTON",
        "streetNameDisplayText": "COURTLAND DR, BURLINGTON"
      }
    ]
  },
  {
    "postal": "L7R2N7",
    "result": [
      {
        "electoralDistricts": [
          {
            "election": null,
            "id": 15,
            "name": "Burlington"
          }
        ],
        "pollDivisionIds": [
          10137353
        ],
        "postalCode": "L7R2N7",
        "streetName": "EMERALD",
        "streetDirectionId": null,
        "streetTypeId": "ST",
        "placeName": "BURLINGTON",
        "streetNameDisplayText": "EMERALD ST, BURLINGTON"
      }
    ]
  },
  {
    "postal": "L7R0H8",
    "result": []
  },
  {
    "postal": "L7R7Z4",
    "result": []
  },
  {
    "postal": "L7R7B1",
    "result": []
  },
  {
    "postal": "L7R7P8",
    "result": []
  },
  {
    "postal": "L7R7N0",
    "result": []
  },
  {
    "postal": "L7R3Y5",
    "result": []
  },
  {
    "postal": "L7R6K1",
    "result": []
  },
  {
    "postal": "L7R9X5",
    "result": []
  },
  {
    "postal": "L7R7S5",
    "result": []
  },
  {
    "postal": "L7R0A4",
    "result": [
      {
        "electoralDistricts": [
          {
            "election": null,
            "id": 15,
            "name": "Burlington"
          }
        ],
        "pollDivisionIds": [
          10137353,
          10137355
        ],
        "postalCode": "L7R0A4",
        "streetName": "ELIZABETH",
        "streetDirectionId": null,
        "streetTypeId": "ST",
        "placeName": "BURLINGTON",
        "streetNameDisplayText": "ELIZABETH ST, BURLINGTON"
      }
    ]
  },
  {
    "postal": "L7R4T5",
    "result": []
  },
  {
    "postal": "L7R5K1",
    "result": []
  },
  {
    "postal": "L7R0Z9",
    "result": []
  },
  {
    "postal": "L7R7T2",
    "result": []
  },
  {
    "postal": "L7R1L5",
    "result": [
      {
        "electoralDistricts": [
          {
            "election": null,
            "id": 15,
            "name": "Burlington"
          }
        ],
        "pollDivisionIds": [
          10137353
        ],
        "postalCode": "L7R1L5",
        "streetName": "CAROLINE",
        "streetDirectionId": null,
        "streetTypeId": "ST",
        "placeName": "BURLINGTON",
        "streetNameDisplayText": "CAROLINE ST, BURLINGTON"
      }
    ]
  },
  {
    "postal": "L7R3N5",
    "result": [
      {
        "electoralDistricts": [
          {
            "election": null,
            "id": 15,
            "name": "Burlington"
          }
        ],
        "pollDivisionIds": [
          10137350
        ],
        "postalCode": "L7R3N5",
        "streetName": "GUELPH",
        "streetDirectionId": null,
        "streetTypeId": "LINE",
        "placeName": "BURLINGTON",
        "streetNameDisplayText": "GUELPH LINE, BURLINGTON"
      }
    ]
  },
  {
    "postal": "L7R6H4",
    "result": []
  },
  {
    "postal": "L7R5A5",
    "result": []
  },
  {
    "postal": "L7R3R9",
    "result": [
      {
        "electoralDistricts": [
          {
            "election": null,
            "id": 15,
            "name": "Burlington"
          }
        ],
        "pollDivisionIds": [
          10137349
        ],
        "postalCode": "L7R3R9",
        "streetName": "GLENWOOD SCHOOL",
        "streetDirectionId": null,
        "streetTypeId": "DR",
        "placeName": "BURLINGTON",
        "streetNameDisplayText": "GLENWOOD SCHOOL DR, BURLINGTON"
      }
    ]
  },
  {
    "postal": "L7R7L8",
    "result": []
  },
  {
    "postal": "L7R6T6",
    "result": []
  },
  {
    "postal": "L7R7Y7",
    "result": []
  },
  {
    "postal": "L7R3M8",
    "result": [
      {
        "electoralDistricts": [
          {
            "election": null,
            "id": 15,
            "name": "Burlington"
          }
        ],
        "pollDivisionIds": [
          10137349,
          10137351
        ],
        "postalCode": "L7R3M8",
        "streetName": "GUELPH",
        "streetDirectionId": null,
        "streetTypeId": "LINE",
        "placeName": "BURLINGTON",
        "streetNameDisplayText": "GUELPH LINE, BURLINGTON"
      }
    ]
  },
  {
    "postal": "L7R2E0",
    "result": []
  },
  {
    "postal": "L7R4B5",
    "result": []
  },
  {
    "postal": "L7R1J3",
    "result": [
      {
        "electoralDistricts": [
          {
            "election": null,
            "id": 15,
            "name": "Burlington"
          }
        ],
        "pollDivisionIds": [
          10137351
        ],
        "postalCode": "L7R1J3",
        "streetName": "NEW",
        "streetDirectionId": null,
        "streetTypeId": "ST",
        "placeName": "BURLINGTON",
        "streetNameDisplayText": "NEW ST, BURLINGTON"
      }
    ]
  },
  {
    "postal": "L7R5S6",
    "result": []
  },
  {
    "postal": "L7R8P7",
    "result": []
  },
  {
    "postal": "L7R7S7",
    "result": []
  },
  {
    "postal": "L7R4C2",
    "result": [
      {
        "electoralDistricts": [
          {
            "election": null,
            "id": 15,
            "name": "Burlington"
          }
        ],
        "pollDivisionIds": [
          10137360
        ],
        "postalCode": "L7R4C2",
        "streetName": "NORTH SERVICE",
        "streetDirectionId": null,
        "streetTypeId": "RD",
        "placeName": "BURLINGTON",
        "streetNameDisplayText": "NORTH SERVICE RD, BURLINGTON"
      }
    ]
  },
  {
    "postal": "L7R5Y0",
    "result": []
  },
  {
    "postal": "L7R2V7",
    "result": [
      {
        "electoralDistricts": [
          {
            "election": null,
            "id": 15,
            "name": "Burlington"
          }
        ],
        "pollDivisionIds": [
          10137351
        ],
        "postalCode": "L7R2V7",
        "streetName": "GEORGE",
        "streetDirectionId": null,
        "streetTypeId": "ST",
        "placeName": "BURLINGTON",
        "streetNameDisplayText": "GEORGE ST, BURLINGTON"
      }
    ]
  },
  {
    "postal": "L7R8P5",
    "result": []
  },
  {
    "postal": "L7R5P5",
    "result": []
  },
  {
    "postal": "L7R5Z0",
    "result": []
  },
  {
    "postal": "L7R9B0",
    "result": []
  },
  {
    "postal": "L7R1L0",
    "result": []
  },
  {
    "postal": "L7R0B5",
    "result": [
      {
        "electoralDistricts": [
          {
            "election": null,
            "id": 15,
            "name": "Burlington"
          }
        ],
        "pollDivisionIds": [
          10137353
        ],
        "postalCode": "L7R0B5",
        "streetName": "MARIA",
        "streetDirectionId": null,
        "streetTypeId": "ST",
        "placeName": "BURLINGTON",
        "streetNameDisplayText": "MARIA ST, BURLINGTON"
      }
    ]
  },
  {
    "postal": "L7R3L2",
    "result": [
      {
        "electoralDistricts": [
          {
            "election": null,
            "id": 15,
            "name": "Burlington"
          }
        ],
        "pollDivisionIds": [
          10137340
        ],
        "postalCode": "L7R3L2",
        "streetName": "GUELPH",
        "streetDirectionId": null,
        "streetTypeId": "LINE",
        "placeName": "BURLINGTON",
        "streetNameDisplayText": "GUELPH LINE, BURLINGTON"
      }
    ]
  },
  {
    "postal": "L7R3B7",
    "result": [
      {
        "electoralDistricts": [
          {
            "election": null,
            "id": 15,
            "name": "Burlington"
          }
        ],
        "pollDivisionIds": [
          10137350
        ],
        "postalCode": "L7R3B7",
        "streetName": "PALING",
        "streetDirectionId": null,
        "streetTypeId": "RD",
        "placeName": "BURLINGTON",
        "streetNameDisplayText": "PALING RD, BURLINGTON"
      }
    ]
  },
  {
    "postal": "L7R8L1",
    "result": []
  },
  {
    "postal": "L7R5M4",
    "result": []
  },
  {
    "postal": "L7R4G9",
    "result": [
      {
        "electoralDistricts": [
          {
            "election": null,
            "id": 15,
            "name": "Burlington"
          }
        ],
        "pollDivisionIds": [
          10137352
        ],
        "postalCode": "L7R4G9",
        "streetName": "ST PAUL",
        "streetDirectionId": null,
        "streetTypeId": "ST",
        "placeName": "BURLINGTON",
        "streetNameDisplayText": "ST PAUL ST, BURLINGTON"
      }
    ]
  },
  {
    "postal": "L7R0P0",
    "result": []
  },
  {
    "postal": "L7R8G2",
    "result": []
  },
  {
    "postal": "L7R1V9",
    "result": [
      {
        "electoralDistricts": [
          {
            "election": null,
            "id": 15,
            "name": "Burlington"
          }
        ],
        "pollDivisionIds": [
          10137353
        ],
        "postalCode": "L7R1V9",
        "streetName": "PAISLEY",
        "streetDirectionId": null,
        "streetTypeId": "AVE",
        "placeName": "BURLINGTON",
        "streetNameDisplayText": "PAISLEY AVE, BURLINGTON"
      }
    ]
  },
  {
    "postal": "L7R8N8",
    "result": []
  },
  {
    "postal": "L7R6S8",
    "result": []
  },
  {
    "postal": "L7R8H2",
    "result": []
  },
  {
    "postal": "L7R5R8",
    "result": []
  },
  {
    "postal": "L7R5L4",
    "result": []
  },
  {
    "postal": "L7R9E1",
    "result": []
  },
  {
    "postal": "L7R1C4",
    "result": [
      {
        "electoralDistricts": [
          {
            "election": null,
            "id": 59,
            "name": "Milton"
          }
        ],
        "pollDivisionIds": [
          10126381
        ],
        "postalCode": "L7R1C4",
        "streetName": "1",
        "streetDirectionId": null,
        "streetTypeId": "SIDERD",
        "placeName": "BURLINGTON",
        "streetNameDisplayText": "1 SIDERD, BURLINGTON"
      },
      {
        "electoralDistricts": [
          {
            "election": null,
            "id": 15,
            "name": "Burlington"
          }
        ],
        "pollDivisionIds": [
          10137352
        ],
        "postalCode": "L7R1C4",
        "streetName": "FIRST",
        "streetDirectionId": null,
        "streetTypeId": "ST",
        "placeName": "BURLINGTON",
        "streetNameDisplayText": "FIRST ST, BURLINGTON"
      }
    ]
  },
  {
    "postal": "L7R8W5",
    "result": []
  },
  {
    "postal": "L7R1Y4",
    "result": [
      {
        "electoralDistricts": [
          {
            "election": null,
            "id": 15,
            "name": "Burlington"
          }
        ],
        "pollDivisionIds": [
          10137350
        ],
        "postalCode": "L7R1Y4",
        "streetName": "GHENT",
        "streetDirectionId": null,
        "streetTypeId": "AVE",
        "placeName": "BURLINGTON",
        "streetNameDisplayText": "GHENT AVE, BURLINGTON"
      }
    ]
  },
  {
    "postal": "L7R1C0",
    "result": []
  },
  {
    "postal": "L7R2J2",
    "result": [
      {
        "electoralDistricts": [
          {
            "election": null,
            "id": 15,
            "name": "Burlington"
          }
        ],
        "pollDivisionIds": [
          10137354
        ],
        "postalCode": "L7R2J2",
        "streetName": "BRANT",
        "streetDirectionId": null,
        "streetTypeId": "ST",
        "placeName": "BURLINGTON",
        "streetNameDisplayText": "BRANT ST, BURLINGTON"
      }
    ]
  },
  {
    "postal": "L7R2J0",
    "result": []
  },
  {
    "postal": "L7R7A3",
    "result": []
  },
  {
    "postal": "L7R8M1",
    "result": []
  },
  {
    "postal": "L7R7T9",
    "result": []
  },
  {
    "postal": "L7R6C0",
    "result": []
  },
  {
    "postal": "L7R7X1",
    "result": []
  },
  {
    "postal": "L7R0G1",
    "result": []
  },
  {
    "postal": "L7R4X2",
    "result": []
  },
  {
    "postal": "L7R0N6",
    "result": []
  },
  {
    "postal": "L7R8E3",
    "result": []
  },
  {
    "postal": "L7R5S8",
    "result": []
  },
  {
    "postal": "L7R0R0",
    "result": []
  },
  {
    "postal": "L7R6J6",
    "result": []
  },
  {
    "postal": "L7R4B4",
    "result": []
  },
  {
    "postal": "L7R7E3",
    "result": []
  },
  {
    "postal": "L7R3N6",
    "result": [
      {
        "electoralDistricts": [
          {
            "election": null,
            "id": 15,
            "name": "Burlington"
          }
        ],
        "pollDivisionIds": [
          10137350
        ],
        "postalCode": "L7R3N6",
        "streetName": "GUELPH",
        "streetDirectionId": null,
        "streetTypeId": "LINE",
        "placeName": "BURLINGTON",
        "streetNameDisplayText": "GUELPH LINE, BURLINGTON"
      }
    ]
  },
  {
    "postal": "L7R3X6",
    "result": []
  },
  {
    "postal": "L7R8L0",
    "result": []
  },
  {
    "postal": "L7R8N1",
    "result": []
  },
  {
    "postal": "L7R4J0",
    "result": []
  },
  {
    "postal": "L7R0X7",
    "result": []
  },
  {
    "postal": "L7R6S4",
    "result": []
  },
  {
    "postal": "L7R0Z0",
    "result": []
  },
  {
    "postal": "L7R9X8",
    "result": []
  },
  {
    "postal": "L7R3H3",
    "result": [
      {
        "electoralDistricts": [
          {
            "election": null,
            "id": 15,
            "name": "Burlington"
          }
        ],
        "pollDivisionIds": [
          10137350
        ],
        "postalCode": "L7R3H3",
        "streetName": "WESLEY",
        "streetDirectionId": null,
        "streetTypeId": "ST",
        "placeName": "BURLINGTON",
        "streetNameDisplayText": "WESLEY ST, BURLINGTON"
      }
    ]
  },
  {
    "postal": "L7R7S2",
    "result": []
  },
  {
    "postal": "L7R3T3",
    "result": [
      {
        "electoralDistricts": [
          {
            "election": null,
            "id": 15,
            "name": "Burlington"
          }
        ],
        "pollDivisionIds": [
          10137349
        ],
        "postalCode": "L7R3T3",
        "streetName": "QUEENSWAY",
        "streetDirectionId": null,
        "streetTypeId": "DR",
        "placeName": "BURLINGTON",
        "streetNameDisplayText": "QUEENSWAY DR, BURLINGTON"
      }
    ]
  },
  {
    "postal": "L7R9P3",
    "result": []
  },
  {
    "postal": "L7R4H8",
    "result": [
      {
        "electoralDistricts": [
          {
            "election": null,
            "id": 15,
            "name": "Burlington"
          }
        ],
        "pollDivisionIds": [
          10137352
        ],
        "postalCode": "L7R4H8",
        "streetName": "MARKET",
        "streetDirectionId": null,
        "streetTypeId": "ST",
        "placeName": "BURLINGTON",
        "streetNameDisplayText": "MARKET ST, BURLINGTON"
      }
    ]
  },
  {
    "postal": "L7R6R1",
    "result": []
  },
  {
    "postal": "L7R1S0",
    "result": []
  },
  {
    "postal": "L7R3W8",
    "result": [
      {
        "electoralDistricts": [
          {
            "election": null,
            "id": 15,
            "name": "Burlington"
          }
        ],
        "pollDivisionIds": [
          10137349
        ],
        "postalCode": "L7R3W8",
        "streetName": "CLETA",
        "streetDirectionId": null,
        "streetTypeId": "ST",
        "placeName": "BURLINGTON",
        "streetNameDisplayText": "CLETA ST, BURLINGTON"
      }
    ]
  },
  {
    "postal": "L7R4S3",
    "result": []
  },
  {
    "postal": "L7R1B6",
    "result": [
      {
        "electoralDistricts": [
          {
            "election": null,
            "id": 15,
            "name": "Burlington"
          }
        ],
        "pollDivisionIds": [
          10137352
        ],
        "postalCode": "L7R1B6",
        "streetName": "LAKESHORE",
        "streetDirectionId": null,
        "streetTypeId": "RD",
        "placeName": "BURLINGTON",
        "streetNameDisplayText": "LAKESHORE RD, BURLINGTON"
      }
    ]
  },
  {
    "postal": "L7R8R3",
    "result": []
  },
  {
    "postal": "L7R4V9",
    "result": []
  },
  {
    "postal": "L7R9W4",
    "result": []
  },
  {
    "postal": "L7R3T4",
    "result": [
      {
        "electoralDistricts": [
          {
            "election": null,
            "id": 15,
            "name": "Burlington"
          }
        ],
        "pollDivisionIds": [
          10137349
        ],
        "postalCode": "L7R3T4",
        "streetName": "QUEENSWAY",
        "streetDirectionId": null,
        "streetTypeId": "DR",
        "placeName": "BURLINGTON",
        "streetNameDisplayText": "QUEENSWAY DR, BURLINGTON"
      }
    ]
  },
  {
    "postal": "L7R5C7",
    "result": []
  },
  {
    "postal": "L7R3Y1",
    "result": []
  },
  {
    "postal": "L7R5V0",
    "result": []
  },
  {
    "postal": "L7R8G8",
    "result": []
  },
  {
    "postal": "L7R8B1",
    "result": []
  },
  {
    "postal": "L7R4P5",
    "result": [
      {
        "electoralDistricts": [
          {
            "election": null,
            "id": 15,
            "name": "Burlington"
          }
        ],
        "pollDivisionIds": [
          10143429
        ],
        "postalCode": "L7R4P5",
        "streetName": "JOHN",
        "streetDirectionId": null,
        "streetTypeId": "ST",
        "placeName": "BURLINGTON",
        "streetNameDisplayText": "JOHN ST, BURLINGTON"
      }
    ]
  },
  {
    "postal": "L7R7B2",
    "result": []
  },
  {
    "postal": "L7R0R2",
    "result": []
  },
  {
    "postal": "L7R4M4",
    "result": [
      {
        "electoralDistricts": [
          {
            "election": null,
            "id": 15,
            "name": "Burlington"
          }
        ],
        "pollDivisionIds": [
          10137353
        ],
        "postalCode": "L7R4M4",
        "streetName": "PEARL",
        "streetDirectionId": null,
        "streetTypeId": "ST",
        "placeName": "BURLINGTON",
        "streetNameDisplayText": "PEARL ST, BURLINGTON"
      }
    ]
  },
  {
    "postal": "L7R7M4",
    "result": []
  },
  {
    "postal": "L7R9S7",
    "result": []
  },
  {
    "postal": "L7R5Z7",
    "result": []
  },
  {
    "postal": "L7R7J7",
    "result": []
  },
  {
    "postal": "L7R8R8",
    "result": []
  },
  {
    "postal": "L7R9X1",
    "result": []
  },
  {
    "postal": "L7R5M9",
    "result": []
  },
  {
    "postal": "L7R9B4",
    "result": []
  },
  {
    "postal": "L7R0L9",
    "result": []
  },
  {
    "postal": "L7R9G4",
    "result": []
  },
  {
    "postal": "L7R1J4",
    "result": [
      {
        "electoralDistricts": [
          {
            "election": null,
            "id": 15,
            "name": "Burlington"
          }
        ],
        "pollDivisionIds": [
          10137351
        ],
        "postalCode": "L7R1J4",
        "streetName": "NEW",
        "streetDirectionId": null,
        "streetTypeId": "ST",
        "placeName": "BURLINGTON",
        "streetNameDisplayText": "NEW ST, BURLINGTON"
      }
    ]
  },
  {
    "postal": "L7R0W6",
    "result": []
  },
  {
    "postal": "L7R4C5",
    "result": []
  },
  {
    "postal": "L7R7E4",
    "result": []
  },
  {
    "postal": "L7R1R9",
    "result": [
      {
        "electoralDistricts": [
          {
            "election": null,
            "id": 15,
            "name": "Burlington"
          }
        ],
        "pollDivisionIds": [
          10137353
        ],
        "postalCode": "L7R1R9",
        "streetName": "COURTLAND",
        "streetDirectionId": null,
        "streetTypeId": "DR",
        "placeName": "BURLINGTON",
        "streetNameDisplayText": "COURTLAND DR, BURLINGTON"
      }
    ]
  },
  {
    "postal": "L7R2P0",
    "result": []
  },
  {
    "postal": "L7R5S4",
    "result": []
  },
  {
    "postal": "L7R5K8",
    "result": []
  },
  {
    "postal": "L7R8K4",
    "result": []
  },
  {
    "postal": "L7R7C1",
    "result": []
  },
  {
    "postal": "L7R7K9",
    "result": []
  },
  {
    "postal": "L7R5J1",
    "result": []
  },
  {
    "postal": "L7R4P9",
    "result": []
  },
  {
    "postal": "L7R0N2",
    "result": []
  },
  {
    "postal": "L7R2G6",
    "result": [
      {
        "electoralDistricts": [
          {
            "election": null,
            "id": 15,
            "name": "Burlington"
          }
        ],
        "pollDivisionIds": [
          10137353
        ],
        "postalCode": "L7R2G6",
        "streetName": "BRANT",
        "streetDirectionId": null,
        "streetTypeId": "ST",
        "placeName": "BURLINGTON",
        "streetNameDisplayText": "BRANT ST, BURLINGTON"
      }
    ]
  },
  {
    "postal": "L7R6P4",
    "result": []
  },
  {
    "postal": "L7R3J0",
    "result": []
  },
  {
    "postal": "L7R8X4",
    "result": []
  },
  {
    "postal": "L7R1Y3",
    "result": [
      {
        "electoralDistricts": [
          {
            "election": null,
            "id": 15,
            "name": "Burlington"
          }
        ],
        "pollDivisionIds": [
          10137350
        ],
        "postalCode": "L7R1Y3",
        "streetName": "GHENT",
        "streetDirectionId": null,
        "streetTypeId": "AVE",
        "placeName": "BURLINGTON",
        "streetNameDisplayText": "GHENT AVE, BURLINGTON"
      }
    ]
  },
  {
    "postal": "L7R1A8",
    "result": [
      {
        "electoralDistricts": [
          {
            "election": null,
            "id": 15,
            "name": "Burlington"
          }
        ],
        "pollDivisionIds": [
          10137352
        ],
        "postalCode": "L7R1A8",
        "streetName": "LAKESHORE",
        "streetDirectionId": null,
        "streetTypeId": "RD",
        "placeName": "BURLINGTON",
        "streetNameDisplayText": "LAKESHORE RD, BURLINGTON"
      }
    ]
  },
  {
    "postal": "L7R6Y5",
    "result": []
  },
  {
    "postal": "L7R0J6",
    "result": []
  },
  {
    "postal": "L7R2C9",
    "result": [
      {
        "electoralDistricts": [
          {
            "election": null,
            "id": 15,
            "name": "Burlington"
          }
        ],
        "pollDivisionIds": [
          10137350
        ],
        "postalCode": "L7R2C9",
        "streetName": "EDINBURGH",
        "streetDirectionId": null,
        "streetTypeId": "DR",
        "placeName": "BURLINGTON",
        "streetNameDisplayText": "EDINBURGH DR, BURLINGTON"
      }
    ]
  },
  {
    "postal": "L7R8J6",
    "result": []
  },
  {
    "postal": "L7R8T4",
    "result": []
  },
  {
    "postal": "L7R1P7",
    "result": [
      {
        "electoralDistricts": [
          {
            "election": null,
            "id": 15,
            "name": "Burlington"
          }
        ],
        "pollDivisionIds": [
          10137353
        ],
        "postalCode": "L7R1P7",
        "streetName": "HALTON",
        "streetDirectionId": null,
        "streetTypeId": "PL",
        "placeName": "BURLINGTON",
        "streetNameDisplayText": "HALTON PL, BURLINGTON"
      }
    ]
  },
  {
    "postal": "L7R9V9",
    "result": []
  },
  {
    "postal": "L7R0M1",
    "result": []
  },
  {
    "postal": "L7R6K5",
    "result": []
  },
  {
    "postal": "L7R2T5",
    "result": [
      {
        "electoralDistricts": [
          {
            "election": null,
            "id": 15,
            "name": "Burlington"
          }
        ],
        "pollDivisionIds": [
          10137351
        ],
        "postalCode": "L7R2T5",
        "streetName": "LORNE",
        "streetDirectionId": null,
        "streetTypeId": "ST",
        "placeName": "BURLINGTON",
        "streetNameDisplayText": "LORNE ST, BURLINGTON"
      }
    ]
  },
  {
    "postal": "L7R7E9",
    "result": []
  },
  {
    "postal": "L7R5K5",
    "result": []
  },
  {
    "postal": "L7R3R5",
    "result": [
      {
        "electoralDistricts": [
          {
            "election": null,
            "id": 15,
            "name": "Burlington"
          }
        ],
        "pollDivisionIds": [
          10137349
        ],
        "postalCode": "L7R3R5",
        "streetName": "GLENWOOD SCHOOL",
        "streetDirectionId": null,
        "streetTypeId": "DR",
        "placeName": "BURLINGTON",
        "streetNameDisplayText": "GLENWOOD SCHOOL DR, BURLINGTON"
      }
    ]
  },
  {
    "postal": "L7R5B1",
    "result": []
  },
  {
    "postal": "L7R2P1",
    "result": [
      {
        "electoralDistricts": [
          {
            "election": null,
            "id": 15,
            "name": "Burlington"
          }
        ],
        "pollDivisionIds": [
          10137353
        ],
        "postalCode": "L7R2P1",
        "streetName": "EMERALD",
        "streetDirectionId": null,
        "streetTypeId": "ST",
        "placeName": "BURLINGTON",
        "streetNameDisplayText": "EMERALD ST, BURLINGTON"
      }
    ]
  },
  {
    "postal": "L7R7L0",
    "result": []
  },
  {
    "postal": "L7R3L6",
    "result": [
      {
        "electoralDistricts": [
          {
            "election": null,
            "id": 15,
            "name": "Burlington"
          }
        ],
        "pollDivisionIds": [
          10137340
        ],
        "postalCode": "L7R3L6",
        "streetName": "GUELPH",
        "streetDirectionId": null,
        "streetTypeId": "LINE",
        "placeName": "BURLINGTON",
        "streetNameDisplayText": "GUELPH LINE, BURLINGTON"
      }
    ]
  },
  {
    "postal": "L7R2A4",
    "result": [
      {
        "electoralDistricts": [
          {
            "election": null,
            "id": 15,
            "name": "Burlington"
          }
        ],
        "pollDivisionIds": [
          10137350
        ],
        "postalCode": "L7R2A4",
        "streetName": "PROSPECT",
        "streetDirectionId": null,
        "streetTypeId": "ST",
        "placeName": "BURLINGTON",
        "streetNameDisplayText": "PROSPECT ST, BURLINGTON"
      }
    ]
  },
  {
    "postal": "L7R8S0",
    "result": []
  },
  {
    "postal": "L7R3L5",
    "result": [
      {
        "electoralDistricts": [
          {
            "election": null,
            "id": 15,
            "name": "Burlington"
          }
        ],
        "pollDivisionIds": [
          10137340
        ],
        "postalCode": "L7R3L5",
        "streetName": "GUELPH",
        "streetDirectionId": null,
        "streetTypeId": "LINE",
        "placeName": "BURLINGTON",
        "streetNameDisplayText": "GUELPH LINE, BURLINGTON"
      }
    ]
  },
  {
    "postal": "L7R2R5",
    "result": [
      {
        "electoralDistricts": [
          {
            "election": null,
            "id": 15,
            "name": "Burlington"
          }
        ],
        "pollDivisionIds": [
          10137354,
          10137353
        ],
        "postalCode": "L7R2R5",
        "streetName": "CROSBY",
        "streetDirectionId": null,
        "streetTypeId": "AVE",
        "placeName": "BURLINGTON",
        "streetNameDisplayText": "CROSBY AVE, BURLINGTON"
      }
    ]
  },
  {
    "postal": "L7R9T6",
    "result": []
  },
  {
    "postal": "L7R8Z2",
    "result": []
  },
  {
    "postal": "L7R0E9",
    "result": [
      {
        "electoralDistricts": [
          {
            "election": null,
            "id": 15,
            "name": "Burlington"
          }
        ],
        "pollDivisionIds": [
          10137353
        ],
        "postalCode": "L7R0E9",
        "streetName": "MARIA",
        "streetDirectionId": null,
        "streetTypeId": "ST",
        "placeName": "BURLINGTON",
        "streetNameDisplayText": "MARIA ST, BURLINGTON"
      }
    ]
  },
  {
    "postal": "L7R8C0",
    "result": []
  },
  {
    "postal": "L7R3K7",
    "result": [
      {
        "electoralDistricts": [
          {
            "election": null,
            "id": 15,
            "name": "Burlington"
          }
        ],
        "pollDivisionIds": [
          10137352
        ],
        "postalCode": "L7R3K7",
        "streetName": "GUELPH",
        "streetDirectionId": null,
        "streetTypeId": "LINE",
        "placeName": "BURLINGTON",
        "streetNameDisplayText": "GUELPH LINE, BURLINGTON"
      }
    ]
  },
  {
    "postal": "L7R2H3",
    "result": [
      {
        "electoralDistricts": [
          {
            "election": null,
            "id": 15,
            "name": "Burlington"
          }
        ],
        "pollDivisionIds": [
          10137354
        ],
        "postalCode": "L7R2H3",
        "streetName": "BRANT",
        "streetDirectionId": null,
        "streetTypeId": "ST",
        "placeName": "BURLINGTON",
        "streetNameDisplayText": "BRANT ST, BURLINGTON"
      }
    ]
  },
  {
    "postal": "L7R2Y6",
    "result": [
      {
        "electoralDistricts": [
          {
            "election": null,
            "id": 15,
            "name": "Burlington"
          }
        ],
        "pollDivisionIds": [
          10137352
        ],
        "postalCode": "L7R2Y6",
        "streetName": "NEWBOLD",
        "streetDirectionId": null,
        "streetTypeId": "CRT",
        "placeName": "BURLINGTON",
        "streetNameDisplayText": "NEWBOLD CRT, BURLINGTON"
      }
    ]
  },
  {
    "postal": "L7R7M2",
    "result": []
  },
  {
    "postal": "L7R6E2",
    "result": []
  },
  {
    "postal": "L7R3R0",
    "result": []
  },
  {
    "postal": "L7R4J7",
    "result": [
      {
        "electoralDistricts": [
          {
            "election": null,
            "id": 15,
            "name": "Burlington"
          }
        ],
        "pollDivisionIds": [
          10137350
        ],
        "postalCode": "L7R4J7",
        "streetName": "ANDREA",
        "streetDirectionId": null,
        "streetTypeId": "CRT",
        "placeName": "BURLINGTON",
        "streetNameDisplayText": "ANDREA CRT, BURLINGTON"
      }
    ]
  },
  {
    "postal": "L7R6N8",
    "result": []
  },
  {
    "postal": "L7R0J7",
    "result": []
  },
  {
    "postal": "L7R7P2",
    "result": []
  },
  {
    "postal": "L7R3T8",
    "result": [
      {
        "electoralDistricts": [
          {
            "election": null,
            "id": 15,
            "name": "Burlington"
          }
        ],
        "pollDivisionIds": [
          10137349
        ],
        "postalCode": "L7R3T8",
        "streetName": "CHURCHILL",
        "streetDirectionId": null,
        "streetTypeId": "AVE",
        "placeName": "BURLINGTON",
        "streetNameDisplayText": "CHURCHILL AVE, BURLINGTON"
      }
    ]
  },
  {
    "postal": "L7R3S7",
    "result": [
      {
        "electoralDistricts": [
          {
            "election": null,
            "id": 15,
            "name": "Burlington"
          }
        ],
        "pollDivisionIds": [
          10137349
        ],
        "postalCode": "L7R3S7",
        "streetName": "LEIGHLAND",
        "streetDirectionId": null,
        "streetTypeId": "RD",
        "placeName": "BURLINGTON",
        "streetNameDisplayText": "LEIGHLAND RD, BURLINGTON"
      }
    ]
  },
  {
    "postal": "L7R2S7",
    "result": [
      {
        "electoralDistricts": [
          {
            "election": null,
            "id": 15,
            "name": "Burlington"
          }
        ],
        "pollDivisionIds": [
          10137353
        ],
        "postalCode": "L7R2S7",
        "streetName": "WATERLOO",
        "streetDirectionId": null,
        "streetTypeId": "ST",
        "placeName": "BURLINGTON",
        "streetNameDisplayText": "WATERLOO ST, BURLINGTON"
      }
    ]
  },
  {
    "postal": "L7R1S4",
    "result": [
      {
        "electoralDistricts": [
          {
            "election": null,
            "id": 15,
            "name": "Burlington"
          }
        ],
        "pollDivisionIds": [
          10137351
        ],
        "postalCode": "L7R1S4",
        "streetName": "COURTLAND",
        "streetDirectionId": null,
        "streetTypeId": "DR",
        "placeName": "BURLINGTON",
        "streetNameDisplayText": "COURTLAND DR, BURLINGTON"
      }
    ]
  },
  {
    "postal": "L7R1L8",
    "result": [
      {
        "electoralDistricts": [
          {
            "election": null,
            "id": 15,
            "name": "Burlington"
          }
        ],
        "pollDivisionIds": [
          10137353
        ],
        "postalCode": "L7R1L8",
        "streetName": "CAROLINE",
        "streetDirectionId": null,
        "streetTypeId": "ST",
        "placeName": "BURLINGTON",
        "streetNameDisplayText": "CAROLINE ST, BURLINGTON"
      }
    ]
  },
  {
    "postal": "L7R8E9",
    "result": []
  },
  {
    "postal": "L7R0T0",
    "result": []
  },
  {
    "postal": "L7R3G4",
    "result": [
      {
        "electoralDistricts": [
          {
            "election": null,
            "id": 15,
            "name": "Burlington"
          }
        ],
        "pollDivisionIds": [
          10137352
        ],
        "postalCode": "L7R3G4",
        "streetName": "BEAVER",
        "streetDirectionId": null,
        "streetTypeId": "ST",
        "placeName": "BURLINGTON",
        "streetNameDisplayText": "BEAVER ST, BURLINGTON"
      }
    ]
  },
  {
    "postal": "L7R0V6",
    "result": []
  },
  {
    "postal": "L7R4W1",
    "result": []
  },
  {
    "postal": "L7R9G9",
    "result": []
  },
  {
    "postal": "L7R5W4",
    "result": []
  },
  {
    "postal": "L7R7M8",
    "result": []
  },
  {
    "postal": "L7R2C2",
    "result": [
      {
        "electoralDistricts": [
          {
            "election": null,
            "id": 15,
            "name": "Burlington"
          }
        ],
        "pollDivisionIds": [
          10137350
        ],
        "postalCode": "L7R2C2",
        "streetName": "BARCLAY",
        "streetDirectionId": null,
        "streetTypeId": "RD",
        "placeName": "BURLINGTON",
        "streetNameDisplayText": "BARCLAY RD, BURLINGTON"
      }
    ]
  },
  {
    "postal": "L7R4Y2",
    "result": []
  },
  {
    "postal": "L7R9X9",
    "result": []
  },
  {
    "postal": "L7R3T0",
    "result": []
  },
  {
    "postal": "L7R4T8",
    "result": [
      {
        "electoralDistricts": [
          {
            "election": null,
            "id": 15,
            "name": "Burlington"
          }
        ],
        "pollDivisionIds": [
          10137351
        ],
        "postalCode": "L7R4T8",
        "streetName": "NEW",
        "streetDirectionId": null,
        "streetTypeId": "ST",
        "placeName": "BURLIINGTON",
        "streetNameDisplayText": "NEW ST, BURLIINGTON"
      }
    ]
  },
  {
    "postal": "L7R9C4",
    "result": []
  },
  {
    "postal": "L7R8P2",
    "result": []
  },
  {
    "postal": "L7R0Y8",
    "result": []
  },
  {
    "postal": "L7R1G8",
    "result": [
      {
        "electoralDistricts": [
          {
            "election": null,
            "id": 15,
            "name": "Burlington"
          }
        ],
        "pollDivisionIds": [
          10137351
        ],
        "postalCode": "L7R1G8",
        "streetName": "FAIRLEIGH",
        "streetDirectionId": null,
        "streetTypeId": "PL",
        "placeName": "BURLINGTON",
        "streetNameDisplayText": "FAIRLEIGH PL, BURLINGTON"
      }
    ]
  },
  {
    "postal": "L7R2T6",
    "result": [
      {
        "electoralDistricts": [
          {
            "election": null,
            "id": 15,
            "name": "Burlington"
          }
        ],
        "pollDivisionIds": [
          10137352,
          10137353
        ],
        "postalCode": "L7R2T6",
        "streetName": "LORNE",
        "streetDirectionId": null,
        "streetTypeId": "ST",
        "placeName": "BURLINGTON",
        "streetNameDisplayText": "LORNE ST, BURLINGTON"
      }
    ]
  },
  {
    "postal": "L7R1N7",
    "result": [
      {
        "electoralDistricts": [
          {
            "election": null,
            "id": 15,
            "name": "Burlington"
          }
        ],
        "pollDivisionIds": [
          10137351
        ],
        "postalCode": "L7R1N7",
        "streetName": "EDITH",
        "streetDirectionId": null,
        "streetTypeId": "AVE",
        "placeName": "BURLINGTON",
        "streetNameDisplayText": "EDITH AVE, BURLINGTON"
      }
    ]
  },
  {
    "postal": "L7R0L6",
    "result": []
  },
  {
    "postal": "L7R9V4",
    "result": []
  },
  {
    "postal": "L7R2V1",
    "result": [
      {
        "electoralDistricts": [
          {
            "election": null,
            "id": 15,
            "name": "Burlington"
          }
        ],
        "pollDivisionIds": [
          10137352,
          10137353
        ],
        "postalCode": "L7R2V1",
        "streetName": "SMITH",
        "streetDirectionId": null,
        "streetTypeId": "AVE",
        "placeName": "BURLINGTON",
        "streetNameDisplayText": "SMITH AVE, BURLINGTON"
      }
    ]
  },
  {
    "postal": "L7R3L8",
    "result": [
      {
        "electoralDistricts": [
          {
            "election": null,
            "id": 15,
            "name": "Burlington"
          }
        ],
        "pollDivisionIds": [
          10137338
        ],
        "postalCode": "L7R3L8",
        "streetName": "GUELPH",
        "streetDirectionId": null,
        "streetTypeId": "LINE",
        "placeName": "BURLINGTON",
        "streetNameDisplayText": "GUELPH LINE, BURLINGTON"
      }
    ]
  },
  {
    "postal": "L7R2R8",
    "result": [
      {
        "electoralDistricts": [
          {
            "election": null,
            "id": 15,
            "name": "Burlington"
          }
        ],
        "pollDivisionIds": [
          10137352
        ],
        "postalCode": "L7R2R8",
        "streetName": "TORRANCE",
        "streetDirectionId": null,
        "streetTypeId": "ST",
        "placeName": "BURLINGTON",
        "streetNameDisplayText": "TORRANCE ST, BURLINGTON"
      }
    ]
  },
  {
    "postal": "L7R5C1",
    "result": []
  },
  {
    "postal": "L7R4W3",
    "result": []
  },
  {
    "postal": "L7R5X5",
    "result": []
  },
  {
    "postal": "L7R9W5",
    "result": []
  },
  {
    "postal": "L7R3C4",
    "result": [
      {
        "electoralDistricts": [
          {
            "election": null,
            "id": 15,
            "name": "Burlington"
          }
        ],
        "pollDivisionIds": [
          10137351
        ],
        "postalCode": "L7R3C4",
        "streetName": "MAYZEL",
        "streetDirectionId": null,
        "streetTypeId": "RD",
        "placeName": "BURLINGTON",
        "streetNameDisplayText": "MAYZEL RD, BURLINGTON"
      }
    ]
  },
  {
    "postal": "L7R1N6",
    "result": [
      {
        "electoralDistricts": [
          {
            "election": null,
            "id": 15,
            "name": "Burlington"
          }
        ],
        "pollDivisionIds": [
          10137351
        ],
        "postalCode": "L7R1N6",
        "streetName": "EDITH",
        "streetDirectionId": null,
        "streetTypeId": "AVE",
        "placeName": "BURLINGTON",
        "streetNameDisplayText": "EDITH AVE, BURLINGTON"
      }
    ]
  },
  {
    "postal": "L7R9S9",
    "result": []
  },
  {
    "postal": "L7R9M2",
    "result": []
  },
  {
    "postal": "L7R8Y4",
    "result": []
  },
  {
    "postal": "L7R7S4",
    "result": []
  },
  {
    "postal": "L7R0K6",
    "result": []
  },
  {
    "postal": "L7R1W3",
    "result": [
      {
        "electoralDistricts": [
          {
            "election": null,
            "id": 15,
            "name": "Burlington"
          }
        ],
        "pollDivisionIds": [
          10137353
        ],
        "postalCode": "L7R1W3",
        "streetName": "DEYNCOURT",
        "streetDirectionId": null,
        "streetTypeId": "DR",
        "placeName": "BURLINGTON",
        "streetNameDisplayText": "DEYNCOURT DR, BURLINGTON"
      }
    ]
  },
  {
    "postal": "L7R7R2",
    "result": []
  },
  {
    "postal": "L7R2Y9",
    "result": [
      {
        "electoralDistricts": [
          {
            "election": null,
            "id": 15,
            "name": "Burlington"
          }
        ],
        "pollDivisionIds": [
          10137351
        ],
        "postalCode": "L7R2Y9",
        "streetName": "ASHLEY",
        "streetDirectionId": null,
        "streetTypeId": "AVE",
        "placeName": "BURLINGTON",
        "streetNameDisplayText": "ASHLEY AVE, BURLINGTON"
      }
    ]
  },
  {
    "postal": "L7R7G4",
    "result": []
  },
  {
    "postal": "L7R7E5",
    "result": []
  },
  {
    "postal": "L7R9G2",
    "result": []
  },
  {
    "postal": "L7R7Y8",
    "result": []
  },
  {
    "postal": "L7R9V2",
    "result": []
  },
  {
    "postal": "L7R3T7",
    "result": [
      {
        "electoralDistricts": [
          {
            "election": null,
            "id": 15,
            "name": "Burlington"
          }
        ],
        "pollDivisionIds": [
          10137349
        ],
        "postalCode": "L7R3T7",
        "streetName": "CHURCHILL",
        "streetDirectionId": null,
        "streetTypeId": "AVE",
        "placeName": "BURLINGTON",
        "streetNameDisplayText": "CHURCHILL AVE, BURLINGTON"
      }
    ]
  },
  {
    "postal": "L7R1H0",
    "result": []
  },
  {
    "postal": "L7R1M7",
    "result": [
      {
        "electoralDistricts": [
          {
            "election": null,
            "id": 15,
            "name": "Burlington"
          }
        ],
        "pollDivisionIds": [
          10137351
        ],
        "postalCode": "L7R1M7",
        "streetName": "EILEEN",
        "streetDirectionId": null,
        "streetTypeId": "DR",
        "placeName": "BURLINGTON",
        "streetNameDisplayText": "EILEEN DR, BURLINGTON"
      }
    ]
  },
  {
    "postal": "L7R8V4",
    "result": []
  },
  {
    "postal": "L7R4M2",
    "result": []
  },
  {
    "postal": "L7R0X2",
    "result": []
  },
  {
    "postal": "L7R5Z4",
    "result": []
  },
  {
    "postal": "L7R6V4",
    "result": []
  },
  {
    "postal": "L7R8J3",
    "result": []
  },
  {
    "postal": "L7R8E5",
    "result": []
  },
  {
    "postal": "L7R2V5",
    "result": [
      {
        "electoralDistricts": [
          {
            "election": null,
            "id": 15,
            "name": "Burlington"
          }
        ],
        "pollDivisionIds": [
          10137351
        ],
        "postalCode": "L7R2V5",
        "streetName": "BRIDGMAN",
        "streetDirectionId": null,
        "streetTypeId": "AVE",
        "placeName": "BURLINGTON",
        "streetNameDisplayText": "BRIDGMAN AVE, BURLINGTON"
      }
    ]
  },
  {
    "postal": "L7R7S1",
    "result": []
  },
  {
    "postal": "L7R6V3",
    "result": []
  },
  {
    "postal": "L7R2L8",
    "result": [
      {
        "electoralDistricts": [
          {
            "election": null,
            "id": 15,
            "name": "Burlington"
          }
        ],
        "pollDivisionIds": [
          10137353
        ],
        "postalCode": "L7R2L8",
        "streetName": "ELIZABETH",
        "streetDirectionId": null,
        "streetTypeId": "ST",
        "placeName": "BURLINGTON",
        "streetNameDisplayText": "ELIZABETH ST, BURLINGTON"
      }
    ]
  },
  {
    "postal": "L7R9V0",
    "result": []
  },
  {
    "postal": "L7R3M4",
    "result": [
      {
        "electoralDistricts": [
          {
            "election": null,
            "id": 15,
            "name": "Burlington"
          }
        ],
        "pollDivisionIds": [
          10137351
        ],
        "postalCode": "L7R3M4",
        "streetName": "GUELPH",
        "streetDirectionId": null,
        "streetTypeId": "LINE",
        "placeName": "BURLINGTON",
        "streetNameDisplayText": "GUELPH LINE, BURLINGTON"
      }
    ]
  },
  {
    "postal": "L7R5B2",
    "result": []
  },
  {
    "postal": "L7R3X5",
    "result": [
      {
        "electoralDistricts": [
          {
            "election": null,
            "id": 75,
            "name": "Oakville NorthBurlington"
          }
        ],
        "pollDivisionIds": [
          10140414
        ],
        "postalCode": "L7R3X5",
        "streetName": "APPLEBY",
        "streetDirectionId": null,
        "streetTypeId": "LINE",
        "placeName": "BURLINGTON",
        "streetNameDisplayText": "APPLEBY LINE, BURLINGTON"
      },
      {
        "electoralDistricts": [
          {
            "election": null,
            "id": 75,
            "name": "Oakville NorthBurlington"
          }
        ],
        "pollDivisionIds": [
          10140412
        ],
        "postalCode": "L7R3X5",
        "streetName": "BURLOAK",
        "streetDirectionId": null,
        "streetTypeId": "DR",
        "placeName": "BURLINGTON",
        "streetNameDisplayText": "BURLOAK DR, BURLINGTON"
      },
      {
        "electoralDistricts": [
          {
            "election": null,
            "id": 15,
            "name": "Burlington"
          }
        ],
        "pollDivisionIds": [
          10137362
        ],
        "postalCode": "L7R3X5",
        "streetName": "FLATT",
        "streetDirectionId": null,
        "streetTypeId": "RD",
        "placeName": "BURLINGTON",
        "streetNameDisplayText": "FLATT RD, BURLINGTON"
      },
      {
        "electoralDistricts": [
          {
            "election": null,
            "id": 15,
            "name": "Burlington"
          }
        ],
        "pollDivisionIds": [
          10137361
        ],
        "postalCode": "L7R3X5",
        "streetName": "HIDDEN VALLEY",
        "streetDirectionId": null,
        "streetTypeId": "RD",
        "placeName": "BURLINGTON",
        "streetNameDisplayText": "HIDDEN VALLEY RD, BURLINGTON"
      },
      {
        "electoralDistricts": [
          {
            "election": null,
            "id": 15,
            "name": "Burlington"
          }
        ],
        "pollDivisionIds": [
          10137362
        ],
        "postalCode": "L7R3X5",
        "streetName": "LEMONVILLE",
        "streetDirectionId": null,
        "streetTypeId": "RD",
        "placeName": "BURLINGTON",
        "streetNameDisplayText": "LEMONVILLE RD, BURLINGTON"
      },
      {
        "electoralDistricts": [
          {
            "election": null,
            "id": 15,
            "name": "Burlington"
          }
        ],
        "pollDivisionIds": [
          10137362
        ],
        "postalCode": "L7R3X5",
        "streetName": "MOUNTAIN BROW",
        "streetDirectionId": null,
        "streetTypeId": "RD",
        "placeName": "BURLINGTON",
        "streetNameDisplayText": "MOUNTAIN BROW RD, BURLINGTON"
      },
      {
        "electoralDistricts": [
          {
            "election": null,
            "id": 15,
            "name": "Burlington"
          }
        ],
        "pollDivisionIds": [
          10137360
        ],
        "postalCode": "L7R3X5",
        "streetName": "OLD WATERDOWN",
        "streetDirectionId": null,
        "streetTypeId": "RD",
        "placeName": "BURLINGTON",
        "streetNameDisplayText": "OLD WATERDOWN RD, BURLINGTON"
      },
      {
        "electoralDistricts": [
          {
            "election": null,
            "id": 75,
            "name": "Oakville NorthBurlington"
          }
        ],
        "pollDivisionIds": [
          10140417,
          10140414
        ],
        "postalCode": "L7R3X5",
        "streetName": "ORCHARD",
        "streetDirectionId": null,
        "streetTypeId": "RD",
        "placeName": "BURLINGTON",
        "streetNameDisplayText": "ORCHARD RD, BURLINGTON"
      },
      {
        "electoralDistricts": [
          {
            "election": null,
            "id": 15,
            "name": "Burlington"
          }
        ],
        "pollDivisionIds": [
          10137361
        ],
        "postalCode": "L7R3X5",
        "streetName": "SUMACH",
        "streetDirectionId": null,
        "streetTypeId": "DR",
        "placeName": "BURLINGTON",
        "streetNameDisplayText": "SUMACH DR, BURLINGTON"
      },
      {
        "electoralDistricts": [
          {
            "election": null,
            "id": 75,
            "name": "Oakville NorthBurlington"
          }
        ],
        "pollDivisionIds": [
          10140419
        ],
        "postalCode": "L7R3X5",
        "streetName": "UPPER MIDDLE",
        "streetDirectionId": null,
        "streetTypeId": "RD",
        "placeName": "BURLINGTON",
        "streetNameDisplayText": "UPPER MIDDLE RD, BURLINGTON"
      },
      {
        "electoralDistricts": [
          {
            "election": null,
            "id": 15,
            "name": "Burlington"
          }
        ],
        "pollDivisionIds": [
          10137362
        ],
        "postalCode": "L7R3X5",
        "streetName": "WATERDOWN",
        "streetDirectionId": null,
        "streetTypeId": "RD",
        "placeName": "BURLINGTON",
        "streetNameDisplayText": "WATERDOWN RD, BURLINGTON"
      }
    ]
  },
  {
    "postal": "L7R9R7",
    "result": []
  },
  {
    "postal": "L7R2X2",
    "result": [
      {
        "electoralDistricts": [
          {
            "election": null,
            "id": 15,
            "name": "Burlington"
          }
        ],
        "pollDivisionIds": [
          10137351
        ],
        "postalCode": "L7R2X2",
        "streetName": "DRURY",
        "streetDirectionId": null,
        "streetTypeId": "LANE",
        "placeName": "BURLINGTON",
        "streetNameDisplayText": "DRURY LANE, BURLINGTON"
      }
    ]
  },
  {
    "postal": "L7R8Z6",
    "result": []
  },
  {
    "postal": "L7R4R4",
    "result": [
      {
        "electoralDistricts": [
          {
            "election": null,
            "id": 15,
            "name": "Burlington"
          }
        ],
        "pollDivisionIds": [
          10137353
        ],
        "postalCode": "L7R4R4",
        "streetName": "BLAIRHOLM",
        "streetDirectionId": null,
        "streetTypeId": "AVE",
        "placeName": "BURLINGTON",
        "streetNameDisplayText": "BLAIRHOLM AVE, BURLINGTON"
      }
    ]
  },
  {
    "postal": "L7R2R1",
    "result": [
      {
        "electoralDistricts": [
          {
            "election": null,
            "id": 15,
            "name": "Burlington"
          }
        ],
        "pollDivisionIds": [
          10137353
        ],
        "postalCode": "L7R2R1",
        "streetName": "MARTHA",
        "streetDirectionId": null,
        "streetTypeId": "ST",
        "placeName": "BURLINGTON",
        "streetNameDisplayText": "MARTHA ST, BURLINGTON"
      }
    ]
  },
  {
    "postal": "L7R3R8",
    "result": [
      {
        "electoralDistricts": [
          {
            "election": null,
            "id": 15,
            "name": "Burlington"
          }
        ],
        "pollDivisionIds": [
          10137349
        ],
        "postalCode": "L7R3R8",
        "streetName": "GLENWOOD SCHOOL",
        "streetDirectionId": null,
        "streetTypeId": "DR",
        "placeName": "BURLINGTON",
        "streetNameDisplayText": "GLENWOOD SCHOOL DR, BURLINGTON"
      }
    ]
  },
  {
    "postal": "L7R9A1",
    "result": []
  },
  {
    "postal": "L7R8L3",
    "result": []
  },
  {
    "postal": "L7R9K4",
    "result": []
  },
  {
    "postal": "L7R9S3",
    "result": []
  },
  {
    "postal": "L7R8N7",
    "result": []
  },
  {
    "postal": "L7R1C6",
    "result": [
      {
        "electoralDistricts": [
          {
            "election": null,
            "id": 15,
            "name": "Burlington"
          }
        ],
        "pollDivisionIds": [
          10137352
        ],
        "postalCode": "L7R1C6",
        "streetName": "FIRST",
        "streetDirectionId": null,
        "streetTypeId": "ST",
        "placeName": "BURLINGTON",
        "streetNameDisplayText": "FIRST ST, BURLINGTON"
      }
    ]
  },
  {
    "postal": "L7R3Z8",
    "result": []
  },
  {
    "postal": "L7R8G5",
    "result": []
  },
  {
    "postal": "L7R5R6",
    "result": []
  },
  {
    "postal": "L7R2W3",
    "result": [
      {
        "electoralDistricts": [
          {
            "election": null,
            "id": 15,
            "name": "Burlington"
          }
        ],
        "pollDivisionIds": [
          10137350
        ],
        "postalCode": "L7R2W3",
        "streetName": "GEORGE",
        "streetDirectionId": null,
        "streetTypeId": "ST",
        "placeName": "BURLINGTON",
        "streetNameDisplayText": "GEORGE ST, BURLINGTON"
      }
    ]
  },
  {
    "postal": "L7R0A0",
    "result": []
  },
  {
    "postal": "L7R6P8",
    "result": []
  },
  {
    "postal": "L7R8N9",
    "result": []
  },
  {
    "postal": "L7R0S9",
    "result": []
  },
  {
    "postal": "L7R8G0",
    "result": []
  },
  {
    "postal": "L7R8C7",
    "result": []
  },
  {
    "postal": "L7R5X8",
    "result": []
  },
  {
    "postal": "L7R7E8",
    "result": []
  },
  {
    "postal": "L7R6X2",
    "result": []
  },
  {
    "postal": "L7R4C6",
    "result": [
      {
        "electoralDistricts": [
          {
            "election": null,
            "id": 15,
            "name": "Burlington"
          }
        ],
        "pollDivisionIds": [
          10137350
        ],
        "postalCode": "L7R4C6",
        "streetName": "PEARSON",
        "streetDirectionId": null,
        "streetTypeId": "ST",
        "placeName": "BURLINGTON",
        "streetNameDisplayText": "PEARSON ST, BURLINGTON"
      }
    ]
  },
  {
    "postal": "L7R7H2",
    "result": []
  },
  {
    "postal": "L7R4R0",
    "result": []
  },
  {
    "postal": "L7R6J3",
    "result": []
  },
  {
    "postal": "L7R4B8",
    "result": [
      {
        "electoralDistricts": [
          {
            "election": null,
            "id": 15,
            "name": "Burlington"
          }
        ],
        "pollDivisionIds": [
          10137354
        ],
        "postalCode": "L7R4B8",
        "streetName": "BRANT",
        "streetDirectionId": null,
        "streetTypeId": "ST",
        "placeName": "BURLINGTON",
        "streetNameDisplayText": "BRANT ST, BURLINGTON"
      }
    ]
  },
  {
    "postal": "L7R6H6",
    "result": []
  },
  {
    "postal": "L7R0S1",
    "result": []
  },
  {
    "postal": "L7R4E3",
    "result": [
      {
        "electoralDistricts": [
          {
            "election": null,
            "id": 15,
            "name": "Burlington"
          }
        ],
        "pollDivisionIds": [
          10143423
        ],
        "postalCode": "L7R4E3",
        "streetName": "WOODWARD",
        "streetDirectionId": null,
        "streetTypeId": "AVE",
        "placeName": "BURLINGTON",
        "streetNameDisplayText": "WOODWARD AVE, BURLINGTON"
      }
    ]
  },
  {
    "postal": "L7R7K2",
    "result": []
  },
  {
    "postal": "L7R7T8",
    "result": []
  },
  {
    "postal": "L7R0J9",
    "result": []
  },
  {
    "postal": "L7R5J9",
    "result": []
  },
  {
    "postal": "L7R5S7",
    "result": []
  },
  {
    "postal": "L7R0G9",
    "result": []
  },
  {
    "postal": "L7R3J9",
    "result": [
      {
        "electoralDistricts": [
          {
            "election": null,
            "id": 15,
            "name": "Burlington"
          }
        ],
        "pollDivisionIds": [
          10137352
        ],
        "postalCode": "L7R3J9",
        "streetName": "ST PAUL",
        "streetDirectionId": null,
        "streetTypeId": "ST",
        "placeName": "BURLINGTON",
        "streetNameDisplayText": "ST PAUL ST, BURLINGTON"
      }
    ]
  },
  {
    "postal": "L7R2Y0",
    "result": []
  },
  {
    "postal": "L7R8X5",
    "result": []
  },
  {
    "postal": "L7R2M7",
    "result": [
      {
        "electoralDistricts": [
          {
            "election": null,
            "id": 15,
            "name": "Burlington"
          }
        ],
        "pollDivisionIds": [
          10137353
        ],
        "postalCode": "L7R2M7",
        "streetName": "COURTLAND",
        "streetDirectionId": null,
        "streetTypeId": "PL",
        "placeName": "BURLINGTON",
        "streetNameDisplayText": "COURTLAND PL, BURLINGTON"
      }
    ]
  },
  {
    "postal": "L7R9Z3",
    "result": []
  },
  {
    "postal": "L7R7W2",
    "result": []
  },
  {
    "postal": "L7R3W0",
    "result": []
  },
  {
    "postal": "L7R3M1",
    "result": [
      {
        "electoralDistricts": [
          {
            "election": null,
            "id": 15,
            "name": "Burlington"
          }
        ],
        "pollDivisionIds": [
          10137351
        ],
        "postalCode": "L7R3M1",
        "streetName": "GUELPH",
        "streetDirectionId": null,
        "streetTypeId": "LINE",
        "placeName": "BURLINGTON",
        "streetNameDisplayText": "GUELPH LINE, BURLINGTON"
      }
    ]
  },
  {
    "postal": "L7R6A5",
    "result": []
  },
  {
    "postal": "L7R2M9",
    "result": [
      {
        "electoralDistricts": [
          {
            "election": null,
            "id": 15,
            "name": "Burlington"
          }
        ],
        "pollDivisionIds": [
          10137353,
          10143428
        ],
        "postalCode": "L7R2M9",
        "streetName": "PEARL",
        "streetDirectionId": null,
        "streetTypeId": "ST",
        "placeName": "BURLINGTON",
        "streetNameDisplayText": "PEARL ST, BURLINGTON"
      }
    ]
  },
  {
    "postal": "L7R5C3",
    "result": []
  },
  {
    "postal": "L7R0Y6",
    "result": []
  },
  {
    "postal": "L7R9H7",
    "result": []
  },
  {
    "postal": "L7R3L0",
    "result": []
  },
  {
    "postal": "L7R5N9",
    "result": []
  },
  {
    "postal": "L7R5E3",
    "result": []
  },
  {
    "postal": "L7R7M9",
    "result": []
  },
  {
    "postal": "L7R8N2",
    "result": []
  },
  {
    "postal": "L7R9H3",
    "result": []
  },
  {
    "postal": "L7R2K8",
    "result": [
      {
        "electoralDistricts": [
          {
            "election": null,
            "id": 15,
            "name": "Burlington"
          }
        ],
        "pollDivisionIds": [
          10137353
        ],
        "postalCode": "L7R2K8",
        "streetName": "JOHN",
        "streetDirectionId": null,
        "streetTypeId": "ST",
        "placeName": "BURLINGTON",
        "streetNameDisplayText": "JOHN ST, BURLINGTON"
      }
    ]
  },
  {
    "postal": "L7R9L0",
    "result": []
  },
  {
    "postal": "L7R6L9",
    "result": []
  },
  {
    "postal": "L7R6A8",
    "result": []
  },
  {
    "postal": "L7R2K6",
    "result": []
  },
  {
    "postal": "L7R2M0",
    "result": []
  },
  {
    "postal": "L7R5X7",
    "result": []
  },
  {
    "postal": "L7R0M7",
    "result": []
  },
  {
    "postal": "L7R7A6",
    "result": []
  },
  {
    "postal": "L7R3C5",
    "result": [
      {
        "electoralDistricts": [
          {
            "election": null,
            "id": 15,
            "name": "Burlington"
          }
        ],
        "pollDivisionIds": [
          10137351
        ],
        "postalCode": "L7R3C5",
        "streetName": "MAYZEL",
        "streetDirectionId": null,
        "streetTypeId": "RD",
        "placeName": "BURLINGTON",
        "streetNameDisplayText": "MAYZEL RD, BURLINGTON"
      }
    ]
  },
  {
    "postal": "L7R2P2",
    "result": [
      {
        "electoralDistricts": [
          {
            "election": null,
            "id": 15,
            "name": "Burlington"
          }
        ],
        "pollDivisionIds": [
          10137353
        ],
        "postalCode": "L7R2P2",
        "streetName": "EMERALD",
        "streetDirectionId": null,
        "streetTypeId": "ST",
        "placeName": "BURLINGTON",
        "streetNameDisplayText": "EMERALD ST, BURLINGTON"
      }
    ]
  },
  {
    "postal": "L7R9N4",
    "result": []
  },
  {
    "postal": "L7R3M9",
    "result": [
      {
        "electoralDistricts": [
          {
            "election": null,
            "id": 15,
            "name": "Burlington"
          }
        ],
        "pollDivisionIds": [
          10137351
        ],
        "postalCode": "L7R3M9",
        "streetName": "GUELPH",
        "streetDirectionId": null,
        "streetTypeId": "LINE",
        "placeName": "BURLINGTON",
        "streetNameDisplayText": "GUELPH LINE, BURLINGTON"
      }
    ]
  },
  {
    "postal": "L7R8K6",
    "result": []
  },
  {
    "postal": "L7R1L2",
    "result": [
      {
        "electoralDistricts": [
          {
            "election": null,
            "id": 15,
            "name": "Burlington"
          }
        ],
        "pollDivisionIds": [
          10137353
        ],
        "postalCode": "L7R1L2",
        "streetName": "CAROLINE",
        "streetDirectionId": null,
        "streetTypeId": "ST",
        "placeName": "BURLINGTON",
        "streetNameDisplayText": "CAROLINE ST, BURLINGTON"
      }
    ]
  },
  {
    "postal": "L7R2Z9",
    "result": [
      {
        "electoralDistricts": [
          {
            "election": null,
            "id": 15,
            "name": "Burlington"
          }
        ],
        "pollDivisionIds": [
          10137352
        ],
        "postalCode": "L7R2Z9",
        "streetName": "SENECA",
        "streetDirectionId": null,
        "streetTypeId": "AVE",
        "placeName": "BURLINGTON",
        "streetNameDisplayText": "SENECA AVE, BURLINGTON"
      }
    ]
  },
  {
    "postal": "L7R2S2",
    "result": [
      {
        "electoralDistricts": [
          {
            "election": null,
            "id": 15,
            "name": "Burlington"
          }
        ],
        "pollDivisionIds": [
          10137353
        ],
        "postalCode": "L7R2S2",
        "streetName": "WOODLAND",
        "streetDirectionId": null,
        "streetTypeId": "AVE",
        "placeName": "BURLINGTON",
        "streetNameDisplayText": "WOODLAND AVE, BURLINGTON"
      }
    ]
  },
  {
    "postal": "L7R2W2",
    "result": [
      {
        "electoralDistricts": [
          {
            "election": null,
            "id": 15,
            "name": "Burlington"
          }
        ],
        "pollDivisionIds": [
          10137350
        ],
        "postalCode": "L7R2W2",
        "streetName": "GEORGE",
        "streetDirectionId": null,
        "streetTypeId": "ST",
        "placeName": "BURLINGTON",
        "streetNameDisplayText": "GEORGE ST, BURLINGTON"
      }
    ]
  },
  {
    "postal": "L7R2C3",
    "result": [
      {
        "electoralDistricts": [
          {
            "election": null,
            "id": 15,
            "name": "Burlington"
          }
        ],
        "pollDivisionIds": [
          10137350
        ],
        "postalCode": "L7R2C3",
        "streetName": "BARCLAY",
        "streetDirectionId": null,
        "streetTypeId": "RD",
        "placeName": "BURLINGTON",
        "streetNameDisplayText": "BARCLAY RD, BURLINGTON"
      }
    ]
  },
  {
    "postal": "L7R6L7",
    "result": []
  },
  {
    "postal": "L7R3K0",
    "result": []
  },
  {
    "postal": "L7R3C1",
    "result": [
      {
        "electoralDistricts": [
          {
            "election": null,
            "id": 15,
            "name": "Burlington"
          }
        ],
        "pollDivisionIds": [
          10137351
        ],
        "postalCode": "L7R3C1",
        "streetName": "PEELE",
        "streetDirectionId": null,
        "streetTypeId": "BLVD",
        "placeName": "BURLINGTON",
        "streetNameDisplayText": "PEELE BLVD, BURLINGTON"
      }
    ]
  },
  {
    "postal": "L7R6M9",
    "result": []
  },
  {
    "postal": "L7R4N9",
    "result": []
  },
  {
    "postal": "L7R3Y7",
    "result": []
  },
  {
    "postal": "L7R2A9",
    "result": [
      {
        "electoralDistricts": [
          {
            "election": null,
            "id": 15,
            "name": "Burlington"
          }
        ],
        "pollDivisionIds": [
          10137350
        ],
        "postalCode": "L7R2A9",
        "streetName": "PROSPECT",
        "streetDirectionId": null,
        "streetTypeId": "ST",
        "placeName": "BURLINGTON",
        "streetNameDisplayText": "PROSPECT ST, BURLINGTON"
      }
    ]
  },
  {
    "postal": "L7R6H5",
    "result": []
  },
  {
    "postal": "L7R8B4",
    "result": []
  },
  {
    "postal": "L7R4Z2",
    "result": []
  },
  {
    "postal": "L7R9J0",
    "result": []
  },
  {
    "postal": "L7R7V7",
    "result": []
  },
  {
    "postal": "L7R5T5",
    "result": []
  },
  {
    "postal": "L7R4W5",
    "result": []
  },
  {
    "postal": "L7R1T8",
    "result": [
      {
        "electoralDistricts": [
          {
            "election": null,
            "id": 15,
            "name": "Burlington"
          }
        ],
        "pollDivisionIds": [
          10137351
        ],
        "postalCode": "L7R1T8",
        "streetName": "WOODWARD",
        "streetDirectionId": null,
        "streetTypeId": "AVE",
        "placeName": "BURLINGTON",
        "streetNameDisplayText": "WOODWARD AVE, BURLINGTON"
      }
    ]
  },
  {
    "postal": "L7R9G6",
    "result": []
  },
  {
    "postal": "L7R1H3",
    "result": [
      {
        "electoralDistricts": [
          {
            "election": null,
            "id": 15,
            "name": "Burlington"
          }
        ],
        "pollDivisionIds": [
          10137353
        ],
        "postalCode": "L7R1H3",
        "streetName": "JAMES",
        "streetDirectionId": null,
        "streetTypeId": "ST",
        "placeName": "BURLINGTON",
        "streetNameDisplayText": "JAMES ST, BURLINGTON"
      }
    ]
  },
  {
    "postal": "L7R5R5",
    "result": []
  },
  {
    "postal": "L7R8A4",
    "result": []
  },
  {
    "postal": "L7R3T6",
    "result": [
      {
        "electoralDistricts": [
          {
            "election": null,
            "id": 15,
            "name": "Burlington"
          }
        ],
        "pollDivisionIds": [
          10137349
        ],
        "postalCode": "L7R3T6",
        "streetName": "TREELAND",
        "streetDirectionId": null,
        "streetTypeId": "ST",
        "placeName": "BURLINGTON",
        "streetNameDisplayText": "TREELAND ST, BURLINGTON"
      }
    ]
  },
  {
    "postal": "L7R9W8",
    "result": []
  },
  {
    "postal": "L7R0N3",
    "result": []
  },
  {
    "postal": "L7R7V0",
    "result": []
  },
  {
    "postal": "L7R8T5",
    "result": []
  },
  {
    "postal": "L7R5N3",
    "result": []
  },
  {
    "postal": "L7R5G9",
    "result": []
  },
  {
    "postal": "L7R3X8",
    "result": []
  },
  {
    "postal": "L7R9R3",
    "result": []
  },
  {
    "postal": "L7R2S1",
    "result": [
      {
        "electoralDistricts": [
          {
            "election": null,
            "id": 15,
            "name": "Burlington"
          }
        ],
        "pollDivisionIds": [
          10137353
        ],
        "postalCode": "L7R2S1",
        "streetName": "WOODLAND",
        "streetDirectionId": null,
        "streetTypeId": "AVE",
        "placeName": "BURLINGTON",
        "streetNameDisplayText": "WOODLAND AVE, BURLINGTON"
      }
    ]
  },
  {
    "postal": "L7R9J7",
    "result": []
  },
  {
    "postal": "L7R2J3",
    "result": [
      {
        "electoralDistricts": [
          {
            "election": null,
            "id": 15,
            "name": "Burlington"
          }
        ],
        "pollDivisionIds": [
          10137354
        ],
        "postalCode": "L7R2J3",
        "streetName": "BRANT",
        "streetDirectionId": null,
        "streetTypeId": "ST",
        "placeName": "BURLINGTON",
        "streetNameDisplayText": "BRANT ST, BURLINGTON"
      }
    ]
  },
  {
    "postal": "L7R3B6",
    "result": [
      {
        "electoralDistricts": [
          {
            "election": null,
            "id": 15,
            "name": "Burlington"
          }
        ],
        "pollDivisionIds": [
          10137350
        ],
        "postalCode": "L7R3B6",
        "streetName": "PALING",
        "streetDirectionId": null,
        "streetTypeId": "RD",
        "placeName": "BURLINGTON",
        "streetNameDisplayText": "PALING RD, BURLINGTON"
      }
    ]
  },
  {
    "postal": "L7R8J0",
    "result": []
  },
  {
    "postal": "L7R7R4",
    "result": []
  },
  {
    "postal": "L7R8K8",
    "result": []
  },
  {
    "postal": "L7R4P3",
    "result": []
  },
  {
    "postal": "L7R0A2",
    "result": []
  },
  {
    "postal": "L7R2G2",
    "result": [
      {
        "electoralDistricts": [
          {
            "election": null,
            "id": 15,
            "name": "Burlington"
          }
        ],
        "pollDivisionIds": [
          10137355
        ],
        "postalCode": "L7R2G2",
        "streetName": "BRANT",
        "streetDirectionId": null,
        "streetTypeId": "ST",
        "placeName": "BURLINGTON",
        "streetNameDisplayText": "BRANT ST, BURLINGTON"
      }
    ]
  },
  {
    "postal": "L7R5Y9",
    "result": []
  },
  {
    "postal": "L7R7X0",
    "result": []
  },
  {
    "postal": "L7R7W3",
    "result": []
  },
  {
    "postal": "L7R7X5",
    "result": []
  },
  {
    "postal": "L7R5K6",
    "result": []
  },
  {
    "postal": "L7R5B6",
    "result": []
  },
  {
    "postal": "L7R7Z0",
    "result": []
  },
  {
    "postal": "L7R9H6",
    "result": []
  },
  {
    "postal": "L7R1B4",
    "result": [
      {
        "electoralDistricts": [
          {
            "election": null,
            "id": 15,
            "name": "Burlington"
          }
        ],
        "pollDivisionIds": [
          10137352
        ],
        "postalCode": "L7R1B4",
        "streetName": "LAKESHORE",
        "streetDirectionId": null,
        "streetTypeId": "RD",
        "placeName": "BURLINGTON",
        "streetNameDisplayText": "LAKESHORE RD, BURLINGTON"
      }
    ]
  },
  {
    "postal": "L7R1A0",
    "result": []
  },
  {
    "postal": "L7R9A0",
    "result": []
  },
  {
    "postal": "L7R1M6",
    "result": [
      {
        "electoralDistricts": [
          {
            "election": null,
            "id": 15,
            "name": "Burlington"
          }
        ],
        "pollDivisionIds": [
          10137351
        ],
        "postalCode": "L7R1M6",
        "streetName": "CAROLINE",
        "streetDirectionId": null,
        "streetTypeId": "ST",
        "placeName": "BURLINGTON",
        "streetNameDisplayText": "CAROLINE ST, BURLINGTON"
      }
    ]
  },
  {
    "postal": "L7R5H0",
    "result": []
  },
  {
    "postal": "L7R1K6",
    "result": []
  },
  {
    "postal": "L7R5E1",
    "result": []
  },
  {
    "postal": "L7R3T9",
    "result": [
      {
        "electoralDistricts": [
          {
            "election": null,
            "id": 15,
            "name": "Burlington"
          }
        ],
        "pollDivisionIds": [
          10137349
        ],
        "postalCode": "L7R3T9",
        "streetName": "HIGHLAND",
        "streetDirectionId": null,
        "streetTypeId": "ST",
        "placeName": "BURLINGTON",
        "streetNameDisplayText": "HIGHLAND ST, BURLINGTON"
      }
    ]
  },
  {
    "postal": "L7R2M6",
    "result": [
      {
        "electoralDistricts": [
          {
            "election": null,
            "id": 15,
            "name": "Burlington"
          }
        ],
        "pollDivisionIds": [
          10137353
        ],
        "postalCode": "L7R2M6",
        "streetName": "COURTLAND",
        "streetDirectionId": null,
        "streetTypeId": "PL",
        "placeName": "BURLINGTON",
        "streetNameDisplayText": "COURTLAND PL, BURLINGTON"
      }
    ]
  },
  {
    "postal": "L7R0G5",
    "result": []
  },
  {
    "postal": "L7R0Y2",
    "result": []
  },
  {
    "postal": "L7R2Y7",
    "result": [
      {
        "electoralDistricts": [
          {
            "election": null,
            "id": 15,
            "name": "Burlington"
          }
        ],
        "pollDivisionIds": [
          10137352
        ],
        "postalCode": "L7R2Y7",
        "streetName": "NEWBOLD",
        "streetDirectionId": null,
        "streetTypeId": "DR",
        "placeName": "BURLINGTON",
        "streetNameDisplayText": "NEWBOLD DR, BURLINGTON"
      }
    ]
  },
  {
    "postal": "L7R2J7",
    "result": [
      {
        "electoralDistricts": [
          {
            "election": null,
            "id": 15,
            "name": "Burlington"
          }
        ],
        "pollDivisionIds": [
          10137354
        ],
        "postalCode": "L7R2J7",
        "streetName": "BRANT",
        "streetDirectionId": null,
        "streetTypeId": "ST",
        "placeName": "BURLINGTON",
        "streetNameDisplayText": "BRANT ST, BURLINGTON"
      }
    ]
  },
  {
    "postal": "L7R4K7",
    "result": []
  },
  {
    "postal": "L7R7P9",
    "result": []
  },
  {
    "postal": "L7R8X0",
    "result": []
  },
  {
    "postal": "L7R3X1",
    "result": [
      {
        "electoralDistricts": [
          {
            "election": null,
            "id": 15,
            "name": "Burlington"
          }
        ],
        "pollDivisionIds": [
          10137349
        ],
        "postalCode": "L7R3X1",
        "streetName": "HAZEL",
        "streetDirectionId": null,
        "streetTypeId": "ST",
        "placeName": "BURLINGTON",
        "streetNameDisplayText": "HAZEL ST, BURLINGTON"
      }
    ]
  },
  {
    "postal": "L7R1R5",
    "result": [
      {
        "electoralDistricts": [
          {
            "election": null,
            "id": 15,
            "name": "Burlington"
          }
        ],
        "pollDivisionIds": [
          10137353
        ],
        "postalCode": "L7R1R5",
        "streetName": "VICTORIA",
        "streetDirectionId": null,
        "streetTypeId": "AVE",
        "placeName": "BURLINGTON",
        "streetNameDisplayText": "VICTORIA AVE, BURLINGTON"
      }
    ]
  },
  {
    "postal": "L7R6X6",
    "result": []
  },
  {
    "postal": "L7R0Y1",
    "result": []
  },
  {
    "postal": "L7R8G1",
    "result": []
  },
  {
    "postal": "L7R3J3",
    "result": [
      {
        "electoralDistricts": [
          {
            "election": null,
            "id": 15,
            "name": "Burlington"
          }
        ],
        "pollDivisionIds": [
          10137351
        ],
        "postalCode": "L7R3J3",
        "streetName": "KAREN",
        "streetDirectionId": null,
        "streetTypeId": "DR",
        "placeName": "BURLINGTON",
        "streetNameDisplayText": "KAREN DR, BURLINGTON"
      }
    ]
  },
  {
    "postal": "L7R8C2",
    "result": []
  },
  {
    "postal": "L7R4X9",
    "result": []
  },
  {
    "postal": "L7R6G9",
    "result": []
  },
  {
    "postal": "L7R4M3",
    "result": []
  },
  {
    "postal": "L7R9P7",
    "result": []
  },
  {
    "postal": "L7R4E5",
    "result": [
      {
        "electoralDistricts": [
          {
            "election": null,
            "id": 15,
            "name": "Burlington"
          }
        ],
        "pollDivisionIds": [
          10137350
        ],
        "postalCode": "L7R4E5",
        "streetName": "ARGON",
        "streetDirectionId": null,
        "streetTypeId": "CRT",
        "placeName": "BURLINGTON",
        "streetNameDisplayText": "ARGON CRT, BURLINGTON"
      }
    ]
  },
  {
    "postal": "L7R5K9",
    "result": []
  },
  {
    "postal": "L7R2V2",
    "result": [
      {
        "electoralDistricts": [
          {
            "election": null,
            "id": 15,
            "name": "Burlington"
          }
        ],
        "pollDivisionIds": [
          10137351
        ],
        "postalCode": "L7R2V2",
        "streetName": "BRIDGMAN",
        "streetDirectionId": null,
        "streetTypeId": "AVE",
        "placeName": "BURLINGTON",
        "streetNameDisplayText": "BRIDGMAN AVE, BURLINGTON"
      }
    ]
  },
  {
    "postal": "L7R2N9",
    "result": [
      {
        "electoralDistricts": [
          {
            "election": null,
            "id": 15,
            "name": "Burlington"
          }
        ],
        "pollDivisionIds": [
          10137353
        ],
        "postalCode": "L7R2N9",
        "streetName": "EMERALD",
        "streetDirectionId": null,
        "streetTypeId": "ST",
        "placeName": "BURLINGTON",
        "streetNameDisplayText": "EMERALD ST, BURLINGTON"
      }
    ]
  },
  {
    "postal": "L7R6L4",
    "result": []
  },
  {
    "postal": "L7R8E0",
    "result": []
  },
  {
    "postal": "L7R0N0",
    "result": []
  },
  {
    "postal": "L7R6R0",
    "result": []
  },
  {
    "postal": "L7R9C1",
    "result": []
  },
  {
    "postal": "L7R4H4",
    "result": [
      {
        "electoralDistricts": [
          {
            "election": null,
            "id": 15,
            "name": "Burlington"
          }
        ],
        "pollDivisionIds": [
          10137349
        ],
        "postalCode": "L7R4H4",
        "streetName": "GLENWOOD SCHOOL",
        "streetDirectionId": null,
        "streetTypeId": "DR",
        "placeName": "BURLINGTON",
        "streetNameDisplayText": "GLENWOOD SCHOOL DR, BURLINGTON"
      }
    ]
  },
  {
    "postal": "L7R5W3",
    "result": []
  },
  {
    "postal": "L7R9N9",
    "result": []
  },
  {
    "postal": "L7R1V7",
    "result": [
      {
        "electoralDistricts": [
          {
            "election": null,
            "id": 15,
            "name": "Burlington"
          }
        ],
        "pollDivisionIds": [
          10137350
        ],
        "postalCode": "L7R1V7",
        "streetName": "YORKSHIRE",
        "streetDirectionId": null,
        "streetTypeId": "CRES",
        "placeName": "BURLINGTON",
        "streetNameDisplayText": "YORKSHIRE CRES, BURLINGTON"
      }
    ]
  },
  {
    "postal": "L7R8J1",
    "result": []
  },
  {
    "postal": "L7R5V9",
    "result": []
  },
  {
    "postal": "L7R2S8",
    "result": [
      {
        "electoralDistricts": [
          {
            "election": null,
            "id": 15,
            "name": "Burlington"
          }
        ],
        "pollDivisionIds": [
          10137353
        ],
        "postalCode": "L7R2S8",
        "streetName": "WATERLOO",
        "streetDirectionId": null,
        "streetTypeId": "ST",
        "placeName": "BURLINGTON",
        "streetNameDisplayText": "WATERLOO ST, BURLINGTON"
      }
    ]
  },
  {
    "postal": "L7R6P0",
    "result": []
  },
  {
    "postal": "L7R4J8",
    "result": [
      {
        "electoralDistricts": [
          {
            "election": null,
            "id": 15,
            "name": "Burlington"
          }
        ],
        "pollDivisionIds": [
          10137353
        ],
        "postalCode": "L7R4J8",
        "streetName": "PEARL",
        "streetDirectionId": null,
        "streetTypeId": "ST",
        "placeName": "BURLINGTON",
        "streetNameDisplayText": "PEARL ST, BURLINGTON"
      }
    ]
  },
  {
    "postal": "L7R0N1",
    "result": []
  },
  {
    "postal": "L7R1Y7",
    "result": [
      {
        "electoralDistricts": [
          {
            "election": null,
            "id": 15,
            "name": "Burlington"
          }
        ],
        "pollDivisionIds": [
          10137350
        ],
        "postalCode": "L7R1Y7",
        "streetName": "GHENT",
        "streetDirectionId": null,
        "streetTypeId": "AVE",
        "placeName": "BURLINGTON",
        "streetNameDisplayText": "GHENT AVE, BURLINGTON"
      }
    ]
  },
  {
    "postal": "L7R7W5",
    "result": []
  },
  {
    "postal": "L7R3Z1",
    "result": []
  },
  {
    "postal": "L7R7M6",
    "result": []
  },
  {
    "postal": "L7R1W7",
    "result": [
      {
        "electoralDistricts": [
          {
            "election": null,
            "id": 15,
            "name": "Burlington"
          }
        ],
        "pollDivisionIds": [
          10137351
        ],
        "postalCode": "L7R1W7",
        "streetName": "SHARRON",
        "streetDirectionId": null,
        "streetTypeId": "ST",
        "placeName": "BURLINGTON",
        "streetNameDisplayText": "SHARRON ST, BURLINGTON"
      }
    ]
  },
  {
    "postal": "L7R1X1",
    "result": [
      {
        "electoralDistricts": [
          {
            "election": null,
            "id": 15,
            "name": "Burlington"
          }
        ],
        "pollDivisionIds": [
          10137350
        ],
        "postalCode": "L7R1X1",
        "streetName": "CLARENDON PARK",
        "streetDirectionId": null,
        "streetTypeId": "DR",
        "placeName": "BURLINGTON",
        "streetNameDisplayText": "CLARENDON PARK DR, BURLINGTON"
      }
    ]
  },
  {
    "postal": "L7R0C1",
    "result": []
  },
  {
    "postal": "L7R4N3",
    "result": []
  },
  {
    "postal": "L7R4S8",
    "result": []
  },
  {
    "postal": "L7R1H6",
    "result": [
      {
        "electoralDistricts": [
          {
            "election": null,
            "id": 15,
            "name": "Burlington"
          }
        ],
        "pollDivisionIds": [
          10137353
        ],
        "postalCode": "L7R1H6",
        "streetName": "JAMES",
        "streetDirectionId": null,
        "streetTypeId": "ST",
        "placeName": "BURLINGTON",
        "streetNameDisplayText": "JAMES ST, BURLINGTON"
      }
    ]
  },
  {
    "postal": "L7R2Z4",
    "result": [
      {
        "electoralDistricts": [
          {
            "election": null,
            "id": 15,
            "name": "Burlington"
          }
        ],
        "pollDivisionIds": [
          10137351
        ],
        "postalCode": "L7R2Z4",
        "streetName": "ASHLEY",
        "streetDirectionId": null,
        "streetTypeId": "AVE",
        "placeName": "BURLINGTON",
        "streetNameDisplayText": "ASHLEY AVE, BURLINGTON"
      }
    ]
  },
  {
    "postal": "L7R7K3",
    "result": []
  },
  {
    "postal": "L7R8A2",
    "result": []
  },
  {
    "postal": "L7R6J1",
    "result": []
  },
  {
    "postal": "L7R5Z6",
    "result": []
  },
  {
    "postal": "L7R3Z0",
    "result": []
  },
  {
    "postal": "L7R8M0",
    "result": []
  },
  {
    "postal": "L7R1Z6",
    "result": [
      {
        "electoralDistricts": [
          {
            "election": null,
            "id": 15,
            "name": "Burlington"
          }
        ],
        "pollDivisionIds": [
          10137350
        ],
        "postalCode": "L7R1Z6",
        "streetName": "PROSPECT",
        "streetDirectionId": null,
        "streetTypeId": "ST",
        "placeName": "BURLINGTON",
        "streetNameDisplayText": "PROSPECT ST, BURLINGTON"
      }
    ]
  },
  {
    "postal": "L7R8K7",
    "result": []
  },
  {
    "postal": "L7R1N3",
    "result": [
      {
        "electoralDistricts": [
          {
            "election": null,
            "id": 15,
            "name": "Burlington"
          }
        ],
        "pollDivisionIds": [
          10137353
        ],
        "postalCode": "L7R1N3",
        "streetName": "EMERALD",
        "streetDirectionId": null,
        "streetTypeId": "CRES",
        "placeName": "BURLINGTON",
        "streetNameDisplayText": "EMERALD CRES, BURLINGTON"
      }
    ]
  },
  {
    "postal": "L7R9S2",
    "result": []
  },
  {
    "postal": "L7R2K1",
    "result": [
      {
        "electoralDistricts": [
          {
            "election": null,
            "id": 15,
            "name": "Burlington"
          }
        ],
        "pollDivisionIds": [
          10137349
        ],
        "postalCode": "L7R2K1",
        "streetName": "BRANT",
        "streetDirectionId": null,
        "streetTypeId": "ST",
        "placeName": "BURLINGTON",
        "streetNameDisplayText": "BRANT ST, BURLINGTON"
      }
    ]
  },
  {
    "postal": "L7R1E8",
    "result": []
  },
  {
    "postal": "L7R9B8",
    "result": []
  },
  {
    "postal": "L7R7X4",
    "result": []
  },
  {
    "postal": "L7R1Z4",
    "result": [
      {
        "electoralDistricts": [
          {
            "election": null,
            "id": 15,
            "name": "Burlington"
          }
        ],
        "pollDivisionIds": [
          10137350
        ],
        "postalCode": "L7R1Z4",
        "streetName": "PROSPECT",
        "streetDirectionId": null,
        "streetTypeId": "ST",
        "placeName": "BURLINGTON",
        "streetNameDisplayText": "PROSPECT ST, BURLINGTON"
      }
    ]
  },
  {
    "postal": "L7R2C7",
    "result": [
      {
        "electoralDistricts": [
          {
            "election": null,
            "id": 15,
            "name": "Burlington"
          }
        ],
        "pollDivisionIds": [
          10137350
        ],
        "postalCode": "L7R2C7",
        "streetName": "MAPLEWOOD",
        "streetDirectionId": null,
        "streetTypeId": "DR",
        "placeName": "BURLINGTON",
        "streetNameDisplayText": "MAPLEWOOD DR, BURLINGTON"
      }
    ]
  },
  {
    "postal": "L7R2E7",
    "result": [
      {
        "electoralDistricts": [
          {
            "election": null,
            "id": 15,
            "name": "Burlington"
          }
        ],
        "pollDivisionIds": [
          10137353
        ],
        "postalCode": "L7R2E7",
        "streetName": "BRANT",
        "streetDirectionId": null,
        "streetTypeId": "ST",
        "placeName": "BURLINGTON",
        "streetNameDisplayText": "BRANT ST, BURLINGTON"
      }
    ]
  },
  {
    "postal": "L7R3R1",
    "result": []
  },
  {
    "postal": "L7R4K4",
    "result": []
  },
  {
    "postal": "L7R9G3",
    "result": []
  },
  {
    "postal": "L7R6C9",
    "result": []
  },
  {
    "postal": "L7R9H5",
    "result": []
  },
  {
    "postal": "L7R1P5",
    "result": [
      {
        "electoralDistricts": [
          {
            "election": null,
            "id": 15,
            "name": "Burlington"
          }
        ],
        "pollDivisionIds": [
          10137353
        ],
        "postalCode": "L7R1P5",
        "streetName": "WELLINGTON",
        "streetDirectionId": null,
        "streetTypeId": "AVE",
        "placeName": "BURLINGTON",
        "streetNameDisplayText": "WELLINGTON AVE, BURLINGTON"
      }
    ]
  },
  {
    "postal": "L7R2J5",
    "result": [
      {
        "electoralDistricts": [
          {
            "election": null,
            "id": 15,
            "name": "Burlington"
          }
        ],
        "pollDivisionIds": [
          10137354
        ],
        "postalCode": "L7R2J5",
        "streetName": "BRANT",
        "streetDirectionId": null,
        "streetTypeId": "ST",
        "placeName": "BURLINGTON",
        "streetNameDisplayText": "BRANT ST, BURLINGTON"
      }
    ]
  },
  {
    "postal": "L7R4W6",
    "result": []
  },
  {
    "postal": "L7R8M8",
    "result": []
  },
  {
    "postal": "L7R6C5",
    "result": []
  },
  {
    "postal": "L7R9H0",
    "result": []
  },
  {
    "postal": "L7R1X8",
    "result": [
      {
        "electoralDistricts": [
          {
            "election": null,
            "id": 15,
            "name": "Burlington"
          }
        ],
        "pollDivisionIds": [
          10137351
        ],
        "postalCode": "L7R1X8",
        "streetName": "REDFERN",
        "streetDirectionId": null,
        "streetTypeId": "RD",
        "placeName": "BURLINGTON",
        "streetNameDisplayText": "REDFERN RD, BURLINGTON"
      }
    ]
  },
  {
    "postal": "L7R3H4",
    "result": [
      {
        "electoralDistricts": [
          {
            "election": null,
            "id": 15,
            "name": "Burlington"
          }
        ],
        "pollDivisionIds": [
          10137351
        ],
        "postalCode": "L7R3H4",
        "streetName": "PERRY",
        "streetDirectionId": null,
        "streetTypeId": "DR",
        "placeName": "BURLINGTON",
        "streetNameDisplayText": "PERRY DR, BURLINGTON"
      }
    ]
  },
  {
    "postal": "L7R4E7",
    "result": []
  },
  {
    "postal": "L7R8A0",
    "result": []
  },
  {
    "postal": "L7R1Z7",
    "result": [
      {
        "electoralDistricts": [
          {
            "election": null,
            "id": 15,
            "name": "Burlington"
          }
        ],
        "pollDivisionIds": [
          10137350
        ],
        "postalCode": "L7R1Z7",
        "streetName": "PROSPECT",
        "streetDirectionId": null,
        "streetTypeId": "ST",
        "placeName": "BURLINGTON",
        "streetNameDisplayText": "PROSPECT ST, BURLINGTON"
      }
    ]
  },
  {
    "postal": "L7R7Z3",
    "result": []
  },
  {
    "postal": "L7R0L7",
    "result": []
  },
  {
    "postal": "L7R2C6",
    "result": [
      {
        "electoralDistricts": [
          {
            "election": null,
            "id": 15,
            "name": "Burlington"
          }
        ],
        "pollDivisionIds": [
          10137350
        ],
        "postalCode": "L7R2C6",
        "streetName": "MAPLEWOOD",
        "streetDirectionId": null,
        "streetTypeId": "DR",
        "placeName": "BURLINGTON",
        "streetNameDisplayText": "MAPLEWOOD DR, BURLINGTON"
      }
    ]
  },
  {
    "postal": "L7R6M3",
    "result": []
  },
  {
    "postal": "L7R2J1",
    "result": []
  },
  {
    "postal": "L7R3E3",
    "result": [
      {
        "electoralDistricts": [
          {
            "election": null,
            "id": 15,
            "name": "Burlington"
          }
        ],
        "pollDivisionIds": [
          10137352
        ],
        "postalCode": "L7R3E3",
        "streetName": "GREEN",
        "streetDirectionId": null,
        "streetTypeId": "ST",
        "placeName": "BURLINGTON",
        "streetNameDisplayText": "GREEN ST, BURLINGTON"
      }
    ]
  },
  {
    "postal": "L7R6Z9",
    "result": []
  },
  {
    "postal": "L7R3M3",
    "result": [
      {
        "electoralDistricts": [
          {
            "election": null,
            "id": 15,
            "name": "Burlington"
          }
        ],
        "pollDivisionIds": [
          10137338
        ],
        "postalCode": "L7R3M3",
        "streetName": "GUELPH",
        "streetDirectionId": null,
        "streetTypeId": "LINE",
        "placeName": "BURLINGTON",
        "streetNameDisplayText": "GUELPH LINE, BURLINGTON"
      }
    ]
  },
  {
    "postal": "L7R9B1",
    "result": []
  },
  {
    "postal": "L7R9J5",
    "result": []
  },
  {
    "postal": "L7R4V8",
    "result": []
  },
  {
    "postal": "L7R6W2",
    "result": []
  },
  {
    "postal": "L7R0V5",
    "result": []
  },
  {
    "postal": "L7R0Z8",
    "result": []
  },
  {
    "postal": "L7R5G2",
    "result": []
  },
  {
    "postal": "L7R4N4",
    "result": []
  },
  {
    "postal": "L7R8G7",
    "result": []
  },
  {
    "postal": "L7R8W1",
    "result": []
  },
  {
    "postal": "L7R1S6",
    "result": [
      {
        "electoralDistricts": [
          {
            "election": null,
            "id": 15,
            "name": "Burlington"
          }
        ],
        "pollDivisionIds": [
          10137351
        ],
        "postalCode": "L7R1S6",
        "streetName": "COURTLAND",
        "streetDirectionId": null,
        "streetTypeId": "DR",
        "placeName": "BURLINGTON",
        "streetNameDisplayText": "COURTLAND DR, BURLINGTON"
      }
    ]
  },
  {
    "postal": "L7R4E0",
    "result": []
  },
  {
    "postal": "L7R4L9",
    "result": []
  },
  {
    "postal": "L7R5Z9",
    "result": []
  },
  {
    "postal": "L7R5V3",
    "result": []
  },
  {
    "postal": "L7R4V2",
    "result": []
  },
  {
    "postal": "L7R7C0",
    "result": []
  },
  {
    "postal": "L7R6L0",
    "result": []
  },
  {
    "postal": "L7R1S9",
    "result": [
      {
        "electoralDistricts": [
          {
            "election": null,
            "id": 15,
            "name": "Burlington"
          }
        ],
        "pollDivisionIds": [
          10137351
        ],
        "postalCode": "L7R1S9",
        "streetName": "WAGNER",
        "streetDirectionId": null,
        "streetTypeId": "CRES",
        "placeName": "BURLINGTON",
        "streetNameDisplayText": "WAGNER CRES, BURLINGTON"
      }
    ]
  },
  {
    "postal": "L7R7R6",
    "result": []
  },
  {
    "postal": "L7R7J0",
    "result": []
  },
  {
    "postal": "L7R5M0",
    "result": []
  },
  {
    "postal": "L7R2E5",
    "result": []
  },
  {
    "postal": "L7R7C7",
    "result": []
  },
  {
    "postal": "L7R5C0",
    "result": []
  },
  {
    "postal": "L7R8V9",
    "result": []
  },
  {
    "postal": "L7R7E0",
    "result": []
  },
  {
    "postal": "L7R6R4",
    "result": []
  },
  {
    "postal": "L7R3Z7",
    "result": []
  },
  {
    "postal": "L7R1J9",
    "result": [
      {
        "electoralDistricts": [
          {
            "election": null,
            "id": 15,
            "name": "Burlington"
          }
        ],
        "pollDivisionIds": [
          10137351
        ],
        "postalCode": "L7R1J9",
        "streetName": "NEW",
        "streetDirectionId": null,
        "streetTypeId": "ST",
        "placeName": "BURLINGTON",
        "streetNameDisplayText": "NEW ST, BURLINGTON"
      }
    ]
  },
  {
    "postal": "L7R7K6",
    "result": []
  },
  {
    "postal": "L7R7Y5",
    "result": []
  },
  {
    "postal": "L7R1B7",
    "result": [
      {
        "electoralDistricts": [
          {
            "election": null,
            "id": 15,
            "name": "Burlington"
          }
        ],
        "pollDivisionIds": [
          10137352
        ],
        "postalCode": "L7R1B7",
        "streetName": "LAKESHORE",
        "streetDirectionId": null,
        "streetTypeId": "RD",
        "placeName": "BURLINGTON",
        "streetNameDisplayText": "LAKESHORE RD, BURLINGTON"
      }
    ]
  },
  {
    "postal": "L7R4S9",
    "result": []
  },
  {
    "postal": "L7R9R9",
    "result": []
  },
  {
    "postal": "L7R5K7",
    "result": []
  },
  {
    "postal": "L7R6P2",
    "result": []
  },
  {
    "postal": "L7R2C5",
    "result": [
      {
        "electoralDistricts": [
          {
            "election": null,
            "id": 15,
            "name": "Burlington"
          }
        ],
        "pollDivisionIds": [
          10137350
        ],
        "postalCode": "L7R2C5",
        "streetName": "MAPLEWOOD",
        "streetDirectionId": null,
        "streetTypeId": "DR",
        "placeName": "BURLINGTON",
        "streetNameDisplayText": "MAPLEWOOD DR, BURLINGTON"
      }
    ]
  },
  {
    "postal": "L7R2N0",
    "result": []
  },
  {
    "postal": "L7R1G0",
    "result": []
  },
  {
    "postal": "L7R4K5",
    "result": []
  },
  {
    "postal": "L7R9B5",
    "result": []
  },
  {
    "postal": "L7R6T5",
    "result": []
  },
  {
    "postal": "L7R1N8",
    "result": [
      {
        "electoralDistricts": [
          {
            "election": null,
            "id": 15,
            "name": "Burlington"
          }
        ],
        "pollDivisionIds": [
          10137351
        ],
        "postalCode": "L7R1N8",
        "streetName": "EDITH",
        "streetDirectionId": null,
        "streetTypeId": "AVE",
        "placeName": "BURLINGTON",
        "streetNameDisplayText": "EDITH AVE, BURLINGTON"
      }
    ]
  },
  {
    "postal": "L7R0C0",
    "result": []
  },
  {
    "postal": "L7R0R9",
    "result": []
  },
  {
    "postal": "L7R7L1",
    "result": []
  },
  {
    "postal": "L7R3Y8",
    "result": []
  },
  {
    "postal": "L7R7X9",
    "result": []
  },
  {
    "postal": "L7R1A7",
    "result": [
      {
        "electoralDistricts": [
          {
            "election": null,
            "id": 15,
            "name": "Burlington"
          }
        ],
        "pollDivisionIds": [
          10137352
        ],
        "postalCode": "L7R1A7",
        "streetName": "LAKAESHORE",
        "streetDirectionId": null,
        "streetTypeId": "RD",
        "placeName": "BURLIGTON",
        "streetNameDisplayText": "LAKAESHORE RD, BURLIGTON"
      },
      {
        "electoralDistricts": [
          {
            "election": null,
            "id": 15,
            "name": "Burlington"
          }
        ],
        "pollDivisionIds": [
          10137352
        ],
        "postalCode": "L7R1A7",
        "streetName": "LAKESHORE",
        "streetDirectionId": null,
        "streetTypeId": "RD",
        "placeName": "BURLIGTON",
        "streetNameDisplayText": "LAKESHORE RD, BURLIGTON"
      },
      {
        "electoralDistricts": [
          {
            "election": null,
            "id": 15,
            "name": "Burlington"
          }
        ],
        "pollDivisionIds": [
          10137352,
          10137353
        ],
        "postalCode": "L7R1A7",
        "streetName": "LAKESHORE",
        "streetDirectionId": null,
        "streetTypeId": "RD",
        "placeName": "BURLINGTON",
        "streetNameDisplayText": "LAKESHORE RD, BURLINGTON"
      }
    ]
  },
  {
    "postal": "L7R2T9",
    "result": [
      {
        "electoralDistricts": [
          {
            "election": null,
            "id": 15,
            "name": "Burlington"
          }
        ],
        "pollDivisionIds": [
          10137351,
          10137352
        ],
        "postalCode": "L7R2T9",
        "streetName": "SMITH",
        "streetDirectionId": null,
        "streetTypeId": "AVE",
        "placeName": "BURLINGTON",
        "streetNameDisplayText": "SMITH AVE, BURLINGTON"
      }
    ]
  },
  {
    "postal": "L7R2E6",
    "result": []
  },
  {
    "postal": "L7R8Y1",
    "result": []
  },
  {
    "postal": "L7R0J5",
    "result": []
  },
  {
    "postal": "L7R4J1",
    "result": [
      {
        "electoralDistricts": [
          {
            "election": null,
            "id": 15,
            "name": "Burlington"
          }
        ],
        "pollDivisionIds": [
          10137354
        ],
        "postalCode": "L7R4J1",
        "streetName": "BRANT",
        "streetDirectionId": null,
        "streetTypeId": "ST",
        "placeName": "BURLINGTON",
        "streetNameDisplayText": "BRANT ST, BURLINGTON"
      }
    ]
  },
  {
    "postal": "L7R1A5",
    "result": [
      {
        "electoralDistricts": [
          {
            "election": null,
            "id": 15,
            "name": "Burlington"
          }
        ],
        "pollDivisionIds": [
          10137352
        ],
        "postalCode": "L7R1A5",
        "streetName": "LAKESHORE",
        "streetDirectionId": null,
        "streetTypeId": "RD",
        "placeName": "BURLINGTON",
        "streetNameDisplayText": "LAKESHORE RD, BURLINGTON"
      }
    ]
  },
  {
    "postal": "L7R6Z6",
    "result": []
  },
  {
    "postal": "L7R5K4",
    "result": []
  },
  {
    "postal": "L7R7R9",
    "result": []
  },
  {
    "postal": "L7R6G4",
    "result": []
  }
]
